{
  "type": "FeatureCollection",
  "features": [
    {
      "type": "Feature",
      "geometry": {
        "type": "LineString",
        "coordinates": [
          [
            139.6159906,
            37.1080824,
            947.1
          ],
          [
            139.61619636773926,
            37.10815533088031,
            947.0
          ],
          [
            139.61640213547852,
            37.108228261760615,
            947.6
          ],
          [
            139.61660790321778,
            37.10830119264092,
            948.4
          ],
          [
            139.61681367095704,
            37.10837412352123,
            949.2
          ],
          [
            139.61701943869627,
            37.10844705440154,
            950.0
          ],
          [
            139.61722520643553,
            37.108519985281845,
            949.9
          ],
          [
            139.6174309741748,
            37.10859291616215,
            951.2
          ],
          [
            139.61763674191405,
            37.10866584704246,
            953.6
          ],
          [
            139.61784250965331,
            37.10873877792277,
            956.6
          ],
          [
            139.61804827739257,
            37.108811708803074,
            957.9
          ],
          [
            139.61825404513183,
            37.10888463968338,
            959.8
          ],
          [
            139.6184598128711,
            37.10895757056369,
            965.2
          ],
          [
            139.61866558061035,
            37.109030501443996,
            969.8
          ],
          [
            139.61887134834961,
            37.109103432324304,
            972.5
          ],
          [
            139.61907711608885,
            37.10917636320461,
            974.3
          ],
          [
            139.6192828838281,
            37.10924929408492,
            976.1
          ],
          [
            139.61948865156737,
            37.109322224965226,
            977.5
          ],
          [
            139.61969441930663,
            37.10939515584553,
            979.6
          ],
          [
            139.61990018704589,
            37.10946808672584,
            982.2
          ],
          [
            139.62010595478515,
            37.10954101760615,
            984.9
          ],
          [
            139.6203117225244,
            37.109613948486455,
            988.0
          ],
          [
            139.62051749026367,
            37.10968687936676,
            990.6
          ],
          [
            139.62072325800293,
            37.10975981024707,
            994.2
          ],
          [
            139.62092902574219,
            37.10983274112738,
            997.0
          ],
          [
            139.62113479348142,
            37.109905672007685,
            1000.4
          ],
          [
            139.62134056122068,
            37.109978602887985,
            1002.6
          ],
          [
            139.62154632895994,
            37.11005153376829,
            1004.9
          ],
          [
            139.6217520966992,
            37.1101244646486,
            1008.1
          ],
          [
            139.62195786443846,
            37.11019739552891,
            1013.2
          ],
          [
            139.62216363217772,
            37.110270326409214,
            1016.3
          ],
          [
            139.62236939991698,
            37.11034325728952,
            1021.7
          ],
          [
            139.62257516765624,
            37.11041618816983,
            1027.5
          ],
          [
            139.6227809353955,
            37.110489119050136,
            1032.2
          ],
          [
            139.62298670313476,
            37.110562049930444,
            1035.7
          ],
          [
            139.623192470874,
            37.11063498081075,
            1039.8
          ],
          [
            139.62339823861325,
            37.11070791169106,
            1046.2
          ],
          [
            139.6236040063525,
            37.110780842571366,
            1049.7
          ],
          [
            139.62380977409177,
            37.11085377345167,
            1056.6
          ],
          [
            139.62401554183103,
            37.11092670433198,
            1059.1
          ],
          [
            139.6242213095703,
            37.11099963521229,
            1059.7
          ],
          [
            139.62442707730955,
            37.111072566092595,
            1064.1
          ],
          [
            139.6246328450488,
            37.1111454969729,
            1072.9
          ],
          [
            139.62483861278807,
            37.11121842785321,
            1077.7
          ],
          [
            139.62504438052733,
            37.11129135873352,
            1081.9
          ],
          [
            139.62525014826656,
            37.111364289613824,
            1085.5
          ],
          [
            139.62545591600582,
            37.11143722049413,
            1086.2
          ],
          [
            139.62566168374508,
            37.11151015137444,
            1087.0
          ],
          [
            139.62586745148434,
            37.11158308225475,
            1085.8
          ],
          [
            139.6260732192236,
            37.111656013135054,
            1086.8
          ],
          [
            139.62627898696286,
            37.11172894401536,
            1089.9
          ],
          [
            139.62648475470212,
            37.11180187489567,
            1090.4
          ],
          [
            139.62669052244138,
            37.111874805775976,
            1090.1
          ],
          [
            139.62689629018064,
            37.11194773665628,
            1090.8
          ],
          [
            139.6271020579199,
            37.11202066753659,
            1091.2
          ],
          [
            139.62730782565913,
            37.1120935984169,
            1091.4
          ],
          [
            139.6275135933984,
            37.112166529297205,
            1093.5
          ],
          [
            139.62771936113765,
            37.11223946017751,
            1095.8
          ],
          [
            139.6279251288769,
            37.11231239105782,
            1103.0
          ],
          [
            139.62813089661617,
            37.11238532193813,
            1112.4
          ],
          [
            139.62833666435543,
            37.112458252818435,
            1116.9
          ],
          [
            139.6285424320947,
            37.11253118369874,
            1121.0
          ],
          [
            139.62874819983395,
            37.11260411457905,
            1122.8
          ],
          [
            139.6289539675732,
            37.11267704545936,
            1122.6
          ],
          [
            139.62915973531247,
            37.112749976339664,
            1122.4
          ],
          [
            139.6293655030517,
            37.11282290721997,
            1123.1
          ],
          [
            139.62957127079096,
            37.11289583810028,
            1124.1
          ],
          [
            139.62977703853022,
            37.112968768980586,
            1127.2
          ],
          [
            139.62998280626948,
            37.113041699860894,
            1132.1
          ],
          [
            139.63018857400874,
            37.1131146307412,
            1138.0
          ],
          [
            139.630394341748,
            37.11318756162151,
            1143.8
          ],
          [
            139.63060010948726,
            37.113260492501816,
            1147.8
          ],
          [
            139.63080587722652,
            37.11333342338212,
            1152.6
          ],
          [
            139.63101164496578,
            37.11340635426243,
            1158.3
          ],
          [
            139.63121741270504,
            37.11347928514274,
            1164.3
          ],
          [
            139.63142318044427,
            37.113552216023045,
            1166.4
          ],
          [
            139.63162894818353,
            37.11362514690335,
            1171.3
          ],
          [
            139.6318347159228,
            37.11369807778366,
            1179.7
          ],
          [
            139.63204048366205,
            37.11377100866396,
            1186.6
          ],
          [
            139.6322462514013,
            37.11384393954427,
            1194.8
          ],
          [
            139.63245201914057,
            37.113916870424575,
            1199.3
          ],
          [
            139.63265778687983,
            37.11398980130488,
            1200.5
          ],
          [
            139.6327997,
            37.1140401,
            1204.1
          ]
        ]
      },
      "properties": {
        "name": "スカイロード1",
        "horizontal_dist_map": 1633,
        "slope_dist_map": 1664,
        "elevation_diff_map": 257.0,
        "resort": "aizu-kogen-takatsue",
        "speed": "高速",
        "type": "リフト",
        "hood": "○",
        "capacity": 4,
        "distance": 1675,
        "vertical": "",
        "top": "",
        "bottom": "",
        "footrest": "×",
        "towers": 32,
        "signal": "",
        "oilShield": "×",
        "maker": "安全索道",
        "year": "",
        "note": "",
        "searchWord": "会津高原たかつえ　スカイロード1",
        "status": "×",
        "update": "2025.03.30（日） 16:54現在",
        "latest_note": "スキー場営業時間　0:00〜0:00(予定)"
      }
    },
    {
      "type": "Feature",
      "geometry": {
        "type": "LineString",
        "coordinates": [
          [
            139.61687918125665,
            37.10768344310092,
            954.2
          ],
          [
            139.6170793017577,
            37.10776583335284,
            954.0
          ],
          [
            139.6172794222588,
            37.10784822360477,
            962.0
          ],
          [
            139.61747954275987,
            37.107930613856695,
            969.4
          ],
          [
            139.61767966326093,
            37.10801300410862,
            973.3
          ],
          [
            139.61787978376202,
            37.10809539436055,
            976.8
          ],
          [
            139.61807990426308,
            37.10817778461247,
            979.0
          ],
          [
            139.61828002476418,
            37.1082601748644,
            978.3
          ],
          [
            139.61848014526524,
            37.108342565116324,
            977.2
          ],
          [
            139.6186802657663,
            37.10842495536825,
            974.9
          ],
          [
            139.6188803862674,
            37.108507345620175,
            972.3
          ],
          [
            139.61908050676846,
            37.1085897358721,
            971.6
          ],
          [
            139.61928062726952,
            37.10867212612403,
            972.4
          ],
          [
            139.6194807477706,
            37.10875451637595,
            974.7
          ],
          [
            139.61968086827167,
            37.10883690662788,
            977.7
          ],
          [
            139.61988098877276,
            37.108919296879805,
            980.7
          ],
          [
            139.62008110927383,
            37.10900168713173,
            984.8
          ],
          [
            139.6202812297749,
            37.109084077383656,
            989.3
          ],
          [
            139.62048135027598,
            37.10916646763558,
            993.7
          ],
          [
            139.62068147077704,
            37.10924885788751,
            996.3
          ],
          [
            139.6208815912781,
            37.10933124813943,
            1000.7
          ],
          [
            139.6210817117792,
            37.10941363839136,
            1008.5
          ],
          [
            139.62128183228026,
            37.109496028643285,
            1013.0
          ],
          [
            139.62148195278132,
            37.10957841889521,
            1015.3
          ],
          [
            139.62168207328241,
            37.10966080914714,
            1015.7
          ],
          [
            139.62188219378348,
            37.10974319939906,
            1017.2
          ],
          [
            139.62208231428457,
            37.10982558965099,
            1016.4
          ],
          [
            139.62228243478563,
            37.109907979902914,
            1015.8
          ],
          [
            139.6224825552867,
            37.10999037015484,
            1017.5
          ],
          [
            139.6226826757878,
            37.110072760406766,
            1021.0
          ],
          [
            139.62288279628885,
            37.110155150658684,
            1023.4
          ],
          [
            139.6230829167899,
            37.11023754091061,
            1026.9
          ],
          [
            139.623283037291,
            37.110319931162536,
            1030.3
          ],
          [
            139.62348315779207,
            37.11040232141446,
            1033.0
          ],
          [
            139.62368327829313,
            37.11048471166639,
            1036.5
          ],
          [
            139.62388339879422,
            37.11056710191831,
            1040.0
          ],
          [
            139.62408351929528,
            37.11064949217024,
            1043.4
          ],
          [
            139.62428363979637,
            37.110731882422165,
            1046.2
          ],
          [
            139.62448376029744,
            37.11081427267409,
            1050.3
          ],
          [
            139.6246838807985,
            37.11089666292602,
            1056.1
          ],
          [
            139.6248840012996,
            37.11097905317794,
            1062.4
          ],
          [
            139.62508412180065,
            37.11106144342987,
            1068.6
          ],
          [
            139.62528424230172,
            37.111143833681794,
            1073.0
          ],
          [
            139.6254843628028,
            37.11122622393372,
            1081.5
          ],
          [
            139.62568448330387,
            37.111308614185646,
            1086.4
          ],
          [
            139.62588460380496,
            37.11139100443757,
            1089.9
          ],
          [
            139.62608472430603,
            37.1114733946895,
            1092.8
          ],
          [
            139.626194567305,
            37.11151861740436,
            1094.9
          ]
        ]
      },
      "properties": {
        "name": "スカイロード2",
        "horizontal_dist_map": 930,
        "slope_dist_map": 948,
        "elevation_diff_map": 140.7,
        "resort": "aizu-kogen-takatsue",
        "speed": "高速",
        "type": "リフト",
        "hood": "×",
        "capacity": 4,
        "distance": 886,
        "vertical": "",
        "top": "",
        "bottom": "",
        "footrest": "×",
        "towers": 17,
        "signal": "",
        "oilShield": "×",
        "maker": "日本ケーブル",
        "year": "",
        "note": "",
        "searchWord": "会津高原たかつえ　スカイロード2",
        "status": "×",
        "update": "2025.03.30（日） 16:54現在",
        "latest_note": "スキー場営業時間　0:00〜0:00(予定)"
      }
    },
    {
      "type": "Feature",
      "geometry": {
        "type": "LineString",
        "coordinates": [
          [
            139.6248766436487,
            37.11372616009733,
            1047.5
          ],
          [
            139.6251010970679,
            37.11373900623554,
            1047.9
          ],
          [
            139.62532555048708,
            37.11375185237375,
            1054.3
          ],
          [
            139.62555000390628,
            37.113764698511964,
            1058.9
          ],
          [
            139.6257744573255,
            37.11377754465018,
            1058.6
          ],
          [
            139.62599891074467,
            37.113790390788395,
            1062.5
          ],
          [
            139.62622336416388,
            37.11380323692661,
            1068.6
          ],
          [
            139.62644781758306,
            37.11381608306482,
            1073.2
          ],
          [
            139.62667227100226,
            37.11382892920303,
            1075.3
          ],
          [
            139.62689672442147,
            37.11384177534124,
            1077.1
          ],
          [
            139.62712117784065,
            37.113854621479454,
            1079.1
          ],
          [
            139.62734563125986,
            37.11386746761767,
            1081.7
          ],
          [
            139.62757008467906,
            37.113880313755885,
            1085.9
          ],
          [
            139.62779453809824,
            37.1138931598941,
            1088.1
          ],
          [
            139.62801899151745,
            37.11390600603231,
            1086.3
          ],
          [
            139.62824344493666,
            37.11391885217052,
            1088.1
          ],
          [
            139.62846789835584,
            37.11393169830873,
            1091.3
          ],
          [
            139.62869235177504,
            37.113944544446944,
            1093.5
          ],
          [
            139.62891680519422,
            37.11395739058516,
            1095.8
          ],
          [
            139.62914125861343,
            37.113970236723375,
            1098.7
          ],
          [
            139.62936571203264,
            37.11398308286159,
            1102.4
          ],
          [
            139.62959016545182,
            37.1139959289998,
            1106.4
          ],
          [
            139.62981461887102,
            37.11400877513801,
            1108.7
          ],
          [
            139.63003907229023,
            37.11402162127622,
            1113.5
          ],
          [
            139.6302635257094,
            37.114034467414434,
            1119.5
          ],
          [
            139.63048797912862,
            37.114047313552646,
            1127.5
          ],
          [
            139.6307124325478,
            37.114060159690865,
            1135.1
          ],
          [
            139.630936885967,
            37.11407300582908,
            1144.9
          ],
          [
            139.6311613393862,
            37.11408585196729,
            1154.3
          ],
          [
            139.6313857928054,
            37.1140986981055,
            1165.7
          ],
          [
            139.6316102462246,
            37.11411154424371,
            1172.4
          ],
          [
            139.6318346996438,
            37.114124390381924,
            1179.1
          ],
          [
            139.63205915306298,
            37.114137236520136,
            1185.2
          ],
          [
            139.6322836064822,
            37.114150082658355,
            1194.2
          ],
          [
            139.6324588679571,
            37.114160113394966,
            1198.9
          ]
        ]
      },
      "properties": {
        "name": "トリプル1",
        "horizontal_dist_map": 675,
        "slope_dist_map": 699,
        "elevation_diff_map": 151.4,
        "resort": "aizu-kogen-takatsue",
        "speed": "低速",
        "type": "リフト",
        "hood": "×",
        "capacity": 3,
        "distance": 680,
        "vertical": "",
        "top": "",
        "bottom": "",
        "footrest": "×",
        "towers": 12,
        "signal": "",
        "oilShield": "×",
        "maker": "日本ケーブル",
        "year": "",
        "note": "",
        "searchWord": "会津高原たかつえ　トリプル1",
        "status": "×",
        "update": "2025.03.30（日） 16:54現在",
        "latest_note": "スキー場営業時間　0:00〜0:00(予定)"
      }
    },
    {
      "type": "Feature",
      "geometry": {
        "type": "LineString",
        "coordinates": [
          [
            139.61700241777882,
            37.1104209790429,
            971.0
          ],
          [
            139.617187755986,
            37.11052317908371,
            971.8
          ],
          [
            139.61737309419317,
            37.110625379124514,
            975.6
          ],
          [
            139.61755843240036,
            37.110727579165314,
            977.6
          ],
          [
            139.61774377060752,
            37.11082977920612,
            979.3
          ],
          [
            139.6179291088147,
            37.11093197924693,
            980.6
          ],
          [
            139.61811444702187,
            37.111034179287735,
            982.5
          ],
          [
            139.61829978522906,
            37.11113637932854,
            984.4
          ],
          [
            139.61848512343622,
            37.11123857936935,
            984.4
          ],
          [
            139.6186704616434,
            37.11134077941015,
            986.3
          ],
          [
            139.6188557998506,
            37.111442979450956,
            989.2
          ],
          [
            139.61904113805775,
            37.11154517949176,
            990.4
          ],
          [
            139.61922647626494,
            37.11164737953257,
            992.7
          ],
          [
            139.6194118144721,
            37.11174957957338,
            995.7
          ],
          [
            139.6195971526793,
            37.111851779614184,
            997.1
          ],
          [
            139.61978249088645,
            37.111953979654984,
            998.9
          ],
          [
            139.61996782909364,
            37.11205617969579,
            1002.5
          ],
          [
            139.6201531673008,
            37.1121583797366,
            1005.9
          ],
          [
            139.620338505508,
            37.112260579777406,
            1007.8
          ],
          [
            139.62052384371518,
            37.11236277981821,
            1009.4
          ],
          [
            139.62070918192234,
            37.11246497985902,
            1010.0
          ],
          [
            139.62089452012953,
            37.11256717989982,
            1011.8
          ],
          [
            139.62107985833669,
            37.11266937994063,
            1013.6
          ],
          [
            139.62126519654387,
            37.112771579981434,
            1015.3
          ],
          [
            139.62145053475103,
            37.11287378002224,
            1016.7
          ],
          [
            139.62163587295822,
            37.11297598006305,
            1018.3
          ],
          [
            139.62182121116538,
            37.113078180103855,
            1020.1
          ],
          [
            139.62200654937257,
            37.113180380144655,
            1022.7
          ],
          [
            139.62219188757976,
            37.11328258018546,
            1026.0
          ],
          [
            139.62237722578692,
            37.11338478022627,
            1025.9
          ],
          [
            139.6225625639941,
            37.113486980267076,
            1027.7
          ],
          [
            139.62274790220127,
            37.11358918030788,
            1029.6
          ],
          [
            139.62293324040846,
            37.11369138034869,
            1032.2
          ],
          [
            139.62311857861562,
            37.11379358038949,
            1033.5
          ],
          [
            139.6233039168228,
            37.1138957804303,
            1037.0
          ],
          [
            139.62348925502997,
            37.113997980471105,
            1040.3
          ],
          [
            139.62367459323715,
            37.11410018051191,
            1043.2
          ],
          [
            139.62385993144434,
            37.11420238055272,
            1045.2
          ],
          [
            139.6240452696515,
            37.11430458059352,
            1048.4
          ],
          [
            139.6242306078587,
            37.114406780634326,
            1051.3
          ],
          [
            139.62441594606585,
            37.11450898067513,
            1054.3
          ],
          [
            139.62460128427304,
            37.11461118071594,
            1056.3
          ],
          [
            139.6247866224802,
            37.11471338075675,
            1059.1
          ],
          [
            139.6249719606874,
            37.114815580797554,
            1062.0
          ],
          [
            139.62515729889455,
            37.114917780838354,
            1064.0
          ],
          [
            139.6252335,
            37.1149598,
            1065.7
          ]
        ]
      },
      "properties": {
        "name": "第1ペア",
        "horizontal_dist_map": 888,
        "slope_dist_map": 894,
        "elevation_diff_map": 94.7,
        "resort": "aizu-kogen-takatsue",
        "speed": "低速",
        "type": "リフト",
        "hood": "×",
        "capacity": 2,
        "distance": 891,
        "vertical": "",
        "top": "",
        "bottom": "",
        "footrest": "×",
        "towers": 15,
        "signal": "",
        "oilShield": "×",
        "maker": "安全索道",
        "year": "",
        "note": "",
        "searchWord": "会津高原たかつえ　第1ペア",
        "status": "×",
        "update": "2025.03.30（日） 16:54現在",
        "latest_note": "スキー場営業時間　0:00〜0:00(予定)"
      }
    },
    {
      "type": "Feature",
      "geometry": {
        "type": "LineString",
        "coordinates": [
          [
            139.62500017013707,
            37.11531641994005,
            1064.0
          ],
          [
            139.62522480674366,
            37.115305776765034,
            1063.0
          ],
          [
            139.62544944335028,
            37.11529513359002,
            1062.6
          ],
          [
            139.62567407995687,
            37.115284490415,
            1067.5
          ],
          [
            139.62589871656346,
            37.11527384723998,
            1072.2
          ],
          [
            139.62612335317004,
            37.115263204064966,
            1075.6
          ],
          [
            139.62634798977666,
            37.11525256088994,
            1074.6
          ],
          [
            139.62657262638325,
            37.115241917714926,
            1072.1
          ],
          [
            139.62679726298984,
            37.11523127453991,
            1070.9
          ],
          [
            139.62702189959646,
            37.11522063136489,
            1075.6
          ],
          [
            139.62724653620305,
            37.115209988189875,
            1079.4
          ],
          [
            139.62747117280963,
            37.11519934501486,
            1087.0
          ],
          [
            139.62769580941622,
            37.11518870183984,
            1091.3
          ],
          [
            139.62792044602284,
            37.115178058664824,
            1091.8
          ],
          [
            139.62814508262943,
            37.11516741548981,
            1093.6
          ],
          [
            139.62836971923602,
            37.11515677231479,
            1095.7
          ],
          [
            139.62859435584264,
            37.11514612913977,
            1098.8
          ],
          [
            139.62881899244923,
            37.11513548596475,
            1102.7
          ],
          [
            139.62904362905581,
            37.11512484278973,
            1105.9
          ],
          [
            139.6292682656624,
            37.115114199614716,
            1109.7
          ],
          [
            139.62949290226902,
            37.1151035564397,
            1114.0
          ],
          [
            139.6297175388756,
            37.11509291326468,
            1118.8
          ],
          [
            139.6299421754822,
            37.115082270089665,
            1122.1
          ],
          [
            139.63016681208882,
            37.11507162691465,
            1126.3
          ],
          [
            139.6303914486954,
            37.11506098373963,
            1133.6
          ],
          [
            139.630616085302,
            37.115050340564615,
            1142.7
          ],
          [
            139.63084072190858,
            37.11503969738959,
            1148.6
          ],
          [
            139.6310653585152,
            37.115029054214574,
            1154.0
          ],
          [
            139.6312899951218,
            37.11501841103956,
            1160.1
          ],
          [
            139.63151463172838,
            37.11500776786454,
            1166.0
          ],
          [
            139.631739268335,
            37.11499712468952,
            1169.3
          ],
          [
            139.63196390494159,
            37.11498648151451,
            1173.9
          ],
          [
            139.63218854154817,
            37.11497583833949,
            1179.5
          ],
          [
            139.63241317815476,
            37.11496519516447,
            1185.1
          ],
          [
            139.63249539013833,
            37.1149613,
            1185.8
          ]
        ]
      },
      "properties": {
        "name": "第2ペア",
        "horizontal_dist_map": 667,
        "slope_dist_map": 683,
        "elevation_diff_map": 121.8,
        "resort": "aizu-kogen-takatsue",
        "speed": "低速",
        "type": "リフト",
        "hood": "×",
        "capacity": 2,
        "distance": 684,
        "vertical": "",
        "top": "",
        "bottom": "",
        "footrest": "×",
        "towers": 16,
        "signal": "",
        "oilShield": "×",
        "maker": "安全索道",
        "year": "",
        "note": "",
        "searchWord": "会津高原たかつえ　第2ペア",
        "status": "×",
        "update": "2025.03.30（日） 16:54現在",
        "latest_note": "スキー場営業時間　0:00〜0:00(予定)"
      }
    },
    {
      "type": "Feature",
      "geometry": {
        "type": "LineString",
        "coordinates": [
          [
            139.6317502955437,
            37.11778064691964,
            1138.6
          ],
          [
            139.63197011578575,
            37.11781923631099,
            1138.8
          ],
          [
            139.6321899360278,
            37.11785782570234,
            1139.8
          ],
          [
            139.63240975626982,
            37.11789641509369,
            1144.8
          ],
          [
            139.63262957651187,
            37.11793500448504,
            1150.5
          ],
          [
            139.63284939675393,
            37.117973593876386,
            1158.0
          ],
          [
            139.63306921699598,
            37.11801218326774,
            1162.3
          ],
          [
            139.63328903723803,
            37.11805077265909,
            1165.1
          ],
          [
            139.63350885748005,
            37.11808936205043,
            1168.5
          ],
          [
            139.6337286777221,
            37.118127951441785,
            1171.4
          ],
          [
            139.63394849796416,
            37.11816654083314,
            1174.2
          ],
          [
            139.6341683182062,
            37.11820513022448,
            1176.4
          ],
          [
            139.63438813844826,
            37.11824371961583,
            1178.9
          ],
          [
            139.63460795869028,
            37.118282309007185,
            1181.0
          ],
          [
            139.63482777893233,
            37.11832089839853,
            1183.5
          ],
          [
            139.63504759917438,
            37.11835948778988,
            1185.3
          ],
          [
            139.63526741941644,
            37.11839807718123,
            1187.2
          ],
          [
            139.6354872396585,
            37.11843666657258,
            1189.4
          ],
          [
            139.6357070599005,
            37.11847525596393,
            1193.3
          ],
          [
            139.63592688014256,
            37.11851384535528,
            1197.2
          ],
          [
            139.63614670038461,
            37.118552434746626,
            1201.0
          ],
          [
            139.63636652062667,
            37.11859102413798,
            1205.5
          ],
          [
            139.63658634086872,
            37.11862961352933,
            1212.4
          ],
          [
            139.63680616111074,
            37.118668202920674,
            1217.5
          ],
          [
            139.6370259813528,
            37.118706792312025,
            1221.8
          ],
          [
            139.63724580159484,
            37.11874538170338,
            1225.7
          ],
          [
            139.6374656218369,
            37.11878397109472,
            1228.0
          ],
          [
            139.63768544207895,
            37.11882256048607,
            1228.4
          ],
          [
            139.63790526232097,
            37.118861149877425,
            1233.4
          ],
          [
            139.63812508256302,
            37.11889973926877,
            1236.1
          ],
          [
            139.63834490280507,
            37.11893832866012,
            1239.6
          ],
          [
            139.63856472304712,
            37.11897691805147,
            1244.5
          ],
          [
            139.63878454328918,
            37.11901550744282,
            1249.1
          ],
          [
            139.6390043635312,
            37.11905409683417,
            1254.0
          ],
          [
            139.63922418377325,
            37.11909268622552,
            1261.0
          ],
          [
            139.6394440040153,
            37.119131275616866,
            1270.2
          ],
          [
            139.63966382425735,
            37.11916986500822,
            1281.9
          ],
          [
            139.6398836444994,
            37.11920845439957,
            1289.5
          ],
          [
            139.64010346474143,
            37.119247043790914,
            1294.5
          ],
          [
            139.64032328498348,
            37.119285633182265,
            1297.3
          ],
          [
            139.64054310522553,
            37.11932422257362,
            1300.3
          ],
          [
            139.64076292546758,
            37.11936281196496,
            1304.1
          ],
          [
            139.64098274570964,
            37.11940140135631,
            1311.1
          ],
          [
            139.64120256595166,
            37.119439990747665,
            1315.0
          ],
          [
            139.6414223861937,
            37.11947858013901,
            1316.4
          ],
          [
            139.64164220643576,
            37.11951716953036,
            1320.4
          ],
          [
            139.6418620266778,
            37.11955575892171,
            1322.4
          ],
          [
            139.64208184691984,
            37.119594348313065,
            1326.7
          ],
          [
            139.6423016671619,
            37.11963293770441,
            1333.8
          ],
          [
            139.64252148740394,
            37.11967152709576,
            1342.3
          ],
          [
            139.642741307646,
            37.11971011648711,
            1349.4
          ],
          [
            139.64294401798543,
            37.119745702239115,
            1353.4
          ]
        ]
      },
      "properties": {
        "name": "第3ペア",
        "horizontal_dist_map": 1018,
        "slope_dist_map": 1046,
        "elevation_diff_map": 214.8,
        "resort": "aizu-kogen-takatsue",
        "speed": "低速",
        "type": "リフト",
        "hood": "×",
        "capacity": 2,
        "distance": 1050,
        "vertical": "",
        "top": "",
        "bottom": "",
        "footrest": "×",
        "towers": 19,
        "signal": "",
        "oilShield": "×",
        "maker": "安全索道",
        "year": 1986,
        "note": "",
        "searchWord": "会津高原たかつえ　第3ペア",
        "status": "×",
        "update": "2025.03.30（日） 16:54現在",
        "latest_note": "スキー場営業時間　0:00〜0:00(予定)"
      }
    },
    {
      "type": "Feature",
      "geometry": {
        "type": "LineString",
        "coordinates": [
          [
            139.632327,
            37.1169898,
            1141.7
          ],
          [
            139.63253274853915,
            37.11691680973993,
            1143.1
          ],
          [
            139.63273849707832,
            37.11684381947985,
            1152.2
          ],
          [
            139.63294424561747,
            37.116770829219774,
            1160.5
          ],
          [
            139.63314999415664,
            37.116697838959695,
            1169.3
          ],
          [
            139.63335574269578,
            37.11662484869962,
            1179.4
          ],
          [
            139.63356149123496,
            37.11655185843954,
            1188.5
          ],
          [
            139.6337672397741,
            37.11647886817947,
            1198.9
          ],
          [
            139.63397298831327,
            37.11640587791939,
            1212.1
          ],
          [
            139.63417873685242,
            37.11633288765932,
            1225.9
          ],
          [
            139.6343844853916,
            37.116259897399246,
            1237.6
          ],
          [
            139.63459023393074,
            37.116186907139166,
            1250.5
          ],
          [
            139.6347959824699,
            37.116113916879094,
            1263.7
          ],
          [
            139.63500173100905,
            37.116040926619014,
            1275.4
          ],
          [
            139.63520747954823,
            37.11596793635894,
            1287.8
          ],
          [
            139.63541322808737,
            37.11589494609886,
            1296.7
          ],
          [
            139.63561897662655,
            37.11582195583879,
            1305.8
          ],
          [
            139.6358247251657,
            37.11574896557871,
            1309.3
          ],
          [
            139.63603047370486,
            37.11567597531864,
            1305.4
          ],
          [
            139.636236222244,
            37.115602985058565,
            1306.7
          ],
          [
            139.63644197078315,
            37.115529994798486,
            1313.3
          ],
          [
            139.63664771932233,
            37.11545700453841,
            1319.5
          ],
          [
            139.63685346786147,
            37.115384014278334,
            1324.5
          ],
          [
            139.63705921640064,
            37.11531102401826,
            1329.5
          ],
          [
            139.6372649649398,
            37.11523803375818,
            1333.1
          ],
          [
            139.63728,
            37.1152327,
            1333.1
          ]
        ]
      },
      "properties": {
        "name": "第4ペア",
        "horizontal_dist_map": 481,
        "slope_dist_map": 527,
        "elevation_diff_map": 191.4,
        "resort": "aizu-kogen-takatsue",
        "speed": "低速",
        "type": "リフト",
        "hood": "×",
        "capacity": 2,
        "distance": 538,
        "vertical": "",
        "top": "",
        "bottom": "",
        "footrest": "×",
        "towers": 11,
        "signal": "",
        "oilShield": "×",
        "maker": "安全索道",
        "year": "",
        "note": "",
        "searchWord": "会津高原たかつえ　第4ペア",
        "status": "×",
        "update": "2025.03.30（日） 16:54現在",
        "latest_note": "スキー場営業時間　0:00〜0:00(予定)"
      }
    },
    {
      "type": "Feature",
      "geometry": {
        "type": "LineString",
        "coordinates": [
          [
            139.6411413,
            37.1198939,
            1317.1
          ],
          [
            139.6413255405498,
            37.11999739091683,
            1317.3
          ],
          [
            139.64150978109956,
            37.12010088183366,
            1322.2
          ],
          [
            139.64169402164936,
            37.12020437275048,
            1325.6
          ],
          [
            139.64187826219913,
            37.12030786366731,
            1327.8
          ],
          [
            139.64206250274893,
            37.120411354584135,
            1333.3
          ],
          [
            139.64224674329873,
            37.12051484550096,
            1341.3
          ],
          [
            139.6424309838485,
            37.12061833641779,
            1349.4
          ],
          [
            139.6426152243983,
            37.12072182733462,
            1359.1
          ],
          [
            139.6427994649481,
            37.12082531825144,
            1371.3
          ],
          [
            139.64298370549787,
            37.12092880916827,
            1381.3
          ],
          [
            139.64316794604767,
            37.1210323000851,
            1397.0
          ],
          [
            139.64335218659744,
            37.121135791001926,
            1407.2
          ],
          [
            139.64353642714724,
            37.121239281918754,
            1416.0
          ],
          [
            139.64372066769704,
            37.12134277283558,
            1422.2
          ],
          [
            139.6439049082468,
            37.121446263752404,
            1425.2
          ],
          [
            139.6440891487966,
            37.12154975466923,
            1426.3
          ],
          [
            139.64427338934638,
            37.12165324558606,
            1422.0
          ],
          [
            139.64445762989618,
            37.12175673650289,
            1416.6
          ],
          [
            139.64464187044598,
            37.12186022741972,
            1416.5
          ],
          [
            139.64482611099575,
            37.12196371833654,
            1421.7
          ],
          [
            139.64501035154555,
            37.122067209253366,
            1428.9
          ],
          [
            139.64519459209532,
            37.122170700170194,
            1435.6
          ],
          [
            139.64537883264512,
            37.12227419108702,
            1442.2
          ],
          [
            139.64556307319492,
            37.12237768200385,
            1448.2
          ],
          [
            139.6457473137447,
            37.12248117292068,
            1458.2
          ],
          [
            139.6459315542945,
            37.1225846638375,
            1469.0
          ],
          [
            139.6461157948443,
            37.12268815475433,
            1475.1
          ],
          [
            139.64630003539406,
            37.12279164567116,
            1478.4
          ],
          [
            139.64648427594386,
            37.122895136587985,
            1481.1
          ],
          [
            139.64666851649363,
            37.12299862750481,
            1491.1
          ],
          [
            139.64685275704343,
            37.123102118421635,
            1501.5
          ],
          [
            139.64703699759323,
            37.12320560933846,
            1515.4
          ],
          [
            139.647221238143,
            37.12330910025529,
            1530.3
          ],
          [
            139.6474054786928,
            37.12341259117212,
            1544.4
          ],
          [
            139.64758971924257,
            37.12351608208895,
            1557.6
          ],
          [
            139.64777395979237,
            37.123619573005776,
            1570.4
          ],
          [
            139.64795820034217,
            37.1237230639226,
            1585.2
          ],
          [
            139.64814244089195,
            37.123826554839425,
            1597.5
          ],
          [
            139.64832668144174,
            37.12393004575625,
            1608.6
          ],
          [
            139.64851092199152,
            37.12403353667308,
            1619.5
          ],
          [
            139.64869516254132,
            37.12413702758991,
            1628.3
          ],
          [
            139.648837,
            37.1242167,
            1632.2
          ]
        ]
      },
      "properties": {
        "name": "第6シングル",
        "horizontal_dist_map": 835,
        "slope_dist_map": 914,
        "elevation_diff_map": 315.1,
        "resort": "aizu-kogen-takatsue",
        "speed": "低速",
        "type": "リフト",
        "hood": "×",
        "capacity": 1,
        "distance": 911,
        "vertical": "",
        "top": "",
        "bottom": "",
        "footrest": "×",
        "towers": 18,
        "signal": "",
        "oilShield": "×",
        "maker": "安全索道",
        "year": "",
        "note": "",
        "searchWord": "会津高原たかつえ　第6シングル",
        "status": "×",
        "update": "2025.03.30（日） 16:54現在",
        "latest_note": "スキー場営業時間　0:00〜0:00(予定)"
      }
    }
  ]
}