{
  "type": "FeatureCollection",
  "features": [
    {
      "type": "Feature",
      "properties": {
        "name": "ベガ",
        "slope_deg": [
          26.335410003881297,
          26.335410003881297,
          26.335410003881297,
          26.450345065034302,
          26.104854009099192,
          26.104854009099455,
          24.10851589997543,
          25.524475356294268,
          22.538450040828252,
          22.538450040827975,
          21.056705590704606,
          17.744671625056874,
          18.906332035086663,
          16.961705886532968,
          16.567741642975037,
          16.567741642975037,
          13.766300685466197,
          13.901350769509243,
          14.036243467926479,
          15.109575122340402,
          16.43605922463559,
          18.778033222445426,
          19.6719699892005,
          18.778033222445714,
          17.6146433000071,
          17.6146433000071,
          17.6146433000071,
          17.6146433000071
        ],
        "horizontal_dist_map": 266,
        "slope_dist_map": 284,
        "elevation_diff_map": 95.6,
        "avg_slope_deg_map": 18.6,
        "max_slope_deg_map": 26.5
      },
      "geometry": {
        "type": "LineString",
        "coordinates": [
          [
            140.315795273992,
            37.62176095840844,
            1130.0
          ],
          [
            140.3158390459696,
            37.62184405833788,
            1126.2
          ],
          [
            140.3158828179472,
            37.62192715826732,
            1120.0
          ],
          [
            140.3159265899248,
            37.62201025819676,
            1115.9
          ],
          [
            140.3159727543591,
            37.622092528619284,
            1110.2
          ],
          [
            140.3160195034421,
            37.62217459633381,
            1106.3
          ],
          [
            140.3160662525251,
            37.62225666404832,
            1100.4
          ],
          [
            140.3161130016081,
            37.62233873176284,
            1096.3
          ],
          [
            140.31615796526214,
            37.622421427848494,
            1092.3
          ],
          [
            140.31620287329716,
            37.62250414350893,
            1087.2
          ],
          [
            140.31624778133218,
            37.62258685916937,
            1083.8
          ],
          [
            140.3162926893672,
            37.6226695748298,
            1079.7
          ],
          [
            140.31633759740222,
            37.62275229049023,
            1076.9
          ],
          [
            140.31639530372777,
            37.62282977149728,
            1074.4
          ],
          [
            140.31645376535673,
            37.62290694357621,
            1070.1
          ],
          [
            140.3165122269857,
            37.62298411565515,
            1067.5
          ],
          [
            140.3165706886147,
            37.62306128773408,
            1065.0
          ],
          [
            140.31662915024367,
            37.62313845981301,
            1062.5
          ],
          [
            140.31669260319282,
            37.623213040499174,
            1060.3
          ],
          [
            140.31675789845676,
            37.62328666469265,
            1057.6
          ],
          [
            140.31682319372067,
            37.62336028888613,
            1055.0
          ],
          [
            140.3168884889846,
            37.62343391307961,
            1051.7
          ],
          [
            140.31695378424854,
            37.62350753727309,
            1048.5
          ],
          [
            140.31701907951248,
            37.62358116146657,
            1044.0
          ],
          [
            140.31708423005284,
            37.62365486586408,
            1040.7
          ],
          [
            140.3171484235165,
            37.62372910066177,
            1038.1
          ],
          [
            140.31721261698016,
            37.62380333545945,
            1035.8
          ],
          [
            140.3172560205479,
            37.62385352834338,
            1034.4
          ]
        ]
      }
    },
    {
      "type": "Feature",
      "properties": {
        "name": "ジェミニ（右）",
        "slope_deg": [
          1.7183580016555222,
          1.7183580016555222,
          1.7183580016555222,
          3.0052693596899664,
          4.858462919034255,
          6.418786730238786,
          6.701525844729548,
          8.250387228905435,
          8.670801453590993,
          9.787203664656081,
          11.034209003250188,
          12.68038349181982,
          13.631094443421603,
          15.37625124882619,
          16.172159015782583,
          16.436059224635738,
          16.567741642974887,
          16.304198003832227,
          18.133621430820412,
          16.69924423399362,
          18.520849477471074,
          17.35402463626132,
          16.69924423399362,
          17.092662950267425,
          14.170977562933123,
          13.766300685466351,
          10.757967088389877,
          9.50877195829791,
          9.369385096487514,
          9.369385096487514,
          9.369385096487514,
          9.369385096487514
        ],
        "horizontal_dist_map": 303,
        "slope_dist_map": 311,
        "elevation_diff_map": 61.4,
        "avg_slope_deg_map": 11.2,
        "max_slope_deg_map": 18.5
      },
      "geometry": {
        "type": "LineString",
        "coordinates": [
          [
            140.32004371053628,
            37.62396137646239,
            1018.2
          ],
          [
            140.32013300216752,
            37.623905934839115,
            1018.0
          ],
          [
            140.32022229379876,
            37.62385049321584,
            1018.0
          ],
          [
            140.32031158543003,
            37.62379505159257,
            1017.8
          ],
          [
            140.32040087706127,
            37.6237396099693,
            1017.0
          ],
          [
            140.32049897100245,
            37.6236960190499,
            1015.9
          ],
          [
            140.32060310947966,
            37.623660565995095,
            1014.6
          ],
          [
            140.32070724795685,
            37.62362511294029,
            1013.3
          ],
          [
            140.32081140219367,
            37.62358968933959,
            1012.3
          ],
          [
            140.32091558098472,
            37.623554311629896,
            1010.1
          ],
          [
            140.3210197597758,
            37.623518933920195,
            1008.5
          ],
          [
            140.32112393856684,
            37.623483556210495,
            1006.4
          ],
          [
            140.32122931348948,
            37.623450823037025,
            1004.5
          ],
          [
            140.32133795019462,
            37.62342530136268,
            1001.1
          ],
          [
            140.32144658689975,
            37.62339977968834,
            998.8
          ],
          [
            140.3215552236049,
            37.623374258014,
            995.4
          ],
          [
            140.32166386031003,
            37.62334873633966,
            992.9
          ],
          [
            140.32177249701516,
            37.62332321466532,
            989.3
          ],
          [
            140.32188113372032,
            37.62329769299098,
            986.9
          ],
          [
            140.3219923115763,
            37.62328123485237,
            983.7
          ],
          [
            140.32210428729584,
            37.62326762245762,
            979.8
          ],
          [
            140.32221626301538,
            37.623254010062865,
            977.3
          ],
          [
            140.3223282387349,
            37.62324039766812,
            973.5
          ],
          [
            140.32244021445442,
            37.62322678527337,
            971.2
          ],
          [
            140.32255219017395,
            37.623213172878614,
            967.8
          ],
          [
            140.32266416589349,
            37.62319956048386,
            965.0
          ],
          [
            140.32277614161302,
            37.62318594808911,
            963.4
          ],
          [
            140.32288811733252,
            37.62317233569436,
            961.4
          ],
          [
            140.32300009305206,
            37.62315872329961,
            960.2
          ],
          [
            140.3231120687716,
            37.62314511090486,
            958.3
          ],
          [
            140.3232240444911,
            37.623131498510105,
            956.8
          ],
          [
            140.32326150726405,
            37.6231269443259,
            956.8
          ]
        ]
      }
    },
    {
      "type": "Feature",
      "properties": {
        "name": "ジェミニ（左）",
        "slope_deg": [
          18.64953875405141,
          18.64953875405141,
          18.64953875405141,
          18.133621430820266,
          17.874511367250427,
          16.172159015782732,
          17.614643300006804,
          17.35402463626132,
          16.96170588653267,
          16.830565983210477,
          15.37625124882619,
          13.766300685466197,
          14.036243467926479,
          12.816647648997312,
          11.44759626368579,
          11.309932474020215,
          10.896152141141194,
          10.203973721731748,
          10.203973721731748,
          11.034209003250501,
          10.342657140474548,
          11.58512622485511,
          11.7225209701022,
          12.133880170633224,
          12.407418527400838,
          13.224551192213497,
          14.84222705791098,
          14.036243467926479,
          15.907551930525813,
          15.109575122340555,
          15.907551930525962,
          17.6146433000071,
          16.436059224635738,
          18.64953875405141,
          17.874511367250282,
          18.26288994219404,
          20.430362329285547,
          18.26288994219404,
          19.544862326628685,
          17.744671625057023,
          16.961705886532968,
          18.26288994219419,
          15.774985955414158,
          16.830565983210477,
          14.9759845147566,
          12.407418527400683,
          11.996899307923577,
          9.648045316098251,
          8.250387228905595,
          7.969610394321392,
          6.983937460085259,
          5.568737077976604,
          4.7162212343382155,
          3.290883686067228,
          2.5765718302687652,
          2.5765718302687652,
          2.5765718302687652,
          3.433630362450652,
          3.718993973158075,
          3.718993973158075,
          3.718993973158075,
          3.718993973158075
        ],
        "horizontal_dist_map": 600,
        "slope_dist_map": 619,
        "elevation_diff_map": 139.0,
        "avg_slope_deg_map": 12.7,
        "max_slope_deg_map": 20.4
      },
      "geometry": {
        "type": "LineString",
        "coordinates": [
          [
            140.3184101134262,
            37.62144535702548,
            1088.1
          ],
          [
            140.31846894789206,
            37.62152234912723,
            1084.3
          ],
          [
            140.3185277823579,
            37.62159934122899,
            1081.5
          ],
          [
            140.31858661682372,
            37.62167633333075,
            1077.2
          ],
          [
            140.31865384785164,
            37.6217487349524,
            1074.6
          ],
          [
            140.31872313803046,
            37.62182001081672,
            1071.2
          ],
          [
            140.3187924282093,
            37.621891286681034,
            1068.6
          ],
          [
            140.31886909418617,
            37.62195742735078,
            1065.6
          ],
          [
            140.318948742613,
            37.62202149157256,
            1061.9
          ],
          [
            140.31902839103984,
            37.62208555579434,
            1058.7
          ],
          [
            140.31910803946667,
            37.622149620016124,
            1056.4
          ],
          [
            140.31919563806582,
            37.622206645976775,
            1053.5
          ],
          [
            140.31928422040502,
            37.62226280103562,
            1050.9
          ],
          [
            140.31937280274423,
            37.62231895609447,
            1048.9
          ],
          [
            140.31946138508343,
            37.62237511115332,
            1046.4
          ],
          [
            140.31954996742263,
            37.62243126621217,
            1044.4
          ],
          [
            140.31963854976183,
            37.62248742127101,
            1042.8
          ],
          [
            140.319735121244,
            37.62253405761305,
            1040.9
          ],
          [
            140.31983429269428,
            37.62257759620602,
            1038.7
          ],
          [
            140.31993346414458,
            37.62262113479899,
            1037.2
          ],
          [
            140.32003263559488,
            37.62266467339195,
            1035.6
          ],
          [
            140.32013868145455,
            37.622695577778735,
            1033.1
          ],
          [
            140.32024646954017,
            37.6227232801971,
            1031.4
          ],
          [
            140.3203542576258,
            37.62275098261547,
            1029.0
          ],
          [
            140.32046204571142,
            37.62277868503384,
            1027.3
          ],
          [
            140.32056983379704,
            37.62280638745221,
            1024.5
          ],
          [
            140.3206808821465,
            37.62282409732617,
            1022.6
          ],
          [
            140.3207920049185,
            37.622841579098804,
            1019.6
          ],
          [
            140.32090312769049,
            37.622859060871434,
            1016.7
          ],
          [
            140.3210142504625,
            37.622876542644065,
            1014.5
          ],
          [
            140.3211253732345,
            37.622894024416695,
            1011.2
          ],
          [
            140.3212364960065,
            37.622911506189325,
            1008.8
          ],
          [
            140.32134803099936,
            37.62292706472453,
            1005.3
          ],
          [
            140.3214601600654,
            37.62293985158089,
            1001.8
          ],
          [
            140.32157228913147,
            37.62295263843724,
            999.4
          ],
          [
            140.32168441819752,
            37.6229654252936,
            995.3
          ],
          [
            140.32179654726357,
            37.62297821214995,
            992.4
          ],
          [
            140.32190867632963,
            37.62299099900631,
            988.6
          ],
          [
            140.32202080539568,
            37.623003785862664,
            984.5
          ],
          [
            140.32213385794387,
            37.62300664491063,
            982.1
          ],
          [
            140.32224713205744,
            37.62300712204111,
            978.2
          ],
          [
            140.32236040617101,
            37.62300759917158,
            975.8
          ],
          [
            140.32247368028456,
            37.62300807630206,
            972.3
          ],
          [
            140.32258695439813,
            37.62300855343253,
            968.9
          ],
          [
            140.32270022851168,
            37.623009030563004,
            966.9
          ],
          [
            140.32281350262525,
            37.623009507693475,
            963.7
          ],
          [
            140.32292677336648,
            37.62301030539026,
            961.6
          ],
          [
            140.3230400416347,
            37.62301133816415,
            960.1
          ],
          [
            140.32315330990295,
            37.623012370938035,
            958.4
          ],
          [
            140.3232665781712,
            37.62301340371192,
            956.9
          ],
          [
            140.32337984643942,
            37.62301443648581,
            955.8
          ],
          [
            140.32349311470767,
            37.6230154692597,
            954.5
          ],
          [
            140.32360638297592,
            37.623016502033586,
            953.5
          ],
          [
            140.32371953890242,
            37.62301908916934,
            953.0
          ],
          [
            140.3238322097106,
            37.62302838840869,
            952.5
          ],
          [
            140.32394488051878,
            37.62303768764804,
            952.2
          ],
          [
            140.32405755132697,
            37.623046986887395,
            951.7
          ],
          [
            140.32417022213514,
            37.62305628612674,
            951.2
          ],
          [
            140.32428289294333,
            37.62306558536609,
            950.7
          ],
          [
            140.32439556375152,
            37.623074884605444,
            949.8
          ],
          [
            140.32450823455972,
            37.623084183844796,
            949.1
          ],
          [
            140.32451028966082,
            37.62308435346173,
            949.1
          ]
        ]
      }
    },
    {
      "type": "Feature",
      "properties": {
        "name": "アルタイル_#下部",
        "slope_deg": [
          11.722520970102511,
          11.722520970102511,
          11.722520970102511,
          11.996899307923577,
          11.44759626368548,
          10.342657140474548,
          10.48121814413073,
          10.065169352759717,
          9.926245506651705,
          11.44759626368548,
          11.7225209701022,
          12.95276451337558,
          12.95276451337558,
          13.088732789694308,
          13.631094443421603,
          13.088732789694,
          12.816647648997623,
          11.44759626368548,
          11.034209003250343,
          9.78720366465624,
          8.9505586562316,
          8.250387228905435,
          7.125016348901798,
          7.266008446996026,
          6.983937460085259,
          6.842773412631036,
          6.842773412631036,
          6.842773412631036,
          6.842773412631036
        ],
        "horizontal_dist_map": 278,
        "slope_dist_map": 283,
        "elevation_diff_map": 50.5,
        "avg_slope_deg_map": 10.1,
        "max_slope_deg_map": 13.6
      },
      "geometry": {
        "type": "LineString",
        "coordinates": [
          [
            140.3180294752298,
            37.62244111562884,
            1065.4
          ],
          [
            140.3181232265836,
            37.62249168382546,
            1063.5
          ],
          [
            140.31821697793742,
            37.622542252022086,
            1061.0
          ],
          [
            140.31830820129005,
            37.622595420853855,
            1058.8
          ],
          [
            140.3183933271859,
            37.622654862333185,
            1057.1
          ],
          [
            140.31847845308175,
            37.622714303812515,
            1055.0
          ],
          [
            140.31855578441903,
            37.62277952793258,
            1052.9
          ],
          [
            140.3186244150397,
            37.62285120695548,
            1051.5
          ],
          [
            140.31869304566038,
            37.62292288597838,
            1049.7
          ],
          [
            140.31875850692106,
            37.62299639065086,
            1047.9
          ],
          [
            140.31882271606733,
            37.623070616580065,
            1045.9
          ],
          [
            140.31888692521358,
            37.62314484250926,
            1043.4
          ],
          [
            140.31895113435985,
            37.623219068438466,
            1041.4
          ],
          [
            140.3190153435061,
            37.62329329436767,
            1038.7
          ],
          [
            140.31908134886157,
            37.62336651481881,
            1036.7
          ],
          [
            140.31914753411877,
            37.623439634564974,
            1034.1
          ],
          [
            140.31921371937597,
            37.623512754311136,
            1031.7
          ],
          [
            140.31927990463316,
            37.6235858740573,
            1029.4
          ],
          [
            140.31934865806315,
            37.623656947694755,
            1027.6
          ],
          [
            140.3194406992605,
            37.62370946755577,
            1026.0
          ],
          [
            140.31953274045782,
            37.62376198741678,
            1023.9
          ],
          [
            140.31962478165516,
            37.623814507277785,
            1022.5
          ],
          [
            140.319718246592,
            37.62386539193886,
            1021.3
          ],
          [
            140.31981243656833,
            37.623915443874154,
            1020.2
          ],
          [
            140.31990402419274,
            37.62396793057845,
            1018.9
          ],
          [
            140.3199766737525,
            37.624034855918616,
            1017.4
          ],
          [
            140.3199543414179,
            37.62412318634223,
            1016.4
          ],
          [
            140.31992014504624,
            37.62420899228016,
            1015.4
          ],
          [
            140.31988958598228,
            37.62428128066419,
            1014.9
          ]
        ]
      }
    },
    {
      "type": "Feature",
      "properties": {
        "name": "アルタイル_#上部_2",
        "slope_deg": [
          4.716221234338539,
          4.716221234338539,
          4.716221234338539,
          10.203973721731748,
          14.57421619803886,
          18.39196625070563,
          21.056705590704606,
          22.782405730481635,
          22.293629159693914,
          21.554019920478787,
          20.556045219583467,
          18.133621430820558,
          17.223436191131583,
          17.223436191131583,
          17.223436191131583,
          17.223436191131583
        ],
        "horizontal_dist_map": 149,
        "slope_dist_map": 157,
        "elevation_diff_map": 42.4,
        "avg_slope_deg_map": 15.1,
        "max_slope_deg_map": 22.8
      },
      "geometry": {
        "type": "LineString",
        "coordinates": [
          [
            140.31769398240354,
            37.621267336677775,
            1106.9
          ],
          [
            140.31762583635125,
            37.62133930680841,
            1107.7
          ],
          [
            140.31755769029897,
            37.62141127693904,
            1106.5
          ],
          [
            140.317496599686,
            37.62148543532487,
            1105.9
          ],
          [
            140.3174973802229,
            37.62157426009825,
            1103.6
          ],
          [
            140.31754453355023,
            37.621654720696576,
            1100.5
          ],
          [
            140.31761035569335,
            37.62172804667032,
            1096.1
          ],
          [
            140.31767617783643,
            37.621801372644065,
            1092.6
          ],
          [
            140.31774198016404,
            37.621874709547406,
            1088.2
          ],
          [
            140.3178052358571,
            37.621949451093556,
            1083.7
          ],
          [
            140.31786849155017,
            37.62202419263971,
            1079.7
          ],
          [
            140.3179294650498,
            37.62210011564259,
            1076.8
          ],
          [
            140.317989767385,
            37.62217638609707,
            1073.2
          ],
          [
            140.3180500697202,
            37.62225265655154,
            1070.6
          ],
          [
            140.31811037205537,
            37.62232892700601,
            1067.3
          ],
          [
            140.3181687738212,
            37.62240279361843,
            1064.5
          ]
        ]
      }
    },
    {
      "type": "Feature",
      "properties": {
        "name": "アルタイル_#上部",
        "slope_deg": [
          24.938427655457385,
          24.938427655457385,
          24.938427655457385,
          25.407718108948472,
          25.873385226286196,
          23.989064009552337,
          23.869390064731867,
          22.90405780363674,
          22.293629159694188,
          21.924785220541345,
          20.17838007450879,
          19.417554141579625,
          18.133621430820266,
          16.567741642974738,
          16.304198003832376,
          16.304198003832376,
          16.304198003832376,
          16.304198003832376
        ],
        "horizontal_dist_map": 161,
        "slope_dist_map": 174,
        "elevation_diff_map": 63.3,
        "avg_slope_deg_map": 20.0,
        "max_slope_deg_map": 25.9
      },
      "geometry": {
        "type": "LineString",
        "coordinates": [
          [
            140.31657573656662,
            37.621554426325176,
            1128.7
          ],
          [
            140.31666485464413,
            37.62161004186398,
            1124.3
          ],
          [
            140.31675397272167,
            37.62166565740279,
            1119.9
          ],
          [
            140.31684309079918,
            37.6217212729416,
            1114.5
          ],
          [
            140.31693220887672,
            37.621776888480404,
            1110.1
          ],
          [
            140.31702132695423,
            37.62183250401921,
            1105.3
          ],
          [
            140.31711044503174,
            37.621888119558015,
            1100.5
          ],
          [
            140.31719956310928,
            37.62194373509682,
            1096.7
          ],
          [
            140.3172886811868,
            37.621999350635626,
            1092.4
          ],
          [
            140.317378837672,
            37.6220538886244,
            1088.4
          ],
          [
            140.31746953391956,
            37.622107866504756,
            1084.1
          ],
          [
            140.3175602301671,
            37.62216184438511,
            1080.6
          ],
          [
            140.31765092641464,
            37.62221582226547,
            1077.7
          ],
          [
            140.31774162266217,
            37.62226980014582,
            1074.3
          ],
          [
            140.31783231890972,
            37.62232377802618,
            1071.0
          ],
          [
            140.31792301515725,
            37.622377755906534,
            1068.7
          ],
          [
            140.31801371140477,
            37.62243173378689,
            1066.0
          ],
          [
            140.3180294752298,
            37.62244111562884,
            1065.4
          ]
        ]
      }
    },
    {
      "type": "Feature",
      "properties": {
        "name": "アンドロメダ",
        "slope_deg": [
          1.7183580016555222,
          1.7183580016555222,
          1.7183580016555222,
          1.4320961841646465,
          3.8616074096751394,
          4.431564716435714,
          4.7162212343382155,
          5.994092949108534,
          4.431564716435714,
          4.858462919034416,
          6.418786730238786,
          10.342657140474548,
          13.901350769509243,
          16.830565983210477,
          17.092662950267425,
          17.09266295026772,
          17.874511367250133,
          15.509334522674754,
          16.172159015782732,
          14.439965121002654,
          15.2429977429017,
          16.961705886532968,
          16.961705886532968,
          17.092662950267425,
          16.830565983210477,
          17.744671625056874,
          17.484427323220586,
          19.544862326628827,
          18.778033222445714,
          19.67196998920079,
          19.798876354525046,
          17.744671625056874,
          19.6719699892005,
          17.092662950267425,
          18.00416160591338,
          17.6146433000071,
          16.17215901578243,
          18.39196625070533,
          16.830565983210477,
          19.290046219188735,
          18.906332035086663,
          19.290046219188735,
          20.30447370996038,
          17.484427323220586,
          17.874511367250427,
          15.509334522674907,
          15.37625124882619,
          17.744671625057023,
          16.69924423399362,
          18.64953875405141,
          19.671969989200644,
          18.00416160591338,
          18.906332035086518,
          16.96170588653282,
          16.172159015782583,
          17.223436191131434,
          15.509334522674907,
          15.642246457208788,
          13.766300685466197,
          11.172136252167116,
          10.757967088390036,
          8.9505586562316,
          8.670801453590993,
          9.22988624372772,
          8.110047829419,
          8.810732985984973,
          7.547725773843047,
          6.701525844729548,
          6.701525844729548,
          5.142764557884274,
          5.000644597558433,
          4.431564716435877,
          4.431564716435877,
          5.000644597558433,
          4.431564716435877,
          4.289153328819018,
          3.4336303624504896,
          2.862405226111748,
          2.433606100720186,
          2.2906100426383995,
          3.576334374997351,
          3.718993973158075,
          4.858462919034255,
          4.573921259900927,
          4.573921259900927,
          4.573921259900927,
          4.573921259900927
        ],
        "horizontal_dist_map": 856,
        "slope_dist_map": 882,
        "elevation_diff_map": 182.5,
        "avg_slope_deg_map": 11.7,
        "max_slope_deg_map": 20.3
      },
      "geometry": {
        "type": "LineString",
        "coordinates": [
          [
            140.31600758847074,
            37.621626260143906,
            1131.7
          ],
          [
            140.31611481660997,
            37.62159721927745,
            1131.4
          ],
          [
            140.31622252987776,
            37.62157007644643,
            1132.0
          ],
          [
            140.31633550203617,
            37.62156350869741,
            1131.6
          ],
          [
            140.31644847419454,
            37.621556940948395,
            1130.5
          ],
          [
            140.31655678487314,
            37.6215335795783,
            1130.4
          ],
          [
            140.31666273176307,
            37.62150170233485,
            1129.3
          ],
          [
            140.31676699494741,
            37.621467216386236,
            1128.5
          ],
          [
            140.31686131125818,
            37.621417318918624,
            1127.2
          ],
          [
            140.31695562756894,
            37.62136742145101,
            1126.2
          ],
          [
            140.31703182185126,
            37.6213039265098,
            1126.2
          ],
          [
            140.31708847194892,
            37.62122590748072,
            1125.1
          ],
          [
            140.31718639459052,
            37.621205324444034,
            1122.7
          ],
          [
            140.31729966620406,
            37.621205764968884,
            1118.9
          ],
          [
            140.3174129378176,
            37.621206205493735,
            1116.3
          ],
          [
            140.31752620943115,
            37.62120664601859,
            1113.0
          ],
          [
            140.31763948214788,
            37.62120646512005,
            1110.4
          ],
          [
            140.31775275487414,
            37.62120627885939,
            1106.6
          ],
          [
            140.3178660276004,
            37.62120609259872,
            1103.4
          ],
          [
            140.31797502958136,
            37.62122936102163,
            1101.9
          ],
          [
            140.31808358133475,
            37.621255102068176,
            1098.8
          ],
          [
            140.31819081013853,
            37.62128406422362,
            1096.3
          ],
          [
            140.31829753043337,
            37.62131426449332,
            1092.5
          ],
          [
            140.31840472184263,
            37.621343235449864,
            1089.7
          ],
          [
            140.3185144757031,
            37.6213655200159,
            1086.6
          ],
          [
            140.31862422956354,
            37.621387804581936,
            1084.0
          ],
          [
            140.31873398342398,
            37.62141008914797,
            1080.4
          ],
          [
            140.31884373728445,
            37.621432373714015,
            1076.9
          ],
          [
            140.3189527602505,
            37.621456529708965,
            1074.0
          ],
          [
            140.31905906824645,
            37.6214876372876,
            1069.8
          ],
          [
            140.31916537624238,
            37.621518744866236,
            1066.8
          ],
          [
            140.31927168423832,
            37.62154985244487,
            1062.6
          ],
          [
            140.31937799223425,
            37.62158096002351,
            1059.6
          ],
          [
            140.31948430023022,
            37.62161206760214,
            1057.0
          ],
          [
            140.31959060822615,
            37.62164317518078,
            1052.5
          ],
          [
            140.31969691622209,
            37.621674282759415,
            1050.3
          ],
          [
            140.31980322421802,
            37.62170539033804,
            1046.6
          ],
          [
            140.31990953221396,
            37.62173649791668,
            1044.3
          ],
          [
            140.3200207557214,
            37.621753129523135,
            1040.9
          ],
          [
            140.3201322985858,
            37.62176882063682,
            1037.0
          ],
          [
            140.32024384145024,
            37.6217845117505,
            1034.5
          ],
          [
            140.32035538431467,
            37.62180020286418,
            1030.3
          ],
          [
            140.3204669271791,
            37.62181589397786,
            1027.2
          ],
          [
            140.3205784700435,
            37.62183158509154,
            1023.0
          ],
          [
            140.32069001290793,
            37.62184727620522,
            1019.7
          ],
          [
            140.32080155577236,
            37.621862967318904,
            1017.7
          ],
          [
            140.32091339822577,
            37.62187648140902,
            1014.3
          ],
          [
            140.321026567596,
            37.62188035319218,
            1011.9
          ],
          [
            140.3211397369662,
            37.62188422497535,
            1008.7
          ],
          [
            140.32125290633638,
            37.62188809675851,
            1004.9
          ],
          [
            140.3213660757066,
            37.62189196854168,
            1002.3
          ],
          [
            140.3214792450768,
            37.62189584032485,
            998.4
          ],
          [
            140.32159241444703,
            37.62189971210801,
            994.4
          ],
          [
            140.32170558381722,
            37.621903583891175,
            991.9
          ],
          [
            140.32181850112974,
            37.62190966478621,
            988.6
          ],
          [
            140.3219306976101,
            37.62192206327839,
            986.2
          ],
          [
            140.3220428940905,
            37.621934461770564,
            982.8
          ],
          [
            140.32215509057085,
            37.62194686026274,
            979.5
          ],
          [
            140.32226728705123,
            37.62195925875491,
            977.5
          ],
          [
            140.3223794835316,
            37.62197165724709,
            975.0
          ],
          [
            140.32249168001198,
            37.62198405573926,
            973.0
          ],
          [
            140.32260387649234,
            37.621996454231436,
            971.6
          ],
          [
            140.3227160729727,
            37.62200885272361,
            969.9
          ],
          [
            140.32282821447242,
            37.62202155065799,
            968.7
          ],
          [
            140.32294017966342,
            37.622035208826134,
            966.9
          ],
          [
            140.3230521448544,
            37.62204886699428,
            965.1
          ],
          [
            140.32316411004535,
            37.62206252516242,
            964.2
          ],
          [
            140.32327607523635,
            37.62207618333056,
            962.5
          ],
          [
            140.32338804042732,
            37.6220898414987,
            961.6
          ],
          [
            140.3235000056183,
            37.62210349966684,
            960.4
          ],
          [
            140.3236117693045,
            37.622118144028256,
            959.5
          ],
          [
            140.32372340683062,
            37.62213340583502,
            958.9
          ],
          [
            140.32383504435674,
            37.62214866764179,
            958.1
          ],
          [
            140.3239466818829,
            37.622163929448554,
            957.3
          ],
          [
            140.324058319409,
            37.62217919125531,
            956.4
          ],
          [
            140.32416995693515,
            37.62219445306208,
            955.4
          ],
          [
            140.32428159446127,
            37.622209714868845,
            955.0
          ],
          [
            140.3243932319874,
            37.62222497667561,
            954.3
          ],
          [
            140.32450486951353,
            37.62224023848238,
            954.0
          ],
          [
            140.3245946622444,
            37.62229135777302,
            953.4
          ],
          [
            140.32467890169892,
            37.62235159257682,
            953.3
          ],
          [
            140.32475953820938,
            37.62241391548197,
            952.7
          ],
          [
            140.32480581172996,
            37.62249615360219,
            951.5
          ],
          [
            140.3248520852505,
            37.62257839172242,
            950.8
          ],
          [
            140.32486280981277,
            37.62266670245302,
            949.9
          ],
          [
            140.32486306880475,
            37.622756800952764,
            949.5
          ],
          [
            140.3248632397984,
            37.62281628646891,
            949.2
          ]
        ]
      }
    },
    {
      "type": "Feature",
      "properties": {
        "name": "ペガサス",
        "slope_deg": [
          8.250387228905435,
          8.250387228905435,
          8.250387228905435,
          8.250387228905753,
          7.969610394321233,
          6.701525844729548,
          7.266008446996189,
          5.710593137499482,
          4.431564716435877,
          3.718993973158075,
          3.4336303624504896,
          3.0052693596899664,
          3.4336303624504896,
          3.576334374997351,
          3.576334374997351,
          4.289153328819018,
          4.146688825966138,
          4.289153328819018,
          4.7162212343382155,
          4.0041729407093225,
          3.576334374997351,
          3.4336303624504896,
          3.2908836860673905,
          4.289153328819018,
          4.858462919034255,
          5.142764557884274,
          5.142764557884112,
          4.716221234338378,
          5.284821092508918,
          5.426812498572917,
          5.568737077976766,
          7.125016348901798,
          8.11004782941916,
          8.670801453590833,
          10.065169352759717,
          9.22988624372772,
          9.50877195829791,
          11.034209003250343,
          10.342657140474707,
          11.7225209701022,
          12.68038349181982,
          11.7225209701022,
          13.360218444764483,
          13.088732789694154,
          13.49573328079569,
          13.766300685466351,
          14.305551846621862,
          13.90135076950909,
          13.224551192213651,
          13.49573328079569,
          13.360218444764483,
          13.63109444342145,
          12.543973346572077,
          11.859779120948104,
          9.78720366465624,
          8.810732985984973,
          7.969610394321392,
          7.125016348901798,
          5.710593137499643,
          4.573921259900927,
          3.005269359689804,
          1.7183580016553597,
          1.0025738037599647,
          0.7161599454704085,
          0.7161599454704085,
          1.4320961841646465,
          1.7183580016555222,
          2.004534032105872,
          2.433606100720186,
          2.147585428298503,
          1.5752369256830872,
          0.7161599454704085,
          0.7161599454704085,
          0.7161599454704085,
          0.7161599454704085
        ],
        "horizontal_dist_map": 731,
        "slope_dist_map": 738,
        "elevation_diff_map": 86.3,
        "avg_slope_deg_map": 6.7,
        "max_slope_deg_map": 14.3
      },
      "geometry": {
        "type": "LineString",
        "coordinates": [
          [
            140.31718073365155,
            37.62393951768413,
            1034.7
          ],
          [
            140.31729122473888,
            37.62395937760409,
            1032.9
          ],
          [
            140.31740171582618,
            37.62397923752405,
            1031.3
          ],
          [
            140.3175122069135,
            37.623999097444,
            1029.4
          ],
          [
            140.31762269800083,
            37.62401895736396,
            1028.9
          ],
          [
            140.31773318908816,
            37.62403881728392,
            1027.1
          ],
          [
            140.31784368017546,
            37.62405867720388,
            1025.7
          ],
          [
            140.31795417126278,
            37.624078537123836,
            1024.7
          ],
          [
            140.3180646623501,
            37.62409839704379,
            1023.8
          ],
          [
            140.31817699375983,
            37.62410972161285,
            1023.1
          ],
          [
            140.31828949134552,
            37.62412027546366,
            1022.6
          ],
          [
            140.31840198893119,
            37.62413082931448,
            1022.1
          ],
          [
            140.31851448651688,
            37.624141383165295,
            1021.4
          ],
          [
            140.31862698410256,
            37.624151937016116,
            1021.0
          ],
          [
            140.31873948168823,
            37.62416249086693,
            1020.2
          ],
          [
            140.3188508873434,
            37.62417861318804,
            1019.6
          ],
          [
            140.31896208199637,
            37.62419581154765,
            1018.9
          ],
          [
            140.31907327664936,
            37.62421300990726,
            1018.0
          ],
          [
            140.31918447130232,
            37.624230208266866,
            1017.3
          ],
          [
            140.3192956659553,
            37.62424740662647,
            1016.6
          ],
          [
            140.31940484084868,
            37.62427126323632,
            1015.6
          ],
          [
            140.31951366073022,
            37.624296290162455,
            1015.2
          ],
          [
            140.31962248061174,
            37.6243213170886,
            1014.8
          ],
          [
            140.31973130049326,
            37.62434634401474,
            1014.2
          ],
          [
            140.3198401203748,
            37.62437137094088,
            1013.3
          ],
          [
            140.31994894025632,
            37.62439639786702,
            1012.2
          ],
          [
            140.32005741169954,
            37.6244223514365,
            1011.4
          ],
          [
            140.32016563292376,
            37.62444897044298,
            1010.6
          ],
          [
            140.32027385414798,
            37.62447558944945,
            1009.7
          ],
          [
            140.3203820753722,
            37.62450220845593,
            1008.9
          ],
          [
            140.32049518376022,
            37.62450292628693,
            1007.7
          ],
          [
            140.3206084615051,
            37.62450274655411,
            1006.8
          ],
          [
            140.32072168828816,
            37.624501486102126,
            1005.8
          ],
          [
            140.32083466473352,
            37.6244949168751,
            1003.9
          ],
          [
            140.3209476411789,
            37.624488347648075,
            1002.0
          ],
          [
            140.32106061762425,
            37.62448177842106,
            1000.7
          ],
          [
            140.32117359406962,
            37.62447520919403,
            998.7
          ],
          [
            140.32128657051499,
            37.624468639967006,
            997.4
          ],
          [
            140.32139926709803,
            37.62445954471589,
            995.3
          ],
          [
            140.32151194721666,
            37.62445030085754,
            992.9
          ],
          [
            140.32162462733527,
            37.62444105699919,
            991.4
          ],
          [
            140.3217373074539,
            37.62443181314084,
            989.1
          ],
          [
            140.321848870633,
            37.62441765709775,
            986.3
          ],
          [
            140.321958484055,
            37.62439492622406,
            984.6
          ],
          [
            140.32206809747697,
            37.62437219535037,
            981.9
          ],
          [
            140.32217771089898,
            37.62434946447668,
            979.8
          ],
          [
            140.32228732432097,
            37.62432673360299,
            976.7
          ],
          [
            140.32239693774295,
            37.6243040027293,
            974.8
          ],
          [
            140.32250655116493,
            37.624281271855615,
            971.7
          ],
          [
            140.32261616458692,
            37.62425854098193,
            969.9
          ],
          [
            140.32271805831243,
            37.624219676757974,
            967.3
          ],
          [
            140.32281893722015,
            37.6241786916721,
            965.2
          ],
          [
            140.3229198161279,
            37.624137706586225,
            962.2
          ],
          [
            140.32302069503564,
            37.62409672150036,
            960.2
          ],
          [
            140.3231210319797,
            37.624055070438544,
            958.4
          ],
          [
            140.3232093522475,
            37.62399865304123,
            956.8
          ],
          [
            140.32329767251525,
            37.623942235643916,
            955.3
          ],
          [
            140.32338599278302,
            37.6238858182466,
            954.0
          ],
          [
            140.32347431305078,
            37.62382940084929,
            952.8
          ],
          [
            140.32356263331855,
            37.62377298345197,
            951.8
          ],
          [
            140.3236509535863,
            37.623716566054654,
            951.3
          ],
          [
            140.32373985599926,
            37.623660760516806,
            950.8
          ],
          [
            140.323832108942,
            37.62360847652893,
            950.7
          ],
          [
            140.32392436188474,
            37.62355619254106,
            950.6
          ],
          [
            140.32401661482749,
            37.62350390855318,
            950.6
          ],
          [
            140.32410886777024,
            37.623451624565305,
            950.3
          ],
          [
            140.32420112071296,
            37.623399340577436,
            950.2
          ],
          [
            140.32429456787227,
            37.62334851677657,
            949.6
          ],
          [
            140.32439204866893,
            37.62330262496625,
            949.4
          ],
          [
            140.32448952946555,
            37.62325673315593,
            948.9
          ],
          [
            140.32458701026218,
            37.6232108413456,
            948.5
          ],
          [
            140.3246792685671,
            37.62316005485191,
            948.1
          ],
          [
            140.32475205223753,
            37.623091016118714,
            948.3
          ],
          [
            140.32482483590792,
            37.62302197738552,
            948.4
          ],
          [
            140.32483440707225,
            37.62301289868618,
            948.4
          ]
        ]
      }
    },
    {
      "type": "Feature",
      "properties": {
        "name": "無名",
        "slope_deg": [
          4.716221234338539,
          4.716221234338539,
          4.716221234338539,
          3.290883686067228,
          3.576334374997351,
          2.719505461272635,
          2.719505461272635,
          2.719505461272635,
          2.719505461272635
        ],
        "horizontal_dist_map": 70,
        "slope_dist_map": 70,
        "elevation_diff_map": 4.8,
        "avg_slope_deg_map": 3.9,
        "max_slope_deg_map": 4.7
      },
      "geometry": {
        "type": "LineString",
        "coordinates": [
          [
            140.31904388041488,
            37.62224735766536,
            1055.9
          ],
          [
            140.31899750841683,
            37.62232956065988,
            1054.3
          ],
          [
            140.31895113641875,
            37.6224117636544,
            1053.8
          ],
          [
            140.3189047644207,
            37.62249396664891,
            1053.0
          ],
          [
            140.3188577748021,
            37.62257594670955,
            1052.6
          ],
          [
            140.3188105150509,
            37.622657829264185,
            1052.0
          ],
          [
            140.31876192172132,
            37.62273918693924,
            1051.3
          ],
          [
            140.3187087467961,
            37.62281874135623,
            1051.1
          ],
          [
            140.3187082415564,
            37.62281949723973,
            1051.1
          ]
        ]
      }
    }
  ]
}