{
  "type": "FeatureCollection",
  "features": [
    {
      "type": "Feature",
      "properties": {
        "name": "トド松ゲレンデ",
        "slope_deg": [
          -2.433606100719861,
          -2.433606100719861,
          -2.433606100719861,
          -4.146688825965815,
          -3.8616074096751394,
          -3.4336303624503275,
          0.4297102894009785,
          4.146688825965815,
          6.701525844729548,
          9.508771958297594,
          8.390627013252388,
          8.390627013252708,
          6.98393746008542,
          6.13573334018705,
          6.13573334018705,
          6.701525844729548,
          7.547725773843047,
          7.688447769902681,
          7.266008446995867,
          6.135733340186728,
          5.2848210925090795,
          4.573921259900927,
          5.710593137499643,
          5.994092949108534,
          7.829076510059608,
          9.926245506651705,
          9.78720366465624,
          9.369385096487358,
          8.530765609948133,
          6.56019640057118,
          6.56019640057118,
          7.969610394321551,
          8.390627013252388,
          8.670801453591151,
          8.11004782941916,
          9.369385096487358,
          9.09027692082245,
          9.50877195829791,
          9.926245506651705,
          7.547725773843047,
          6.98393746008542,
          6.842773412630876,
          6.842773412630876,
          6.842773412630876,
          5.568737077976444,
          4.7162212343382155,
          4.573921259900927,
          4.431564716436037,
          9.22988624372772,
          10.065169352759717,
          12.270720357815385,
          14.036243467926479,
          13.901350769509243,
          14.842227057911282,
          16.96170588653267,
          18.778033222445426,
          20.430362329285405,
          23.025492008528037,
          20.93185254089275,
          21.80140948635181,
          20.806791012711287,
          21.554019920478787,
          22.04794746356016,
          20.052082146098712,
          19.6719699892005,
          17.6146433000071,
          16.69924423399362,
          16.304198003832074,
          16.83056598321078,
          16.69924423399362,
          17.874511367250427,
          19.417554141579625,
          19.417554141579338,
          20.17838007450879,
          20.43036232928569,
          18.64953875405141,
          15.907551930525962,
          14.574216198038554,
          11.585126224854799,
          10.757967088389877,
          9.926245506651705,
          7.969610394321551,
          8.950558656231918,
          8.670801453591151,
          10.342657140474548,
          11.7225209701022,
          11.034209003250188,
          13.360218444764483,
          13.088732789694,
          14.17097756293297,
          15.242997742901547,
          14.036243467926326,
          14.305551846622015,
          13.360218444764483,
          12.68038349181982,
          11.172136252167116,
          9.50877195829791,
          8.950558656231758,
          7.829076510059608,
          8.390627013252708,
          7.68844776990284,
          7.266008446996026,
          6.983937460085259,
          5.568737077976604,
          4.858462919034255,
          3.7189939731579127,
          3.148096099562824,
          3.1480960995626615,
          3.718993973158075,
          3.2908836860673905,
          3.4336303624504896,
          3.4336303624504896,
          3.4336303624504896
        ],
        "horizontal_dist_map": 1129,
        "slope_dist_map": 1154,
        "elevation_diff_map": 199.6,
        "avg_slope_deg_map": 9.8,
        "max_slope_deg_map": 23.0
      },
      "geometry": {
        "type": "LineString",
        "coordinates": [
          [
            140.81421009612671,
            39.976583149281,
            1195.9
          ],
          [
            140.81414300378205,
            39.976509346046896,
            1195.9
          ],
          [
            140.81407591143739,
            39.976435542812794,
            1196.2
          ],
          [
            140.81400881909272,
            39.97636173957869,
            1196.7
          ],
          [
            140.81394172674806,
            39.97628793634459,
            1197.6
          ],
          [
            140.8138746344034,
            39.97621413311049,
            1198.8
          ],
          [
            140.81378013723477,
            39.976169184979106,
            1198.9
          ],
          [
            140.81366835629962,
            39.976142435281,
            1199.1
          ],
          [
            140.81355657536443,
            39.97611568558289,
            1197.3
          ],
          [
            140.81344479442924,
            39.97608893588478,
            1195.9
          ],
          [
            140.8133330134941,
            39.97606218618668,
            1194.2
          ],
          [
            140.8132212325589,
            39.97603543648857,
            1192.4
          ],
          [
            140.81310945162372,
            39.976008686790465,
            1191.4
          ],
          [
            140.8129967618242,
            39.97598565203629,
            1190.0
          ],
          [
            140.8128799895834,
            39.97597930408492,
            1189.3
          ],
          [
            140.8127632173426,
            39.97597295613356,
            1188.1
          ],
          [
            140.8126464451018,
            39.97596660818219,
            1187.1
          ],
          [
            140.81252967286096,
            39.97596026023082,
            1185.3
          ],
          [
            140.81241290062016,
            39.97595391227945,
            1184.0
          ],
          [
            140.81229612837936,
            39.97594756432809,
            1182.7
          ],
          [
            140.81217935613856,
            39.97594121637672,
            1182.0
          ],
          [
            140.81206258389776,
            39.97593486842535,
            1181.0
          ],
          [
            140.81194581165695,
            39.975928520473985,
            1180.3
          ],
          [
            140.81182903941615,
            39.975922172522615,
            1179.5
          ],
          [
            140.8117125132587,
            39.975914054362214,
            1178.0
          ],
          [
            140.8115966367042,
            39.975901263260084,
            1176.8
          ],
          [
            140.81148076014972,
            39.975888472157955,
            1174.8
          ],
          [
            140.81136488359525,
            39.97587568105583,
            1172.5
          ],
          [
            140.81124900704074,
            39.9758628899537,
            1171.1
          ],
          [
            140.81113313048627,
            39.97585009885157,
            1170.2
          ],
          [
            140.81101725393177,
            39.975837307749444,
            1168.8
          ],
          [
            140.8109013773773,
            39.975824516647315,
            1167.9
          ],
          [
            140.8107855008228,
            39.975811725545185,
            1166.5
          ],
          [
            140.81066962426831,
            39.975798934443056,
            1164.6
          ],
          [
            140.8105537477138,
            39.97578614334093,
            1162.9
          ],
          [
            140.81044086823212,
            39.97576266276566,
            1161.8
          ],
          [
            140.81032844102168,
            39.97573756910255,
            1160.8
          ],
          [
            140.81021601381124,
            39.975712475439444,
            1158.0
          ],
          [
            140.81010358660083,
            39.97568738177634,
            1156.5
          ],
          [
            140.8099911593904,
            39.97566228811323,
            1155.1
          ],
          [
            140.80987873217995,
            39.97563719445012,
            1153.8
          ],
          [
            140.80976630496951,
            39.97561210078701,
            1152.7
          ],
          [
            140.8096538777591,
            39.975587007123906,
            1151.6
          ],
          [
            140.80954019902933,
            39.97556671655533,
            1150.3
          ],
          [
            140.8094238875253,
            39.97555653007655,
            1149.0
          ],
          [
            140.80930757602127,
            39.975546343597784,
            1147.9
          ],
          [
            140.80919126451724,
            39.97553615711901,
            1147.7
          ],
          [
            140.8090749530132,
            39.97552597064024,
            1147.0
          ],
          [
            140.80895864150918,
            39.975515784161466,
            1145.8
          ],
          [
            140.80885068832583,
            39.97554153296696,
            1144.8
          ],
          [
            140.80874618650924,
            39.975582120380714,
            1141.2
          ],
          [
            140.80864168469267,
            39.97562270779447,
            1139.9
          ],
          [
            140.80853718287608,
            39.975663295208236,
            1137.1
          ],
          [
            140.80843268105951,
            39.97570388262199,
            1134.8
          ],
          [
            140.80832817924292,
            39.97574447003575,
            1131.3
          ],
          [
            140.80822367742635,
            39.975785057449514,
            1129.3
          ],
          [
            140.80811917560976,
            39.97582564486327,
            1124.9
          ],
          [
            140.8080146737932,
            39.975866232277035,
            1121.2
          ],
          [
            140.8079101719766,
            39.97590681969079,
            1116.4
          ],
          [
            140.80780567016004,
            39.97594740710455,
            1112.3
          ],
          [
            140.80770116834344,
            39.97598799451831,
            1109.6
          ],
          [
            140.80759666652688,
            39.97602858193207,
            1105.2
          ],
          [
            140.80749216471028,
            39.97606916934583,
            1101.2
          ],
          [
            140.80738905971705,
            39.97611168424474,
            1096.5
          ],
          [
            140.80728925304305,
            39.97615875051478,
            1093.4
          ],
          [
            140.80718944636905,
            39.97620581678482,
            1090.6
          ],
          [
            140.80708963969505,
            39.97625288305486,
            1086.9
          ],
          [
            140.80698983302105,
            39.976299949324904,
            1083.8
          ],
          [
            140.80689002634705,
            39.976347015594946,
            1081.4
          ],
          [
            140.80679021967305,
            39.97639408186499,
            1078.9
          ],
          [
            140.80669041299905,
            39.976441148135024,
            1074.8
          ],
          [
            140.80659060632505,
            39.976488214405066,
            1071.8
          ],
          [
            140.80649079965104,
            39.97653528067511,
            1068.5
          ],
          [
            140.80639099297704,
            39.97658234694515,
            1064.8
          ],
          [
            140.80629118630304,
            39.97662941321519,
            1060.7
          ],
          [
            140.806191379629,
            39.976676479485235,
            1057.1
          ],
          [
            140.806091572955,
            39.97672354575528,
            1053.6
          ],
          [
            140.805991766281,
            39.97677061202531,
            1051.3
          ],
          [
            140.805891959607,
            39.976817678295355,
            1049.3
          ],
          [
            140.8057904900055,
            39.97686251842884,
            1046.7
          ],
          [
            140.80568736462183,
            39.97690514199114,
            1045.4
          ],
          [
            140.80558423923816,
            39.97694776555344,
            1043.7
          ],
          [
            140.80548111385446,
            39.97699038911574,
            1042.3
          ],
          [
            140.80537798847078,
            39.97703301267804,
            1041.1
          ],
          [
            140.8052748630871,
            39.97707563624035,
            1039.1
          ],
          [
            140.80517173770343,
            39.97711825980265,
            1037.6
          ],
          [
            140.80506861231976,
            39.97716088336495,
            1035.0
          ],
          [
            140.80496548693606,
            39.97720350692725,
            1032.8
          ],
          [
            140.80486236155238,
            39.977246130489554,
            1031.3
          ],
          [
            140.8047592361687,
            39.977288754051855,
            1028.1
          ],
          [
            140.80465611078503,
            39.977331377614156,
            1025.7
          ],
          [
            140.80455298540136,
            39.97737400117646,
            1022.7
          ],
          [
            140.80444986001766,
            39.97741662473876,
            1020.4
          ],
          [
            140.80434673463398,
            39.97745924830107,
            1018.1
          ],
          [
            140.8042436092503,
            39.97750187186337,
            1015.5
          ],
          [
            140.80414048386663,
            39.97754449542567,
            1013.2
          ],
          [
            140.80403735848296,
            39.97758711898797,
            1011.4
          ],
          [
            140.80393423309926,
            39.97762974255027,
            1010.2
          ],
          [
            140.80383110771558,
            39.97767236611257,
            1008.8
          ],
          [
            140.8037279823319,
            39.97771498967487,
            1006.9
          ],
          [
            140.80362485694823,
            39.97775761323717,
            1005.9
          ],
          [
            140.80351980080056,
            39.97779727577205,
            1004.3
          ],
          [
            140.80341371747633,
            39.977835363024774,
            1003.4
          ],
          [
            140.8033076341521,
            39.9778734502775,
            1001.8
          ],
          [
            140.80320155082788,
            39.977911537530225,
            1001.0
          ],
          [
            140.80309546750362,
            39.977949624782944,
            1000.4
          ],
          [
            140.8029893841794,
            39.97798771203567,
            1000.0
          ],
          [
            140.80288330085517,
            39.978025799288396,
            999.2
          ],
          [
            140.80277721753092,
            39.978063886541115,
            998.8
          ],
          [
            140.8026711342067,
            39.97810197379384,
            998.2
          ],
          [
            140.80256505088246,
            39.97814006104657,
            997.4
          ],
          [
            140.80245896755824,
            39.97817814829929,
            996.9
          ],
          [
            140.80235288423398,
            39.97821623555201,
            996.4
          ]
        ]
      }
    },
    {
      "type": "Feature",
      "properties": {
        "name": "ぶな森ゲレンデ",
        "slope_deg": [
          5.4268124985727555,
          5.4268124985727555,
          5.4268124985727555,
          5.710593137499643,
          5.568737077976444,
          5.568737077976444,
          6.418786730238786,
          5.568737077976766,
          5.852378988915814,
          5.568737077976766,
          5.426812498573079,
          5.4268124985727555,
          4.8584629190340936,
          4.0041729407093225,
          3.4336303624503275,
          3.290883686067228,
          3.433630362450652,
          4.146688825966138,
          4.146688825966138,
          5.4268124985727555,
          6.842773412630876,
          8.390627013252388,
          9.787203664655925,
          9.22988624372772,
          9.648045316098093,
          9.78720366465624,
          12.68038349181982,
          14.842227057911282,
          15.2429977429017,
          16.039943306049665,
          14.43996512100296,
          12.95276451337558,
          14.036243467926479,
          13.49573328079569,
          14.439965121002654,
          15.774985955414008,
          16.567741642975037,
          17.092662950267425,
          17.35402463626132,
          17.35402463626132,
          18.00416160591338,
          17.74467162505717,
          17.223436191131285,
          17.092662950267425,
          15.642246457208486,
          15.109575122340402,
          15.37625124882619,
          14.97598451475675,
          14.97598451475675,
          14.97598451475675,
          15.642246457208788,
          16.567741642974738,
          16.961705886532968,
          17.614643300006804,
          16.43605922463559,
          15.37625124882619,
          14.305551846622015,
          13.495733280795996,
          13.495733280795996,
          13.224551192213651,
          13.631094443421603,
          13.631094443421603,
          12.270720357815385,
          14.17097756293297,
          12.952764513375273,
          13.901350769508936,
          14.17097756293297,
          11.58512622485511,
          12.133880170633535,
          11.44759626368579,
          10.203973721731748,
          10.896152141141194,
          11.034209003250188,
          10.619655276155134,
          12.68038349181982,
          12.270720357815385,
          12.270720357815385,
          12.68038349181982,
          10.619655276155134,
          12.407418527400683,
          12.543973346571923,
          11.585126224854955,
          13.224551192213497,
          12.95276451337558,
          11.30993247402037,
          11.996899307923577,
          11.447596263685636,
          9.369385096487358,
          9.926245506651705,
          9.22988624372772,
          7.406912128495133,
          7.406912128495294,
          5.9940929491083725,
          5.4268124985727555,
          5.852378988915653,
          5.4268124985727555,
          5.710593137499643,
          5.568737077976604,
          5.2848210925090795,
          5.568737077976766,
          4.431564716435877,
          4.004172940709484,
          3.1480960995626615,
          3.1480960995626615,
          3.1480960995626615
        ],
        "horizontal_dist_map": 1040,
        "slope_dist_map": 1063,
        "elevation_diff_map": 197.6,
        "avg_slope_deg_map": 10.5,
        "max_slope_deg_map": 18.0
      },
      "geometry": {
        "type": "LineString",
        "coordinates": [
          [
            140.81393576052523,
            39.976720033950556,
            1194.7
          ],
          [
            140.8138255512965,
            39.97668966703986,
            1193.7
          ],
          [
            140.81371534206775,
            39.97665930012916,
            1192.8
          ],
          [
            140.81360513283903,
            39.976628933218464,
            1191.6
          ],
          [
            140.8134949236103,
            39.976598566307764,
            1190.9
          ],
          [
            140.81338471438156,
            39.976568199397065,
            1189.7
          ],
          [
            140.81327450515283,
            39.976537832486365,
            1188.9
          ],
          [
            140.8131642959241,
            39.97650746557567,
            1187.7
          ],
          [
            140.81305408669536,
            39.97647709866497,
            1186.4
          ],
          [
            140.81294387746664,
            39.97644673175427,
            1185.8
          ],
          [
            140.81283366823791,
            39.97641636484357,
            1184.8
          ],
          [
            140.81272345900916,
            39.97638599793288,
            1183.8
          ],
          [
            140.81261324978044,
            39.97635563102218,
            1182.6
          ],
          [
            140.81250304055172,
            39.97632526411148,
            1182.0
          ],
          [
            140.81239370189064,
            39.97629315005617,
            1181.4
          ],
          [
            140.81228534185956,
            39.97625907198565,
            1181.0
          ],
          [
            140.8121769818285,
            39.97622499391514,
            1180.2
          ],
          [
            140.8120686217974,
            39.97619091584462,
            1179.7
          ],
          [
            140.81196026176633,
            39.976156837774106,
            1179.0
          ],
          [
            140.81185190173528,
            39.97612275970359,
            1178.1
          ],
          [
            140.81174030992878,
            39.97613506234193,
            1177.3
          ],
          [
            140.81162783542237,
            39.97616003301636,
            1175.9
          ],
          [
            140.81151536091596,
            39.9761850036908,
            1174.2
          ],
          [
            140.81140288640958,
            39.97620997436523,
            1172.2
          ],
          [
            140.81129041190317,
            39.97623494503967,
            1170.4
          ],
          [
            140.81117793739676,
            39.9762599157141,
            1169.4
          ],
          [
            140.81106546289035,
            39.97628488638854,
            1167.4
          ],
          [
            140.81095298838395,
            39.97630985706297,
            1165.3
          ],
          [
            140.81084051387757,
            39.9763348277374,
            1161.4
          ],
          [
            140.81072803937116,
            39.97635979841184,
            1158.8
          ],
          [
            140.81061556486475,
            39.97638476908627,
            1156.5
          ],
          [
            140.81050309035834,
            39.97640973976071,
            1153.8
          ],
          [
            140.81039061585193,
            39.97643471043514,
            1151.1
          ],
          [
            140.81027814134555,
            39.97645968110958,
            1149.6
          ],
          [
            140.81016566683914,
            39.97648465178401,
            1146.5
          ],
          [
            140.81005319233273,
            39.976509622458444,
            1144.2
          ],
          [
            140.80994553051391,
            39.97654490363586,
            1140.8
          ],
          [
            140.8098381066897,
            39.97658069468304,
            1138.3
          ],
          [
            140.80973068286548,
            39.97661648573021,
            1134.6
          ],
          [
            140.80962325904125,
            39.97665227677739,
            1131.9
          ],
          [
            140.80951583521704,
            39.97668806782457,
            1128.3
          ],
          [
            140.8094084113928,
            39.97672385887174,
            1125.8
          ],
          [
            140.80930098756858,
            39.97675964991892,
            1121.6
          ],
          [
            140.80919356374437,
            39.9767954409661,
            1119.1
          ],
          [
            140.80908613992014,
            39.976831232013275,
            1115.9
          ],
          [
            140.80897871609594,
            39.97686702306045,
            1113.5
          ],
          [
            140.8088712922717,
            39.976902814107625,
            1110.4
          ],
          [
            140.80876386844747,
            39.9769386051548,
            1108.3
          ],
          [
            140.80865644462327,
            39.97697439620198,
            1104.9
          ],
          [
            140.80854902079903,
            39.97701018724916,
            1102.8
          ],
          [
            140.808442090156,
            39.977046811703055,
            1099.7
          ],
          [
            140.80833648268523,
            39.977085672131636,
            1097.6
          ],
          [
            140.80823087521446,
            39.97712453256022,
            1093.7
          ],
          [
            140.8081252677437,
            39.97716339298881,
            1090.9
          ],
          [
            140.80801966027292,
            39.97720225341739,
            1087.5
          ],
          [
            140.80791405280215,
            39.97724111384597,
            1084.9
          ],
          [
            140.80780844533137,
            39.97727997427455,
            1081.9
          ],
          [
            140.80770283786063,
            39.97731883470314,
            1079.9
          ],
          [
            140.80759723038986,
            39.97735769513172,
            1077.3
          ],
          [
            140.8074916229191,
            39.977396555560304,
            1075.3
          ],
          [
            140.80738601544832,
            39.977435415988886,
            1072.3
          ],
          [
            140.80728040797754,
            39.977474276417475,
            1070.5
          ],
          [
            140.80717480050677,
            39.977513136846056,
            1067.6
          ],
          [
            140.807069193036,
            39.97755199727464,
            1065.6
          ],
          [
            140.80696358556523,
            39.97759085770322,
            1063.6
          ],
          [
            140.80685797809446,
            39.97762971813181,
            1060.4
          ],
          [
            140.8067523706237,
            39.97766857856039,
            1058.4
          ],
          [
            140.80663967520368,
            39.97769219151349,
            1055.7
          ],
          [
            140.8065259838635,
            39.97771366206016,
            1053.5
          ],
          [
            140.80641229252336,
            39.977735132606824,
            1052.2
          ],
          [
            140.8062986011832,
            39.977756603153495,
            1049.8
          ],
          [
            140.80618490984304,
            39.97777807370016,
            1047.6
          ],
          [
            140.80607121850286,
            39.97779954424682,
            1046.3
          ],
          [
            140.8059575271627,
            39.97782101479349,
            1044.5
          ],
          [
            140.80584383582254,
            39.977842485340155,
            1042.0
          ],
          [
            140.80573014448237,
            39.97786395588682,
            1040.1
          ],
          [
            140.8056164531422,
            39.97788542643349,
            1037.3
          ],
          [
            140.80550276180205,
            39.97790689698015,
            1035.8
          ],
          [
            140.80538907046187,
            39.977928367526815,
            1033.3
          ],
          [
            140.8052753791217,
            39.977949838073485,
            1031.1
          ],
          [
            140.80516168778155,
            39.97797130862015,
            1029.8
          ],
          [
            140.80504799644137,
            39.97799277916681,
            1027.0
          ],
          [
            140.80493430510123,
            39.97801424971348,
            1024.4
          ],
          [
            140.80482070410002,
            39.978036003014765,
            1022.9
          ],
          [
            140.8047071059673,
            39.97805776529417,
            1020.4
          ],
          [
            140.80459350783457,
            39.97807952757357,
            1017.8
          ],
          [
            140.80447990970185,
            39.97810128985297,
            1016.4
          ],
          [
            140.80436631156914,
            39.97812305213237,
            1014.4
          ],
          [
            140.8042527134364,
            39.97814481441177,
            1012.3
          ],
          [
            140.80413911530368,
            39.97816657669117,
            1011.2
          ],
          [
            140.80402551717097,
            39.978188338970575,
            1009.4
          ],
          [
            140.80391191903823,
            39.97821010124998,
            1007.9
          ],
          [
            140.8037983209055,
            39.97823186352938,
            1007.1
          ],
          [
            140.8036847227728,
            39.97825362580878,
            1006.0
          ],
          [
            140.8035711246401,
            39.97827538808818,
            1005.2
          ],
          [
            140.80345752650734,
            39.97829715036758,
            1004.1
          ],
          [
            140.80334392837463,
            39.978318912646984,
            1003.0
          ],
          [
            140.803230822855,
            39.97834196636052,
            1002.2
          ],
          [
            140.803119955483,
            39.97837088760044,
            1001.2
          ],
          [
            140.80300908811103,
            39.97839980884037,
            1000.2
          ],
          [
            140.80289822073905,
            39.978428730080296,
            999.3
          ],
          [
            140.80278735336705,
            39.97845765132022,
            998.3
          ],
          [
            140.80267648599508,
            39.97848657256015,
            998.1
          ],
          [
            140.8025656186231,
            39.978515493800074,
            997.4
          ],
          [
            140.80245475125113,
            39.97854441504,
            997.1
          ]
        ]
      }
    }
  ]
}