{
  "type": "FeatureCollection",
  "features": [
    {
      "type": "Feature",
      "properties": {
        "name": "【D】アイガー",
        "slope_deg": [
          2.5765718302690908,
          2.5765718302690908,
          2.5765718302690908,
          2.2906100426383995,
          3.005269359690129,
          3.433630362450652,
          4.0041729407093225,
          4.716221234338539,
          5.2848210925090795,
          6.277298489597683,
          11.309932474020215,
          15.774985955414008,
          22.782405730481635,
          25.641005824305072,
          28.36904629327848,
          28.14678121412189,
          27.36156482027085,
          29.574910497101147,
          25.98923358383301,
          26.67952810669144,
          24.22774531795417,
          24.584094695437884,
          26.450345065034302,
          27.699472808055,
          28.810793742973065,
          28.590384060790807,
          26.45034506503404,
          24.584094695437884,
          22.538450040827975,
          19.6719699892005,
          22.78240573048191,
          21.80140948635181,
          25.056088833535423,
          24.93842765545712,
          22.660536301999084,
          25.056088833535423,
          22.538450040827975,
          24.584094695437884,
          24.4655351106628,
          21.554019920478787,
          22.293629159694188,
          19.290046219188735,
          18.39196625070533,
          19.417554141579338,
          17.484427323220586,
          18.906332035086663,
          18.133621430820558,
          16.039943306049665,
          16.567741642975037,
          14.439965121002654,
          13.631094443421603,
          12.95276451337558,
          12.68038349181982,
          11.996899307923577,
          11.996899307923577,
          12.95276451337558,
          11.7225209701022,
          13.360218444764483,
          13.901350769508936,
          12.816647648997312,
          14.708303899682749,
          13.631094443421603,
          13.631094443421603,
          13.360218444764483,
          11.172136252167274,
          10.896152141141194,
          9.648045316098093,
          10.619655276155134,
          10.619655276155134,
          10.619655276155134
        ],
        "horizontal_dist_map": 699,
        "slope_dist_map": 741,
        "elevation_diff_map": 219.7,
        "avg_slope_deg_map": 16.5,
        "max_slope_deg_map": 29.6
      },
      "geometry": {
        "type": "LineString",
        "coordinates": [
          [
            138.4008135148238,
            36.05071799720512,
            1707.4
          ],
          [
            138.40090544131795,
            36.05076849008566,
            1706.5
          ],
          [
            138.4009973678121,
            36.0508189829662,
            1706.4
          ],
          [
            138.40108929430622,
            36.05086947584674,
            1705.9
          ],
          [
            138.40118122080037,
            36.050919968727285,
            1705.6
          ],
          [
            138.40127726716753,
            36.05096423528567,
            1704.9
          ],
          [
            138.40137985596246,
            36.05099861433956,
            1704.3
          ],
          [
            138.4014824447574,
            36.051032993393456,
            1703.5
          ],
          [
            138.40158503355232,
            36.05106737244735,
            1702.8
          ],
          [
            138.40168762234725,
            36.05110175150124,
            1701.6
          ],
          [
            138.40179021114218,
            36.051136130555136,
            1700.6
          ],
          [
            138.40189279993712,
            36.05117050960903,
            1699.1
          ],
          [
            138.40199538873205,
            36.05120488866292,
            1694.8
          ],
          [
            138.40209797752698,
            36.05123926771682,
            1690.3
          ],
          [
            138.40220603585033,
            36.05125523334626,
            1683.8
          ],
          [
            138.40231664439406,
            36.05126261353881,
            1679.9
          ],
          [
            138.4024272529378,
            36.05126999373136,
            1673.2
          ],
          [
            138.40253786148153,
            36.05127737392391,
            1668.9
          ],
          [
            138.40264847002527,
            36.05128475411645,
            1663.1
          ],
          [
            138.402759078569,
            36.051292134309,
            1657.2
          ],
          [
            138.40286968711277,
            36.05129951450155,
            1653.7
          ],
          [
            138.4029802956565,
            36.0513068946941,
            1648.8
          ],
          [
            138.40309090420024,
            36.05131427488664,
            1645.1
          ],
          [
            138.40319948580026,
            36.05133112054415,
            1638.9
          ],
          [
            138.40330666913962,
            36.05135449582914,
            1633.8
          ],
          [
            138.403413852479,
            36.05137787111413,
            1627.8
          ],
          [
            138.40352103581836,
            36.05140124639912,
            1623.1
          ],
          [
            138.40362505429877,
            36.051432420770944,
            1617.1
          ],
          [
            138.40372835173324,
            36.05146537199923,
            1613.9
          ],
          [
            138.4038316491677,
            36.05149832322751,
            1609.5
          ],
          [
            138.40393494660216,
            36.0515312744558,
            1606.5
          ],
          [
            138.40403824403663,
            36.05156422568408,
            1602.8
          ],
          [
            138.40414154147112,
            36.05159717691237,
            1597.1
          ],
          [
            138.40424483890558,
            36.05163012814065,
            1593.5
          ],
          [
            138.40434780821096,
            36.05166374866518,
            1587.8
          ],
          [
            138.40445070836213,
            36.05169751024591,
            1584.2
          ],
          [
            138.4045536085133,
            36.05173127182664,
            1580.4
          ],
          [
            138.4046565086645,
            36.05176503340737,
            1574.8
          ],
          [
            138.40475940881566,
            36.0517987949881,
            1571.2
          ],
          [
            138.40486230896684,
            36.05183255656883,
            1565.9
          ],
          [
            138.40496520911802,
            36.051866318149564,
            1562.2
          ],
          [
            138.40506767096653,
            36.05190094210077,
            1559.0
          ],
          [
            138.4051699241247,
            36.05193597665502,
            1554.8
          ],
          [
            138.40527217728285,
            36.051971011209254,
            1551.9
          ],
          [
            138.40537443044104,
            36.05200604576349,
            1548.9
          ],
          [
            138.4054766835992,
            36.05204108031773,
            1544.9
          ],
          [
            138.40557893675737,
            36.052076114871966,
            1542.2
          ],
          [
            138.40568118991553,
            36.05211114942621,
            1538.2
          ],
          [
            138.4057834430737,
            36.05214618398045,
            1535.8
          ],
          [
            138.40588569623185,
            36.052181218534685,
            1533.4
          ],
          [
            138.40598495383998,
            36.05222118703604,
            1530.3
          ],
          [
            138.40608143875,
            36.052265722426775,
            1527.9
          ],
          [
            138.40617792366,
            36.05231025781752,
            1526.1
          ],
          [
            138.40627440857006,
            36.05235479320825,
            1524.2
          ],
          [
            138.40637089348007,
            36.052399328598995,
            1521.3
          ],
          [
            138.4064673783901,
            36.05244386398973,
            1519.4
          ],
          [
            138.4065666904639,
            36.052483521015475,
            1517.6
          ],
          [
            138.40667044896486,
            36.05251550558346,
            1515.0
          ],
          [
            138.40677420746582,
            36.05254749015144,
            1513.0
          ],
          [
            138.4068779659668,
            36.05257947471943,
            1509.9
          ],
          [
            138.40698253765103,
            36.05260946627995,
            1507.7
          ],
          [
            138.40708928874838,
            36.05263411637957,
            1505.9
          ],
          [
            138.40719603984576,
            36.0526587664792,
            1502.5
          ],
          [
            138.40730279094313,
            36.05268341657882,
            1500.2
          ],
          [
            138.40741004371174,
            36.052706314972646,
            1498.0
          ],
          [
            138.40751923550985,
            36.052722442778425,
            1496.4
          ],
          [
            138.407628427308,
            36.052738570584204,
            1494.6
          ],
          [
            138.40773761910611,
            36.05275469838998,
            1492.5
          ],
          [
            138.40784681090426,
            36.05277082619576,
            1491.2
          ],
          [
            138.40795600270238,
            36.05278695400154,
            1488.9
          ]
        ]
      }
    },
    {
      "type": "Feature",
      "properties": {
        "name": "【F】メンヒ",
        "slope_deg": [
          16.43605922463589,
          16.43605922463589,
          16.43605922463589,
          16.304198003832376,
          15.642246457208788,
          14.84222705791098,
          15.109575122340402,
          15.109575122340402,
          15.774985955414008,
          16.304198003832376,
          15.642246457208788,
          15.907551930525962,
          14.305551846622015,
          12.543973346572233,
          11.309932474020215,
          9.78720366465624,
          9.09027692082245,
          7.829076510059608,
          6.135733340186728,
          4.573921259900602,
          3.576334374997351,
          3.005269359689804,
          3.576334374997351,
          4.289153328819018,
          5.142764557884112,
          5.852378988915814,
          6.56019640057118,
          7.547725773843367,
          7.829076510059608,
          8.250387228905435,
          8.250387228905435,
          7.547725773843047,
          8.530765609948133,
          8.250387228905435,
          8.11004782941916,
          9.787203664655925,
          9.78720366465624,
          13.631094443421603,
          15.2429977429017,
          17.09266295026772,
          17.223436191131285,
          15.642246457208788,
          16.961705886532968,
          15.37625124882619,
          17.09266295026772,
          16.830565983210477,
          16.69924423399362,
          16.567741642974738,
          15.109575122340402,
          16.304198003832376,
          14.975984514756448,
          15.907551930525962,
          15.642246457208788,
          15.642246457208788,
          15.642246457208788
        ],
        "horizontal_dist_map": 548,
        "slope_dist_map": 562,
        "elevation_diff_map": 117.3,
        "avg_slope_deg_map": 11.8,
        "max_slope_deg_map": 17.2
      },
      "geometry": {
        "type": "LineString",
        "coordinates": [
          [
            138.4070738952142,
            36.0498078047085,
            1573.4
          ],
          [
            138.40713277156556,
            36.049884199430856,
            1570.9
          ],
          [
            138.40719164791693,
            36.04996059415322,
            1567.9
          ],
          [
            138.40725052426828,
            36.050036988875576,
            1564.5
          ],
          [
            138.40730940061962,
            36.05011338359793,
            1561.6
          ],
          [
            138.40736827697097,
            36.05018977832029,
            1559.2
          ],
          [
            138.40743022265244,
            36.05026434584137,
            1556.7
          ],
          [
            138.40750222535507,
            36.05033292632251,
            1553.9
          ],
          [
            138.4075742280577,
            36.05040150680365,
            1550.8
          ],
          [
            138.40764623076035,
            36.05047008728479,
            1548.4
          ],
          [
            138.407718233463,
            36.050538667765935,
            1545.4
          ],
          [
            138.4077902361656,
            36.050607248247076,
            1542.2
          ],
          [
            138.40786223886823,
            36.05067582872822,
            1539.6
          ],
          [
            138.40793424157087,
            36.05074440920936,
            1537.0
          ],
          [
            138.40800057998453,
            36.05081658046328,
            1535.2
          ],
          [
            138.40806502809545,
            36.05088995004017,
            1533.3
          ],
          [
            138.40812947620637,
            36.05096331961707,
            1531.6
          ],
          [
            138.40819392431726,
            36.05103668919397,
            1530.1
          ],
          [
            138.40825837242818,
            36.05111005877087,
            1528.8
          ],
          [
            138.4083228205391,
            36.05118342834776,
            1527.8
          ],
          [
            138.40838726865002,
            36.051256797924665,
            1527.3
          ],
          [
            138.4084517167609,
            36.05133016750156,
            1526.9
          ],
          [
            138.40851616487183,
            36.051403537078464,
            1526.3
          ],
          [
            138.4085818668601,
            36.05147616503756,
            1525.7
          ],
          [
            138.4086481106945,
            36.05154847251657,
            1524.8
          ],
          [
            138.40871435452885,
            36.05162077999558,
            1523.9
          ],
          [
            138.40878059836325,
            36.05169308747459,
            1522.7
          ],
          [
            138.40884684219765,
            36.0517653949536,
            1521.6
          ],
          [
            138.40891118356438,
            36.05183881748347,
            1520.2
          ],
          [
            138.4089748212565,
            36.05191265244242,
            1518.6
          ],
          [
            138.4090384589486,
            36.05198648740137,
            1517.2
          ],
          [
            138.40910209664074,
            36.05206032236032,
            1515.8
          ],
          [
            138.4091581004415,
            36.05213797965114,
            1514.4
          ],
          [
            138.40921076162695,
            36.05221731060806,
            1513.3
          ],
          [
            138.40926342281242,
            36.05229664156497,
            1511.2
          ],
          [
            138.40931608399785,
            36.05237597252189,
            1510.0
          ],
          [
            138.40936874518331,
            36.052455303478794,
            1508.7
          ],
          [
            138.40941694259845,
            36.05253613358941,
            1506.4
          ],
          [
            138.40944867075234,
            36.052622494888254,
            1504.3
          ],
          [
            138.40948039890625,
            36.052708856187095,
            1500.3
          ],
          [
            138.40951212706017,
            36.05279521748594,
            1497.8
          ],
          [
            138.40954385521408,
            36.05288157878478,
            1494.1
          ],
          [
            138.40957615763415,
            36.05296778101334,
            1491.9
          ],
          [
            138.40961604008038,
            36.05305188359381,
            1489.1
          ],
          [
            138.4096559225266,
            36.053135986174276,
            1485.6
          ],
          [
            138.40969580497284,
            36.05322008875474,
            1483.1
          ],
          [
            138.40973568741907,
            36.05330419133521,
            1479.6
          ],
          [
            138.4097755698653,
            36.053388293915674,
            1477.0
          ],
          [
            138.40981545231153,
            36.05347239649614,
            1473.6
          ],
          [
            138.40985533475776,
            36.05355649907661,
            1471.2
          ],
          [
            138.409895217204,
            36.05364060165708,
            1468.8
          ],
          [
            138.40993509965023,
            36.053724704237545,
            1465.3
          ],
          [
            138.40997498209646,
            36.05380880681801,
            1462.9
          ],
          [
            138.4100148645427,
            36.05389290939848,
            1459.8
          ],
          [
            138.41005474698892,
            36.053977011978944,
            1457.6
          ]
        ]
      }
    },
    {
      "type": "Feature",
      "properties": {
        "name": "【H】",
        "slope_deg": [
          4.858462919034416,
          4.858462919034416,
          4.858462919034416,
          8.250387228905435,
          11.034209003250188,
          13.088732789694308,
          14.305551846622015,
          13.631094443421603,
          14.17097756293297,
          15.509334522674754,
          15.774985955414008,
          16.304198003832376,
          18.26288994219419,
          17.744671625056874,
          18.133621430820266,
          18.262889942193894,
          14.97598451475675,
          13.901350769509243,
          10.757967088390194,
          8.810732985984973,
          9.22988624372772,
          9.22988624372772,
          9.22988624372772
        ],
        "horizontal_dist_map": 226,
        "slope_dist_map": 232,
        "elevation_diff_map": 49.6,
        "avg_slope_deg_map": 12.0,
        "max_slope_deg_map": 18.3
      },
      "geometry": {
        "type": "LineString",
        "coordinates": [
          [
            138.40679916801437,
            36.05467989345282,
            1529.7
          ],
          [
            138.40687866054117,
            36.054617001039254,
            1529.3
          ],
          [
            138.40695815306793,
            36.05455410862569,
            1529.1
          ],
          [
            138.40703764559473,
            36.054491216212114,
            1528.4
          ],
          [
            138.40709289057153,
            36.05441411588238,
            1526.3
          ],
          [
            138.40714134144216,
            36.05433303452809,
            1523.5
          ],
          [
            138.40718979231275,
            36.05425195317381,
            1521.3
          ],
          [
            138.40723824318337,
            36.05417087181952,
            1519.1
          ],
          [
            138.407286694054,
            36.05408979046524,
            1516.1
          ],
          [
            138.4073351449246,
            36.05400870911095,
            1513.8
          ],
          [
            138.4073835957952,
            36.05392762775667,
            1511.2
          ],
          [
            138.40743204666583,
            36.05384654640238,
            1508.0
          ],
          [
            138.40748049753643,
            36.0537654650481,
            1504.8
          ],
          [
            138.40752894840705,
            36.05368438369382,
            1502.1
          ],
          [
            138.40758727177064,
            36.05360908906664,
            1498.0
          ],
          [
            138.40766678511383,
            36.05354621487162,
            1495.2
          ],
          [
            138.40774629845706,
            36.053483340676614,
            1491.7
          ],
          [
            138.40783252553715,
            36.05342871819394,
            1488.9
          ],
          [
            138.40793493851308,
            36.053393989454385,
            1487.3
          ],
          [
            138.40803735148904,
            36.05335926071483,
            1485.3
          ],
          [
            138.408139764465,
            36.05332453197527,
            1484.1
          ],
          [
            138.40824938875113,
            36.05331220966644,
            1482.7
          ],
          [
            138.40835963120952,
            36.053301808095085,
            1480.8
          ]
        ]
      }
    },
    {
      "type": "Feature",
      "properties": {
        "name": "【E】ブライトホーン",
        "slope_deg": [
          8.670801453590833,
          8.670801453590833,
          8.670801453590833,
          8.810732985984973,
          8.390627013252708,
          8.810732985984973,
          9.09027692082245,
          8.250387228905435,
          8.9505586562316,
          9.22988624372772,
          8.11004782941916,
          9.09027692082245,
          8.670801453591151,
          7.406912128495294,
          8.250387228905435,
          7.688447769903003,
          6.983937460085098,
          7.547725773843047,
          6.98393746008542,
          6.56019640057118,
          7.266008446996189,
          7.547725773843047,
          7.547725773843047,
          8.11004782941916,
          7.829076510059608,
          6.98393746008542,
          6.418786730238786,
          6.277298489597361,
          6.418786730238786,
          6.701525844729227,
          6.701525844729548,
          6.560196400571501,
          6.418786730238786,
          5.994092949108534,
          6.56019640057118,
          6.277298489597361,
          5.994092949108213,
          6.418786730238786,
          6.135733340186728,
          6.418786730238786,
          6.701525844729548,
          6.277298489597683,
          6.135733340186728,
          5.2848210925090795,
          4.7162212343382155,
          5.142764557884112,
          5.426812498573079,
          6.135733340186728,
          6.560196400571501,
          6.701525844729548,
          7.125016348901798,
          6.560196400571501,
          6.135733340186728,
          5.710593137499643,
          4.7162212343382155,
          4.573921259900927,
          4.146688825966138,
          4.146688825966138,
          3.290883686067228,
          3.290883686067228,
          3.290883686067228
        ],
        "horizontal_dist_map": 608,
        "slope_dist_map": 613,
        "elevation_diff_map": 71.2,
        "avg_slope_deg_map": 6.6,
        "max_slope_deg_map": 9.2
      },
      "geometry": {
        "type": "LineString",
        "coordinates": [
          [
            138.4086287581953,
            36.05335406401393,
            1477.0
          ],
          [
            138.4087116603748,
            36.05341398255891,
            1475.4
          ],
          [
            138.4087945625543,
            36.053473901103885,
            1473.9
          ],
          [
            138.4088774647338,
            36.05353381964887,
            1472.5
          ],
          [
            138.40896036691328,
            36.05359373819385,
            1470.9
          ],
          [
            138.40904359842665,
            36.05365334718601,
            1469.2
          ],
          [
            138.40912865565357,
            36.05371124012399,
            1468.0
          ],
          [
            138.40921371288053,
            36.05376913306196,
            1466.3
          ],
          [
            138.40929877010745,
            36.053827025999944,
            1464.5
          ],
          [
            138.40938382733438,
            36.053884918937925,
            1463.4
          ],
          [
            138.4094690407893,
            36.053942659879304,
            1461.7
          ],
          [
            138.40955450028775,
            36.05400016144118,
            1459.8
          ],
          [
            138.40963995978618,
            36.05405766300306,
            1458.8
          ],
          [
            138.40972541928463,
            36.054115164564934,
            1457.0
          ],
          [
            138.40981087878308,
            36.05417266612681,
            1455.6
          ],
          [
            138.40989633828153,
            36.05423016768869,
            1454.6
          ],
          [
            138.40998179777995,
            36.054287669250556,
            1453.0
          ],
          [
            138.4100672572784,
            36.05434517081243,
            1451.6
          ],
          [
            138.41015271677685,
            36.05440267237431,
            1450.7
          ],
          [
            138.41023817627527,
            36.054460173936185,
            1449.3
          ],
          [
            138.41032363577372,
            36.05451767549806,
            1448.1
          ],
          [
            138.41040909527217,
            36.05457517705994,
            1447.0
          ],
          [
            138.41049455477062,
            36.054632678621815,
            1445.6
          ],
          [
            138.41058001426904,
            36.05469018018369,
            1444.0
          ],
          [
            138.4106654737675,
            36.05474768174556,
            1442.8
          ],
          [
            138.41074780495956,
            36.054808085588405,
            1441.3
          ],
          [
            138.4108293004662,
            36.05486926473701,
            1440.1
          ],
          [
            138.41091079597282,
            36.05493044388562,
            1439.1
          ],
          [
            138.41099229147946,
            36.05499162303422,
            1438.3
          ],
          [
            138.4110737869861,
            36.05505280218282,
            1436.9
          ],
          [
            138.41115528249273,
            36.05511398133143,
            1435.6
          ],
          [
            138.41123677799936,
            36.05517516048003,
            1434.4
          ],
          [
            138.411318273506,
            36.055236339628635,
            1433.6
          ],
          [
            138.41139976901263,
            36.05529751877724,
            1432.3
          ],
          [
            138.41147676840737,
            36.055362161861886,
            1431.1
          ],
          [
            138.41154772406114,
            36.05543146122124,
            1430.2
          ],
          [
            138.41161867971493,
            36.05550076058059,
            1429.0
          ],
          [
            138.41168963536873,
            36.055570059939946,
            1427.9
          ],
          [
            138.41176059102253,
            36.0556393592993,
            1426.9
          ],
          [
            138.41182304977528,
            36.05571380058552,
            1425.7
          ],
          [
            138.4118845476314,
            36.05578882336144,
            1424.7
          ],
          [
            138.4119460454875,
            36.05586384613736,
            1423.4
          ],
          [
            138.4120075433436,
            36.05593886891328,
            1422.2
          ],
          [
            138.41206904119971,
            36.0560138916892,
            1421.3
          ],
          [
            138.41213053905582,
            36.056088914465114,
            1420.4
          ],
          [
            138.41219203691193,
            36.05616393724103,
            1419.7
          ],
          [
            138.412251765498,
            36.05623988932709,
            1418.9
          ],
          [
            138.41231080642987,
            36.05631620260395,
            1417.7
          ],
          [
            138.4123698473617,
            36.05639251588082,
            1416.6
          ],
          [
            138.41242888829353,
            36.05646882915769,
            1415.4
          ],
          [
            138.41248792922536,
            36.05654514243455,
            1414.3
          ],
          [
            138.41254697015722,
            36.05662145571142,
            1413.0
          ],
          [
            138.41260601108905,
            36.056697768988286,
            1411.6
          ],
          [
            138.41264647247746,
            36.05678166052413,
            1410.8
          ],
          [
            138.4126866166608,
            36.05686568144216,
            1410.0
          ],
          [
            138.41272676084418,
            36.056949702360185,
            1409.0
          ],
          [
            138.41275865449595,
            36.05703519828345,
            1408.3
          ],
          [
            138.4127656799154,
            36.05712514007454,
            1407.6
          ],
          [
            138.41277270533485,
            36.05721508186563,
            1407.1
          ],
          [
            138.4127797307543,
            36.05730502365671,
            1406.1
          ],
          [
            138.41278675617374,
            36.0573949654478,
            1406.0
          ]
        ]
      }
    },
    {
      "type": "Feature",
      "properties": {
        "name": "【B】ラバーホーン",
        "slope_deg": [
          2.0045340321060343,
          2.0045340321060343,
          2.0045340321060343,
          2.719505461272635,
          3.433630362450652,
          4.0041729407093225,
          4.573921259900927,
          5.568737077976766,
          5.994092949108213,
          6.56019640057118,
          6.135733340186728,
          6.983937460085098,
          7.125016348901798,
          8.11004782941916,
          9.50877195829791,
          9.50877195829791,
          11.034209003250501,
          12.407418527400683,
          12.816647648997312,
          14.439965121002654,
          15.242997742901395,
          16.039943306049665,
          16.567741642975037,
          17.48442732322088,
          18.52084947747122,
          18.39196625070563,
          20.052082146098424,
          19.417554141579338,
          19.290046219188735,
          18.778033222445426,
          17.874511367250427,
          17.092662950267425,
          16.43605922463559,
          16.43605922463559,
          15.37625124882619,
          13.901350769509243,
          13.631094443421603,
          14.036243467926479,
          13.901350769508936,
          15.37625124882619,
          15.774985955414008,
          15.37625124882619,
          15.509334522675056,
          15.242997742901395,
          16.17215901578243,
          16.304198003832376,
          16.961705886532968,
          19.162339354972016,
          17.6146433000071,
          19.034434354835135,
          18.906332035086372,
          17.223436191131583,
          19.162339354972016,
          18.133621430820558,
          18.64953875405141,
          20.806791012711003,
          19.290046219188735,
          20.681521678200784,
          20.17838007450879,
          18.133621430820558,
          19.162339354971724,
          16.961705886532968,
          17.6146433000071,
          16.039943306049665,
          12.407418527400994,
          10.896152141141194,
          7.547725773843047,
          6.135733340186728,
          5.142764557884112,
          5.142764557884112,
          5.142764557884112
        ],
        "horizontal_dist_map": 703,
        "slope_dist_map": 727,
        "elevation_diff_map": 169.6,
        "avg_slope_deg_map": 13.1,
        "max_slope_deg_map": 20.8
      },
      "geometry": {
        "type": "LineString",
        "coordinates": [
          [
            138.4003207676602,
            36.05130384721479,
            1699.4
          ],
          [
            138.40041291669564,
            36.05135407284744,
            1699.4
          ],
          [
            138.40050506573107,
            36.05140429848009,
            1699.0
          ],
          [
            138.40059721476652,
            36.051454524112735,
            1698.8
          ],
          [
            138.40068936380197,
            36.05150474974539,
            1698.0
          ],
          [
            138.4007815128374,
            36.05155497537804,
            1697.5
          ],
          [
            138.40087366187285,
            36.05160520101069,
            1696.6
          ],
          [
            138.4009658109083,
            36.051655426643336,
            1696.0
          ],
          [
            138.40105795994373,
            36.051705652275984,
            1694.8
          ],
          [
            138.40114721496536,
            36.05175897242221,
            1693.6
          ],
          [
            138.40123152900452,
            36.05181757586641,
            1692.4
          ],
          [
            138.40131584304368,
            36.0518761793106,
            1691.4
          ],
          [
            138.40139992934638,
            36.05193496899979,
            1690.5
          ],
          [
            138.40147268818833,
            36.05200302239207,
            1688.7
          ],
          [
            138.40154544703032,
            36.05207107578435,
            1687.4
          ],
          [
            138.40161820587227,
            36.05213912917663,
            1685.7
          ],
          [
            138.40169096471422,
            36.052207182568914,
            1683.8
          ],
          [
            138.4017637235562,
            36.05227523596119,
            1682.0
          ],
          [
            138.40183648239815,
            36.05234328935347,
            1679.6
          ],
          [
            138.40190924124013,
            36.052411342745756,
            1676.9
          ],
          [
            138.40198200008209,
            36.05247939613803,
            1674.7
          ],
          [
            138.40205475892404,
            36.052547449530316,
            1671.7
          ],
          [
            138.40212751776602,
            36.0526155029226,
            1668.7
          ],
          [
            138.40220027660797,
            36.052683556314875,
            1665.4
          ],
          [
            138.40227303544992,
            36.05275160970716,
            1662.8
          ],
          [
            138.4023457942919,
            36.05281966309944,
            1659.1
          ],
          [
            138.40242445959134,
            36.05288256682685,
            1655.3
          ],
          [
            138.40251322204054,
            36.05293666714928,
            1652.1
          ],
          [
            138.40260198448973,
            36.05299076747171,
            1648.2
          ],
          [
            138.40269074693893,
            36.053044867794135,
            1645.0
          ],
          [
            138.40277950938815,
            36.053098968116565,
            1641.3
          ],
          [
            138.40286827183735,
            36.053153068438995,
            1638.5
          ],
          [
            138.40295703428654,
            36.053207168761425,
            1635.3
          ],
          [
            138.40304579673574,
            36.053261269083855,
            1632.7
          ],
          [
            138.40313455918493,
            36.053315369406285,
            1629.5
          ],
          [
            138.40322332163413,
            36.053369469728715,
            1626.7
          ],
          [
            138.40331208408332,
            36.053423570051145,
            1624.3
          ],
          [
            138.40340084653252,
            36.053477670373574,
            1622.8
          ],
          [
            138.40348960898172,
            36.053531770696004,
            1619.8
          ],
          [
            138.40358521297279,
            36.053577286374846,
            1616.7
          ],
          [
            138.40368235488967,
            36.05362087229207,
            1614.4
          ],
          [
            138.40377949680655,
            36.053664458209305,
            1611.8
          ],
          [
            138.40387663872343,
            36.05370804412653,
            1608.5
          ],
          [
            138.4039737806403,
            36.05375163004376,
            1605.7
          ],
          [
            138.4040709225572,
            36.05379521596099,
            1603.3
          ],
          [
            138.40416806447408,
            36.05383880187822,
            1600.9
          ],
          [
            138.40426520639096,
            36.05388238779545,
            1596.9
          ],
          [
            138.4043651648307,
            36.053921238306856,
            1594.0
          ],
          [
            138.40446760416083,
            36.05395591770966,
            1591.1
          ],
          [
            138.40457004349096,
            36.05399059711246,
            1587.0
          ],
          [
            138.40467248282107,
            36.054025276515254,
            1584.2
          ],
          [
            138.4047749221512,
            36.054059955918056,
            1580.2
          ],
          [
            138.4048773614813,
            36.05409463532086,
            1577.4
          ],
          [
            138.40497980081145,
            36.05412931472366,
            1574.6
          ],
          [
            138.40508224014158,
            36.05416399412646,
            1570.3
          ],
          [
            138.4051846794717,
            36.054198673529264,
            1567.1
          ],
          [
            138.40528711880182,
            36.054233352932066,
            1563.9
          ],
          [
            138.40538955813196,
            36.05426803233487,
            1559.4
          ],
          [
            138.40549199746206,
            36.05430271173767,
            1556.3
          ],
          [
            138.4055944367922,
            36.054337391140464,
            1552.0
          ],
          [
            138.40569687612233,
            36.054372070543266,
            1549.2
          ],
          [
            138.40579931545244,
            36.05440674994607,
            1546.3
          ],
          [
            138.40590268382002,
            36.054439556957135,
            1542.4
          ],
          [
            138.40600613237999,
            36.05447220234763,
            1539.8
          ],
          [
            138.40610958093993,
            36.05450484773813,
            1536.5
          ],
          [
            138.4062130294999,
            36.054537493128635,
            1534.8
          ],
          [
            138.40631647805984,
            36.05457013851913,
            1533.6
          ],
          [
            138.4064199266198,
            36.05460278390963,
            1532.1
          ],
          [
            138.40652337517975,
            36.05463542930013,
            1531.2
          ],
          [
            138.4066268237397,
            36.054668074690625,
            1530.5
          ],
          [
            138.40673027229965,
            36.05470072008113,
            1530.0
          ]
        ]
      }
    },
    {
      "type": "Feature",
      "properties": {
        "name": "【C】ユングフラウ",
        "slope_deg": [
          3.290883686067228,
          3.290883686067228,
          3.290883686067228,
          4.0041729407093225,
          4.0041729407093225,
          4.146688825966138,
          4.573921259900927,
          4.716221234338539,
          5.000644597558433,
          6.277298489597361,
          6.277298489597683,
          6.56019640057118,
          7.125016348901798,
          6.842773412630876,
          6.701525844729548,
          6.418786730238786,
          6.418786730238786,
          6.98393746008542,
          7.688447769902681,
          9.50877195829791,
          10.757967088390194,
          11.996899307923577,
          12.95276451337558,
          13.088732789694,
          13.088732789694,
          11.44759626368548,
          11.309932474020215,
          9.78720366465624,
          8.530765609948133,
          8.670801453591151,
          7.829076510059608,
          7.688447769902681,
          7.406912128495294,
          7.969610394321233,
          7.969610394321233,
          8.250387228905435,
          9.090276920822133,
          9.50877195829791,
          9.926245506651705,
          11.172136252167274,
          12.133880170633535,
          14.036243467926479,
          15.37625124882619,
          15.642246457208788,
          17.874511367250133,
          16.304198003832376,
          18.00416160591338,
          18.39196625070533,
          18.133621430820558,
          20.30447370996038,
          19.034434354835426,
          20.556045219583467,
          19.034434354835135,
          18.906332035086663,
          18.39196625070533,
          17.484427323220586,
          16.961705886532968,
          16.567741642974738,
          16.304198003832376,
          14.57421619803886,
          12.816647648997312,
          9.09027692082245,
          6.842773412630876,
          4.146688825966138,
          4.146688825966138,
          4.146688825966138
        ],
        "horizontal_dist_map": 651,
        "slope_dist_map": 666,
        "elevation_diff_map": 123.2,
        "avg_slope_deg_map": 10.5,
        "max_slope_deg_map": 20.6
      },
      "geometry": {
        "type": "LineString",
        "coordinates": [
          [
            138.40688183238993,
            36.05490219478663,
            1528.2
          ],
          [
            138.4069758618169,
            36.0549500725276,
            1527.7
          ],
          [
            138.4070698912439,
            36.05499795026858,
            1527.0
          ],
          [
            138.40716392067088,
            36.055045828009554,
            1526.5
          ],
          [
            138.40725795009786,
            36.05509370575053,
            1525.9
          ],
          [
            138.40735197952483,
            36.055141583491505,
            1524.9
          ],
          [
            138.40744600895184,
            36.05518946123248,
            1524.2
          ],
          [
            138.4075400383788,
            36.055237338973456,
            1523.6
          ],
          [
            138.40762944533307,
            36.05529072385859,
            1522.7
          ],
          [
            138.4077186996171,
            36.05534429063271,
            1521.6
          ],
          [
            138.40780795390117,
            36.05539785740683,
            1520.7
          ],
          [
            138.4078972081852,
            36.05545142418095,
            1519.2
          ],
          [
            138.40798646246927,
            36.05550499095507,
            1518.3
          ],
          [
            138.4080668831427,
            36.05556644887662,
            1517.0
          ],
          [
            138.40814104159082,
            36.055633500902935,
            1515.7
          ],
          [
            138.40821520003897,
            36.05570055292926,
            1514.4
          ],
          [
            138.40828935848708,
            36.05576760495558,
            1513.6
          ],
          [
            138.40836351693522,
            36.055834656981894,
            1512.5
          ],
          [
            138.40843767538334,
            36.05590170900822,
            1511.2
          ],
          [
            138.40851138724327,
            36.055969061837345,
            1509.5
          ],
          [
            138.4085788332028,
            36.05604063511042,
            1508.2
          ],
          [
            138.40864627916233,
            36.05611220838349,
            1505.8
          ],
          [
            138.40871372512186,
            36.056183781656564,
            1503.6
          ],
          [
            138.4087811710814,
            36.05625535492964,
            1501.0
          ],
          [
            138.4088486170409,
            36.05632692820271,
            1499.0
          ],
          [
            138.40891604362412,
            36.05639851351503,
            1496.5
          ],
          [
            138.40898335237696,
            36.05647017203992,
            1494.3
          ],
          [
            138.4090367670514,
            36.0565481791135,
            1492.9
          ],
          [
            138.4090772659274,
            36.05663208773539,
            1491.0
          ],
          [
            138.40911776480345,
            36.056715996357276,
            1489.6
          ],
          [
            138.40915826367947,
            36.056799904979165,
            1488.3
          ],
          [
            138.4091987625555,
            36.056883813601054,
            1486.8
          ],
          [
            138.4092392614315,
            36.05696772222294,
            1485.5
          ],
          [
            138.40927976030756,
            36.057051630844825,
            1484.2
          ],
          [
            138.40932025918357,
            36.057135539466714,
            1483.1
          ],
          [
            138.4093607580596,
            36.0572194480886,
            1481.2
          ],
          [
            138.4094012569356,
            36.05730335671049,
            1479.9
          ],
          [
            138.40944478872515,
            36.0573862455517,
            1478.4
          ],
          [
            138.40949412938582,
            36.05746661866476,
            1476.7
          ],
          [
            138.4095569184617,
            36.05754093359022,
            1474.5
          ],
          [
            138.4096197075376,
            36.057615248515674,
            1472.9
          ],
          [
            138.40969188984715,
            36.05768134763569,
            1470.5
          ],
          [
            138.40978781963614,
            36.05772667598839,
            1468.1
          ],
          [
            138.40988374942512,
            36.05777200434109,
            1464.5
          ],
          [
            138.40998654532032,
            36.05780359520678,
            1461.9
          ],
          [
            138.41009424774953,
            36.0578253692353,
            1459.3
          ],
          [
            138.41020195017873,
            36.05784714326383,
            1455.2
          ],
          [
            138.41030965260794,
            36.057868917292346,
            1452.8
          ],
          [
            138.41041735503714,
            36.05789069132087,
            1448.9
          ],
          [
            138.41052505746634,
            36.057912465349396,
            1446.0
          ],
          [
            138.41063275989555,
            36.057934239377914,
            1442.1
          ],
          [
            138.41074046232472,
            36.05795601340644,
            1438.0
          ],
          [
            138.41084858510746,
            36.05797630716841,
            1435.1
          ],
          [
            138.41095715776598,
            36.057995016701746,
            1431.0
          ],
          [
            138.4110657304245,
            36.058013726235075,
            1428.3
          ],
          [
            138.41117430308302,
            36.0580324357684,
            1424.3
          ],
          [
            138.41128287574153,
            36.05805114530174,
            1421.8
          ],
          [
            138.41139144840002,
            36.05806985483507,
            1418.4
          ],
          [
            138.4115011886585,
            36.058083114529566,
            1416.1
          ],
          [
            138.41161116485932,
            36.05809527294956,
            1412.4
          ],
          [
            138.41172114106016,
            36.05810743136956,
            1410.1
          ],
          [
            138.411831117261,
            36.05811958978955,
            1408.0
          ],
          [
            138.41194109346182,
            36.05813174820955,
            1407.0
          ],
          [
            138.41205106966265,
            36.05814390662954,
            1406.0
          ],
          [
            138.41216104586348,
            36.05815606504954,
            1405.3
          ],
          [
            138.41227102206432,
            36.058168223469536,
            1405.1
          ]
        ]
      }
    },
    {
      "type": "Feature",
      "properties": {
        "name": "【A】ウェンゲン_2",
        "slope_deg": [
          10.342657140474863,
          10.342657140474863,
          10.342657140474863,
          11.172136252167274,
          10.203973721731748,
          9.926245506651705,
          7.969610394321233,
          6.418786730238786,
          4.8584629190340936,
          3.148096099562824,
          3.005269359689804,
          2.433606100719861,
          2.433606100720186,
          1.57523692568325,
          1.4320961841646465,
          1.2889375601870259,
          1.0025738037601275,
          1.2889375601867001,
          0.5729386976836163,
          0.0,
          0.0,
          0.0,
          0.5729386976836163,
          1.1457628381750384,
          1.2889375601867001,
          1.2889375601870259,
          2.147585428298503,
          1.7183580016555222,
          1.57523692568325,
          2.0045340321057092,
          2.0045340321057092,
          2.0045340321057092
        ],
        "horizontal_dist_map": 318,
        "slope_dist_map": 319,
        "elevation_diff_map": 19.9,
        "avg_slope_deg_map": 3.6,
        "max_slope_deg_map": 11.2
      },
      "geometry": {
        "type": "LineString",
        "coordinates": [
          [
            138.397597256265,
            36.05088007992511,
            1727.9
          ],
          [
            138.39769161420566,
            36.05083263689138,
            1726.5
          ],
          [
            138.39778597214632,
            36.05078519385764,
            1724.3
          ],
          [
            138.39788033008702,
            36.05073775082391,
            1722.4
          ],
          [
            138.3979809762557,
            36.05069987359186,
            1720.6
          ],
          [
            138.39808202443697,
            36.05066260791094,
            1718.6
          ],
          [
            138.3981891771237,
            36.0506424208113,
            1717.1
          ],
          [
            138.39829909156856,
            36.05062996028535,
            1715.4
          ],
          [
            138.39840900601345,
            36.05061749975939,
            1715.0
          ],
          [
            138.39851892045834,
            36.05060503923344,
            1714.1
          ],
          [
            138.3986288349032,
            36.05059257870749,
            1713.7
          ],
          [
            138.3987387493481,
            36.050580118181536,
            1713.2
          ],
          [
            138.39884866379296,
            36.050567657655584,
            1712.9
          ],
          [
            138.39895857823785,
            36.05055519712963,
            1712.4
          ],
          [
            138.39906893499506,
            36.0505469335157,
            1712.0
          ],
          [
            138.39917985823442,
            36.05054404500834,
            1712.1
          ],
          [
            138.39929079195102,
            36.05054194222831,
            1711.9
          ],
          [
            138.39940176620405,
            36.05054287943572,
            1711.5
          ],
          [
            138.3995127404571,
            36.05054381664313,
            1711.3
          ],
          [
            138.39962371304068,
            36.0505448521852,
            1711.2
          ],
          [
            138.39973467691414,
            36.050546400775,
            1711.5
          ],
          [
            138.39984564078756,
            36.0505479493648,
            1711.5
          ],
          [
            138.39995655245332,
            36.05054535656138,
            1711.3
          ],
          [
            138.40006745403778,
            36.05054196405438,
            1711.2
          ],
          [
            138.40017835562222,
            36.050538571547385,
            1711.1
          ],
          [
            138.40028925720668,
            36.05053517904039,
            1710.7
          ],
          [
            138.40040015879111,
            36.05053178653339,
            1710.4
          ],
          [
            138.40051106037558,
            36.050528394026394,
            1710.3
          ],
          [
            138.40062196196,
            36.0505250015194,
            1709.6
          ],
          [
            138.40073286130294,
            36.050521706525615,
            1709.5
          ],
          [
            138.40084218225175,
            36.05053280502518,
            1709.3
          ],
          [
            138.40086441912257,
            36.05060544564342,
            1708.9
          ]
        ]
      }
    },
    {
      "type": "Feature",
      "properties": {
        "name": "【A】ウェンゲン",
        "slope_deg": [
          11.309932474020215,
          11.309932474020215,
          11.309932474020215,
          11.172136252167274,
          11.034209003250188,
          10.757967088390194,
          11.7225209701022,
          10.89615214114088,
          11.996899307923577,
          10.896152141141194,
          10.757967088390194,
          10.619655276155134,
          10.203973721731748,
          10.203973721731431,
          10.203973721731748,
          10.203973721731748,
          9.926245506651705,
          10.896152141141194,
          9.369385096487358,
          9.926245506651705,
          8.670801453590833,
          8.250387228905435,
          8.250387228905435,
          8.670801453591151,
          9.22988624372772,
          9.78720366465624,
          11.172136252167274,
          10.203973721731431,
          10.757967088390194,
          9.369385096487358,
          8.11004782941916,
          7.547725773843367,
          6.983937460085098,
          6.842773412631197,
          6.135733340186728,
          6.56019640057118,
          5.4268124985727555,
          5.000644597558433,
          4.431564716435714,
          3.8616074096751394,
          3.8616074096751394,
          4.146688825965815,
          4.573921259900927,
          4.573921259900927,
          4.7162212343382155,
          4.0041729407093225,
          3.576334374997351,
          3.576334374997351,
          3.576334374997351
        ],
        "horizontal_dist_map": 481,
        "slope_dist_map": 486,
        "elevation_diff_map": 70.2,
        "avg_slope_deg_map": 8.2,
        "max_slope_deg_map": 12.0
      },
      "geometry": {
        "type": "LineString",
        "coordinates": [
          [
            138.39506216440176,
            36.05061090310045,
            1769.7
          ],
          [
            138.39517141280652,
            36.05062676358756,
            1767.5
          ],
          [
            138.39528066121127,
            36.050642624074676,
            1765.8
          ],
          [
            138.39538990961603,
            36.05065848456179,
            1763.4
          ],
          [
            138.39549915802075,
            36.050674345048904,
            1761.7
          ],
          [
            138.3956084064255,
            36.050690205536014,
            1759.6
          ],
          [
            138.39571765483026,
            36.05070606602313,
            1758.0
          ],
          [
            138.39582690323502,
            36.05072192651024,
            1755.8
          ],
          [
            138.39593615163977,
            36.05073778699735,
            1753.4
          ],
          [
            138.39604540004453,
            36.05075364748447,
            1751.9
          ],
          [
            138.39615464844925,
            36.05076950797158,
            1749.5
          ],
          [
            138.396263896854,
            36.0507853684587,
            1748.1
          ],
          [
            138.39637314525876,
            36.05080122894581,
            1745.8
          ],
          [
            138.39648239366352,
            36.050817089432925,
            1744.4
          ],
          [
            138.39659164206827,
            36.050832949920036,
            1742.3
          ],
          [
            138.39670089047303,
            36.05084881040715,
            1740.9
          ],
          [
            138.39681013887778,
            36.05086467089426,
            1738.6
          ],
          [
            138.3969193872825,
            36.050880531381374,
            1737.2
          ],
          [
            138.39702863568726,
            36.05089639186849,
            1735.3
          ],
          [
            138.3971372087832,
            36.05091500234836,
            1733.2
          ],
          [
            138.397245590088,
            36.0509343938401,
            1732.0
          ],
          [
            138.39735397139282,
            36.050953785331835,
            1730.2
          ],
          [
            138.39746289441294,
            36.05097088206297,
            1729.2
          ],
          [
            138.39757242366687,
            36.0509854107269,
            1727.4
          ],
          [
            138.3976820673584,
            36.050999069561286,
            1726.2
          ],
          [
            138.39779290427717,
            36.05100365878942,
            1724.1
          ],
          [
            138.3979037411959,
            36.05100824801756,
            1722.7
          ],
          [
            138.39801443810734,
            36.0510068519531,
            1720.5
          ],
          [
            138.398124980458,
            36.05099884843739,
            1718.3
          ],
          [
            138.39823552280865,
            36.05099084492168,
            1716.9
          ],
          [
            138.39834606515927,
            36.05098284140596,
            1715.1
          ],
          [
            138.39845660750993,
            36.05097483789025,
            1713.9
          ],
          [
            138.39856714986058,
            36.050966834374535,
            1712.6
          ],
          [
            138.39867769221124,
            36.050958830858825,
            1711.6
          ],
          [
            138.3987882345619,
            36.050950827343115,
            1710.2
          ],
          [
            138.39889877691252,
            36.0509428238274,
            1709.1
          ],
          [
            138.39900931926317,
            36.05093482031169,
            1708.3
          ],
          [
            138.39911988265231,
            36.05092801854133,
            1707.0
          ],
          [
            138.39923066049244,
            36.05093346649599,
            1706.4
          ],
          [
            138.39934143833258,
            36.05093891445066,
            1705.6
          ],
          [
            138.3994508818913,
            36.05095352647727,
            1705.2
          ],
          [
            138.39955699532072,
            36.050977924359536,
            1704.3
          ],
          [
            138.39965920645378,
            36.05101303719695,
            1703.7
          ],
          [
            138.39976141758683,
            36.05104815003436,
            1702.7
          ],
          [
            138.39986362871988,
            36.05108326287178,
            1702.0
          ],
          [
            138.39996320858225,
            36.051122684249336,
            1701.1
          ],
          [
            138.40005948795454,
            36.05116750997159,
            1700.4
          ],
          [
            138.40015462557812,
            36.05121374218804,
            1699.9
          ],
          [
            138.40024330666685,
            36.05126792806229,
            1699.5
          ]
        ]
      }
    },
    {
      "type": "Feature",
      "properties": {
        "name": "【L】",
        "slope_deg": [
          14.036243467926479,
          14.036243467926479,
          14.036243467926479,
          13.360218444764483,
          14.842227057911282,
          13.901350769509243,
          15.907551930525962,
          15.2429977429017,
          15.242997742901395,
          14.84222705791098,
          14.305551846622015,
          13.766300685466197,
          13.088732789694308,
          13.766300685466197,
          11.85977912094779,
          11.7225209701022,
          9.648045316098093,
          8.250387228905435,
          7.969610394321551,
          7.406912128495294,
          8.390627013252388,
          8.11004782941916,
          8.670801453590833,
          8.670801453590833,
          7.125016348901798,
          7.688447769903003,
          7.406912128495294,
          6.842773412630876,
          7.829076510059608,
          7.829076510059608,
          7.829076510059608
        ],
        "horizontal_dist_map": 307,
        "slope_dist_map": 313,
        "elevation_diff_map": 60.0,
        "avg_slope_deg_map": 10.8,
        "max_slope_deg_map": 15.9
      },
      "geometry": {
        "type": "LineString",
        "coordinates": [
          [
            138.4078922863256,
            36.050721690456925,
            1538.2
          ],
          [
            138.40792125681665,
            36.050808688315875,
            1535.0
          ],
          [
            138.40795022730768,
            36.050895686174826,
            1532.9
          ],
          [
            138.40797300876565,
            36.05098341928131,
            1530.0
          ],
          [
            138.4079759411592,
            36.05107351042585,
            1528.2
          ],
          [
            138.4079745542097,
            36.051163457120886,
            1525.5
          ],
          [
            138.40796250945814,
            36.05125304739267,
            1522.3
          ],
          [
            138.40795046470657,
            36.05134263766445,
            1520.1
          ],
          [
            138.40792141999145,
            36.05142951420721,
            1516.8
          ],
          [
            138.40789080690848,
            36.05151614038911,
            1514.6
          ],
          [
            138.4078629637568,
            36.05160336573253,
            1511.4
          ],
          [
            138.40783645497805,
            36.05169087971305,
            1509.5
          ],
          [
            138.40781170028558,
            36.051778608293674,
            1506.6
          ],
          [
            138.40780528003347,
            36.051868579964015,
            1504.8
          ],
          [
            138.40779885978134,
            36.051958551634364,
            1502.1
          ],
          [
            138.40779511258046,
            36.052048586140984,
            1499.7
          ],
          [
            138.40779511258046,
            36.05213870873426,
            1498.2
          ],
          [
            138.40779511258046,
            36.05222883132754,
            1496.5
          ],
          [
            138.40781972768224,
            36.05231630791897,
            1495.3
          ],
          [
            138.40784860461744,
            36.052403326384365,
            1493.9
          ],
          [
            138.40789237030697,
            36.05248565533841,
            1492.6
          ],
          [
            138.40794330475413,
            36.052565726348675,
            1491.3
          ],
          [
            138.40800631272558,
            36.05263943015499,
            1489.4
          ],
          [
            138.40807568136995,
            36.05270977953881,
            1488.2
          ],
          [
            138.40814505001433,
            36.05278012892262,
            1486.5
          ],
          [
            138.40821441865867,
            36.05285047830643,
            1485.2
          ],
          [
            138.40828378730305,
            36.05292082769025,
            1484.4
          ],
          [
            138.4083531559474,
            36.05299117707406,
            1482.8
          ],
          [
            138.40842252459177,
            36.05306152645788,
            1481.3
          ],
          [
            138.40849189323615,
            36.05313187584169,
            1480.4
          ],
          [
            138.4085612618805,
            36.05320222522551,
            1478.9
          ]
        ]
      }
    },
    {
      "type": "Feature",
      "properties": {
        "name": "迂回・ホテル前",
        "slope_deg": [
          -0.7161599454704085,
          -0.7161599454704085,
          -0.7161599454704085,
          -0.8593722436445507,
          -0.5729386976836163,
          -0.4297102894009785,
          -0.4297102894009785,
          0.1432391503681763,
          1.5752369256829246,
          2.147585428298503,
          4.146688825965815,
          4.289153328819018,
          4.004172940709647,
          4.289153328819018,
          3.718993973158237,
          4.573921259900927,
          3.8616074096748143,
          4.146688825965815,
          4.431564716435714,
          4.0041729407093225,
          5.568737077976766,
          5.994092949108534,
          5.000644597558433,
          4.146688825966138,
          2.0045340321060343,
          3.005269359690129,
          3.148096099562824,
          4.431564716435714,
          4.146688825965815,
          2.433606100719861,
          2.433606100720186,
          3.8616074096751394,
          7.406912128495294,
          10.619655276155134,
          13.088732789694,
          13.631094443421603,
          14.17097756293297,
          12.543973346572233,
          11.7225209701022,
          10.896152141141194,
          9.09027692082245,
          8.250387228905435,
          8.530765609948133,
          7.125016348901798,
          7.125016348901798,
          7.125016348901798
        ],
        "horizontal_dist_map": 457,
        "slope_dist_map": 460,
        "elevation_diff_map": 40.1,
        "avg_slope_deg_map": 5.0,
        "max_slope_deg_map": 14.2
      },
      "geometry": {
        "type": "LineString",
        "coordinates": [
          [
            138.4106841905088,
            36.05457277859624,
            1447.3
          ],
          [
            138.4107951744264,
            36.054573319112485,
            1447.4
          ],
          [
            138.410906158344,
            36.05457385962873,
            1447.6
          ],
          [
            138.4110171422616,
            36.05457440014498,
            1447.5
          ],
          [
            138.41112812617922,
            36.054574940661226,
            1447.8
          ],
          [
            138.41123911009683,
            36.05457548117747,
            1448.0
          ],
          [
            138.41135009401444,
            36.05457602169372,
            1448.0
          ],
          [
            138.41145934083272,
            36.05458218632156,
            1447.8
          ],
          [
            138.41155750258557,
            36.05462424046069,
            1448.1
          ],
          [
            138.41165566433838,
            36.05466629459982,
            1447.9
          ],
          [
            138.4117538260912,
            36.05470834873895,
            1446.9
          ],
          [
            138.41185198784402,
            36.05475040287808,
            1446.3
          ],
          [
            138.41194798580153,
            36.05479482761609,
            1445.2
          ],
          [
            138.41202608765803,
            36.05485885886532,
            1444.9
          ],
          [
            138.41210418951454,
            36.054922890114554,
            1444.1
          ],
          [
            138.41218229137104,
            36.054986921363785,
            1443.3
          ],
          [
            138.4122603932275,
            36.055050952613016,
            1442.6
          ],
          [
            138.41234358623652,
            36.05511029336501,
            1441.7
          ],
          [
            138.412431628827,
            36.05516516618,
            1441.4
          ],
          [
            138.41251967141747,
            36.05522003899499,
            1440.4
          ],
          [
            138.41260771400795,
            36.055274911809974,
            1439.5
          ],
          [
            138.412696994231,
            36.05532830794028,
            1438.9
          ],
          [
            138.412792163073,
            36.05537467804876,
            1437.5
          ],
          [
            138.41288733191502,
            36.055421048157235,
            1436.2
          ],
          [
            138.412982500757,
            36.055467418265714,
            1436.0
          ],
          [
            138.41307538882938,
            36.05551610125505,
            1436.0
          ],
          [
            138.413151919621,
            36.05558137182127,
            1436.1
          ],
          [
            138.41322256368326,
            36.05565043563501,
            1434.1
          ],
          [
            138.4132834551755,
            36.055725783738346,
            1433.8
          ],
          [
            138.41334431793908,
            36.055801146765276,
            1432.9
          ],
          [
            138.4134030345325,
            36.055877624656,
            1433.2
          ],
          [
            138.41346175112596,
            36.05595410254672,
            1432.4
          ],
          [
            138.41350154777783,
            36.05603708570675,
            1432.1
          ],
          [
            138.41347831664905,
            36.05612521192837,
            1430.2
          ],
          [
            138.4134427977458,
            36.0562096012981,
            1428.0
          ],
          [
            138.4133890199126,
            36.05628843791969,
            1424.9
          ],
          [
            138.41333524207937,
            36.05636727454129,
            1422.8
          ],
          [
            138.41328146424613,
            36.05644611116288,
            1420.5
          ],
          [
            138.4132297618395,
            36.056525807258524,
            1417.9
          ],
          [
            138.41318275199296,
            36.05660744663357,
            1416.0
          ],
          [
            138.41313574214647,
            36.05668908600862,
            1414.5
          ],
          [
            138.41308873229997,
            36.056770725383664,
            1412.8
          ],
          [
            138.41304172245344,
            36.05685236475871,
            1411.5
          ],
          [
            138.41299471260695,
            36.05693400413376,
            1410.2
          ],
          [
            138.41294770276042,
            36.057015643508805,
            1408.5
          ],
          [
            138.41290069291392,
            36.05709728288385,
            1407.8
          ]
        ]
      }
    }
  ]
}