{
  "type": "FeatureCollection",
  "features": [
    {
      "type": "Feature",
      "properties": {
        "name": "アルペン",
        "slope_deg": [
          22.538450040827975,
          22.538450040827975,
          22.538450040827975,
          25.173524524530112,
          26.104854009099192,
          26.220246235243597,
          27.135139622076878,
          25.290734392148046,
          27.248467426644652,
          25.29073439214831,
          25.056088833535423,
          26.793775628803207,
          24.938427655457385,
          26.9077935265408,
          26.335410003881297,
          25.641005824305335,
          24.346751854704813,
          23.14670784188283,
          23.146707841883106,
          21.43000730175244,
          22.416147479343643,
          20.556045219583467,
          20.931852540892464,
          19.034434354835135,
          19.798876354525046,
          19.034434354835135,
          17.484427323220586,
          19.290046219188735,
          16.567741642974738,
          16.039943306049665,
          17.223436191131583,
          14.84222705791098,
          15.509334522675056,
          14.842227057911282,
          14.17097756293297,
          13.901350769509243,
          13.766300685466197,
          13.360218444764483,
          12.543973346572233,
          12.68038349181982,
          12.407418527400683,
          12.133880170633224,
          12.68038349181982,
          11.859779120948104,
          11.172136252167274,
          11.034209003250188,
          9.09027692082245,
          9.369385096487358,
          8.11004782941916,
          8.530765609948133,
          7.688447769902681,
          7.266008446995867,
          6.701525844729227,
          6.13573334018705,
          6.560196400571501,
          6.277298489597683,
          5.710593137499643,
          6.277298489597361,
          5.000644597558433,
          4.0041729407093225,
          3.8616074096751394,
          2.147585428298503,
          2.7195054612723095,
          2.719505461272635,
          2.719505461272635,
          2.719505461272635
        ],
        "horizontal_dist_map": 658,
        "slope_dist_map": 691,
        "elevation_diff_map": 183.9,
        "avg_slope_deg_map": 14.9,
        "max_slope_deg_map": 27.2
      },
      "geometry": {
        "type": "LineString",
        "coordinates": [
          [
            138.50507062689246,
            35.9324406399532,
            1623.0
          ],
          [
            138.504964680639,
            35.932414219529555,
            1619.1
          ],
          [
            138.50485873438555,
            35.93238779910592,
            1615.6
          ],
          [
            138.504753757981,
            35.93235893251527,
            1609.7
          ],
          [
            138.50464878894184,
            35.93233004734762,
            1606.4
          ],
          [
            138.5045438199027,
            35.932301162179975,
            1600.3
          ],
          [
            138.50443951889397,
            35.932270768781585,
            1596.0
          ],
          [
            138.50433601135404,
            35.932238583947004,
            1590.0
          ],
          [
            138.50423250381408,
            35.93220639911243,
            1585.9
          ],
          [
            138.50412899627412,
            35.93217421427786,
            1581.4
          ],
          [
            138.50402576325374,
            35.932141578609084,
            1575.4
          ],
          [
            138.50393154947852,
            35.932094130939085,
            1571.1
          ],
          [
            138.50383733570334,
            35.93204668326908,
            1567.2
          ],
          [
            138.50374312192812,
            35.93199923559908,
            1561.2
          ],
          [
            138.5036489081529,
            35.93195178792907,
            1556.8
          ],
          [
            138.50355469437773,
            35.931904340259074,
            1550.8
          ],
          [
            138.50346783160953,
            35.93184841312626,
            1547.4
          ],
          [
            138.50338123208445,
            35.93179218233976,
            1542.0
          ],
          [
            138.50329463255937,
            35.93173595155327,
            1538.7
          ],
          [
            138.50321456959142,
            35.93167424928343,
            1533.7
          ],
          [
            138.50314296422664,
            35.931605467501534,
            1530.3
          ],
          [
            138.50307135886183,
            35.931536685719635,
            1526.3
          ],
          [
            138.50299975349705,
            35.93146790393774,
            1522.2
          ],
          [
            138.50292383792225,
            35.931402309299465,
            1518.7
          ],
          [
            138.50284644724977,
            35.9313378054081,
            1515.0
          ],
          [
            138.5027559735994,
            35.93128688318822,
            1512.5
          ],
          [
            138.5026604455279,
            35.93124120805259,
            1507.8
          ],
          [
            138.50256325142718,
            35.93119811416179,
            1504.9
          ],
          [
            138.50246277445086,
            35.93116010655958,
            1502.4
          ],
          [
            138.50236229747455,
            35.93112209895738,
            1498.5
          ],
          [
            138.50226182049826,
            35.931084091355174,
            1495.9
          ],
          [
            138.50215644942898,
            35.931057947312716,
            1493.4
          ],
          [
            138.50204811943846,
            35.931038975863736,
            1490.0
          ],
          [
            138.50193978944793,
            35.931020004414755,
            1487.9
          ],
          [
            138.5018314594574,
            35.931001032965774,
            1484.8
          ],
          [
            138.50172312946688,
            35.930982061516794,
            1482.8
          ],
          [
            138.50161479947636,
            35.93096309006781,
            1479.9
          ],
          [
            138.50150646948583,
            35.93094411861883,
            1478.0
          ],
          [
            138.50139962736634,
            35.93092040251116,
            1475.0
          ],
          [
            138.50129335671548,
            35.930894864052334,
            1473.3
          ],
          [
            138.5011870860646,
            35.930869325593505,
            1471.0
          ],
          [
            138.5010808154137,
            35.93084378713468,
            1469.0
          ],
          [
            138.5009745447628,
            35.93081824867585,
            1466.2
          ],
          [
            138.50086832210144,
            35.930792586381244,
            1464.7
          ],
          [
            138.5007632468136,
            35.930763963316764,
            1462.0
          ],
          [
            138.5006581715257,
            35.93073534025229,
            1460.6
          ],
          [
            138.50055309623787,
            35.93070671718781,
            1458.3
          ],
          [
            138.50044802095002,
            35.93067809412333,
            1456.9
          ],
          [
            138.50034294566214,
            35.93064947105885,
            1455.6
          ],
          [
            138.5002378703743,
            35.93062084799437,
            1454.0
          ],
          [
            138.50013279508644,
            35.93059222492989,
            1452.6
          ],
          [
            138.5000277197986,
            35.930563601865416,
            1450.9
          ],
          [
            138.49992264451072,
            35.930534978800935,
            1450.2
          ],
          [
            138.49981756922287,
            35.930506355736455,
            1448.9
          ],
          [
            138.49971250529296,
            35.93047770532881,
            1447.9
          ],
          [
            138.499607484485,
            35.9304489511093,
            1446.6
          ],
          [
            138.49950246367703,
            35.93042019688978,
            1445.6
          ],
          [
            138.49939744286908,
            35.93039144267026,
            1444.5
          ],
          [
            138.4992924220611,
            35.93036268845075,
            1443.9
          ],
          [
            138.49918740125315,
            35.93033393423123,
            1442.2
          ],
          [
            138.49908238044517,
            35.930305180011715,
            1442.1
          ],
          [
            138.49897718102986,
            35.930276863664496,
            1441.7
          ],
          [
            138.49887186913543,
            35.93024882307015,
            1441.2
          ],
          [
            138.49876655724097,
            35.93022078247581,
            1440.7
          ],
          [
            138.49866124534654,
            35.93019274188146,
            1440.2
          ],
          [
            138.49855593345208,
            35.93016470128712,
            1439.8
          ]
        ]
      }
    },
    {
      "type": "Feature",
      "properties": {
        "name": "バレー1",
        "slope_deg": [
          14.17097756293297,
          14.17097756293297,
          14.17097756293297,
          13.631094443421295,
          11.309932474020215,
          9.648045316098093,
          8.250387228905753,
          7.688447769903003,
          6.98393746008542,
          8.11004782941916,
          8.250387228905435,
          9.926245506651705,
          11.172136252166961,
          11.996899307923577,
          11.7225209701022,
          11.58512622485511,
          10.757967088390194,
          10.203973721731431,
          9.926245506651705,
          9.369385096487358,
          10.065169352759717,
          9.369385096487674,
          9.369385096487358,
          8.530765609948133,
          7.829076510059608,
          8.250387228905435,
          8.11004782941916,
          9.22988624372772,
          9.369385096487674,
          8.530765609948133,
          9.09027692082245,
          8.530765609948133,
          8.390627013252388,
          9.50877195829791,
          8.9505586562316,
          9.648045316098093,
          9.926245506651705,
          9.22988624372772,
          9.369385096487358,
          9.09027692082245,
          9.22988624372772,
          9.22988624372772,
          9.09027692082245,
          8.530765609948133,
          7.406912128495294,
          7.406912128495294,
          7.547725773843047,
          7.125016348901798,
          7.969610394321233,
          7.547725773843047,
          7.125016348901798,
          7.547725773843047,
          7.125016348901798,
          7.266008446995867,
          7.969610394321551,
          7.266008446996189,
          7.266008446996189,
          6.560196400571501,
          6.701525844729227,
          6.983937460085098,
          7.547725773843047,
          8.390627013252388,
          8.390627013252708,
          7.829076510059608,
          7.266008446995867,
          6.277298489597683,
          5.710593137499643,
          5.710593137499643,
          5.568737077976766,
          6.418786730238786,
          5.994092949108534,
          7.125016348901798,
          7.829076510059608,
          7.688447769902681,
          8.530765609948133,
          8.390627013252708,
          8.390627013252708,
          8.390627013252708
        ],
        "horizontal_dist_map": 779,
        "slope_dist_map": 789,
        "elevation_diff_map": 118.0,
        "avg_slope_deg_map": 8.5,
        "max_slope_deg_map": 14.2
      },
      "geometry": {
        "type": "LineString",
        "coordinates": [
          [
            138.5024921122711,
            35.92738257741452,
            1523.5
          ],
          [
            138.50238330314684,
            35.92736553688315,
            1521.6
          ],
          [
            138.50227449402257,
            35.927348496351776,
            1518.2
          ],
          [
            138.50216569300426,
            35.927331421819204,
            1516.1
          ],
          [
            138.50205692645787,
            35.92731420269149,
            1513.4
          ],
          [
            138.50194815991145,
            35.92729698356377,
            1511.9
          ],
          [
            138.50183955340015,
            35.92729047142551,
            1510.2
          ],
          [
            138.5017313336622,
            35.927309835977596,
            1509.3
          ],
          [
            138.50162332029458,
            35.92732994569269,
            1507.6
          ],
          [
            138.5015181901092,
            35.927357968749625,
            1506.5
          ],
          [
            138.50142057905768,
            35.92739877371562,
            1505.3
          ],
          [
            138.50133107800244,
            35.92745190888281,
            1503.6
          ],
          [
            138.50125030136883,
            35.927513594640956,
            1501.8
          ],
          [
            138.50116959302517,
            35.92757534732838,
            1499.5
          ],
          [
            138.50108888468148,
            35.9276371000158,
            1497.4
          ],
          [
            138.50102368139062,
            35.927709638745306,
            1495.1
          ],
          [
            138.50096118933598,
            35.927784063537885,
            1493.5
          ],
          [
            138.50089869728131,
            35.927858488330465,
            1491.3
          ],
          [
            138.50083620522665,
            35.92793291312305,
            1489.8
          ],
          [
            138.50077371317198,
            35.92800733791563,
            1487.9
          ],
          [
            138.5007112211173,
            35.92808176270821,
            1486.5
          ],
          [
            138.50064872906268,
            35.92815618750079,
            1484.7
          ],
          [
            138.500586237008,
            35.928230612293376,
            1482.7
          ],
          [
            138.50052374495334,
            35.928305037085956,
            1481.3
          ],
          [
            138.50046125289867,
            35.928379461878535,
            1479.9
          ],
          [
            138.5003956016559,
            35.92845195373042,
            1478.7
          ],
          [
            138.50032499822063,
            35.92852141559677,
            1477.2
          ],
          [
            138.50025439478537,
            35.92859087746312,
            1475.5
          ],
          [
            138.50018379135014,
            35.928660339329475,
            1474.2
          ],
          [
            138.50011318791488,
            35.92872980119583,
            1472.2
          ],
          [
            138.50004258447962,
            35.928799263062174,
            1470.6
          ],
          [
            138.49997198104438,
            35.92886872492853,
            1469.5
          ],
          [
            138.49990137760912,
            35.92893818679488,
            1467.8
          ],
          [
            138.49983077417386,
            35.92900764866123,
            1466.2
          ],
          [
            138.49976017073863,
            35.92907711052758,
            1464.7
          ],
          [
            138.49969476233804,
            35.92914949712978,
            1462.8
          ],
          [
            138.49963969116945,
            35.929227703456924,
            1461.5
          ],
          [
            138.49958462000086,
            35.92930590978407,
            1459.4
          ],
          [
            138.49952954883227,
            35.929384116111216,
            1457.7
          ],
          [
            138.49947447766368,
            35.92946232243836,
            1456.3
          ],
          [
            138.49941534220036,
            35.92953766391887,
            1454.9
          ],
          [
            138.4993278764881,
            35.929592961895956,
            1453.0
          ],
          [
            138.49922616373013,
            35.92962872583158,
            1451.2
          ],
          [
            138.49912445097215,
            35.92966448976719,
            1449.8
          ],
          [
            138.49902273821417,
            35.929700253702805,
            1448.5
          ],
          [
            138.49892102545618,
            35.929736017638426,
            1447.0
          ],
          [
            138.4988193126982,
            35.92977178157404,
            1446.0
          ],
          [
            138.4987175999402,
            35.929807545509654,
            1444.6
          ],
          [
            138.49861588712318,
            35.92984330946603,
            1443.2
          ],
          [
            138.49851417410412,
            35.929879073493446,
            1442.0
          ],
          [
            138.49841246108505,
            35.929914837520855,
            1440.4
          ],
          [
            138.498310748066,
            35.92995060154827,
            1439.3
          ],
          [
            138.49820903504693,
            35.92998636557569,
            1438.2
          ],
          [
            138.49810732202786,
            35.9300221296031,
            1436.7
          ],
          [
            138.4980056090088,
            35.93005789363052,
            1435.4
          ],
          [
            138.49790219345067,
            35.930089966048634,
            1434.2
          ],
          [
            138.49779665008816,
            35.930117424756226,
            1432.6
          ],
          [
            138.49769110672568,
            35.93014488346381,
            1431.6
          ],
          [
            138.49758556336317,
            35.9301723421714,
            1430.3
          ],
          [
            138.49748002000067,
            35.930199800878995,
            1429.6
          ],
          [
            138.49737447663816,
            35.93022725958659,
            1427.9
          ],
          [
            138.49726817087168,
            35.93025245340095,
            1426.7
          ],
          [
            138.49716014653274,
            35.93027254180786,
            1425.0
          ],
          [
            138.4970521221938,
            35.93029263021477,
            1423.7
          ],
          [
            138.49694409785485,
            35.930312718621686,
            1422.0
          ],
          [
            138.4968360735159,
            35.9303328070286,
            1421.2
          ],
          [
            138.49672804917697,
            35.930352895435504,
            1419.9
          ],
          [
            138.49662002483802,
            35.93037298384242,
            1419.3
          ],
          [
            138.49651200049908,
            35.93039307224933,
            1418.0
          ],
          [
            138.4964039761601,
            35.930413160656244,
            1417.2
          ],
          [
            138.49629595182117,
            35.93043324906315,
            1416.0
          ],
          [
            138.49618792748223,
            35.93045333747006,
            1414.8
          ],
          [
            138.49607990314328,
            35.930473425876976,
            1413.8
          ],
          [
            138.49597187880434,
            35.93049351428389,
            1412.2
          ],
          [
            138.4958638544654,
            35.930513602690795,
            1410.5
          ],
          [
            138.49575583012646,
            35.93053369109771,
            1409.4
          ],
          [
            138.4956478057875,
            35.93055377950462,
            1407.8
          ],
          [
            138.49553978144857,
            35.930573867911534,
            1406.3
          ]
        ]
      }
    },
    {
      "type": "Feature",
      "properties": {
        "name": "バレー2",
        "slope_deg": [
          4.289153328819018,
          4.289153328819018,
          4.289153328819018,
          4.146688825966138,
          2.719505461272635,
          3.7189939731579127,
          5.710593137499643,
          6.135733340186728,
          7.406912128495294,
          7.829076510059608,
          7.688447769903003,
          7.969610394321551,
          8.250387228905435,
          8.670801453591151,
          9.369385096487358,
          10.89615214114088,
          10.896152141141194,
          12.407418527400683,
          13.360218444764483,
          13.224551192213651,
          14.708303899682749,
          14.305551846622015,
          15.109575122340402,
          16.17215901578243,
          15.774985955414008,
          17.092662950267425,
          16.69924423399362,
          15.907551930525962,
          16.304198003832376,
          15.642246457208788,
          14.57421619803886,
          15.109575122340402,
          14.708303899682749,
          13.224551192213344,
          12.95276451337558,
          10.757967088390194,
          8.9505586562316,
          8.670801453591151,
          8.530765609948133,
          8.530765609948133,
          8.9505586562316,
          8.530765609948133,
          7.266008446995867,
          7.266008446995867,
          7.266008446995867
        ],
        "horizontal_dist_map": 448,
        "slope_dist_map": 457,
        "elevation_diff_map": 82.7,
        "avg_slope_deg_map": 10.3,
        "max_slope_deg_map": 17.1
      },
      "geometry": {
        "type": "LineString",
        "coordinates": [
          [
            138.5025609,
            35.9274717,
            1524.7
          ],
          [
            138.5025019553641,
            35.92754801510283,
            1523.9
          ],
          [
            138.50244301072817,
            35.92762433020565,
            1522.2
          ],
          [
            138.50238406609228,
            35.927700645308484,
            1522.0
          ],
          [
            138.50232630338976,
            35.927777554784996,
            1521.7
          ],
          [
            138.5022687200398,
            35.9278545544548,
            1521.0
          ],
          [
            138.50221113668988,
            35.92793155412459,
            1520.3
          ],
          [
            138.50215355333995,
            35.928008553794385,
            1519.4
          ],
          [
            138.50209596999,
            35.928085553464186,
            1517.7
          ],
          [
            138.50203838664007,
            35.92816255313398,
            1516.7
          ],
          [
            138.50196879190398,
            35.92823224695976,
            1515.1
          ],
          [
            138.5018942548376,
            35.9282989346467,
            1513.9
          ],
          [
            138.5018197177712,
            35.92836562233364,
            1512.3
          ],
          [
            138.50174518070483,
            35.92843231002058,
            1511.1
          ],
          [
            138.50167064363845,
            35.92849899770752,
            1509.3
          ],
          [
            138.5015961065721,
            35.92856568539446,
            1507.8
          ],
          [
            138.5015233971964,
            35.92863366222652,
            1505.7
          ],
          [
            138.5014527826398,
            35.92870311662027,
            1503.4
          ],
          [
            138.50138216808318,
            35.92877257101402,
            1501.6
          ],
          [
            138.50131155352656,
            35.92884202540777,
            1499.0
          ],
          [
            138.50124093896997,
            35.92891147980152,
            1496.2
          ],
          [
            138.5011673968796,
            35.92897853798268,
            1494.0
          ],
          [
            138.50108155232596,
            35.929035526487496,
            1491.1
          ],
          [
            138.50099570777232,
            35.929092514992305,
            1488.8
          ],
          [
            138.50090986321868,
            35.92914950349712,
            1485.4
          ],
          [
            138.500824018665,
            35.92920649200194,
            1482.4
          ],
          [
            138.50073817411138,
            35.92926348050675,
            1479.8
          ],
          [
            138.5006534380252,
            35.92932154486468,
            1476.5
          ],
          [
            138.5005694422199,
            35.92938032772226,
            1473.4
          ],
          [
            138.5004854464146,
            35.929439110579835,
            1471.0
          ],
          [
            138.5004014506093,
            35.929497893437414,
            1468.1
          ],
          [
            138.50031487763292,
            35.92955413223337,
            1465.3
          ],
          [
            138.5002278620411,
            35.929609934100235,
            1463.0
          ],
          [
            138.50014084644926,
            35.9296657359671,
            1460.2
          ],
          [
            138.50005383085744,
            35.92972153783396,
            1457.6
          ],
          [
            138.49996431657073,
            35.929774627241315,
            1455.9
          ],
          [
            138.4998740164737,
            35.929826863611865,
            1453.8
          ],
          [
            138.4997837163767,
            35.929879099982415,
            1452.6
          ],
          [
            138.49969341627968,
            35.929931336352965,
            1451.3
          ],
          [
            138.49960311618264,
            35.929983572723515,
            1449.8
          ],
          [
            138.49950986970308,
            35.930031853981816,
            1447.8
          ],
          [
            138.4994111334916,
            35.93007276603214,
            1446.6
          ],
          [
            138.49931239728014,
            35.930113678082456,
            1445.0
          ],
          [
            138.49921366106864,
            35.93015459013277,
            1443.8
          ],
          [
            138.49911492485717,
            35.93019550218309,
            1442.7
          ]
        ]
      }
    },
    {
      "type": "Feature",
      "properties": {
        "name": "バレー3",
        "slope_deg": [
          10.065169352759717,
          10.065169352759717,
          10.065169352759717,
          11.44759626368548,
          11.034209003250188,
          9.648045316098093,
          8.250387228905753,
          7.829076510059608,
          7.406912128495294,
          8.670801453590833,
          9.369385096487358,
          9.22988624372772,
          10.065169352759717,
          9.64804531609841,
          8.390627013252708,
          8.530765609948133,
          7.969610394321233,
          8.250387228905435,
          8.530765609948133,
          8.11004782941916,
          7.688447769903003,
          7.406912128495294,
          6.983937460085098,
          6.701525844729548,
          6.56019640057118,
          6.135733340186728,
          5.2848210925090795,
          5.710593137499643,
          5.142764557884436,
          6.135733340186728,
          7.406912128495294,
          6.56019640057118,
          7.547725773843047,
          6.98393746008542,
          7.406912128495294,
          8.670801453590833,
          8.250387228905435,
          8.670801453590833,
          8.250387228905435,
          8.390627013252708,
          8.530765609948133,
          8.390627013252708,
          8.250387228905435,
          7.969610394321233,
          7.547725773843047,
          7.688447769902681,
          9.369385096487358,
          9.09027692082245,
          11.44759626368579,
          10.342657140474548,
          7.266008446996189,
          6.701525844729548,
          4.289153328819018,
          5.2848210925090795,
          6.983937460085098,
          6.983937460085098,
          6.983937460085098
        ],
        "horizontal_dist_map": 563,
        "slope_dist_map": 569,
        "elevation_diff_map": 79.1,
        "avg_slope_deg_map": 7.9,
        "max_slope_deg_map": 11.4
      },
      "geometry": {
        "type": "LineString",
        "coordinates": [
          [
            138.502697967769,
            35.927523231997256,
            1524.0
          ],
          [
            138.50278497486957,
            35.92757904038914,
            1523.1
          ],
          [
            138.50287198197015,
            35.927634848781025,
            1521.1
          ],
          [
            138.50295898907075,
            35.92769065717291,
            1519.3
          ],
          [
            138.50304709842933,
            35.92774524127192,
            1516.9
          ],
          [
            138.50313878358324,
            35.927795853686796,
            1515.0
          ],
          [
            138.50323046873714,
            35.92784646610167,
            1513.3
          ],
          [
            138.5032542027551,
            35.927925453481805,
            1512.5
          ],
          [
            138.50325085193992,
            35.92801544176133,
            1511.1
          ],
          [
            138.5031979130168,
            35.928094615736335,
            1509.5
          ],
          [
            138.5031449740937,
            35.92817378971134,
            1508.1
          ],
          [
            138.50307418655711,
            35.92824291331038,
            1506.4
          ],
          [
            138.5030017026891,
            35.9283110817221,
            1504.5
          ],
          [
            138.50292921882104,
            35.92837925013382,
            1503.0
          ],
          [
            138.50285673495299,
            35.928447418545545,
            1501.0
          ],
          [
            138.50278425108496,
            35.928515586957275,
            1499.6
          ],
          [
            138.5027117672169,
            35.928583755369,
            1498.6
          ],
          [
            138.50263850126947,
            35.92865135914991,
            1497.0
          ],
          [
            138.5025638636416,
            35.92871797263107,
            1495.4
          ],
          [
            138.50248922601372,
            35.928784586112236,
            1493.8
          ],
          [
            138.50241458838582,
            35.9288511995934,
            1492.6
          ],
          [
            138.5023724020463,
            35.928934409180364,
            1491.3
          ],
          [
            138.50232852354782,
            35.929017149296165,
            1490.0
          ],
          [
            138.50228310059148,
            35.92909935390715,
            1488.6
          ],
          [
            138.50223767763512,
            35.929181558518124,
            1487.7
          ],
          [
            138.5021922546788,
            35.9292637631291,
            1486.6
          ],
          [
            138.50214683172243,
            35.92934596774008,
            1485.4
          ],
          [
            138.5021014087661,
            35.92942817235106,
            1484.3
          ],
          [
            138.50206809902855,
            35.929513618792996,
            1484.0
          ],
          [
            138.5020446281778,
            35.92960169839202,
            1482.6
          ],
          [
            138.50202115732702,
            35.92968977799104,
            1481.8
          ],
          [
            138.50199768647627,
            35.92977785759006,
            1480.0
          ],
          [
            138.5019716816436,
            35.929865017864515,
            1478.8
          ],
          [
            138.50190677931846,
            35.9299380661913,
            1478.0
          ],
          [
            138.5018207073005,
            35.929991217180905,
            1476.5
          ],
          [
            138.50172249945504,
            35.93003296173895,
            1475.1
          ],
          [
            138.5016136576342,
            35.93004979011247,
            1473.6
          ],
          [
            138.5015047697151,
            35.93006651047437,
            1471.9
          ],
          [
            138.501395881796,
            35.93008323083626,
            1470.7
          ],
          [
            138.50128699387687,
            35.93009995119816,
            1469.0
          ],
          [
            138.50117810595776,
            35.93011667156006,
            1467.8
          ],
          [
            138.50106921803865,
            35.930133391921956,
            1466.0
          ],
          [
            138.50095935715674,
            35.93014497867665,
            1464.7
          ],
          [
            138.50084933230596,
            35.930155700288594,
            1463.1
          ],
          [
            138.50073930745518,
            35.93016642190053,
            1462.0
          ],
          [
            138.50062928260442,
            35.93017714351247,
            1460.4
          ],
          [
            138.50051925775364,
            35.93018786512442,
            1459.4
          ],
          [
            138.50040909471588,
            35.93019588620281,
            1457.7
          ],
          [
            138.50029835495775,
            35.93019263666494,
            1455.4
          ],
          [
            138.50018761519962,
            35.930189387127065,
            1454.0
          ],
          [
            138.50007687544152,
            35.930186137589196,
            1451.3
          ],
          [
            138.4999661356834,
            35.93018288805132,
            1450.4
          ],
          [
            138.49985550815416,
            35.93018328189081,
            1450.3
          ],
          [
            138.499745107394,
            35.930191037519705,
            1449.3
          ],
          [
            138.49963470663386,
            35.93019879314859,
            1448.3
          ],
          [
            138.4995243058737,
            35.93020654877748,
            1446.7
          ],
          [
            138.49941390511353,
            35.93021430440637,
            1445.4
          ]
        ]
      }
    },
    {
      "type": "Feature",
      "properties": {
        "name": "ホーン",
        "slope_deg": [
          12.270720357815076,
          12.270720357815076,
          12.270720357815076,
          9.78720366465624,
          6.983937460085098,
          10.203973721731748,
          12.270720357815385,
          16.961705886532968,
          21.924785220541345,
          21.924785220541064,
          22.170895633834377,
          21.181349500266236,
          18.133621430820266,
          16.172159015782732,
          15.509334522675056,
          14.975984514756448,
          15.109575122340402,
          15.642246457208788,
          15.774985955414008,
          16.039943306049665,
          16.172159015782732,
          15.90755193052566,
          15.509334522674754,
          14.842227057911282,
          14.708303899682749,
          15.109575122340402,
          14.842227057911282,
          14.708303899682749,
          13.901350769508936,
          12.407418527400994,
          12.68038349181982,
          11.996899307923577,
          11.859779120948104,
          11.309932474020215,
          11.309932474020215,
          11.309932474020215
        ],
        "horizontal_dist_map": 354,
        "slope_dist_map": 368,
        "elevation_diff_map": 93.3,
        "avg_slope_deg_map": 14.2,
        "max_slope_deg_map": 22.2
      },
      "geometry": {
        "type": "LineString",
        "coordinates": [
          [
            138.4969689,
            35.9276266,
            1505.1
          ],
          [
            138.49686023591605,
            35.927619042766366,
            1502.2
          ],
          [
            138.4967516395331,
            35.92763696007703,
            1499.8
          ],
          [
            138.49664304315016,
            35.9276548773877,
            1497.7
          ],
          [
            138.496536716569,
            35.927680241614155,
            1496.4
          ],
          [
            138.49643040562768,
            35.92770565715272,
            1495.3
          ],
          [
            138.49638072782068,
            35.927759260123416,
            1494.9
          ],
          [
            138.4964012844437,
            35.92784782016035,
            1490.5
          ],
          [
            138.4964218410667,
            35.92793638019729,
            1487.7
          ],
          [
            138.49644176752147,
            35.92802501939557,
            1483.1
          ],
          [
            138.49645501969263,
            35.92811449701325,
            1478.8
          ],
          [
            138.49646827186376,
            35.92820397463093,
            1474.4
          ],
          [
            138.49648242392746,
            35.928293297122835,
            1471.4
          ],
          [
            138.4965149406439,
            35.928379453868935,
            1467.6
          ],
          [
            138.49654745736032,
            35.92846561061503,
            1465.7
          ],
          [
            138.49657997407678,
            35.92855176736113,
            1462.8
          ],
          [
            138.49655268985407,
            35.92863815569222,
            1460.3
          ],
          [
            138.49652118320498,
            35.928724560375066,
            1456.9
          ],
          [
            138.49648967655588,
            35.92881096505791,
            1454.9
          ],
          [
            138.49645816990676,
            35.92889736974076,
            1451.6
          ],
          [
            138.49642666325767,
            35.928983774423614,
            1449.0
          ],
          [
            138.49639515660857,
            35.92907017910646,
            1445.4
          ],
          [
            138.49636364995948,
            35.92915658378931,
            1443.3
          ],
          [
            138.49633199079273,
            35.929242951588634,
            1440.2
          ],
          [
            138.4963002835546,
            35.929329307762806,
            1437.9
          ],
          [
            138.4962685763165,
            35.929415663936986,
            1434.8
          ],
          [
            138.4962368690784,
            35.92950202011116,
            1432.8
          ],
          [
            138.49620516184027,
            35.92958837628533,
            1429.4
          ],
          [
            138.4961732393511,
            35.92967468000654,
            1427.3
          ],
          [
            138.49614130423075,
            35.92976098064976,
            1424.3
          ],
          [
            138.4961093691104,
            35.92984728129297,
            1422.9
          ],
          [
            138.49607743399002,
            35.92993358193619,
            1420.6
          ],
          [
            138.49604373966602,
            35.93001943022171,
            1418.3
          ],
          [
            138.49600886949418,
            35.930104976152364,
            1415.8
          ],
          [
            138.49597399932236,
            35.93019052208302,
            1414.5
          ],
          [
            138.49593912915054,
            35.930276068013676,
            1412.6
          ]
        ]
      }
    }
  ]
}