{
  "type": "FeatureCollection",
  "features": [
    {
      "type": "Feature",
      "properties": {
        "name": "ユートピア",
        "slope_deg": [
          21.80140948635181,
          21.80140948635181,
          21.80140948635181,
          24.22774531795417,
          24.22774531795417,
          23.025492008528037,
          21.80140948635181,
          23.025492008528037,
          25.407718108948472,
          27.699472808055,
          23.025492008528037,
          20.556045219583467,
          16.69924423399362,
          14.036243467926479,
          16.69924423399362,
          12.68038349181982,
          11.309932474020215,
          9.926245506651705,
          9.926245506651705,
          9.926245506651705,
          9.926245506651705,
          11.309932474020215,
          9.926245506651705,
          11.309932474020215,
          11.309932474020215,
          9.926245506651705,
          8.530765609948133,
          8.530765609948133,
          7.125016348901798,
          8.530765609948133,
          8.530765609948133,
          9.926245506651705,
          9.926245506651705,
          8.530765609948133,
          9.926245506651705,
          7.125016348901798,
          7.125016348901798,
          7.125016348901798,
          7.125016348901798
        ],
        "horizontal_dist_map": 386,
        "slope_dist_map": 402,
        "elevation_diff_map": 96.0,
        "avg_slope_deg_map": 13.4,
        "max_slope_deg_map": 27.7
      },
      "geometry": {
        "type": "LineString",
        "coordinates": [
          [
            143.49965048932293,
            44.0185238087616,
            250.0
          ],
          [
            143.4995754835693,
            44.01859571285742,
            247.0
          ],
          [
            143.49950047781567,
            44.01866761695324,
            243.0
          ],
          [
            143.49942547206203,
            44.018739521049056,
            240.0
          ],
          [
            143.4993504663084,
            44.01881142514487,
            234.0
          ],
          [
            143.49925790322084,
            44.018871378451266,
            229.0
          ],
          [
            143.49916280420797,
            44.01892960562376,
            225.0
          ],
          [
            143.4990677051951,
            44.01898783279625,
            223.0
          ],
          [
            143.4989726061822,
            44.019046059968744,
            218.0
          ],
          [
            143.49887750716934,
            44.01910428714123,
            212.0
          ],
          [
            143.49878240815647,
            44.01916251431373,
            206.0
          ],
          [
            143.49868730914358,
            44.019220741486215,
            202.0
          ],
          [
            143.49862321135254,
            44.01929751995094,
            201.0
          ],
          [
            143.4985615156224,
            44.01937573582138,
            197.0
          ],
          [
            143.49849981989226,
            44.01945395169182,
            194.0
          ],
          [
            143.4984381241621,
            44.01953216756227,
            192.0
          ],
          [
            143.4983795530665,
            44.01961160497561,
            189.0
          ],
          [
            143.49832246133423,
            44.01969162073043,
            188.0
          ],
          [
            143.49826536960194,
            44.01977163648524,
            186.0
          ],
          [
            143.4982084529183,
            44.01985170895758,
            185.0
          ],
          [
            143.4981635172045,
            44.019935663384395,
            182.0
          ],
          [
            143.49811123881116,
            44.020016573965,
            181.0
          ],
          [
            143.49803336920127,
            44.02008687592142,
            179.0
          ],
          [
            143.49795549959137,
            44.020157177877834,
            177.0
          ],
          [
            143.49787762998147,
            44.020227479834254,
            175.0
          ],
          [
            143.49781377767204,
            44.02030477519112,
            173.0
          ],
          [
            143.4977501317656,
            44.02038217352494,
            171.0
          ],
          [
            143.49767413673416,
            44.02045279059216,
            170.0
          ],
          [
            143.4975877183862,
            44.020517683910676,
            169.0
          ],
          [
            143.49750130003827,
            44.020582577229185,
            167.0
          ],
          [
            143.49741488169033,
            44.020647470547694,
            166.0
          ],
          [
            143.49732846334237,
            44.0207123638662,
            164.0
          ],
          [
            143.49724204499444,
            44.02077725718471,
            163.0
          ],
          [
            143.49715562664647,
            44.02084215050323,
            160.0
          ],
          [
            143.49706920829854,
            44.02090704382174,
            159.0
          ],
          [
            143.4969827899506,
            44.020971937140246,
            158.0
          ],
          [
            143.49689637160265,
            44.021036830458755,
            156.0
          ],
          [
            143.4968099532547,
            44.021101723777264,
            155.0
          ],
          [
            143.49672353490675,
            44.02116661709577,
            154.0
          ]
        ]
      }
    },
    {
      "type": "Feature",
      "properties": {
        "name": "林間",
        "slope_deg": [
          7.125016348901798,
          7.125016348901798,
          7.125016348901798,
          7.125016348901798,
          7.125016348901798,
          9.926245506651705,
          8.530765609948133,
          9.926245506651705,
          11.309932474020215,
          8.530765609948133,
          9.926245506651705,
          7.125016348901798,
          5.710593137499643,
          5.710593137499643,
          8.530765609948133,
          8.530765609948133,
          9.926245506651705,
          8.530765609948133,
          5.710593137499643,
          2.862405226111748,
          1.4320961841646465,
          5.710593137499643,
          2.862405226111748,
          7.125016348901798,
          9.926245506651705,
          9.926245506651705,
          14.036243467926479,
          14.036243467926479,
          5.710593137499643,
          11.309932474020215,
          7.125016348901798,
          4.289153328819018,
          11.309932474020215,
          2.862405226111748,
          5.710593137499643,
          7.125016348901798,
          7.125016348901798,
          8.530765609948133,
          8.530765609948133,
          9.926245506651705,
          9.926245506651705,
          8.530765609948133,
          9.926245506651705,
          8.530765609948133,
          5.710593137499643,
          9.926245506651705,
          7.125016348901798,
          9.926245506651705,
          11.309932474020215,
          7.125016348901798,
          4.289153328819018,
          -1.4320961841646465,
          0.0,
          0.0,
          4.289153328819018,
          7.125016348901798,
          5.710593137499643,
          8.530765609948133,
          5.710593137499643,
          5.710593137499643,
          4.289153328819018,
          0.0,
          1.4320961841646465,
          1.4320961841646465,
          0.0,
          1.4320961841646465,
          0.0,
          -1.4320961841646465,
          2.862405226111748,
          2.862405226111748,
          1.4320961841646465,
          2.862405226111748,
          1.4320961841646465,
          2.862405226111748,
          5.710593137499643,
          5.710593137499643,
          5.710593137499643,
          4.289153328819018,
          7.125016348901798,
          7.125016348901798,
          8.530765609948133,
          9.926245506651705,
          5.710593137499643,
          8.530765609948133,
          5.710593137499643,
          7.125016348901798,
          9.926245506651705,
          8.530765609948133,
          8.530765609948133,
          7.125016348901798,
          7.125016348901798,
          5.710593137499643,
          7.125016348901798,
          5.710593137499643,
          4.289153328819018,
          2.862405226111748,
          1.4320961841646465,
          2.862405226111748,
          1.4320961841646465,
          0.0,
          1.4320961841646465,
          1.4320961841646465,
          1.4320961841646465
        ],
        "horizontal_dist_map": 1025,
        "slope_dist_map": 1038,
        "elevation_diff_map": 108.0,
        "avg_slope_deg_map": 5.9,
        "max_slope_deg_map": 14.0
      },
      "geometry": {
        "type": "LineString",
        "coordinates": [
          [
            143.5010523,
            44.0190482,
            262.0
          ],
          [
            143.50115808830014,
            44.019095868037276,
            260.0
          ],
          [
            143.5012638766003,
            44.01914353607456,
            259.0
          ],
          [
            143.50136966490044,
            44.019191204111834,
            259.0
          ],
          [
            143.50145955782082,
            44.01925197266697,
            257.0
          ],
          [
            143.50153901157248,
            44.0193213448867,
            255.0
          ],
          [
            143.50161846532413,
            44.019390717106425,
            254.0
          ],
          [
            143.50170930251602,
            44.0194520601125,
            252.0
          ],
          [
            143.50180360312842,
            44.019510960224125,
            251.0
          ],
          [
            143.5018979037408,
            44.01956986033574,
            248.0
          ],
          [
            143.5019922043532,
            44.01962876044736,
            246.0
          ],
          [
            143.50188129617578,
            44.01965671525294,
            246.0
          ],
          [
            143.50176203388432,
            44.01968304699902,
            244.0
          ],
          [
            143.50163843785478,
            44.019694483924596,
            243.0
          ],
          [
            143.5015145702094,
            44.019704987321425,
            242.0
          ],
          [
            143.50139473529106,
            44.01972857487737,
            242.0
          ],
          [
            143.50135071276156,
            44.01976598249773,
            238.0
          ],
          [
            143.50144966348438,
            44.019820766882326,
            237.0
          ],
          [
            143.50156033770435,
            44.01986209985201,
            235.0
          ],
          [
            143.5016716275039,
            44.01990272651228,
            236.0
          ],
          [
            143.50178291730347,
            44.01994335317255,
            234.0
          ],
          [
            143.50189949656078,
            44.01997472310054,
            235.0
          ],
          [
            143.50201812564416,
            44.02000250576269,
            234.0
          ],
          [
            143.502126014237,
            44.0200457558741,
            232.0
          ],
          [
            143.50222786839947,
            44.02009769620738,
            232.0
          ],
          [
            143.50232972256194,
            44.02014963654066,
            230.0
          ],
          [
            143.5024315767244,
            44.02020157687394,
            227.0
          ],
          [
            143.50253406277594,
            44.02025286392975,
            225.0
          ],
          [
            143.50256432749035,
            44.020331439447126,
            222.0
          ],
          [
            143.5024640455432,
            44.02034826030739,
            220.0
          ],
          [
            143.50233958131918,
            44.0203477290816,
            223.0
          ],
          [
            143.50225125852754,
            44.020411272817,
            217.0
          ],
          [
            143.50226424458677,
            44.020450236207765,
            217.0
          ],
          [
            143.50238526886125,
            44.0204697688466,
            217.0
          ],
          [
            143.5025022672338,
            44.020500947036574,
            215.0
          ],
          [
            143.5026192656064,
            44.020532125226545,
            215.0
          ],
          [
            143.50273739763108,
            44.02056073013365,
            213.0
          ],
          [
            143.5028578696504,
            44.02058402347472,
            212.0
          ],
          [
            143.5029783416697,
            44.020607316815784,
            210.0
          ],
          [
            143.50306898650337,
            44.02063701860363,
            209.0
          ],
          [
            143.50298579263443,
            44.02070407007931,
            207.0
          ],
          [
            143.50288071188209,
            44.0207517464572,
            205.0
          ],
          [
            143.5027721705547,
            44.02079589534699,
            203.0
          ],
          [
            143.5026558900178,
            44.02082844303638,
            203.0
          ],
          [
            143.5025396094809,
            44.02086099072576,
            200.0
          ],
          [
            143.50241999005408,
            44.02088498731618,
            199.0
          ],
          [
            143.5022972654493,
            44.02090103135803,
            199.0
          ],
          [
            143.50217454084455,
            44.02091707539987,
            196.0
          ],
          [
            143.50205705788085,
            44.02094118186188,
            195.0
          ],
          [
            143.50202832358104,
            44.0209928432849,
            192.0
          ],
          [
            143.50214101155953,
            44.02103141409388,
            191.0
          ],
          [
            143.50225620968448,
            44.02106578602959,
            191.0
          ],
          [
            143.502377713547,
            44.02108175434439,
            192.0
          ],
          [
            143.50250205865817,
            44.02108875330167,
            193.0
          ],
          [
            143.50262434046576,
            44.02110391618163,
            191.0
          ],
          [
            143.5027402743788,
            44.02113575570964,
            191.0
          ],
          [
            143.50284767287914,
            44.02118128616471,
            189.0
          ],
          [
            143.50291738440765,
            44.02124182099418,
            188.0
          ],
          [
            143.5028806624678,
            44.021324762385625,
            187.0
          ],
          [
            143.50277065896944,
            44.02136678367372,
            185.0
          ],
          [
            143.50264669713945,
            44.021376714317555,
            185.0
          ],
          [
            143.50252308822277,
            44.02136750981654,
            184.0
          ],
          [
            143.50240050356166,
            44.021351241195234,
            184.0
          ],
          [
            143.5022785607099,
            44.02133234361878,
            185.0
          ],
          [
            143.50215781503087,
            44.02131024002607,
            184.0
          ],
          [
            143.50203922186896,
            44.02128237201474,
            183.0
          ],
          [
            143.50192062870707,
            44.0212545040034,
            184.0
          ],
          [
            143.50180203554518,
            44.021226635992065,
            184.0
          ],
          [
            143.5016834423833,
            44.021198767980735,
            184.0
          ],
          [
            143.501561724795,
            44.021180489249964,
            184.0
          ],
          [
            143.50143834749005,
            44.02116730441062,
            182.0
          ],
          [
            143.5013149701851,
            44.02115411957127,
            182.0
          ],
          [
            143.5011915928801,
            44.021140934731925,
            183.0
          ],
          [
            143.50106941013956,
            44.02112403611717,
            182.0
          ],
          [
            143.5009498118647,
            44.021100324660324,
            181.0
          ],
          [
            143.50082508926738,
            44.02110051007594,
            180.0
          ],
          [
            143.50070036667006,
            44.02110069549156,
            179.0
          ],
          [
            143.50057721885432,
            44.02111391444841,
            178.0
          ],
          [
            143.5004543336829,
            44.02112930715825,
            177.0
          ],
          [
            143.50033144851153,
            44.02114469986808,
            177.0
          ],
          [
            143.50021047544843,
            44.02116604622678,
            174.0
          ],
          [
            143.5000907347516,
            44.021191229751125,
            173.0
          ],
          [
            143.4999709940548,
            44.02121641327547,
            171.0
          ],
          [
            143.49985125335795,
            44.02124159679982,
            170.0
          ],
          [
            143.49973151266113,
            44.02126678032416,
            170.0
          ],
          [
            143.4996107625941,
            44.02128895557136,
            167.0
          ],
          [
            143.49948831784556,
            44.02130608007362,
            167.0
          ],
          [
            143.49936587309705,
            44.021323204575886,
            165.0
          ],
          [
            143.4992434283485,
            44.02134032907815,
            163.0
          ],
          [
            143.4991209836,
            44.021357453580414,
            161.0
          ],
          [
            143.49899825260917,
            44.021371960740176,
            161.0
          ],
          [
            143.49887360103563,
            44.02136890647404,
            160.0
          ],
          [
            143.49874894946208,
            44.02136585220791,
            158.0
          ],
          [
            143.49862429788854,
            44.02136279794177,
            157.0
          ],
          [
            143.498499646315,
            44.02135974367564,
            156.0
          ],
          [
            143.49837500616553,
            44.02135647227402,
            156.0
          ],
          [
            143.49825039203134,
            44.02135270640521,
            155.0
          ],
          [
            143.49812577789714,
            44.021348940536406,
            155.0
          ],
          [
            143.49800116376295,
            44.021345174667594,
            155.0
          ],
          [
            143.49787654962876,
            44.02134140879879,
            154.0
          ],
          [
            143.49775193549456,
            44.02133764292998,
            154.0
          ],
          [
            143.49762732136037,
            44.021333877061174,
            155.0
          ],
          [
            143.49750270722618,
            44.02133011119236,
            154.0
          ]
        ]
      }
    },
    {
      "type": "Feature",
      "properties": {
        "name": "チャンピオン",
        "slope_deg": [
          18.00416160591338,
          18.00416160591338,
          18.00416160591338,
          23.025492008528037,
          19.290046219188735,
          21.80140948635181,
          23.025492008528037,
          20.556045219583467,
          19.290046219188735,
          16.69924423399362,
          15.37625124882619,
          14.036243467926479,
          12.68038349181982,
          14.036243467926479,
          12.68038349181982,
          11.309932474020215,
          14.036243467926479,
          9.926245506651705,
          12.68038349181982,
          12.68038349181982,
          15.37625124882619,
          18.00416160591338,
          21.80140948635181,
          24.22774531795417,
          25.407718108948472,
          26.565051177077994,
          24.22774531795417,
          28.810793742973065,
          25.407718108948472,
          27.699472808055,
          27.699472808055,
          27.699472808055,
          28.810793742973065,
          32.005383208083494,
          32.005383208083494,
          30.96375653207352,
          29.89890183861456,
          24.22774531795417,
          26.565051177077994,
          21.80140948635181,
          25.407718108948472,
          25.407718108948472,
          25.407718108948472,
          25.407718108948472,
          24.22774531795417,
          23.025492008528037,
          21.80140948635181,
          20.556045219583467,
          20.556045219583467,
          19.290046219188735,
          14.036243467926479,
          16.69924423399362,
          12.68038349181982,
          15.37625124882619,
          18.00416160591338,
          16.69924423399362,
          16.69924423399362,
          15.37625124882619,
          12.68038349181982,
          14.036243467926479,
          12.68038349181982,
          9.926245506651705,
          12.68038349181982,
          8.530765609948133,
          11.309932474020215,
          11.309932474020215,
          9.926245506651705,
          9.926245506651705,
          9.926245506651705,
          9.926245506651705,
          8.530765609948133,
          9.926245506651705,
          7.125016348901798,
          8.530765609948133,
          8.530765609948133,
          8.530765609948133,
          8.530765609948133,
          8.530765609948133
        ],
        "horizontal_dist_map": 777,
        "slope_dist_map": 830,
        "elevation_diff_map": 258.0,
        "avg_slope_deg_map": 17.3,
        "max_slope_deg_map": 32.0
      },
      "geometry": {
        "type": "LineString",
        "coordinates": [
          [
            143.49506610801754,
            44.01437089769616,
            409.0
          ],
          [
            143.4950622322792,
            44.01446085306993,
            407.0
          ],
          [
            143.49505835654088,
            44.014550808443694,
            401.0
          ],
          [
            143.49505448080254,
            44.01464076381746,
            398.0
          ],
          [
            143.4950506050642,
            44.01473071919123,
            396.0
          ],
          [
            143.49504672932588,
            44.014820674564994,
            390.0
          ],
          [
            143.49504285358753,
            44.014910629938754,
            387.0
          ],
          [
            143.4950389778492,
            44.01500058531252,
            382.0
          ],
          [
            143.49503510211088,
            44.01509054068629,
            379.0
          ],
          [
            143.49503122637253,
            44.015180496060054,
            375.0
          ],
          [
            143.49502735063422,
            44.01527045143382,
            373.0
          ],
          [
            143.49502347489587,
            44.01536040680759,
            370.0
          ],
          [
            143.49501959915753,
            44.015450362181355,
            368.0
          ],
          [
            143.49501572341921,
            44.01554031755512,
            365.0
          ],
          [
            143.49501184768087,
            44.01563027292889,
            364.0
          ],
          [
            143.49501542308897,
            44.015720186437,
            360.0
          ],
          [
            143.49502123867796,
            44.01581008735824,
            359.0
          ],
          [
            143.49502705426696,
            44.01589998827948,
            357.0
          ],
          [
            143.49503286985595,
            44.01598988920072,
            354.0
          ],
          [
            143.49503868544494,
            44.01607979012195,
            353.0
          ],
          [
            143.49504450103393,
            44.01616969104319,
            350.0
          ],
          [
            143.49505031662292,
            44.01625959196443,
            348.0
          ],
          [
            143.49505613221191,
            44.01634949288567,
            343.0
          ],
          [
            143.4950619478009,
            44.016439393806905,
            340.0
          ],
          [
            143.4950677633899,
            44.016529294728144,
            334.0
          ],
          [
            143.4950735789789,
            44.01661919564938,
            330.0
          ],
          [
            143.49507939456788,
            44.01670909657062,
            324.0
          ],
          [
            143.49508521015687,
            44.01679899749186,
            320.0
          ],
          [
            143.49508287722603,
            44.01688896101088,
            316.0
          ],
          [
            143.49507971563037,
            44.01697893089578,
            308.0
          ],
          [
            143.49507655403474,
            44.017068900780686,
            305.0
          ],
          [
            143.49507339243908,
            44.01715887066559,
            299.0
          ],
          [
            143.49507023084342,
            44.017248840550494,
            295.0
          ],
          [
            143.49506706924777,
            44.0173388104354,
            287.0
          ],
          [
            143.4950639076521,
            44.0174287803203,
            283.0
          ],
          [
            143.49506074605648,
            44.017518750205205,
            274.0
          ],
          [
            143.49505758446082,
            44.01760872009011,
            270.0
          ],
          [
            143.49505442286517,
            44.01769868997501,
            263.0
          ],
          [
            143.4950512612695,
            44.01778865985992,
            260.0
          ],
          [
            143.49504809967385,
            44.01787862974482,
            256.0
          ],
          [
            143.49504493807822,
            44.017968599629725,
            250.0
          ],
          [
            143.49504399389622,
            44.01805854055359,
            247.0
          ],
          [
            143.49505166451172,
            44.01814836896191,
            241.0
          ],
          [
            143.49505933512722,
            44.01823819737023,
            237.0
          ],
          [
            143.49506700574273,
            44.01832802577856,
            231.0
          ],
          [
            143.4950746763582,
            44.01841785418688,
            228.0
          ],
          [
            143.4950823469737,
            44.01850768259521,
            223.0
          ],
          [
            143.4950900175892,
            44.01859751100353,
            220.0
          ],
          [
            143.4950976882047,
            44.01868733941185,
            215.0
          ],
          [
            143.4951053588202,
            44.018777167820176,
            213.0
          ],
          [
            143.49511302943571,
            44.018866996228496,
            208.0
          ],
          [
            143.49512070005122,
            44.018956824636824,
            206.0
          ],
          [
            143.4951283706667,
            44.019046653045145,
            205.0
          ],
          [
            143.49513607854914,
            44.019136479746244,
            201.0
          ],
          [
            143.49514420360538,
            44.019226287336295,
            199.0
          ],
          [
            143.4951523286616,
            44.019316094926346,
            195.0
          ],
          [
            143.4951604537178,
            44.0194059025164,
            192.0
          ],
          [
            143.495168578774,
            44.01949571010645,
            189.0
          ],
          [
            143.49517670383025,
            44.0195855176965,
            187.0
          ],
          [
            143.49518482888647,
            44.01967532528655,
            184.0
          ],
          [
            143.49519295394268,
            44.0197651328766,
            183.0
          ],
          [
            143.4952010789989,
            44.01985494046665,
            179.0
          ],
          [
            143.4952092040551,
            44.0199447480567,
            178.0
          ],
          [
            143.49521732911134,
            44.02003455564675,
            177.0
          ],
          [
            143.49522545416755,
            44.0201243632368,
            174.0
          ],
          [
            143.49524266556324,
            44.02021344790287,
            173.0
          ],
          [
            143.49526185042438,
            44.02030237555682,
            170.0
          ],
          [
            143.4952810352855,
            44.02039130321076,
            169.0
          ],
          [
            143.49530022014665,
            44.0204802308647,
            167.0
          ],
          [
            143.49531940500776,
            44.02056915851865,
            166.0
          ],
          [
            143.49533858986888,
            44.02065808617259,
            163.0
          ],
          [
            143.49535777473002,
            44.02074701382653,
            162.0
          ],
          [
            143.49537695959114,
            44.02083594148048,
            161.0
          ],
          [
            143.49539297436766,
            44.020925116047756,
            159.0
          ],
          [
            143.49540052944567,
            44.02101494952881,
            158.0
          ],
          [
            143.4954080845237,
            44.02110478300987,
            156.0
          ],
          [
            143.4954156396017,
            44.02119461649092,
            155.0
          ],
          [
            143.49542319467972,
            44.02128444997197,
            153.0
          ]
        ]
      }
    },
    {
      "type": "Feature",
      "properties": {
        "name": "ダイナミック",
        "slope_deg": [
          1.4320961841646465,
          1.4320961841646465,
          1.4320961841646465,
          0.0,
          1.4320961841646465,
          1.4320961841646465,
          0.0,
          2.862405226111748,
          2.862405226111748,
          9.926245506651705,
          15.37625124882619,
          20.556045219583467,
          25.407718108948472,
          24.22774531795417,
          26.565051177077994,
          28.810793742973065,
          28.810793742973065,
          28.810793742973065,
          26.565051177077994,
          20.556045219583467,
          21.80140948635181,
          23.025492008528037,
          23.025492008528037,
          29.89890183861456,
          27.699472808055,
          30.96375653207352,
          30.96375653207352,
          23.025492008528037,
          25.407718108948472,
          19.290046219188735,
          20.556045219583467,
          21.80140948635181,
          20.556045219583467,
          20.556045219583467,
          19.290046219188735,
          25.407718108948472,
          24.22774531795417,
          26.565051177077994,
          24.22774531795417,
          21.80140948635181,
          20.556045219583467,
          18.00416160591338,
          21.80140948635181,
          19.290046219188735,
          21.80140948635181,
          20.556045219583467,
          19.290046219188735,
          18.00416160591338,
          16.69924423399362,
          16.69924423399362,
          15.37625124882619,
          15.37625124882619,
          12.68038349181982,
          15.37625124882619,
          12.68038349181982,
          14.036243467926479,
          14.036243467926479,
          11.309932474020215,
          11.309932474020215,
          9.926245506651705,
          8.530765609948133,
          5.710593137499643,
          7.125016348901798,
          8.530765609948133,
          8.530765609948133,
          11.309932474020215,
          11.309932474020215,
          9.926245506651705,
          12.68038349181982,
          12.68038349181982,
          12.68038349181982,
          12.68038349181982,
          12.68038349181982,
          11.309932474020215,
          11.309932474020215,
          12.68038349181982,
          11.309932474020215,
          11.309932474020215,
          11.309932474020215,
          8.530765609948133,
          7.125016348901798,
          8.530765609948133,
          7.125016348901798,
          8.530765609948133,
          8.530765609948133,
          7.125016348901798,
          7.125016348901798,
          7.125016348901798,
          8.530765609948133,
          8.530765609948133,
          8.530765609948133,
          8.530765609948133,
          8.530765609948133,
          8.530765609948133
        ],
        "horizontal_dist_map": 935,
        "slope_dist_map": 984,
        "elevation_diff_map": 255.0,
        "avg_slope_deg_map": 14.5,
        "max_slope_deg_map": 31.0
      },
      "geometry": {
        "type": "LineString",
        "coordinates": [
          [
            143.4950712,
            44.0141584,
            412.0
          ],
          [
            143.4949510878607,
            44.014182608748534,
            412.0
          ],
          [
            143.49483097572136,
            44.014206817497076,
            412.0
          ],
          [
            143.49471086358204,
            44.01423102624561,
            412.0
          ],
          [
            143.49459075144273,
            44.014255234994145,
            411.0
          ],
          [
            143.4944706393034,
            44.01427944374269,
            412.0
          ],
          [
            143.49435052716407,
            44.01430365249122,
            411.0
          ],
          [
            143.49423041502476,
            44.014327861239764,
            411.0
          ],
          [
            143.49411475978283,
            44.01435907024946,
            411.0
          ],
          [
            143.49401107018554,
            44.01440907319343,
            410.0
          ],
          [
            143.4939073805882,
            44.01445907613739,
            409.0
          ],
          [
            143.49380369099092,
            44.01450907908136,
            404.0
          ],
          [
            143.4937000013936,
            44.01455908202533,
            400.0
          ],
          [
            143.49360320504678,
            44.01461573975181,
            395.0
          ],
          [
            143.49350740564202,
            44.0146733599317,
            390.0
          ],
          [
            143.49341160623723,
            44.014730980111594,
            386.0
          ],
          [
            143.49332111355773,
            44.01479261275506,
            380.0
          ],
          [
            143.4932368963911,
            44.01485899037133,
            373.0
          ],
          [
            143.49315267922447,
            44.01492536798761,
            368.0
          ],
          [
            143.4930721316933,
            44.01499362397308,
            364.0
          ],
          [
            143.49301316765326,
            44.015072927858334,
            360.0
          ],
          [
            143.49295420361318,
            44.01515223174359,
            358.0
          ],
          [
            143.49289523957313,
            44.01523153562884,
            352.0
          ],
          [
            143.49283627553305,
            44.01531083951409,
            347.0
          ],
          [
            143.49280446872538,
            44.015397760012775,
            343.0
          ],
          [
            143.49277375203604,
            44.015484986249895,
            335.0
          ],
          [
            143.4927430353467,
            44.015572212487015,
            331.0
          ],
          [
            143.49271762627185,
            44.01566022493465,
            323.0
          ],
          [
            143.49269824596118,
            44.01574913041582,
            319.0
          ],
          [
            143.49268727091174,
            44.015838176958134,
            318.0
          ],
          [
            143.49270090337694,
            44.01592763647562,
            312.0
          ],
          [
            143.49271453584214,
            44.01601709599309,
            309.0
          ],
          [
            143.49272816830734,
            44.01610655551057,
            304.0
          ],
          [
            143.4927118555012,
            44.01619474851893,
            302.0
          ],
          [
            143.49268383534482,
            44.01628244637513,
            297.0
          ],
          [
            143.49265581518847,
            44.01637014423133,
            294.0
          ],
          [
            143.4926277950321,
            44.01645784208753,
            290.0
          ],
          [
            143.4925997748757,
            44.016545539943735,
            283.0
          ],
          [
            143.49257175471936,
            44.01663323779994,
            279.0
          ],
          [
            143.492543734563,
            44.01672093565613,
            274.0
          ],
          [
            143.49251571440664,
            44.01680863351233,
            272.0
          ],
          [
            143.49248878548073,
            44.01689646271004,
            267.0
          ],
          [
            143.4924758486591,
            44.01698597601027,
            264.0
          ],
          [
            143.4924629118375,
            44.01707548931049,
            261.0
          ],
          [
            143.4924499750159,
            44.017165002610724,
            256.0
          ],
          [
            143.49243703819425,
            44.017254515910956,
            253.0
          ],
          [
            143.49242410137265,
            44.01734402921118,
            248.0
          ],
          [
            143.49241116455102,
            44.01743354251141,
            246.0
          ],
          [
            143.4923982277294,
            44.01752305581164,
            242.0
          ],
          [
            143.49238529090778,
            44.01761256911187,
            240.0
          ],
          [
            143.49237235408617,
            44.0177020824121,
            236.0
          ],
          [
            143.49236141743398,
            44.01779169257485,
            234.0
          ],
          [
            143.49235766418332,
            44.01788165060936,
            231.0
          ],
          [
            143.49235391093262,
            44.01797160864386,
            229.0
          ],
          [
            143.49235015768195,
            44.01806156667837,
            227.0
          ],
          [
            143.49234640443126,
            44.01815152471287,
            223.0
          ],
          [
            143.4923426511806,
            44.01824148274737,
            222.0
          ],
          [
            143.4923388979299,
            44.01833144078188,
            219.0
          ],
          [
            143.4923819930694,
            44.01840517424498,
            217.0
          ],
          [
            143.49248159575413,
            44.018459337970484,
            215.0
          ],
          [
            143.4925811984389,
            44.01851350169599,
            214.0
          ],
          [
            143.49268080112367,
            44.01856766542149,
            212.0
          ],
          [
            143.4927804038084,
            44.018621829147,
            211.0
          ],
          [
            143.49288000649318,
            44.0186759928725,
            211.0
          ],
          [
            143.4929729688453,
            44.01873480300841,
            209.0
          ],
          [
            143.49304492227515,
            44.01880831362402,
            206.0
          ],
          [
            143.493116875705,
            44.01888182423963,
            205.0
          ],
          [
            143.49318882913482,
            44.018955334855235,
            203.0
          ],
          [
            143.49326078256468,
            44.01902884547085,
            201.0
          ],
          [
            143.49333273599453,
            44.01910235608646,
            199.0
          ],
          [
            143.49340468942435,
            44.01917586670207,
            196.0
          ],
          [
            143.49347398106704,
            44.01925049868908,
            194.0
          ],
          [
            143.49352731486084,
            44.01933185348088,
            192.0
          ],
          [
            143.49358064865464,
            44.019413208272674,
            190.0
          ],
          [
            143.49363398244847,
            44.01949456306447,
            187.0
          ],
          [
            143.49368731624227,
            44.019575917856265,
            186.0
          ],
          [
            143.49374065003607,
            44.01965727264806,
            184.0
          ],
          [
            143.49379398382987,
            44.01973862743986,
            181.0
          ],
          [
            143.4938473176237,
            44.01981998223165,
            179.0
          ],
          [
            143.4939006514175,
            44.01990133702345,
            178.0
          ],
          [
            143.4939539852113,
            44.019982691815244,
            176.0
          ],
          [
            143.4940073190051,
            44.02006404660704,
            175.0
          ],
          [
            143.4940449403086,
            44.02014943878152,
            174.0
          ],
          [
            143.49407486458296,
            44.02023680873621,
            172.0
          ],
          [
            143.4941047888573,
            44.020324178690885,
            171.0
          ],
          [
            143.49413471313164,
            44.02041154864557,
            169.0
          ],
          [
            143.494164637406,
            44.02049891860025,
            168.0
          ],
          [
            143.49419456168033,
            44.02058628855494,
            167.0
          ],
          [
            143.49422448595467,
            44.02067365850962,
            166.0
          ],
          [
            143.494254410229,
            44.02076102846431,
            164.0
          ],
          [
            143.49428433450333,
            44.02084839841899,
            162.0
          ],
          [
            143.49431425877768,
            44.020935768373676,
            161.0
          ],
          [
            143.49434418305202,
            44.02102313832836,
            160.0
          ],
          [
            143.49437410732637,
            44.021110508283044,
            158.0
          ]
        ]
      }
    },
    {
      "type": "Feature",
      "properties": {
        "name": "パノラマ",
        "slope_deg": [
          1.4320961841646465,
          1.4320961841646465,
          1.4320961841646465,
          0.0,
          2.862405226111748,
          1.4320961841646465,
          2.862405226111748,
          4.289153328819018,
          2.862405226111748,
          4.289153328819018,
          4.289153328819018,
          4.289153328819018,
          5.710593137499643,
          8.530765609948133,
          9.926245506651705,
          9.926245506651705,
          8.530765609948133,
          5.710593137499643,
          8.530765609948133,
          11.309932474020215,
          16.69924423399362,
          18.00416160591338,
          15.37625124882619,
          18.00416160591338,
          18.00416160591338,
          21.80140948635181,
          20.556045219583467,
          23.025492008528037,
          23.025492008528037,
          20.556045219583467,
          25.407718108948472,
          20.556045219583467,
          19.290046219188735,
          18.00416160591338,
          19.290046219188735,
          19.290046219188735,
          19.290046219188735,
          20.556045219583467,
          16.69924423399362,
          15.37625124882619,
          14.036243467926479,
          11.309932474020215,
          11.309932474020215,
          9.926245506651705,
          11.309932474020215,
          11.309932474020215,
          9.926245506651705,
          11.309932474020215,
          9.926245506651705,
          9.926245506651705,
          9.926245506651705,
          8.530765609948133,
          7.125016348901798,
          7.125016348901798,
          5.710593137499643,
          4.289153328819018,
          2.862405226111748,
          2.862405226111748,
          2.862405226111748,
          4.289153328819018,
          5.710593137499643,
          5.710593137499643,
          5.710593137499643,
          5.710593137499643,
          5.710593137499643
        ],
        "horizontal_dist_map": 647,
        "slope_dist_map": 666,
        "elevation_diff_map": 123.0,
        "avg_slope_deg_map": 10.5,
        "max_slope_deg_map": 25.4
      },
      "geometry": {
        "type": "LineString",
        "coordinates": [
          [
            143.49947289564565,
            44.01786149833151,
            275.0
          ],
          [
            143.4995862024494,
            44.017899104089956,
            274.0
          ],
          [
            143.4996995092531,
            44.0179367098484,
            275.0
          ],
          [
            143.49980685010752,
            44.017980365137014,
            274.0
          ],
          [
            143.49989320709733,
            44.01804529826677,
            274.0
          ],
          [
            143.4999795640871,
            44.018110231396534,
            274.0
          ],
          [
            143.50006592107692,
            44.01817516452629,
            273.0
          ],
          [
            143.50014870427765,
            44.01824233365035,
            273.0
          ],
          [
            143.50022553414595,
            44.01831322756534,
            272.0
          ],
          [
            143.5003023640143,
            44.018384121480345,
            271.0
          ],
          [
            143.5003791938826,
            44.01845501539534,
            271.0
          ],
          [
            143.50045602375093,
            44.018525909310334,
            270.0
          ],
          [
            143.50053285361926,
            44.018596803225336,
            269.0
          ],
          [
            143.5006088312469,
            44.01866817274033,
            268.0
          ],
          [
            143.50068455570764,
            44.01873968353722,
            267.0
          ],
          [
            143.50076028016838,
            44.01881119433411,
            264.0
          ],
          [
            143.50083788410086,
            44.01888156183564,
            262.0
          ],
          [
            143.5009227460632,
            44.01894751422855,
            261.0
          ],
          [
            143.5010076080255,
            44.01901346662146,
            261.0
          ],
          [
            143.50105384069104,
            44.01909078702646,
            260.0
          ],
          [
            143.50105709551073,
            44.01918075515512,
            256.0
          ],
          [
            143.50106129815873,
            44.019270702346255,
            253.0
          ],
          [
            143.50106567466554,
            44.01936064569685,
            249.0
          ],
          [
            143.5010646426842,
            44.01945051438666,
            247.0
          ],
          [
            143.50105550236907,
            44.019540271146035,
            245.0
          ],
          [
            143.50102352512698,
            44.01962632906902,
            240.0
          ],
          [
            143.50097862964964,
            44.01971029465975,
            236.0
          ],
          [
            143.5009337341723,
            44.01979426025049,
            231.0
          ],
          [
            143.50084369947476,
            44.01984713022716,
            230.0
          ],
          [
            143.5007322435639,
            44.019885609180314,
            223.0
          ],
          [
            143.50066731746708,
            44.019962451738856,
            219.0
          ],
          [
            143.50060239137025,
            44.02003929429739,
            216.0
          ],
          [
            143.50053746527342,
            44.020116136855926,
            211.0
          ],
          [
            143.5004725391766,
            44.02019297941447,
            208.0
          ],
          [
            143.50040761307977,
            44.020269821973,
            205.0
          ],
          [
            143.50033503576847,
            44.020342871631904,
            203.0
          ],
          [
            143.500258924584,
            44.02041416946087,
            197.0
          ],
          [
            143.50017844746384,
            44.02048269472819,
            194.0
          ],
          [
            143.5000901134738,
            44.020546230536645,
            191.0
          ],
          [
            143.50000177948374,
            44.020609766345096,
            188.0
          ],
          [
            143.499911466399,
            44.02067124087486,
            185.0
          ],
          [
            143.49979799456028,
            44.020708594958414,
            183.0
          ],
          [
            143.49968076858497,
            44.020739275246996,
            181.0
          ],
          [
            143.49956331841594,
            44.02076955698245,
            180.0
          ],
          [
            143.4994449367013,
            44.02079781380594,
            177.0
          ],
          [
            143.49932618192616,
            44.02082527831544,
            176.0
          ],
          [
            143.49920830013383,
            44.0208546745444,
            173.0
          ],
          [
            143.49909041834147,
            44.020884070773356,
            172.0
          ],
          [
            143.49897253654913,
            44.02091346700231,
            170.0
          ],
          [
            143.49885465475677,
            44.02094286323127,
            168.0
          ],
          [
            143.49873677296443,
            44.02097225946022,
            166.0
          ],
          [
            143.49861889117207,
            44.02100165568918,
            165.0
          ],
          [
            143.4985010093797,
            44.021031051918136,
            163.0
          ],
          [
            143.49838188656858,
            44.021057515215695,
            162.0
          ],
          [
            143.49826093963043,
            44.0210791362265,
            161.0
          ],
          [
            143.49813727425555,
            44.02109083099072,
            160.0
          ],
          [
            143.49801360888068,
            44.02110252575495,
            159.0
          ],
          [
            143.49788994161435,
            44.02111420982599,
            159.0
          ],
          [
            143.497766168064,
            44.021125293039916,
            159.0
          ],
          [
            143.49764406705623,
            44.021141839528724,
            158.0
          ],
          [
            143.49752534201397,
            44.02116941343668,
            157.0
          ],
          [
            143.49740661697172,
            44.021196987344645,
            156.0
          ],
          [
            143.49728789192946,
            44.0212245612526,
            155.0
          ],
          [
            143.4971691668872,
            44.021252135160566,
            154.0
          ],
          [
            143.49705044184495,
            44.02127970906852,
            153.0
          ]
        ]
      }
    },
    {
      "type": "Feature",
      "properties": {
        "name": "無名_1",
        "slope_deg": [
          5.710593137499643,
          5.710593137499643,
          5.710593137499643,
          5.710593137499643,
          5.710593137499643,
          2.862405226111748,
          7.125016348901798,
          4.289153328819018,
          8.530765609948133,
          8.530765609948133,
          9.926245506651705,
          8.530765609948133,
          5.710593137499643,
          9.926245506651705,
          4.289153328819018,
          9.926245506651705,
          9.926245506651705,
          5.710593137499643,
          1.4320961841646465,
          -1.4320961841646465,
          -1.4320961841646465,
          -5.710593137499643,
          -4.289153328819018,
          -4.289153328819018,
          -4.289153328819018,
          -7.125016348901798,
          2.862405226111748,
          1.4320961841646465,
          1.4320961841646465,
          8.530765609948133,
          1.4320961841646465,
          1.4320961841646465,
          1.4320961841646465,
          -4.289153328819018,
          -4.289153328819018,
          -7.125016348901798,
          -7.125016348901798,
          -4.289153328819018,
          -4.289153328819018,
          2.862405226111748,
          0.0,
          2.862405226111748,
          11.309932474020215,
          8.530765609948133,
          11.309932474020215,
          16.69924423399362,
          16.69924423399362,
          16.69924423399362
        ],
        "horizontal_dist_map": 475,
        "slope_dist_map": 487,
        "elevation_diff_map": 25.0,
        "avg_slope_deg_map": 2.9,
        "max_slope_deg_map": 16.7
      },
      "geometry": {
        "type": "LineString",
        "coordinates": [
          [
            143.4984398,
            44.0172813,
            289.0
          ],
          [
            143.498342263489,
            44.017337385766346,
            287.0
          ],
          [
            143.49822631822045,
            44.01736923055823,
            287.0
          ],
          [
            143.4981083252418,
            44.01739837888962,
            285.0
          ],
          [
            143.49799033226316,
            44.017427527220995,
            285.0
          ],
          [
            143.49787233928453,
            44.01745667555238,
            283.0
          ],
          [
            143.49775321564923,
            44.01748309061157,
            283.0
          ],
          [
            143.4976323874087,
            44.01750538492364,
            283.0
          ],
          [
            143.49751155916812,
            44.01752767923571,
            280.0
          ],
          [
            143.49739073092758,
            44.01754997354778,
            280.0
          ],
          [
            143.49727205669973,
            44.017577607102176,
            277.0
          ],
          [
            143.49715352971248,
            44.017605605628056,
            277.0
          ],
          [
            143.49703500272523,
            44.01763360415394,
            273.0
          ],
          [
            143.49691647573798,
            44.01766160267983,
            274.0
          ],
          [
            143.49679794875073,
            44.01768960120572,
            273.0
          ],
          [
            143.49667942176345,
            44.017717599731604,
            270.0
          ],
          [
            143.4965608947762,
            44.01774559825749,
            270.0
          ],
          [
            143.49644236778894,
            44.01777359678338,
            267.0
          ],
          [
            143.4963238332823,
            44.01780138749045,
            266.0
          ],
          [
            143.49620344305427,
            44.01777789034705,
            266.0
          ],
          [
            143.49608305282624,
            44.017754393203646,
            269.0
          ],
          [
            143.4959626625982,
            44.01773089606024,
            268.0
          ],
          [
            143.49584227237017,
            44.01770739891683,
            267.0
          ],
          [
            143.49572188214213,
            44.01768390177343,
            270.0
          ],
          [
            143.49562030935155,
            44.0176322755763,
            272.0
          ],
          [
            143.49550953997485,
            44.01759499716941,
            271.0
          ],
          [
            143.49538824690896,
            44.017574058060724,
            270.0
          ],
          [
            143.49526620511654,
            44.01756200925458,
            275.0
          ],
          [
            143.49514229082664,
            44.01757219429208,
            270.0
          ],
          [
            143.4950183765367,
            44.017582379329575,
            270.0
          ],
          [
            143.4948944622468,
            44.01759256436707,
            269.0
          ],
          [
            143.4947705479569,
            44.017602749404574,
            269.0
          ],
          [
            143.49464619977067,
            44.017601495165714,
            269.0
          ],
          [
            143.4945216989409,
            44.01759621662176,
            269.0
          ],
          [
            143.49440066231173,
            44.01757813212048,
            268.0
          ],
          [
            143.4942825508713,
            44.01754923420318,
            272.0
          ],
          [
            143.49416443943085,
            44.017520336285884,
            272.0
          ],
          [
            143.4940463279904,
            44.01749143836859,
            274.0
          ],
          [
            143.49392926155167,
            44.01746077968341,
            273.0
          ],
          [
            143.49381877683217,
            44.017419031179244,
            275.0
          ],
          [
            143.49370829211267,
            44.017377282675085,
            275.0
          ],
          [
            143.49359780739317,
            44.017335534170925,
            272.0
          ],
          [
            143.4934873226737,
            44.01729378566676,
            273.0
          ],
          [
            143.4933768379542,
            44.0172520371626,
            273.0
          ],
          [
            143.4932663532347,
            44.01721028865844,
            267.0
          ],
          [
            143.4931558685152,
            44.01716854015427,
            266.0
          ],
          [
            143.49304538379573,
            44.017126791650114,
            265.0
          ],
          [
            143.49293489907623,
            44.01708504314595,
            261.0
          ]
        ]
      }
    },
    {
      "type": "Feature",
      "properties": {
        "name": "ファミリーゲレンデ",
        "slope_deg": [
          16.69924423399362,
          16.69924423399362,
          16.69924423399362,
          18.00416160591338,
          18.00416160591338,
          16.69924423399362,
          16.69924423399362,
          15.37625124882619,
          14.036243467926479,
          14.036243467926479,
          14.036243467926479,
          9.926245506651705,
          12.68038349181982,
          9.926245506651705,
          11.309932474020215,
          11.309932474020215,
          11.309932474020215,
          11.309932474020215,
          9.926245506651705,
          9.926245506651705,
          8.530765609948133,
          9.926245506651705,
          8.530765609948133,
          8.530765609948133,
          8.530765609948133
        ],
        "horizontal_dist_map": 249,
        "slope_dist_map": 257,
        "elevation_diff_map": 57.0,
        "avg_slope_deg_map": 12.5,
        "max_slope_deg_map": 18.0
      },
      "geometry": {
        "type": "LineString",
        "coordinates": [
          [
            143.49661212719178,
            44.01911351962826,
            207.0
          ],
          [
            143.49661231434663,
            44.01920351829083,
            203.0
          ],
          [
            143.49661250150152,
            44.01929351695339,
            201.0
          ],
          [
            143.49661268865637,
            44.01938351561596,
            197.0
          ],
          [
            143.49661287581122,
            44.01947351427852,
            195.0
          ],
          [
            143.4966130629661,
            44.01956351294108,
            190.0
          ],
          [
            143.49661325012096,
            44.01965351160365,
            188.0
          ],
          [
            143.4966134372758,
            44.01974351026622,
            185.0
          ],
          [
            143.4966136244307,
            44.01983350892878,
            183.0
          ],
          [
            143.49661381158555,
            44.01992350759134,
            179.0
          ],
          [
            143.4966139987404,
            44.02001350625391,
            178.0
          ],
          [
            143.49661418589528,
            44.02010350491647,
            175.0
          ],
          [
            143.49661437305014,
            44.02019350357904,
            173.0
          ],
          [
            143.496614560205,
            44.020283502241604,
            172.0
          ],
          [
            143.49661474735987,
            44.020373500904164,
            169.0
          ],
          [
            143.49661493451472,
            44.02046349956673,
            168.0
          ],
          [
            143.49661512166958,
            44.0205534982293,
            165.0
          ],
          [
            143.49661530882446,
            44.02064349689186,
            164.0
          ],
          [
            143.4966154959793,
            44.020733495554424,
            161.0
          ],
          [
            143.49661568313417,
            44.02082349421699,
            160.0
          ],
          [
            143.49661587028902,
            44.02091349287955,
            158.0
          ],
          [
            143.4966160574439,
            44.02100349154212,
            157.0
          ],
          [
            143.49661624459875,
            44.021093490204684,
            155.0
          ],
          [
            143.4966164317536,
            44.021183488867244,
            153.0
          ],
          [
            143.4966166189085,
            44.02127348752981,
            152.0
          ]
        ]
      }
    },
    {
      "type": "Feature",
      "properties": {
        "name": "小壁林間",
        "slope_deg": [
          4.289153328819018,
          4.289153328819018,
          4.289153328819018,
          8.530765609948133,
          8.530765609948133,
          8.530765609948133,
          8.530765609948133,
          7.125016348901798,
          8.530765609948133,
          9.926245506651705,
          12.68038349181982,
          8.530765609948133,
          7.125016348901798,
          5.710593137499643,
          2.862405226111748,
          5.710593137499643,
          7.125016348901798,
          8.530765609948133,
          8.530765609948133,
          8.530765609948133,
          11.309932474020215,
          9.926245506651705,
          9.926245506651705,
          9.926245506651705,
          5.710593137499643,
          4.289153328819018,
          4.289153328819018,
          2.862405226111748,
          2.862405226111748,
          5.710593137499643,
          5.710593137499643,
          12.68038349181982,
          14.036243467926479,
          16.69924423399362,
          18.00416160591338,
          9.926245506651705,
          11.309932474020215,
          8.530765609948133,
          8.530765609948133,
          8.530765609948133
        ],
        "horizontal_dist_map": 397,
        "slope_dist_map": 404,
        "elevation_diff_map": 56.0,
        "avg_slope_deg_map": 7.9,
        "max_slope_deg_map": 18.0
      },
      "geometry": {
        "type": "LineString",
        "coordinates": [
          [
            143.49535212155115,
            44.014092755556845,
            413.0
          ],
          [
            143.49547665029093,
            44.01409758199193,
            413.0
          ],
          [
            143.4956011790307,
            44.014102408427014,
            412.0
          ],
          [
            143.4957257077705,
            44.0141072348621,
            411.0
          ],
          [
            143.49585023651028,
            44.01411206129718,
            410.0
          ],
          [
            143.49597178386304,
            44.0140956836486,
            407.0
          ],
          [
            143.4960924310206,
            44.014072903673046,
            406.0
          ],
          [
            143.49621307817813,
            44.014050123697494,
            405.0
          ],
          [
            143.4963337253357,
            44.01402734372194,
            404.0
          ],
          [
            143.49645437249325,
            44.01400456374639,
            402.0
          ],
          [
            143.4965752381957,
            44.01398239930562,
            400.0
          ],
          [
            143.49669618963068,
            44.013960476331796,
            398.0
          ],
          [
            143.4968171410657,
            44.013938553357974,
            395.0
          ],
          [
            143.4969373446686,
            44.01391466737974,
            396.0
          ],
          [
            143.4970568272776,
            44.01388888884537,
            395.0
          ],
          [
            143.49711115211133,
            44.013927600742406,
            394.0
          ],
          [
            143.49701363956683,
            44.01398370326362,
            393.0
          ],
          [
            143.49692199553076,
            44.01404457094465,
            392.0
          ],
          [
            143.49683335217384,
            44.014107875141875,
            390.0
          ],
          [
            143.49674470881695,
            44.014171179339094,
            388.0
          ],
          [
            143.49665606546003,
            44.01423448353632,
            387.0
          ],
          [
            143.4965674221031,
            44.01429778773354,
            386.0
          ],
          [
            143.49647877874622,
            44.014361091930766,
            382.0
          ],
          [
            143.4963915852352,
            44.01442543613356,
            381.0
          ],
          [
            143.49630443717325,
            44.014489812937974,
            380.0
          ],
          [
            143.49621728911134,
            44.01455418974239,
            379.0
          ],
          [
            143.4961301410494,
            44.01461856654681,
            378.0
          ],
          [
            143.49604299298747,
            44.014682943351225,
            378.0
          ],
          [
            143.49595584492556,
            44.01474732015564,
            377.0
          ],
          [
            143.49586137551762,
            44.01480582060927,
            377.0
          ],
          [
            143.49576343699337,
            44.01486153663714,
            376.0
          ],
          [
            143.49570728566985,
            44.0149346051285,
            374.0
          ],
          [
            143.4956897523974,
            44.015023710069045,
            373.0
          ],
          [
            143.4956722191249,
            44.015112815009594,
            368.0
          ],
          [
            143.49565237465927,
            44.01520166362293,
            366.0
          ],
          [
            143.49563202282434,
            44.015290455965534,
            362.0
          ],
          [
            143.4956116709894,
            44.01537924830813,
            360.0
          ],
          [
            143.49559131915447,
            44.015468040650724,
            361.0
          ],
          [
            143.49556901929262,
            44.015556531305386,
            358.0
          ],
          [
            143.49553709499668,
            44.015643531438755,
            356.0
          ]
        ]
      }
    },
    {
      "type": "Feature",
      "properties": {
        "name": "ウサギ平",
        "slope_deg": [
          8.530765609948133,
          8.530765609948133,
          8.530765609948133,
          9.926245506651705,
          12.68038349181982,
          14.036243467926479,
          12.68038349181982,
          14.036243467926479,
          12.68038349181982,
          11.309932474020215,
          12.68038349181982,
          9.926245506651705,
          12.68038349181982,
          14.036243467926479,
          12.68038349181982,
          15.37625124882619,
          12.68038349181982,
          11.309932474020215,
          14.036243467926479,
          11.309932474020215,
          12.68038349181982,
          11.309932474020215,
          9.926245506651705,
          9.926245506651705,
          8.530765609948133,
          8.530765609948133,
          9.926245506651705,
          8.530765609948133,
          9.926245506651705,
          11.309932474020215,
          9.926245506651705,
          9.926245506651705,
          8.530765609948133,
          8.530765609948133,
          7.125016348901798,
          8.530765609948133,
          9.926245506651705,
          8.530765609948133,
          15.37625124882619,
          15.37625124882619,
          16.69924423399362,
          21.80140948635181,
          16.69924423399362,
          16.69924423399362,
          16.69924423399362
        ],
        "horizontal_dist_map": 446,
        "slope_dist_map": 458,
        "elevation_diff_map": 93.0,
        "avg_slope_deg_map": 11.5,
        "max_slope_deg_map": 21.8
      },
      "geometry": {
        "type": "LineString",
        "coordinates": [
          [
            143.4955114579725,
            44.0160913179013,
            347.0
          ],
          [
            143.4956291607611,
            44.01612106687784,
            345.0
          ],
          [
            143.4957468635497,
            44.016150815854374,
            345.0
          ],
          [
            143.4958645663383,
            44.01618056483092,
            343.0
          ],
          [
            143.4959822691269,
            44.016210313807456,
            341.0
          ],
          [
            143.4960999719155,
            44.01624006278399,
            338.0
          ],
          [
            143.4962176747041,
            44.01626981176053,
            336.0
          ],
          [
            143.4963353774927,
            44.01629956073707,
            333.0
          ],
          [
            143.49645308028127,
            44.01632930971361,
            332.0
          ],
          [
            143.49657078306987,
            44.01635905869015,
            328.0
          ],
          [
            143.49668848585847,
            44.01638880766669,
            327.0
          ],
          [
            143.49680618864707,
            44.016418556643224,
            325.0
          ],
          [
            143.49692389143567,
            44.01644830561976,
            323.0
          ],
          [
            143.49704159422427,
            44.016478054596305,
            321.0
          ],
          [
            143.49715929701287,
            44.01650780357284,
            318.0
          ],
          [
            143.49727699980147,
            44.01653755254938,
            315.0
          ],
          [
            143.49739470259007,
            44.01656730152592,
            314.0
          ],
          [
            143.49751240537867,
            44.016597050502455,
            310.0
          ],
          [
            143.49763010816727,
            44.016626799479,
            309.0
          ],
          [
            143.49774781095587,
            44.016656548455536,
            307.0
          ],
          [
            143.49786551374447,
            44.016686297432074,
            304.0
          ],
          [
            143.49798321653307,
            44.01671604640861,
            302.0
          ],
          [
            143.49807979695018,
            44.0167669855215,
            300.0
          ],
          [
            143.4981563095952,
            44.016838056787954,
            299.0
          ],
          [
            143.49823282224025,
            44.01690912805441,
            297.0
          ],
          [
            143.49830933488528,
            44.01698019932087,
            295.0
          ],
          [
            143.4983858475303,
            44.017051270587324,
            294.0
          ],
          [
            143.49844008711705,
            44.017132047200015,
            293.0
          ],
          [
            143.49849161766545,
            44.01721400425925,
            290.0
          ],
          [
            143.49854314821386,
            44.01729596131849,
            289.0
          ],
          [
            143.49860169558085,
            44.01737407892669,
            287.0
          ],
          [
            143.49869714526065,
            44.01743200438927,
            285.0
          ],
          [
            143.49879259494043,
            44.01748992985185,
            283.0
          ],
          [
            143.49888593606158,
            44.017549552229966,
            282.0
          ],
          [
            143.4989760920777,
            44.01761173790136,
            281.0
          ],
          [
            143.4990662480938,
            44.017673923572765,
            279.0
          ],
          [
            143.49915640410995,
            44.01773610924416,
            278.0
          ],
          [
            143.49924656012607,
            44.01779829491556,
            276.0
          ],
          [
            143.49933671614218,
            44.01786048058696,
            274.0
          ],
          [
            143.49940705233132,
            44.017932125335754,
            273.0
          ],
          [
            143.49945106211405,
            44.01801633444832,
            267.0
          ],
          [
            143.4994950718968,
            44.01810054356089,
            265.0
          ],
          [
            143.49953908167953,
            44.018184752673456,
            262.0
          ],
          [
            143.49958309146226,
            44.01826896178602,
            257.0
          ],
          [
            143.49962710124498,
            44.018353170898585,
            255.0
          ]
        ]
      }
    }
  ]
}