{
  "type": "FeatureCollection",
  "features": [
    {
      "type": "Feature",
      "properties": {
        "name": "ジャイアント",
        "slope_deg": [
          4.7162212343382155,
          4.7162212343382155,
          4.7162212343382155,
          6.98393746008542,
          7.406912128494972,
          8.810732985984973,
          9.926245506651705,
          8.530765609948133,
          11.859779120948104,
          12.543973346572233,
          16.567741642974738,
          18.26288994219419,
          19.290046219188735,
          22.538450040827975,
          19.290046219188735,
          20.931852540892464,
          20.30447370996038,
          18.133621430820266,
          19.67196998920079,
          21.43000730175244,
          19.6719699892005,
          21.67782085250454,
          21.43000730175216,
          21.554019920478787,
          22.293629159694188,
          19.925580658184323,
          23.146707841883106,
          20.430362329285405,
          20.17838007450879,
          19.798876354525046,
          16.039943306049665,
          14.170977562933274,
          14.305551846622015,
          12.270720357815076,
          12.407418527400683,
          11.58512622485511,
          10.48121814413073,
          9.78720366465624,
          8.810732985984973,
          8.810732985984655,
          8.810732985984973,
          9.78720366465624,
          9.369385096487358,
          10.481218144131045,
          10.481218144131045,
          12.407418527400683,
          15.109575122340402,
          15.509334522674754,
          17.874511367250133,
          17.092662950267425,
          18.00416160591338,
          18.39196625070563,
          19.417554141579625,
          21.80140948635181,
          20.43036232928569,
          22.782405730481635,
          21.80140948635181,
          22.904057803637016,
          26.104854009099192,
          24.820541335489082,
          27.248467426644652,
          25.407718108948472,
          24.4655351106628,
          24.108515899975156,
          23.025492008528037,
          21.305783617828656,
          20.052082146098712,
          19.798876354525046,
          21.554019920478787,
          25.873385226286196,
          28.36904629327848,
          30.22079992383123,
          30.646741437081463,
          32.108271141509476,
          35.08804119046926,
          34.99202019855866,
          36.501441120506236,
          34.79930050990726,
          32.82201607623443,
          35.65943959583116,
          31.173938199371303,
          33.02386755579665,
          30.540604849681404,
          28.25802961470689,
          28.14678121412214,
          23.869390064732137,
          23.26770481005701,
          24.22774531795417,
          25.056088833535423,
          25.873385226286196,
          29.357753542791276,
          28.700704956337685,
          30.96375653207352,
          32.517510615045516,
          32.8220160762342,
          32.9230569278588,
          34.702601312228246,
          37.32552048310607,
          34.5085229876684,
          38.22043205485004,
          33.72311007105549,
          26.335410003881297,
          21.67782085250454,
          8.390627013252708,
          4.146688825966138,
          3.576334374997351,
          4.0041729407093225,
          5.568737077976444,
          5.568737077976444,
          5.568737077976444,
          5.568737077976444
        ],
        "horizontal_dist_map": 1092,
        "slope_dist_map": 1189,
        "elevation_diff_map": 420.1,
        "avg_slope_deg_map": 19.4,
        "max_slope_deg_map": 38.2
      },
      "geometry": {
        "type": "LineString",
        "coordinates": [
          [
            137.56528672244605,
            36.182643415483675,
            1780.6
          ],
          [
            137.56533491416016,
            36.18272462758018,
            1779.7
          ],
          [
            137.5653452011252,
            36.18281101986635,
            1779.1
          ],
          [
            137.56529169736126,
            36.1828871475514,
            1777.7
          ],
          [
            137.5651836753502,
            36.182891793526025,
            1777.3
          ],
          [
            137.56508105923373,
            36.18285988508688,
            1774.8
          ],
          [
            137.56498578386135,
            36.18281345202142,
            1773.9
          ],
          [
            137.56489635380166,
            36.182759939698265,
            1771.5
          ],
          [
            137.5647987025975,
            36.182729321459874,
            1770.3
          ],
          [
            137.5647690903419,
            36.18280098904171,
            1768.8
          ],
          [
            137.56478071972347,
            36.18289056522301,
            1765.5
          ],
          [
            137.56479490934873,
            36.18297994867642,
            1762.6
          ],
          [
            137.56480909897402,
            36.183069332129826,
            1758.4
          ],
          [
            137.56482165575872,
            36.183158843252585,
            1755.6
          ],
          [
            137.5648288000148,
            36.18324877757281,
            1751.5
          ],
          [
            137.56483432493962,
            36.18333872693535,
            1746.0
          ],
          [
            137.5647988863717,
            36.18341813561425,
            1744.4
          ],
          [
            137.56469729324027,
            36.18341345457295,
            1740.3
          ],
          [
            137.56460036574978,
            36.183369487975966,
            1736.7
          ],
          [
            137.5645050424355,
            36.1833231188172,
            1732.9
          ],
          [
            137.5644091184889,
            36.183277783207885,
            1730.1
          ],
          [
            137.56430431889248,
            36.183247720541196,
            1724.6
          ],
          [
            137.5641987653605,
            36.18321978431589,
            1722.4
          ],
          [
            137.5640902697904,
            36.18320014597616,
            1717.0
          ],
          [
            137.5639822176666,
            36.18317926437069,
            1714.4
          ],
          [
            137.56387753602303,
            36.18314893313623,
            1708.8
          ],
          [
            137.56377285437947,
            36.18311860190177,
            1706.0
          ],
          [
            137.56367685661718,
            36.18307349885508,
            1702.5
          ],
          [
            137.56358186325403,
            36.18302668726416,
            1697.3
          ],
          [
            137.56348508972152,
            36.182982513158315,
            1693.9
          ],
          [
            137.5633852417447,
            36.182942894125304,
            1691.3
          ],
          [
            137.56328539376787,
            36.182903275092286,
            1688.1
          ],
          [
            137.56318554579104,
            36.18286365605927,
            1685.8
          ],
          [
            137.56308569781422,
            36.18282403702626,
            1683.8
          ],
          [
            137.5629815978407,
            36.18279317406037,
            1681.1
          ],
          [
            137.56287523089,
            36.182766979443365,
            1679.4
          ],
          [
            137.5627688639393,
            36.18274078482635,
            1677.0
          ],
          [
            137.5626613710611,
            36.18271951238098,
            1675.6
          ],
          [
            137.56255049112383,
            36.1827130470036,
            1673.7
          ],
          [
            137.5624396111866,
            36.18270658162623,
            1672.5
          ],
          [
            137.56232873124932,
            36.182700116248846,
            1670.8
          ],
          [
            137.56221785754744,
            36.18269360031347,
            1669.4
          ],
          [
            137.56210759332947,
            36.18268214253411,
            1667.5
          ],
          [
            137.56199732911148,
            36.18267068475476,
            1665.6
          ],
          [
            137.5618870648935,
            36.1826592269754,
            1664.2
          ],
          [
            137.56177673642765,
            36.18264830501244,
            1662.0
          ],
          [
            137.56166581466434,
            36.182642331050374,
            1660.1
          ],
          [
            137.56155489290103,
            36.18263635708831,
            1656.8
          ],
          [
            137.56144397113772,
            36.182630383126245,
            1653.4
          ],
          [
            137.56133304937438,
            36.182624409164184,
            1650.9
          ],
          [
            137.56122212761107,
            36.182618435202116,
            1647.2
          ],
          [
            137.56111120584777,
            36.182612461240055,
            1644.5
          ],
          [
            137.56100013234794,
            36.18260909176106,
            1640.4
          ],
          [
            137.5608890099011,
            36.18260656243332,
            1637.6
          ],
          [
            137.56077788745426,
            36.182604033105584,
            1633.1
          ],
          [
            137.56066676500745,
            36.182601503777846,
            1628.5
          ],
          [
            137.56055564256062,
            36.18259897445011,
            1625.5
          ],
          [
            137.5604447412068,
            36.18260470303212,
            1620.8
          ],
          [
            137.56033385879243,
            36.182611139011435,
            1617.1
          ],
          [
            137.5602229763781,
            36.18261757499075,
            1611.6
          ],
          [
            137.56011209396374,
            36.182624010970066,
            1605.9
          ],
          [
            137.5600012115494,
            36.18263044694938,
            1602.3
          ],
          [
            137.55989032913507,
            36.1826368829287,
            1596.5
          ],
          [
            137.55978066080297,
            36.18265103623867,
            1592.6
          ],
          [
            137.55967133526283,
            36.18266736851021,
            1587.7
          ],
          [
            137.55956488373238,
            36.182693314055776,
            1584.4
          ],
          [
            137.5594655176036,
            36.18273167273155,
            1579.5
          ],
          [
            137.55938840095192,
            36.1827929880312,
            1577.0
          ],
          [
            137.55933422716743,
            36.18287168344646,
            1573.1
          ],
          [
            137.55928005338293,
            36.18295037886171,
            1570.0
          ],
          [
            137.559223345116,
            36.18302769837264,
            1563.7
          ],
          [
            137.559154214025,
            36.18309827385676,
            1557.6
          ],
          [
            137.55908183736196,
            36.183166129021394,
            1551.5
          ],
          [
            137.5589925237936,
            36.18321978829284,
            1546.7
          ],
          [
            137.5588915330023,
            36.183254540968,
            1540.0
          ],
          [
            137.55878502740558,
            36.18328036461954,
            1532.5
          ],
          [
            137.55867852180887,
            36.18330618827108,
            1523.4
          ],
          [
            137.55857201621217,
            36.18333201192263,
            1518.7
          ],
          [
            137.55846474371523,
            36.18335544554372,
            1510.4
          ],
          [
            137.55835621471377,
            36.1833749632914,
            1504.7
          ],
          [
            137.55824768571227,
            36.18339448103909,
            1497.6
          ],
          [
            137.55813915671078,
            36.183413998786776,
            1490.0
          ],
          [
            137.5580306277093,
            36.183433516534464,
            1486.2
          ],
          [
            137.55792209870782,
            36.18345303428215,
            1478.7
          ],
          [
            137.55781356970633,
            36.18347255202984,
            1474.0
          ],
          [
            137.55770504070483,
            36.18349206977753,
            1468.5
          ],
          [
            137.55759651170334,
            36.18351158752522,
            1464.8
          ],
          [
            137.55748832360848,
            36.18353199701209,
            1461.0
          ],
          [
            137.55738520115287,
            36.183565657133535,
            1456.8
          ],
          [
            137.55728207869728,
            36.18359931725497,
            1450.5
          ],
          [
            137.55717895624167,
            36.18363297737641,
            1446.1
          ],
          [
            137.55707583378606,
            36.18366663749786,
            1441.6
          ],
          [
            137.55697271133047,
            36.183700297619296,
            1434.3
          ],
          [
            137.55687474556498,
            36.18374203610679,
            1428.6
          ],
          [
            137.55678129166,
            36.183790842783374,
            1422.1
          ],
          [
            137.55668783775502,
            36.18383964945995,
            1416.1
          ],
          [
            137.55659438385004,
            36.18388845613652,
            1408.5
          ],
          [
            137.55650854514906,
            36.1839456406124,
            1402.7
          ],
          [
            137.55642336329453,
            36.1840035477121,
            1394.4
          ],
          [
            137.55633818144,
            36.184061454811804,
            1385.6
          ],
          [
            137.5562529995855,
            36.184119361911506,
            1381.0
          ],
          [
            137.55616330663995,
            36.18417244088395,
            1371.2
          ],
          [
            137.5560714689683,
            36.18422322440048,
            1367.7
          ],
          [
            137.55597963129668,
            36.18427400791701,
            1365.8
          ],
          [
            137.55588779362503,
            36.184324791433546,
            1365.1
          ],
          [
            137.5557955375221,
            36.18437503019149,
            1365.3
          ],
          [
            137.55569879799882,
            36.18441943195364,
            1364.8
          ],
          [
            137.55560205847553,
            36.18446383371579,
            1363.3
          ],
          [
            137.55550531895224,
            36.184508235477935,
            1362.3
          ],
          [
            137.55540857942896,
            36.18455263724009,
            1361.4
          ],
          [
            137.55538836235488,
            36.1845619165262,
            1360.5
          ]
        ]
      }
    },
    {
      "type": "Feature",
      "properties": {
        "name": "ファミリーゲレンデ",
        "slope_deg": [
          16.83056598321078,
          16.83056598321078,
          16.83056598321078,
          15.642246457208788,
          16.83056598321078,
          14.97598451475675,
          14.439965121002654,
          15.509334522675056,
          13.901350769508936,
          14.84222705791098,
          13.224551192213651,
          12.952764513375273,
          12.95276451337558,
          12.816647648997623,
          14.036243467926479,
          12.816647648997623,
          13.901350769509243,
          12.543973346571923,
          12.407418527400683,
          13.088732789694,
          11.585126224854799,
          12.68038349181982,
          11.309932474020215,
          11.44759626368548,
          11.44759626368579,
          11.309932474020215,
          12.543973346571923,
          11.309932474020215,
          12.543973346571923,
          11.58512622485511,
          11.859779120948104,
          13.224551192213651,
          11.996899307923577,
          12.816647648997623,
          11.172136252167274,
          10.619655276155134,
          11.172136252167274,
          10.619655276155134,
          11.034209003250188,
          9.648045316098093,
          9.50877195829791,
          8.530765609948133,
          8.530765609948133,
          9.648045316098093,
          8.390627013252388,
          8.670801453590833,
          6.983937460085098,
          6.983937460085098,
          6.983937460085098,
          6.983937460085098
        ],
        "horizontal_dist_map": 482,
        "slope_dist_map": 494,
        "elevation_diff_map": 102.8,
        "avg_slope_deg_map": 11.8,
        "max_slope_deg_map": 16.8
      },
      "geometry": {
        "type": "LineString",
        "coordinates": [
          [
            137.55776759951877,
            36.18496891977098,
            1413.9
          ],
          [
            137.55765644446126,
            36.184967463595996,
            1410.9
          ],
          [
            137.55754528940375,
            36.18496600742101,
            1408.7
          ],
          [
            137.5574341343462,
            36.18496455124603,
            1405.2
          ],
          [
            137.5573229792887,
            36.18496309507105,
            1401.8
          ],
          [
            137.5572118242312,
            36.18496163889606,
            1399.7
          ],
          [
            137.55710066917368,
            36.18496018272108,
            1396.6
          ],
          [
            137.55698951411617,
            36.1849587265461,
            1394.5
          ],
          [
            137.5568783777046,
            36.184956770010494,
            1391.5
          ],
          [
            137.55676731677968,
            36.184952787804754,
            1388.6
          ],
          [
            137.55665625585476,
            36.184948805599014,
            1386.7
          ],
          [
            137.55654519492987,
            36.184944823393266,
            1383.9
          ],
          [
            137.55643413400495,
            36.184940841187526,
            1382.1
          ],
          [
            137.55632307308002,
            36.184936858981786,
            1379.4
          ],
          [
            137.55621201215513,
            36.184932876776045,
            1377.5
          ],
          [
            137.5561009512302,
            36.184928894570305,
            1374.8
          ],
          [
            137.55598989030528,
            36.184924912364565,
            1372.1
          ],
          [
            137.5558788293804,
            36.184920930158825,
            1370.3
          ],
          [
            137.55576776845547,
            36.184916947953084,
            1367.6
          ],
          [
            137.55565670753055,
            36.184912965747344,
            1365.9
          ],
          [
            137.55554564660565,
            36.184908983541604,
            1363.3
          ],
          [
            137.55543458568073,
            36.18490500133586,
            1361.0
          ],
          [
            137.5553235247558,
            36.18490101913012,
            1359.4
          ],
          [
            137.5552124638309,
            36.184897036924376,
            1356.9
          ],
          [
            137.555101402906,
            36.184893054718636,
            1355.3
          ],
          [
            137.55499034198107,
            36.184889072512895,
            1352.9
          ],
          [
            137.55487928105617,
            36.184885090307155,
            1351.3
          ],
          [
            137.55476823552652,
            36.18488086379304,
            1348.9
          ],
          [
            137.55465725129434,
            36.18487566454732,
            1346.4
          ],
          [
            137.55454626706214,
            36.18487046530161,
            1344.9
          ],
          [
            137.55443528282993,
            36.184865266055894,
            1342.4
          ],
          [
            137.55432429859775,
            36.18486006681018,
            1340.7
          ],
          [
            137.55421331436554,
            36.18485486756447,
            1338.0
          ],
          [
            137.55410233013336,
            36.18484966831875,
            1335.5
          ],
          [
            137.55399134590115,
            36.184844469073035,
            1333.9
          ],
          [
            137.55388036166894,
            36.18483926982732,
            1331.6
          ],
          [
            137.55376937743677,
            36.18483407058161,
            1330.1
          ],
          [
            137.55365839320456,
            36.184828871335895,
            1328.0
          ],
          [
            137.55354740897238,
            36.184823672090175,
            1326.0
          ],
          [
            137.55343642474017,
            36.18481847284446,
            1324.1
          ],
          [
            137.55332544050796,
            36.18481327359875,
            1322.3
          ],
          [
            137.55321445627578,
            36.184808074353036,
            1321.2
          ],
          [
            137.55310347204357,
            36.184802875107316,
            1319.3
          ],
          [
            137.5529924878114,
            36.1847976758616,
            1318.1
          ],
          [
            137.55288152753093,
            36.18479218643686,
            1316.3
          ],
          [
            137.5527706776035,
            36.184785360069384,
            1314.4
          ],
          [
            137.55265982767605,
            36.18477853370191,
            1313.4
          ],
          [
            137.55254897774861,
            36.184771707334434,
            1312.0
          ],
          [
            137.55243812782118,
            36.18476488096696,
            1311.4
          ],
          [
            137.55241230724027,
            36.18476329088226,
            1311.1
          ]
        ]
      }
    },
    {
      "type": "Feature",
      "properties": {
        "name": "湯の平",
        "slope_deg": [
          4.431564716435714,
          4.431564716435714,
          4.431564716435714,
          5.2848210925090795,
          4.289153328819018,
          3.8616074096748143,
          3.005269359690129,
          2.0045340321057092,
          2.5765718302687652,
          2.719505461272635,
          3.4336303624503275,
          5.2848210925090795,
          6.135733340186728,
          8.670801453590833,
          9.926245506651705,
          10.896152141141194,
          14.17097756293297,
          13.901350769509243,
          14.57421619803886,
          15.907551930525962,
          13.901350769509243,
          14.439965121002654,
          13.49573328079569,
          11.7225209701022,
          10.065169352759717,
          6.418786730238786,
          4.431564716436037,
          2.433606100720186,
          2.5765718302690908,
          3.290883686067228,
          5.4268124985727555,
          8.670801453590833,
          11.85977912094779,
          13.901350769509243,
          15.90755193052566,
          14.57421619803886,
          12.543973346572233,
          10.896152141141194,
          7.688447769903003,
          5.568737077976444,
          3.576334374997351,
          2.433606100720186,
          1.8614576304666637,
          2.862405226111748,
          2.862405226111748,
          3.4336303624503275,
          3.290883686067228,
          2.433606100720186,
          2.7195054612723095,
          2.862405226111748,
          3.576334374997351,
          4.0041729407093225,
          5.2848210925090795,
          5.994092949108534,
          7.969610394321551,
          9.09027692082245,
          11.996899307923577,
          11.44759626368548,
          14.17097756293297,
          14.036243467926479,
          15.509334522675056,
          17.35402463626132,
          17.874511367250427,
          20.30447370996038,
          20.052082146098424,
          23.146707841883106,
          22.04794746356044,
          23.14670784188283,
          20.052082146098424,
          17.223436191131285,
          14.574216198038554,
          11.034209003250501,
          10.065169352760034,
          9.09027692082245,
          8.250387228905435,
          7.969610394321233,
          7.125016348901798,
          5.852378988915493,
          5.994092949108534,
          7.266008446995867,
          10.619655276155134,
          12.543973346572233,
          14.97598451475675,
          14.97598451475675,
          15.109575122340402,
          17.35402463626132,
          17.744671625056874,
          18.906332035086663,
          21.305783617828656,
          22.170895633834377,
          22.04794746356044,
          21.924785220541064,
          19.798876354525046,
          18.64953875405141,
          17.223436191131583,
          17.74467162505717,
          16.039943306049665,
          13.766300685466197,
          15.774985955414008,
          15.509334522674754,
          17.35402463626132,
          20.17838007450879,
          19.6719699892005,
          18.64953875405141,
          19.162339354972016,
          16.304198003832376,
          15.642246457208788,
          17.223436191131583,
          15.242997742901395,
          17.223436191131583,
          17.35402463626132,
          18.133621430820266,
          18.906332035086663,
          19.290046219188735,
          22.416147479343643,
          20.052082146098424,
          18.00416160591338,
          16.039943306049665,
          8.670801453590833,
          5.994092949108534,
          3.7189939731579127,
          0.8593722436445507,
          1.7183580016555222,
          3.718993973158237,
          5.142764557884436,
          6.98393746008542,
          9.78720366465624,
          9.22988624372772,
          10.065169352759717,
          7.688447769902681,
          4.7162212343382155,
          3.290883686067228,
          4.858462919034416,
          10.065169352760034,
          13.49573328079569,
          15.242997742901395,
          16.69924423399362,
          15.109575122340402,
          14.842227057911282,
          13.360218444764483,
          9.648045316098093,
          8.810732985984973,
          8.810732985984655,
          10.065169352760034,
          10.896152141141194,
          10.89615214114088,
          11.034209003250501,
          11.85977912094779,
          12.68038349181982,
          10.203973721731748,
          9.369385096487358,
          8.390627013252708,
          9.787203664655925,
          13.631094443421603,
          15.642246457208788,
          18.39196625070533,
          18.64953875405141,
          16.304198003832376,
          14.84222705791098,
          14.036243467926479,
          16.172159015782732,
          18.906332035086663,
          16.83056598321078,
          14.57421619803886,
          10.342657140474548,
          9.508771958297594,
          11.85977912094779,
          10.896152141141194,
          12.95276451337558,
          14.708303899682749,
          15.642246457208788,
          17.744671625056874,
          17.744671625056874,
          17.744671625056874,
          17.744671625056874
        ],
        "horizontal_dist_map": 1734,
        "slope_dist_map": 1786,
        "elevation_diff_map": 363.6,
        "avg_slope_deg_map": 11.5,
        "max_slope_deg_map": 23.1
      },
      "geometry": {
        "type": "LineString",
        "coordinates": [
          [
            137.56532428711708,
            36.18243507738969,
            1780.8
          ],
          [
            137.5653902451897,
            36.18250762091908,
            1780.5
          ],
          [
            137.56545620326233,
            36.18258016444847,
            1779.6
          ],
          [
            137.56552216133494,
            36.18265270797786,
            1778.6
          ],
          [
            137.56558305421015,
            36.18272801059551,
            1777.7
          ],
          [
            137.5656409747652,
            36.18280493228011,
            1776.8
          ],
          [
            137.56569889532022,
            36.18288185396472,
            1776.6
          ],
          [
            137.56575681587526,
            36.182958775649325,
            1775.9
          ],
          [
            137.56580761771403,
            36.18303880444504,
            1775.6
          ],
          [
            137.5658549402936,
            36.18312035183548,
            1775.4
          ],
          [
            137.56590226287318,
            36.183201899225914,
            1774.8
          ],
          [
            137.56594923336684,
            36.183283579871734,
            1774.0
          ],
          [
            137.56599594305928,
            36.18336535922405,
            1773.2
          ],
          [
            137.56604265275175,
            36.18344713857636,
            1771.7
          ],
          [
            137.5660893624442,
            36.183528917928676,
            1770.5
          ],
          [
            137.5661328157311,
            36.18361168537259,
            1767.9
          ],
          [
            137.5661638217106,
            36.18369822970476,
            1766.2
          ],
          [
            137.5661463595392,
            36.183780686871316,
            1764.0
          ],
          [
            137.56609404523468,
            36.18386020506791,
            1760.4
          ],
          [
            137.56604447007882,
            36.183940780527834,
            1758.0
          ],
          [
            137.56600130528255,
            36.18402383027412,
            1755.8
          ],
          [
            137.56595814048632,
            36.18410688002041,
            1752.6
          ],
          [
            137.56591497569008,
            36.18418992976669,
            1750.5
          ],
          [
            137.56590157389363,
            36.18427801123091,
            1747.7
          ],
          [
            137.565900192593,
            36.184368124874176,
            1746.2
          ],
          [
            137.56589220863006,
            36.184457765562726,
            1744.3
          ],
          [
            137.5658740763152,
            36.1845466793156,
            1743.4
          ],
          [
            137.56585583245078,
            36.18463557736102,
            1743.2
          ],
          [
            137.56583591521465,
            36.18472423977647,
            1743.1
          ],
          [
            137.5658159979785,
            36.18481290219192,
            1742.6
          ],
          [
            137.56577369999783,
            36.184895853587406,
            1741.6
          ],
          [
            137.56572737894965,
            36.184977778394206,
            1740.9
          ],
          [
            137.56565882957895,
            36.18504838446013,
            1739.3
          ],
          [
            137.56558790079754,
            36.18511777892167,
            1736.5
          ],
          [
            137.56551687749683,
            36.185187101974726,
            1733.2
          ],
          [
            137.56543647570723,
            36.18524933966568,
            1731.0
          ],
          [
            137.5653560739176,
            36.18531157735663,
            1727.9
          ],
          [
            137.565275672128,
            36.18537381504758,
            1726.1
          ],
          [
            137.56519699669823,
            36.18543745362534,
            1724.3
          ],
          [
            137.5651201470885,
            36.18550257379871,
            1723.3
          ],
          [
            137.56504329747875,
            36.185567693972075,
            1722.5
          ],
          [
            137.564966447869,
            36.18563281414544,
            1722.2
          ],
          [
            137.56488959825927,
            36.18569793431881,
            1721.8
          ],
          [
            137.56482232209325,
            36.18576939957667,
            1721.6
          ],
          [
            137.56475886669662,
            36.18584339716308,
            1721.2
          ],
          [
            137.56469541130002,
            36.18591739474949,
            1720.2
          ],
          [
            137.5646319559034,
            36.18599139233589,
            1719.8
          ],
          [
            137.5645685005068,
            36.186065389922305,
            1719.2
          ],
          [
            137.56450504511017,
            36.18613938750871,
            1718.9
          ],
          [
            137.56443663932643,
            36.186209589614165,
            1718.5
          ],
          [
            137.56434903070698,
            36.18626506883128,
            1717.9
          ],
          [
            137.5642507421556,
            36.186305973443766,
            1717.2
          ],
          [
            137.5641482456542,
            36.186340803587306,
            1716.4
          ],
          [
            137.56404366534815,
            36.18637137326425,
            1715.7
          ],
          [
            137.56393334215585,
            36.1863710797766,
            1714.2
          ],
          [
            137.56382229155076,
            36.18636687705962,
            1713.0
          ],
          [
            137.56371125254714,
            36.18636259556485,
            1710.8
          ],
          [
            137.56360210227453,
            36.18634548891707,
            1709.3
          ],
          [
            137.56349295200192,
            36.186328382269295,
            1705.7
          ],
          [
            137.56338380172932,
            36.18631127562151,
            1704.9
          ],
          [
            137.5632746514567,
            36.18629416897374,
            1700.7
          ],
          [
            137.5631655011841,
            36.186277062325956,
            1699.3
          ],
          [
            137.56305662645264,
            36.18625886701523,
            1694.6
          ],
          [
            137.56294798285919,
            36.18623975847812,
            1692.4
          ],
          [
            137.56283933926576,
            36.186220649941006,
            1687.8
          ],
          [
            137.56273069567231,
            36.18620154140389,
            1684.5
          ],
          [
            137.5626220520789,
            36.18618243286677,
            1680.0
          ],
          [
            137.5625126045218,
            36.18616673920494,
            1675.3
          ],
          [
            137.56240291660674,
            36.18615206647554,
            1671.6
          ],
          [
            137.56229257255296,
            36.18614168511082,
            1667.4
          ],
          [
            137.5621817849677,
            36.18613420458911,
            1665.4
          ],
          [
            137.5620718322366,
            36.18613125800571,
            1662.9
          ],
          [
            137.56196860775054,
            36.18616468694881,
            1661.2
          ],
          [
            137.56189083620754,
            36.18622908433061,
            1659.6
          ],
          [
            137.5618320497668,
            36.18630510794955,
            1658.3
          ],
          [
            137.5617768934613,
            36.18638335461754,
            1656.5
          ],
          [
            137.5617212884941,
            36.18646135818428,
            1655.4
          ],
          [
            137.5616531905213,
            36.186532592586076,
            1654.0
          ],
          [
            137.56158509254848,
            36.18660382698786,
            1653.3
          ],
          [
            137.56151699457567,
            36.18667506138966,
            1652.4
          ],
          [
            137.56144889660285,
            36.186746295791444,
            1651.2
          ],
          [
            137.56138086646376,
            36.18681757286873,
            1648.9
          ],
          [
            137.56131287180685,
            36.18688887226854,
            1645.8
          ],
          [
            137.56124487714993,
            36.186960171668346,
            1643.5
          ],
          [
            137.56117688249304,
            36.18703147106815,
            1640.5
          ],
          [
            137.56110888783613,
            36.187102770467966,
            1638.2
          ],
          [
            137.56102101025763,
            36.18715720469418,
            1635.0
          ],
          [
            137.56093006524603,
            36.187209037049655,
            1631.0
          ],
          [
            137.56082908363987,
            36.18724391444043,
            1627.7
          ],
          [
            137.5607206748693,
            36.18725476411125,
            1624.5
          ],
          [
            137.56062178832414,
            36.1872213629093,
            1619.4
          ],
          [
            137.56053989947534,
            36.18716164172937,
            1614.7
          ],
          [
            137.56047366474127,
            36.187089261792025,
            1611.5
          ],
          [
            137.5604306123373,
            36.18700627123943,
            1608.4
          ],
          [
            137.56042439613117,
            36.186916794969584,
            1605.0
          ],
          [
            137.56042183490263,
            36.1868266983281,
            1601.2
          ],
          [
            137.5604292368956,
            36.186736784210055,
            1599.1
          ],
          [
            137.5604336448859,
            36.18664680757608,
            1595.6
          ],
          [
            137.56043017479178,
            36.1865567531607,
            1593.5
          ],
          [
            137.56037492967204,
            36.18649642209406,
            1591.4
          ],
          [
            137.5602749441774,
            36.186527955666335,
            1587.8
          ],
          [
            137.56017809115684,
            36.186572119973995,
            1584.5
          ],
          [
            137.56008225066395,
            36.186617788584456,
            1581.0
          ],
          [
            137.55998407097852,
            36.1866595380046,
            1576.7
          ],
          [
            137.55988041603308,
            36.18669211392356,
            1573.5
          ],
          [
            137.55977499808,
            36.18671999034834,
            1571.0
          ],
          [
            137.55966651993506,
            36.18673970948925,
            1567.1
          ],
          [
            137.55955804179013,
            36.18675942863017,
            1565.0
          ],
          [
            137.55944893613722,
            36.186776116109954,
            1562.3
          ],
          [
            137.55933845901902,
            36.186786177669454,
            1558.6
          ],
          [
            137.55922798190085,
            36.18679623922896,
            1556.2
          ],
          [
            137.55911750478265,
            36.18680630078846,
            1552.6
          ],
          [
            137.55900997345546,
            36.1868254986173,
            1549.8
          ],
          [
            137.55890755257903,
            36.18686054633329,
            1545.5
          ],
          [
            137.5588051317026,
            36.186895594049275,
            1542.5
          ],
          [
            137.55870271082617,
            36.186930641765265,
            1538.6
          ],
          [
            137.55859481352005,
            36.18695124826546,
            1533.3
          ],
          [
            137.5584857922067,
            36.18696889078525,
            1530.9
          ],
          [
            137.55837677089337,
            36.18698653330504,
            1529.5
          ],
          [
            137.55826774958004,
            36.18700417582483,
            1527.1
          ],
          [
            137.55815872826673,
            36.187021818344626,
            1527.2
          ],
          [
            137.55804930334142,
            36.18703768888585,
            1526.7
          ],
          [
            137.55793969692314,
            36.18705276261804,
            1526.9
          ],
          [
            137.55783009050486,
            36.187067836350224,
            1526.5
          ],
          [
            137.55772048408656,
            36.18708291008241,
            1526.0
          ],
          [
            137.55761087766828,
            36.187097983814596,
            1524.1
          ],
          [
            137.55750127125,
            36.18711305754679,
            1523.3
          ],
          [
            137.55739166483173,
            36.187128131278975,
            1521.6
          ],
          [
            137.55728082503856,
            36.187130366236076,
            1519.1
          ],
          [
            137.5571696612643,
            36.1871292287231,
            1517.6
          ],
          [
            137.5570584974901,
            36.187128091210134,
            1516.2
          ],
          [
            137.55694733371587,
            36.18712695369716,
            1516.2
          ],
          [
            137.55683616994162,
            36.18712581618419,
            1515.8
          ],
          [
            137.55672825620528,
            36.187106052642946,
            1515.3
          ],
          [
            137.55663159603014,
            36.18706631426525,
            1512.8
          ],
          [
            137.55655813442044,
            36.18700141005829,
            1509.1
          ],
          [
            137.55653794997502,
            36.18691533550088,
            1506.2
          ],
          [
            137.55659286531298,
            36.18684381516401,
            1504.4
          ],
          [
            137.55668738340273,
            36.186796942751066,
            1500.8
          ],
          [
            137.55678714428657,
            36.1867572284905,
            1498.3
          ],
          [
            137.55688972662378,
            36.18672249287366,
            1495.6
          ],
          [
            137.556992308961,
            36.186687757256834,
            1494.9
          ],
          [
            137.55709429613782,
            36.18665192033141,
            1494.0
          ],
          [
            137.5571953449828,
            36.18661434707909,
            1492.1
          ],
          [
            137.55729639382776,
            36.18657677382677,
            1489.4
          ],
          [
            137.55739622293206,
            36.186537127429595,
            1487.8
          ],
          [
            137.5574958412559,
            36.186497122777276,
            1486.3
          ],
          [
            137.55759931371784,
            36.186464423828525,
            1484.4
          ],
          [
            137.55770506544988,
            36.186436910576205,
            1481.6
          ],
          [
            137.5578125139429,
            36.18641378299716,
            1479.4
          ],
          [
            137.55786749570464,
            36.18633967748616,
            1477.3
          ],
          [
            137.55790543907992,
            36.18625570914039,
            1477.2
          ],
          [
            137.55792497335958,
            36.186166990720174,
            1475.0
          ],
          [
            137.5579567588432,
            36.186082438359016,
            1473.5
          ],
          [
            137.55802114905165,
            36.186008973333394,
            1470.4
          ],
          [
            137.55808634304876,
            36.185936038391766,
            1467.5
          ],
          [
            137.55816196743618,
            36.18586998210277,
            1463.8
          ],
          [
            137.55823910300654,
            36.185805224020314,
            1460.2
          ],
          [
            137.5583248328839,
            36.18574784901844,
            1456.9
          ],
          [
            137.55840951030456,
            36.18568947719365,
            1455.8
          ],
          [
            137.55848835659347,
            36.185626601942374,
            1453.2
          ],
          [
            137.55855066018188,
            36.18555196409457,
            1450.2
          ],
          [
            137.55855896342857,
            36.18546335491945,
            1445.3
          ],
          [
            137.55856151684947,
            36.18537325811118,
            1442.1
          ],
          [
            137.55855722567037,
            36.185283238481915,
            1441.1
          ],
          [
            137.55855158188706,
            36.185193234104474,
            1439.8
          ],
          [
            137.55854599788796,
            36.185103227869526,
            1438.0
          ],
          [
            137.55854312716318,
            36.18501313733242,
            1435.4
          ],
          [
            137.55852208893896,
            36.1849253582204,
            1432.7
          ],
          [
            137.55848813485517,
            36.18483957115712,
            1432.1
          ],
          [
            137.55839400845142,
            36.184801092262894,
            1428.8
          ],
          [
            137.5582859492732,
            36.18478197640796,
            1424.9
          ],
          [
            137.55817550999603,
            36.18477242937097,
            1421.5
          ],
          [
            137.55806439034174,
            36.18476973638991,
            1419.3
          ],
          [
            137.55800914128318,
            36.184768397430844,
            1417.2
          ]
        ]
      }
    },
    {
      "type": "Feature",
      "properties": {
        "name": "湯の平_2",
        "slope_deg": [
          25.873385226285933,
          25.873385226285933,
          25.873385226285933,
          30.00643379045899,
          29.683140179123246,
          26.565051177077994,
          25.056088833535423,
          19.798876354525046,
          15.642246457208788,
          15.642246457208788,
          15.642246457208788,
          15.642246457208788
        ],
        "horizontal_dist_map": 104,
        "slope_dist_map": 114,
        "elevation_diff_map": 43.4,
        "avg_slope_deg_map": 20.8,
        "max_slope_deg_map": 30.0
      },
      "geometry": {
        "type": "LineString",
        "coordinates": [
          [
            137.55821385014514,
            36.185779676448064,
            1459.1
          ],
          [
            137.55821128396414,
            36.185689579881036,
            1455.8
          ],
          [
            137.55820871778317,
            36.18559948331401,
            1450.6
          ],
          [
            137.5582057533291,
            36.185509396063956,
            1444.2
          ],
          [
            137.55820190535033,
            36.1854193294826,
            1439.7
          ],
          [
            137.55819805737158,
            36.185329262901234,
            1432.7
          ],
          [
            137.55817544380182,
            36.18524185687105,
            1427.8
          ],
          [
            137.55814135436006,
            36.18515607786901,
            1424.2
          ],
          [
            137.55807808324406,
            36.18508251181259,
            1421.0
          ],
          [
            137.55800264127953,
            36.18501753782977,
            1418.3
          ],
          [
            137.55791356561977,
            36.18496361710254,
            1416.6
          ],
          [
            137.5578722410794,
            36.184938601859585,
            1415.7
          ]
        ]
      }
    }
  ]
}