{
  "type": "FeatureCollection",
  "features": [
    {
      "type": "Feature",
      "properties": {
        "name": "みずなら",
        "slope_deg": [
          15.37625124882619,
          15.37625124882619,
          15.37625124882619,
          15.37625124882619,
          15.37625124882619,
          16.69924423399362,
          16.69924423399362,
          16.69924423399362,
          16.69924423399362,
          16.69924423399362,
          14.036243467926479,
          14.036243467926479,
          14.036243467926479,
          11.309932474020215,
          14.036243467926479,
          12.68038349181982,
          11.309932474020215,
          12.68038349181982,
          12.68038349181982,
          12.68038349181982,
          14.036243467926479,
          14.036243467926479,
          14.036243467926479,
          14.036243467926479,
          11.309932474020215,
          11.309932474020215,
          11.309932474020215,
          14.036243467926479,
          16.69924423399362,
          18.00416160591338,
          16.69924423399362,
          16.69924423399362,
          18.00416160591338,
          19.290046219188735,
          21.80140948635181,
          18.00416160591338,
          18.00416160591338,
          16.69924423399362,
          15.37625124882619,
          19.290046219188735,
          19.290046219188735,
          18.00416160591338,
          16.69924423399362,
          11.309932474020215,
          7.125016348901798,
          8.530765609948133,
          8.530765609948133,
          14.036243467926479,
          15.37625124882619,
          12.68038349181982,
          11.309932474020215,
          4.289153328819018,
          0.0,
          0.0,
          -2.862405226111748,
          2.862405226111748,
          5.710593137499643,
          7.125016348901798,
          11.309932474020215,
          11.309932474020215,
          12.68038349181982,
          12.68038349181982,
          11.309932474020215,
          11.309932474020215,
          11.309932474020215,
          9.926245506651705,
          12.68038349181982,
          11.309932474020215,
          11.309932474020215,
          11.309932474020215,
          9.926245506651705,
          9.926245506651705,
          9.926245506651705,
          9.926245506651705,
          9.926245506651705,
          9.926245506651705,
          9.926245506651705,
          12.68038349181982,
          14.036243467926479,
          16.69924423399362,
          18.00416160591338,
          21.80140948635181,
          25.407718108948472,
          25.407718108948472,
          26.565051177077994,
          20.556045219583467,
          15.37625124882619,
          11.309932474020215,
          9.926245506651705,
          11.309932474020215,
          9.926245506651705,
          14.036243467926479,
          12.68038349181982,
          14.036243467926479,
          14.036243467926479,
          9.926245506651705,
          7.125016348901798,
          4.289153328819018,
          4.289153328819018,
          2.862405226111748,
          4.289153328819018,
          4.289153328819018,
          2.862405226111748,
          5.710593137499643,
          4.289153328819018,
          4.289153328819018,
          4.289153328819018,
          4.289153328819018
        ],
        "horizontal_dist_map": 1068,
        "slope_dist_map": 1102,
        "elevation_diff_map": 237.0,
        "avg_slope_deg_map": 12.1,
        "max_slope_deg_map": 26.6
      },
      "geometry": {
        "type": "LineString",
        "coordinates": [
          [
            133.06225164933693,
            35.065916234845105,
            1078.0
          ],
          [
            133.06232210922428,
            35.065985291635016,
            1075.0
          ],
          [
            133.0623925691116,
            35.066054348424935,
            1072.0
          ],
          [
            133.06246302899896,
            35.066123405214846,
            1070.0
          ],
          [
            133.0625334888863,
            35.066192462004764,
            1067.0
          ],
          [
            133.06260394877364,
            35.066261518794676,
            1064.0
          ],
          [
            133.06267440866097,
            35.066330575584594,
            1061.0
          ],
          [
            133.06274486854832,
            35.066399632374505,
            1058.0
          ],
          [
            133.06281532843565,
            35.066468689164424,
            1055.0
          ],
          [
            133.062885788323,
            35.066537745954335,
            1052.0
          ],
          [
            133.06295624821033,
            35.06660680274425,
            1049.0
          ],
          [
            133.06302670809768,
            35.066675859534165,
            1046.0
          ],
          [
            133.06309716798503,
            35.06674491632408,
            1045.0
          ],
          [
            133.06316762787236,
            35.066813973113995,
            1042.0
          ],
          [
            133.06323808775971,
            35.06688302990391,
            1039.0
          ],
          [
            133.06330854764704,
            35.066952086693824,
            1038.0
          ],
          [
            133.0633790075344,
            35.067021143483736,
            1035.0
          ],
          [
            133.06344946742172,
            35.067090200273654,
            1033.0
          ],
          [
            133.06351992730907,
            35.067159257063565,
            1031.0
          ],
          [
            133.0635903871964,
            35.067228313853484,
            1029.0
          ],
          [
            133.06366084708375,
            35.067297370643395,
            1026.0
          ],
          [
            133.06373130697108,
            35.06736642743331,
            1024.0
          ],
          [
            133.06380176685843,
            35.067435484223225,
            1021.0
          ],
          [
            133.06387222674576,
            35.06750454101314,
            1019.0
          ],
          [
            133.0639426866331,
            35.067573597803054,
            1016.0
          ],
          [
            133.06401314652047,
            35.06764265459297,
            1014.0
          ],
          [
            133.0640836064078,
            35.067711711382884,
            1013.0
          ],
          [
            133.06415406629515,
            35.0677807681728,
            1011.0
          ],
          [
            133.06422452618247,
            35.067849824962714,
            1008.0
          ],
          [
            133.06429498606983,
            35.06791888175263,
            1004.0
          ],
          [
            133.06436544595715,
            35.067987938542544,
            1001.0
          ],
          [
            133.0644359058445,
            35.06805699533246,
            998.0
          ],
          [
            133.06450636573183,
            35.06812605212237,
            996.0
          ],
          [
            133.06457682561918,
            35.068195108912285,
            992.0
          ],
          [
            133.0646472855065,
            35.0682641657022,
            988.0
          ],
          [
            133.06471774539386,
            35.068333222492114,
            984.0
          ],
          [
            133.06478820528122,
            35.06840227928203,
            980.0
          ],
          [
            133.06485866516854,
            35.068471336071944,
            979.0
          ],
          [
            133.0649291250559,
            35.06854039286186,
            975.0
          ],
          [
            133.06499958494322,
            35.068609449651774,
            972.0
          ],
          [
            133.06507004483058,
            35.06867850644169,
            969.0
          ],
          [
            133.0651405047179,
            35.068747563231604,
            965.0
          ],
          [
            133.06521096460526,
            35.06881662002152,
            961.0
          ],
          [
            133.06528142449258,
            35.06888567681143,
            959.0
          ],
          [
            133.06536818614265,
            35.06893439188248,
            957.0
          ],
          [
            133.06547316974203,
            35.068960369181056,
            957.0
          ],
          [
            133.06557815334145,
            35.06898634647964,
            956.0
          ],
          [
            133.06568313694086,
            35.069012323778225,
            953.0
          ],
          [
            133.06578945745153,
            35.06903375713294,
            951.0
          ],
          [
            133.06589727601948,
            35.06905009883468,
            947.0
          ],
          [
            133.06600509458744,
            35.06906644053642,
            945.0
          ],
          [
            133.0661129131554,
            35.069082782238155,
            944.0
          ],
          [
            133.06622073172338,
            35.06909912393989,
            943.0
          ],
          [
            133.06632838014008,
            35.0691161955883,
            944.0
          ],
          [
            133.06643590517137,
            35.069133796558546,
            945.0
          ],
          [
            133.06654343020264,
            35.06915139752879,
            944.0
          ],
          [
            133.06665095523394,
            35.069168998499045,
            945.0
          ],
          [
            133.06675848026524,
            35.06918659946929,
            942.0
          ],
          [
            133.0668667155604,
            35.06920063089897,
            941.0
          ],
          [
            133.06697545774185,
            35.069212114893276,
            939.0
          ],
          [
            133.06708419992333,
            35.06922359888758,
            937.0
          ],
          [
            133.06719294210478,
            35.06923508288188,
            934.0
          ],
          [
            133.06730168428626,
            35.06924656687619,
            932.0
          ],
          [
            133.06741042058923,
            35.06925808496928,
            930.0
          ],
          [
            133.0675187602382,
            35.06927190389084,
            929.0
          ],
          [
            133.06762709988718,
            35.069285722812396,
            926.0
          ],
          [
            133.06773543953614,
            35.069299541733955,
            924.0
          ],
          [
            133.0678437791851,
            35.06931336065552,
            923.0
          ],
          [
            133.06795211883406,
            35.06932717957708,
            920.0
          ],
          [
            133.06806045848302,
            35.06934099849864,
            918.0
          ],
          [
            133.068167982664,
            35.06935685234482,
            916.0
          ],
          [
            133.0682650959899,
            35.06939868551259,
            915.0
          ],
          [
            133.06836220931578,
            35.06944051868036,
            913.0
          ],
          [
            133.06845932264167,
            35.06948235184813,
            911.0
          ],
          [
            133.06855404971498,
            35.069500107929876,
            909.0
          ],
          [
            133.0686416446362,
            35.06944590120331,
            908.0
          ],
          [
            133.06872923955743,
            35.069391694476735,
            906.0
          ],
          [
            133.06881683447864,
            35.06933748775017,
            904.0
          ],
          [
            133.06890442939988,
            35.069283281023594,
            902.0
          ],
          [
            133.0689920243211,
            35.06922907429703,
            899.0
          ],
          [
            133.0690796192423,
            35.06917486757045,
            896.0
          ],
          [
            133.06916721416354,
            35.069120660843886,
            892.0
          ],
          [
            133.06925480908475,
            35.06906645411731,
            889.0
          ],
          [
            133.0693436476138,
            35.069013943349276,
            883.0
          ],
          [
            133.06944284705736,
            35.06897556218141,
            877.0
          ],
          [
            133.0695420465009,
            35.06893718101354,
            873.0
          ],
          [
            133.06964124594447,
            35.06889879984566,
            869.0
          ],
          [
            133.06974044538802,
            35.068860418677794,
            868.0
          ],
          [
            133.06983964483157,
            35.068822037509925,
            866.0
          ],
          [
            133.06994230506652,
            35.06882959042003,
            865.0
          ],
          [
            133.0700465075293,
            35.06885761287203,
            862.0
          ],
          [
            133.0701507099921,
            35.06888563532403,
            860.0
          ],
          [
            133.07025491245489,
            35.06891365777603,
            859.0
          ],
          [
            133.0703591149177,
            35.06894168022803,
            855.0
          ],
          [
            133.07046331738047,
            35.06896970268003,
            853.0
          ],
          [
            133.0705664680676,
            35.0689997210199,
            850.0
          ],
          [
            133.0706625986061,
            35.06904306104986,
            849.0
          ],
          [
            133.0707587291446,
            35.06908640107982,
            848.0
          ],
          [
            133.0708548596831,
            35.06912974110978,
            848.0
          ],
          [
            133.07095099022158,
            35.069173081139745,
            847.0
          ],
          [
            133.07104712076008,
            35.06921642116971,
            846.0
          ],
          [
            133.07114325129857,
            35.069259761199675,
            846.0
          ],
          [
            133.07123938183707,
            35.069303101229636,
            845.0
          ],
          [
            133.07133551237555,
            35.0693464412596,
            844.0
          ],
          [
            133.07143164291404,
            35.06938978128956,
            844.0
          ],
          [
            133.07152777345254,
            35.06943312131952,
            842.0
          ],
          [
            133.07162390399102,
            35.06947646134948,
            842.0
          ],
          [
            133.0717064957738,
            35.06951369749105,
            841.0
          ]
        ]
      }
    },
    {
      "type": "Feature",
      "properties": {
        "name": "かえで",
        "slope_deg": [
          18.00416160591338,
          18.00416160591338,
          18.00416160591338,
          19.290046219188735,
          21.80140948635181,
          23.025492008528037,
          23.025492008528037,
          20.556045219583467,
          15.37625124882619,
          16.69924423399362,
          14.036243467926479,
          12.68038349181982,
          15.37625124882619,
          12.68038349181982,
          12.68038349181982,
          14.036243467926479,
          12.68038349181982,
          12.68038349181982,
          14.036243467926479,
          14.036243467926479,
          15.37625124882619,
          16.69924423399362,
          16.69924423399362,
          18.00416160591338,
          20.556045219583467,
          20.556045219583467,
          19.290046219188735,
          16.69924423399362,
          12.68038349181982,
          11.309932474020215,
          9.926245506651705,
          8.530765609948133,
          7.125016348901798,
          7.125016348901798,
          8.530765609948133,
          7.125016348901798,
          9.926245506651705,
          8.530765609948133,
          9.926245506651705,
          15.37625124882619,
          12.68038349181982,
          12.68038349181982,
          12.68038349181982,
          9.926245506651705,
          9.926245506651705,
          8.530765609948133,
          4.289153328819018,
          -1.4320961841646465,
          -2.862405226111748,
          -2.862405226111748,
          -2.862405226111748,
          5.710593137499643,
          8.530765609948133,
          11.309932474020215,
          14.036243467926479,
          11.309932474020215,
          12.68038349181982,
          15.37625124882619,
          18.00416160591338,
          15.37625124882619,
          11.309932474020215,
          9.926245506651705,
          5.710593137499643,
          7.125016348901798,
          9.926245506651705,
          7.125016348901798,
          7.125016348901798,
          9.926245506651705,
          8.530765609948133,
          9.926245506651705,
          9.926245506651705,
          9.926245506651705,
          9.926245506651705,
          8.530765609948133,
          9.926245506651705,
          8.530765609948133,
          12.68038349181982,
          14.036243467926479,
          14.036243467926479,
          12.68038349181982,
          11.309932474020215,
          8.530765609948133,
          9.926245506651705,
          8.530765609948133,
          8.530765609948133,
          9.926245506651705,
          11.309932474020215,
          11.309932474020215,
          11.309932474020215,
          11.309932474020215,
          7.125016348901798,
          8.530765609948133,
          7.125016348901798,
          8.530765609948133,
          8.530765609948133,
          11.309932474020215,
          11.309932474020215,
          11.309932474020215,
          11.309932474020215
        ],
        "horizontal_dist_map": 977,
        "slope_dist_map": 1005,
        "elevation_diff_map": 200.0,
        "avg_slope_deg_map": 11.2,
        "max_slope_deg_map": 23.0
      },
      "geometry": {
        "type": "LineString",
        "coordinates": [
          [
            133.06467274194995,
            35.06641101878479,
            1039.0
          ],
          [
            133.06473297928304,
            35.06648633110354,
            1035.0
          ],
          [
            133.06479321661615,
            35.06656164342229,
            1032.0
          ],
          [
            133.06485345394924,
            35.06663695574104,
            1030.0
          ],
          [
            133.06491369128236,
            35.066712268059796,
            1026.0
          ],
          [
            133.06497392861544,
            35.066787580378545,
            1021.0
          ],
          [
            133.06503416594856,
            35.066862892697294,
            1016.0
          ],
          [
            133.06509440328165,
            35.066938205016044,
            1013.0
          ],
          [
            133.06515464061474,
            35.06701351733479,
            1009.0
          ],
          [
            133.06521487794785,
            35.06708882965354,
            1006.0
          ],
          [
            133.06527511528094,
            35.06716414197229,
            1005.0
          ],
          [
            133.06533535261406,
            35.06723945429105,
            1001.0
          ],
          [
            133.06539558994714,
            35.0673147666098,
            999.0
          ],
          [
            133.06545582728023,
            35.06739007892855,
            997.0
          ],
          [
            133.06551606461335,
            35.067465391247296,
            994.0
          ],
          [
            133.06557175116941,
            35.06754273707565,
            992.0
          ],
          [
            133.06561584893103,
            35.06762526134378,
            990.0
          ],
          [
            133.06565994669268,
            35.06770778561191,
            987.0
          ],
          [
            133.0657040444543,
            35.06779030988003,
            985.0
          ],
          [
            133.06577160579548,
            35.067861007840875,
            983.0
          ],
          [
            133.06584105085568,
            35.06793075635408,
            980.0
          ],
          [
            133.0659104959159,
            35.06800050486729,
            977.0
          ],
          [
            133.0659799409761,
            35.068070253380505,
            974.0
          ],
          [
            133.06604619651807,
            35.068141972644746,
            971.0
          ],
          [
            133.0661083680737,
            35.06821621533719,
            968.0
          ],
          [
            133.06617053962938,
            35.06829045802964,
            964.0
          ],
          [
            133.06623271118505,
            35.06836470072208,
            959.0
          ],
          [
            133.06629185047942,
            35.06844055555991,
            956.0
          ],
          [
            133.06634869274558,
            35.06851763164587,
            954.0
          ],
          [
            133.06640553501174,
            35.068594707731826,
            952.0
          ],
          [
            133.0664623772779,
            35.068671783817784,
            950.0
          ],
          [
            133.06651921954406,
            35.06874885990374,
            948.0
          ],
          [
            133.06657972879586,
            35.06882401812806,
            947.0
          ],
          [
            133.0666405553391,
            35.06889901040653,
            946.0
          ],
          [
            133.06670138188232,
            35.068974002685,
            945.0
          ],
          [
            133.06676220842556,
            35.069048994963474,
            943.0
          ],
          [
            133.0668542472766,
            35.06909201497443,
            941.0
          ],
          [
            133.06695646357076,
            35.06912460974113,
            941.0
          ],
          [
            133.06705867986489,
            35.06915720450784,
            938.0
          ],
          [
            133.06716427706007,
            35.069180946544826,
            937.0
          ],
          [
            133.06727081020054,
            35.069202237853325,
            934.0
          ],
          [
            133.06737734334098,
            35.06922352916182,
            930.0
          ],
          [
            133.06748489634566,
            35.069240668441815,
            929.0
          ],
          [
            133.0675931307512,
            35.069255033631286,
            928.0
          ],
          [
            133.06770136515672,
            35.06926939882076,
            925.0
          ],
          [
            133.06781052607258,
            35.06927752106565,
            923.0
          ],
          [
            133.0679128686969,
            35.06927172630521,
            922.0
          ],
          [
            133.06793990437575,
            35.06919332152551,
            922.0
          ],
          [
            133.06790185299312,
            35.06910898194387,
            922.0
          ],
          [
            133.0678369763476,
            35.069036320238155,
            924.0
          ],
          [
            133.0678102973874,
            35.068949687576705,
            924.0
          ],
          [
            133.06780678880725,
            35.06886030333629,
            924.0
          ],
          [
            133.06786299286273,
            35.06878860382302,
            924.0
          ],
          [
            133.06797257585876,
            35.06879131845197,
            920.0
          ],
          [
            133.06808193457468,
            35.068794586574505,
            918.0
          ],
          [
            133.06818929375606,
            35.06877809475744,
            916.0
          ],
          [
            133.06827489253945,
            35.068725936687365,
            914.0
          ],
          [
            133.06833299215378,
            35.06864959619477,
            912.0
          ],
          [
            133.068403995701,
            35.06858091613969,
            909.0
          ],
          [
            133.06848062797783,
            35.068516586680765,
            905.0
          ],
          [
            133.06857161580234,
            35.06847147044308,
            901.0
          ],
          [
            133.06860635566727,
            35.068390752378946,
            901.0
          ],
          [
            133.06862326168147,
            35.068301693171314,
            901.0
          ],
          [
            133.06866446407489,
            35.06821853667972,
            898.0
          ],
          [
            133.06873335252536,
            35.06814865769936,
            897.0
          ],
          [
            133.06881746886697,
            35.0680996789799,
            896.0
          ],
          [
            133.06892665675446,
            35.068091554708076,
            894.0
          ],
          [
            133.06903584464195,
            35.06808343043625,
            893.0
          ],
          [
            133.06914237228722,
            35.06810313364719,
            892.0
          ],
          [
            133.06924867563495,
            35.06812518312382,
            889.0
          ],
          [
            133.06935497898272,
            35.06814723260044,
            888.0
          ],
          [
            133.06946128233048,
            35.068169282077065,
            886.0
          ],
          [
            133.06956535697782,
            35.06819749506541,
            885.0
          ],
          [
            133.06966904555514,
            35.06822677573755,
            882.0
          ],
          [
            133.06977273413247,
            35.06825605640969,
            881.0
          ],
          [
            133.06987642270977,
            35.06828533708182,
            880.0
          ],
          [
            133.0699801112871,
            35.068314617753956,
            878.0
          ],
          [
            133.07008379986442,
            35.06834389842609,
            876.0
          ],
          [
            133.07018631326793,
            35.0683756772682,
            872.0
          ],
          [
            133.07028697798137,
            35.068411386032786,
            870.0
          ],
          [
            133.0703876426948,
            35.068447094797364,
            868.0
          ],
          [
            133.07048830740828,
            35.06848280356195,
            867.0
          ],
          [
            133.07058897212173,
            35.06851851232653,
            864.0
          ],
          [
            133.07068963683517,
            35.06855422109111,
            864.0
          ],
          [
            133.07079030154864,
            35.06858992985569,
            861.0
          ],
          [
            133.07089096626208,
            35.068625638620276,
            861.0
          ],
          [
            133.07099163097553,
            35.068661347384854,
            858.0
          ],
          [
            133.071092295689,
            35.06869705614944,
            857.0
          ],
          [
            133.07119296040244,
            35.068732764914024,
            853.0
          ],
          [
            133.07129362511589,
            35.0687684736786,
            853.0
          ],
          [
            133.07139428982936,
            35.06880418244319,
            850.0
          ],
          [
            133.0714949545428,
            35.068839891207766,
            849.0
          ],
          [
            133.07159561925624,
            35.06887559997235,
            848.0
          ],
          [
            133.07169628396971,
            35.06891130873693,
            847.0
          ],
          [
            133.0717932242392,
            35.06895316916577,
            845.0
          ],
          [
            133.0718885605799,
            35.068997678803875,
            843.0
          ],
          [
            133.0719838969206,
            35.069042188441976,
            842.0
          ],
          [
            133.07207923326135,
            35.06908669808008,
            839.0
          ],
          [
            133.072147375481,
            35.069118511610085,
            839.0
          ]
        ]
      }
    },
    {
      "type": "Feature",
      "properties": {
        "name": "ぶな",
        "slope_deg": [
          8.530765609948133,
          8.530765609948133,
          8.530765609948133,
          8.530765609948133,
          7.125016348901798,
          7.125016348901798,
          7.125016348901798,
          7.125016348901798,
          0.0,
          -5.710593137499643,
          -8.530765609948133,
          -11.309932474020215,
          -1.4320961841646465,
          7.125016348901798,
          15.37625124882619,
          23.025492008528037,
          23.025492008528037,
          24.22774531795417,
          20.556045219583467,
          16.69924423399362,
          14.036243467926479,
          12.68038349181982,
          11.309932474020215,
          9.926245506651705,
          12.68038349181982,
          16.69924423399362,
          19.290046219188735,
          20.556045219583467,
          21.80140948635181,
          23.025492008528037,
          21.80140948635181,
          27.699472808055,
          26.565051177077994,
          23.025492008528037,
          21.80140948635181,
          15.37625124882619,
          15.37625124882619,
          14.036243467926479,
          14.036243467926479,
          15.37625124882619,
          12.68038349181982,
          14.036243467926479,
          18.00416160591338,
          18.00416160591338,
          19.290046219188735,
          20.556045219583467,
          19.290046219188735,
          20.556045219583467,
          19.290046219188735,
          19.290046219188735,
          18.00416160591338,
          15.37625124882619,
          16.69924423399362,
          12.68038349181982,
          15.37625124882619,
          18.00416160591338,
          18.00416160591338,
          26.565051177077994,
          25.407718108948472,
          24.22774531795417,
          26.565051177077994,
          19.290046219188735,
          16.69924423399362,
          15.37625124882619,
          11.309932474020215,
          12.68038349181982,
          12.68038349181982,
          12.68038349181982,
          12.68038349181982
        ],
        "horizontal_dist_map": 674,
        "slope_dist_map": 711,
        "elevation_diff_map": 184.0,
        "avg_slope_deg_map": 14.5,
        "max_slope_deg_map": 27.7
      },
      "geometry": {
        "type": "LineString",
        "coordinates": [
          [
            133.06251593080486,
            35.06563005524126,
            1081.0
          ],
          [
            133.06261885725561,
            35.06559901768958,
            1080.0
          ],
          [
            133.06272178370637,
            35.0655679801379,
            1077.0
          ],
          [
            133.06282471015712,
            35.06553694258623,
            1077.0
          ],
          [
            133.06293176646776,
            35.06551798460612,
            1075.0
          ],
          [
            133.06303928672247,
            35.06550038363217,
            1074.0
          ],
          [
            133.06314680697716,
            35.06548278265822,
            1072.0
          ],
          [
            133.06325590948802,
            35.06548124581219,
            1072.0
          ],
          [
            133.06336547329875,
            35.06548439239239,
            1070.0
          ],
          [
            133.0634750371095,
            35.065487538972604,
            1069.0
          ],
          [
            133.06358001464181,
            35.06551202071802,
            1072.0
          ],
          [
            133.06368425257128,
            35.06553994306333,
            1076.0
          ],
          [
            133.06378849050074,
            35.06556786540863,
            1076.0
          ],
          [
            133.06388911855208,
            35.065603537607004,
            1077.0
          ],
          [
            133.06398937466278,
            35.06564000830475,
            1073.0
          ],
          [
            133.06408963077345,
            35.06567647900249,
            1071.0
          ],
          [
            133.06418051736767,
            35.06572397056658,
            1065.0
          ],
          [
            133.06425661818446,
            35.065788853858116,
            1060.0
          ],
          [
            133.06433271900124,
            35.06585373714965,
            1056.0
          ],
          [
            133.06440881981803,
            35.06591862044119,
            1053.0
          ],
          [
            133.06446896214405,
            35.06599367550039,
            1050.0
          ],
          [
            133.06452642019244,
            35.066070441488804,
            1048.0
          ],
          [
            133.06458387824085,
            35.066147207477215,
            1046.0
          ],
          [
            133.06464133628924,
            35.06622397346563,
            1044.0
          ],
          [
            133.06469565493083,
            35.06630220095285,
            1042.0
          ],
          [
            133.06474615723064,
            35.06638220507472,
            1041.0
          ],
          [
            133.06479665953043,
            35.06646220919658,
            1037.0
          ],
          [
            133.0648473957402,
            35.06654209051076,
            1032.0
          ],
          [
            133.0649144287522,
            35.0666134156592,
            1028.0
          ],
          [
            133.06499556990818,
            35.066665386238725,
            1026.0
          ],
          [
            133.06510367869745,
            35.06668036067497,
            1021.0
          ],
          [
            133.06521178748673,
            35.06669533511122,
            1015.0
          ],
          [
            133.065319896276,
            35.06671030954747,
            1012.0
          ],
          [
            133.0654182740423,
            35.06674988959529,
            1005.0
          ],
          [
            133.06551642026992,
            35.06679005510564,
            1001.0
          ],
          [
            133.06561456649757,
            35.06683022061599,
            998.0
          ],
          [
            133.06570888426177,
            35.06687604287709,
            996.0
          ],
          [
            133.06580213340723,
            35.066923444077155,
            994.0
          ],
          [
            133.06589538255267,
            35.06697084527722,
            990.0
          ],
          [
            133.0659886316981,
            35.06701824647728,
            988.0
          ],
          [
            133.06608188084354,
            35.06706564767734,
            986.0
          ],
          [
            133.06617734052577,
            35.06710991252194,
            983.0
          ],
          [
            133.06627373215017,
            35.067152855107636,
            981.0
          ],
          [
            133.06637012377456,
            35.06719579769333,
            978.0
          ],
          [
            133.066466515399,
            35.06723874027902,
            973.0
          ],
          [
            133.06656285026472,
            35.0672817680706,
            970.0
          ],
          [
            133.06665874486586,
            35.06732545678584,
            967.0
          ],
          [
            133.06675463946698,
            35.067369145501075,
            963.0
          ],
          [
            133.0668505340681,
            35.06741283421631,
            959.0
          ],
          [
            133.06694642866924,
            35.06745652293155,
            955.0
          ],
          [
            133.06704232327036,
            35.06750021164679,
            953.0
          ],
          [
            133.06713821787147,
            35.067543900362026,
            949.0
          ],
          [
            133.06721822538762,
            35.067605365137666,
            946.0
          ],
          [
            133.06729758495118,
            35.0676675549075,
            944.0
          ],
          [
            133.06737694451473,
            35.067729744677344,
            941.0
          ],
          [
            133.0674705977747,
            35.067773763625006,
            940.0
          ],
          [
            133.06757213425266,
            35.06780776105353,
            935.0
          ],
          [
            133.06767367073058,
            35.067841758482054,
            931.0
          ],
          [
            133.06777524462393,
            35.06787562177993,
            928.0
          ],
          [
            133.0678846530361,
            35.067881399051764,
            920.0
          ],
          [
            133.06799392099964,
            35.06788856973443,
            916.0
          ],
          [
            133.06810299354353,
            35.06789767920371,
            913.0
          ],
          [
            133.06821206608743,
            35.06790678867299,
            908.0
          ],
          [
            133.06831845268385,
            35.067928175281516,
            906.0
          ],
          [
            133.06842454947753,
            35.067950886543244,
            904.0
          ],
          [
            133.0685306462712,
            35.06797359780497,
            902.0
          ],
          [
            133.06863492227134,
            35.06800094989106,
            900.0
          ],
          [
            133.06873716193576,
            35.06803349217367,
            897.0
          ],
          [
            133.06878824282552,
            35.068049750919826,
            897.0
          ]
        ]
      }
    },
    {
      "type": "Feature",
      "properties": {
        "name": "もみじ",
        "slope_deg": [
          11.309932474020215,
          11.309932474020215,
          11.309932474020215,
          8.530765609948133,
          8.530765609948133,
          14.036243467926479,
          12.68038349181982,
          14.036243467926479,
          11.309932474020215,
          11.309932474020215,
          8.530765609948133,
          7.125016348901798,
          8.530765609948133,
          5.710593137499643,
          8.530765609948133,
          8.530765609948133,
          8.530765609948133,
          8.530765609948133,
          5.710593137499643,
          4.289153328819018,
          1.4320961841646465,
          2.862405226111748,
          4.289153328819018,
          7.125016348901798,
          9.926245506651705,
          9.926245506651705,
          9.926245506651705,
          9.926245506651705,
          9.926245506651705
        ],
        "horizontal_dist_map": 273,
        "slope_dist_map": 278,
        "elevation_diff_map": 41.0,
        "avg_slope_deg_map": 8.4,
        "max_slope_deg_map": 14.0
      },
      "geometry": {
        "type": "LineString",
        "coordinates": [
          [
            133.06983587758987,
            35.068135303391855,
            881.0
          ],
          [
            133.06992918385762,
            35.06808797652114,
            878.0
          ],
          [
            133.0700170299478,
            35.06803490009383,
            875.0
          ],
          [
            133.07009555059403,
            35.067972019203125,
            877.0
          ],
          [
            133.07020030767953,
            35.0679454344887,
            873.0
          ],
          [
            133.07030506476505,
            35.06791884977428,
            872.0
          ],
          [
            133.0704137098763,
            35.0679134597337,
            869.0
          ],
          [
            133.07052331359682,
            35.067913735945496,
            867.0
          ],
          [
            133.07063119457686,
            35.06792979003641,
            864.0
          ],
          [
            133.07073907555687,
            35.06794584412732,
            862.0
          ],
          [
            133.07083012271016,
            35.067993568377474,
            861.0
          ],
          [
            133.0709131926789,
            35.0680518108322,
            859.0
          ],
          [
            133.07099081379687,
            35.06811356212229,
            858.0
          ],
          [
            133.07109290056258,
            35.068146427728436,
            857.0
          ],
          [
            133.07119498732828,
            35.06817929333458,
            855.0
          ],
          [
            133.071297074094,
            35.06821215894072,
            855.0
          ],
          [
            133.0713991608597,
            35.06824502454686,
            852.0
          ],
          [
            133.0715012476254,
            35.068277890153006,
            851.0
          ],
          [
            133.0716016418181,
            35.068314102129804,
            849.0
          ],
          [
            133.07170196844282,
            35.06835044769464,
            849.0
          ],
          [
            133.07180229506756,
            35.068386793259485,
            848.0
          ],
          [
            133.07190188544095,
            35.068424136818564,
            848.0
          ],
          [
            133.07198745102528,
            35.068480491085644,
            848.0
          ],
          [
            133.0720730166096,
            35.068536845352725,
            847.0
          ],
          [
            133.07215858219394,
            35.068593199619805,
            845.0
          ],
          [
            133.07222189926628,
            35.06866600808978,
            843.0
          ],
          [
            133.07228103507455,
            35.06874190887298,
            841.0
          ],
          [
            133.0723401708828,
            35.06881780965618,
            840.0
          ],
          [
            133.07236083855622,
            35.06884433660568,
            840.0
          ]
        ]
      }
    }
  ]
}