{
  "type": "FeatureCollection",
  "features": [
    {
      "type": "Feature",
      "properties": {
        "name": "キングスロープ",
        "slope_deg": [
          4.0041729407093225,
          4.0041729407093225,
          4.0041729407093225,
          4.289153328819018,
          4.858462919034255,
          4.858462919034255,
          5.2848210925090795,
          5.284821092508918,
          5.710593137499643,
          5.994092949108534,
          6.418786730238786,
          8.39062701325255,
          7.829076510059608,
          10.342657140474548,
          11.172136252167116,
          12.543973346572233,
          14.439965121002807,
          15.642246457208788,
          16.43605922463559,
          17.874511367250282,
          18.906332035086518,
          19.925580658184323,
          20.17838007450879,
          19.925580658184323,
          19.290046219188735,
          16.17215901578243,
          15.774985955414008,
          12.952764513375426,
          13.088732789694154,
          12.68038349181982,
          12.95276451337558,
          11.722520970102357,
          11.447596263685636,
          11.172136252167274,
          11.585126224854955,
          14.036243467926479,
          13.224551192213497,
          15.242997742901547,
          13.360218444764483,
          13.495733280795843,
          13.495733280795843,
          13.360218444764483,
          13.766300685466351,
          13.90135076950909,
          15.242997742901547,
          13.63109444342145,
          14.305551846621862,
          12.13388017063338,
          10.896152141141036,
          10.342657140474707,
          9.648045316098251,
          9.648045316098093,
          8.950558656231758,
          8.9505586562316,
          7.125016348901798,
          6.560196400571341,
          5.284821092508918,
          4.289153328819018,
          4.0041729407093225,
          3.576334374997351,
          3.2908836860673905,
          3.4336303624504896,
          3.4336303624504896,
          3.4336303624504896,
          3.4336303624504896,
          3.4336303624504896
        ],
        "horizontal_dist_map": 647,
        "slope_dist_map": 661,
        "elevation_diff_map": 120.8,
        "avg_slope_deg_map": 10.3,
        "max_slope_deg_map": 20.2
      },
      "geometry": {
        "type": "LineString",
        "coordinates": [
          [
            136.9188734994449,
            36.00628542618744,
            1024.3
          ],
          [
            136.91876450248705,
            36.00626872646686,
            1023.8
          ],
          [
            136.91865550552922,
            36.00625202674627,
            1023.1
          ],
          [
            136.91854650857135,
            36.006235327025685,
            1022.4
          ],
          [
            136.9184375116135,
            36.006218627305095,
            1021.5
          ],
          [
            136.91832851465566,
            36.00620192758451,
            1020.8
          ],
          [
            136.9182195176978,
            36.006185227863924,
            1019.7
          ],
          [
            136.91811052073993,
            36.00616852814334,
            1019.0
          ],
          [
            136.9180015237821,
            36.00615182842275,
            1017.8
          ],
          [
            136.91789252682423,
            36.00613512870217,
            1017.1
          ],
          [
            136.9177835298664,
            36.00611842898159,
            1015.7
          ],
          [
            136.91767453290853,
            36.006101729261,
            1014.8
          ],
          [
            136.91756553595067,
            36.006085029540415,
            1013.3
          ],
          [
            136.91745653899284,
            36.006068329819826,
            1011.2
          ],
          [
            136.91734754203497,
            36.00605163009924,
            1010.2
          ],
          [
            136.9172385450771,
            36.006034930378654,
            1007.5
          ],
          [
            136.91712954811928,
            36.00601823065807,
            1005.4
          ],
          [
            136.91702055116141,
            36.00600153093748,
            1002.3
          ],
          [
            136.91691155420355,
            36.0059848312169,
            999.9
          ],
          [
            136.91680255724572,
            36.00596813149632,
            996.3
          ],
          [
            136.91669356028785,
            36.00595143177573,
            993.6
          ],
          [
            136.91658456333,
            36.005934732055145,
            989.4
          ],
          [
            136.91647556637216,
            36.005918032334556,
            986.2
          ],
          [
            136.9163665694143,
            36.00590133261397,
            981.8
          ],
          [
            136.91625757245646,
            36.005884632893384,
            978.9
          ],
          [
            136.9161485754986,
            36.0058679331728,
            974.9
          ],
          [
            136.91603957854073,
            36.00585123345221,
            972.2
          ],
          [
            136.9159305815829,
            36.00583453373163,
            970.2
          ],
          [
            136.91582158462504,
            36.00581783401105,
            967.6
          ],
          [
            136.91571258766717,
            36.00580113429046,
            965.7
          ],
          [
            136.91560359070934,
            36.005784434569875,
            962.9
          ],
          [
            136.91549459375148,
            36.005767734849286,
            961.2
          ],
          [
            136.9153855967936,
            36.005751035128704,
            958.4
          ],
          [
            136.91527659983578,
            36.005734335408114,
            957.4
          ],
          [
            136.9151672967467,
            36.00571912760102,
            954.8
          ],
          [
            136.91505753267205,
            36.00570616638137,
            953.3
          ],
          [
            136.91494776859741,
            36.00569320516172,
            950.2
          ],
          [
            136.91483800452278,
            36.005680243942074,
            947.4
          ],
          [
            136.9147282404481,
            36.00566728272243,
            945.4
          ],
          [
            136.91461847637348,
            36.005654321502774,
            942.4
          ],
          [
            136.91450871229884,
            36.00564136028313,
            940.7
          ],
          [
            136.9143989482242,
            36.00562839906348,
            937.8
          ],
          [
            136.91428918414957,
            36.00561543784383,
            935.8
          ],
          [
            136.9141794200749,
            36.00560247662418,
            932.9
          ],
          [
            136.91406965600027,
            36.00558951540454,
            930.9
          ],
          [
            136.91395989192563,
            36.005576554184884,
            927.9
          ],
          [
            136.913850127851,
            36.00556359296524,
            924.9
          ],
          [
            136.91374036377636,
            36.00555063174559,
            923.2
          ],
          [
            136.91363059970172,
            36.00553767052594,
            920.7
          ],
          [
            136.91352083562705,
            36.00552470930629,
            919.3
          ],
          [
            136.91341107155242,
            36.00551174808665,
            917.2
          ],
          [
            136.91330130747778,
            36.005498786866994,
            915.9
          ],
          [
            136.91319154340314,
            36.00548582564735,
            913.9
          ],
          [
            136.9130817793285,
            36.0054728644277,
            912.5
          ],
          [
            136.91297201525387,
            36.00545990320805,
            910.9
          ],
          [
            136.9128622511792,
            36.0054469419884,
            909.6
          ],
          [
            136.91275248710457,
            36.00543398076876,
            908.9
          ],
          [
            136.91264272302993,
            36.005421019549104,
            907.9
          ],
          [
            136.9125329589553,
            36.00540805832946,
            907.2
          ],
          [
            136.91242319488066,
            36.005395097109805,
            906.6
          ],
          [
            136.91231343080602,
            36.00538213589016,
            906.1
          ],
          [
            136.91220366673136,
            36.00536917467051,
            905.4
          ],
          [
            136.91209390265672,
            36.00535621345086,
            904.9
          ],
          [
            136.91198413858208,
            36.005343252231214,
            904.2
          ],
          [
            136.91187437450745,
            36.00533029101157,
            903.7
          ],
          [
            136.91179626568555,
            36.00532106772425,
            903.5
          ]
        ]
      }
    },
    {
      "type": "Feature",
      "properties": {
        "name": "スペードスロープ",
        "slope_deg": [
          9.648045316098251,
          9.648045316098251,
          9.648045316098251,
          11.034209003250343,
          9.22988624372772,
          10.619655276155134,
          11.172136252167116,
          12.13388017063338,
          13.766300685466197,
          13.360218444764483,
          13.360218444764483,
          12.543973346572077,
          13.631094443421603,
          13.90135076950909,
          14.842227057911131,
          16.43605922463559,
          15.509334522674907,
          15.509334522674907,
          15.907551930525813,
          13.90135076950909,
          13.360218444764483,
          12.95276451337558,
          11.447596263685636,
          11.447596263685636,
          11.172136252167116,
          9.369385096487358,
          8.9505586562316,
          8.670801453590993,
          8.670801453590993,
          11.447596263685636,
          11.172136252167116,
          13.224551192213497,
          13.49573328079569,
          13.495733280795843,
          13.088732789694154,
          12.270720357815385,
          11.58512622485511,
          9.926245506651705,
          10.342657140474548,
          8.9505586562316,
          9.926245506651705,
          9.787203664656081,
          9.369385096487514,
          10.481218144130889,
          9.22988624372772,
          10.203973721731748,
          8.11004782941916,
          6.277298489597683,
          6.418786730238786,
          5.852378988915653,
          8.250387228905435,
          8.39062701325255,
          8.670801453590993,
          6.983937460085259,
          6.418786730238786,
          6.277298489597523,
          6.701525844729388,
          7.969610394321392,
          7.406912128495294,
          8.530765609948133,
          7.829076510059608,
          8.250387228905435,
          8.530765609948133,
          8.670801453590993,
          8.950558656231758,
          9.369385096487514,
          9.508771958297752,
          9.22988624372772,
          8.530765609948133,
          8.110047829419,
          7.266008446996026,
          6.418786730238786,
          5.9940929491083725,
          5.426812498572917,
          5.568737077976604,
          5.568737077976604,
          5.568737077976604,
          5.568737077976604
        ],
        "horizontal_dist_map": 763,
        "slope_dist_map": 776,
        "elevation_diff_map": 135.1,
        "avg_slope_deg_map": 9.9,
        "max_slope_deg_map": 16.4
      },
      "geometry": {
        "type": "LineString",
        "coordinates": [
          [
            136.9176801182645,
            36.00587556821386,
            1014.2
          ],
          [
            136.9175889470985,
            36.00582424058083,
            1013.2
          ],
          [
            136.91749777593245,
            36.00577291294779,
            1010.9
          ],
          [
            136.91740660476643,
            36.00572158531476,
            1009.5
          ],
          [
            136.91732224051103,
            36.00566329119602,
            1007.4
          ],
          [
            136.9172400394019,
            36.00560278322016,
            1005.4
          ],
          [
            136.91715783829278,
            36.00554227524431,
            1004.4
          ],
          [
            136.91707563718364,
            36.00548176726845,
            1002.0
          ],
          [
            136.91698813364823,
            36.005426583182754,
            999.5
          ],
          [
            136.91689816255806,
            36.00537387664036,
            996.8
          ],
          [
            136.91680819146785,
            36.00532117009798,
            994.6
          ],
          [
            136.91671822037765,
            36.00526846355559,
            992.5
          ],
          [
            136.91662824928747,
            36.0052157570132,
            990.0
          ],
          [
            136.91653632199836,
            36.00516546991204,
            987.9
          ],
          [
            136.9164410686174,
            36.00511929654586,
            984.9
          ],
          [
            136.9163458152364,
            36.00507312317966,
            982.6
          ],
          [
            136.91625056185543,
            36.00502694981347,
            979.4
          ],
          [
            136.91615530847446,
            36.004980776447276,
            976.1
          ],
          [
            136.91606005509348,
            36.00493460308109,
            973.8
          ],
          [
            136.9159648017125,
            36.004888429714896,
            971.5
          ],
          [
            136.91586954833153,
            36.0048422563487,
            968.0
          ],
          [
            136.9157735577083,
            36.004797120743305,
            966.2
          ],
          [
            136.91567672209825,
            36.004753174562566,
            964.3
          ],
          [
            136.91557988648822,
            36.00470922838182,
            962.3
          ],
          [
            136.9154830508782,
            36.004665282201074,
            959.9
          ],
          [
            136.91538621526817,
            36.00462133602033,
            958.1
          ],
          [
            136.91528937965813,
            36.00457738983958,
            956.4
          ],
          [
            136.91519254404813,
            36.004533443658836,
            955.7
          ],
          [
            136.9150957084381,
            36.00448949747809,
            953.6
          ],
          [
            136.91499480829413,
            36.00445324388593,
            952.0
          ],
          [
            136.9148889027932,
            36.00442646349603,
            950.3
          ],
          [
            136.91478299729226,
            36.00439968310612,
            947.6
          ],
          [
            136.91467709179133,
            36.00437290271622,
            945.7
          ],
          [
            136.9145711862904,
            36.00434612232632,
            942.6
          ],
          [
            136.91446149964796,
            36.004333778907586,
            940.7
          ],
          [
            136.9143513511437,
            36.004323198947304,
            938.0
          ],
          [
            136.91424120263943,
            36.00431261898702,
            936.4
          ],
          [
            136.91413105413514,
            36.00430203902675,
            933.9
          ],
          [
            136.91402088468206,
            36.00429561401461,
            932.5
          ],
          [
            136.9139106331902,
            36.00430546040314,
            931.0
          ],
          [
            136.91380038169837,
            36.00431530679166,
            929.1
          ],
          [
            136.9136901302065,
            36.00432515318019,
            927.6
          ],
          [
            136.91357987871467,
            36.00433499956871,
            925.5
          ],
          [
            136.9134696272228,
            36.00434484595724,
            924.1
          ],
          [
            136.91335937573095,
            36.004354692345764,
            922.5
          ],
          [
            136.91324892533407,
            36.00436219340993,
            920.2
          ],
          [
            136.91313805365795,
            36.004364727097055,
            919.0
          ],
          [
            136.91302718198185,
            36.00436726078418,
            916.9
          ],
          [
            136.91291631030575,
            36.0043697944713,
            916.8
          ],
          [
            136.91280543862965,
            36.004372328158425,
            915.8
          ],
          [
            136.91269456695352,
            36.00437486184554,
            914.5
          ],
          [
            136.91258369527742,
            36.004377395532664,
            912.8
          ],
          [
            136.91247282360132,
            36.00437992921979,
            911.0
          ],
          [
            136.91236195192522,
            36.00438246290691,
            909.9
          ],
          [
            136.912251800302,
            36.00439207293599,
            908.4
          ],
          [
            136.91214192213826,
            36.00440437039682,
            907.9
          ],
          [
            136.9120320439745,
            36.00441666785765,
            906.5
          ],
          [
            136.91192216581078,
            36.00442896531847,
            905.5
          ],
          [
            136.91181228764705,
            36.004441262779295,
            903.7
          ],
          [
            136.91170240948333,
            36.00445356024012,
            902.3
          ],
          [
            136.9115926957934,
            36.00446677458884,
            901.3
          ],
          [
            136.91148307089364,
            36.00448048391385,
            899.5
          ],
          [
            136.9113734459939,
            36.004494193238855,
            898.2
          ],
          [
            136.91126382109414,
            36.004507902563866,
            896.5
          ],
          [
            136.91115419619442,
            36.00452161188887,
            895.3
          ],
          [
            136.9110454156234,
            36.004538321460736,
            893.4
          ],
          [
            136.91093935272667,
            36.00456468804598,
            891.9
          ],
          [
            136.91083328982995,
            36.00459105463122,
            889.9
          ],
          [
            136.91072722693323,
            36.00461742121646,
            888.6
          ],
          [
            136.9106211640365,
            36.0046437878017,
            886.9
          ],
          [
            136.9105133564638,
            36.00466496621397,
            885.9
          ],
          [
            136.91040552850248,
            36.00468608399622,
            884.2
          ],
          [
            136.91029782049748,
            36.00470757297194,
            883.5
          ],
          [
            136.91019113559042,
            36.004732227826565,
            882.4
          ],
          [
            136.91008445068337,
            36.00475688268119,
            881.7
          ],
          [
            136.90997776577635,
            36.00478153753583,
            880.4
          ],
          [
            136.9098710808693,
            36.004806192390454,
            879.6
          ],
          [
            136.9098347,
            36.0048146,
            879.1
          ]
        ]
      }
    },
    {
      "type": "Feature",
      "properties": {
        "name": "クイーンスロープ",
        "slope_deg": [
          4.7162212343382155,
          4.7162212343382155,
          4.7162212343382155,
          6.277298489597361,
          6.56019640057118,
          7.266008446995867,
          7.829076510059608,
          7.969610394321551,
          8.250387228905595,
          8.670801453590993,
          9.926245506651705,
          8.9505586562316,
          9.369385096487514,
          7.829076510059608,
          6.135733340186728,
          6.135733340186728,
          7.266008446996026,
          8.39062701325255,
          11.309932474020215,
          14.036243467926479,
          13.360218444764483,
          15.2429977429017,
          14.036243467926479,
          14.170977562933123,
          15.242997742901547,
          15.774985955414008,
          17.744671625057023,
          16.961705886532968,
          17.6146433000071,
          16.039943306049665,
          15.242997742901547,
          14.708303899682749,
          14.708303899682749,
          14.305551846622015,
          14.97598451475675,
          16.43605922463559,
          15.37625124882619,
          16.69924423399362,
          14.9759845147566,
          14.842227057911131,
          14.57421619803871,
          15.242997742901547,
          16.436059224635738,
          15.642246457208788,
          17.092662950267425,
          15.109575122340402,
          14.17097756293297,
          12.816647648997312,
          11.309932474020215,
          10.203973721731748,
          9.50877195829791,
          9.926245506651705,
          8.950558656231758,
          10.20397372173159,
          8.670801453590993,
          8.390627013252708,
          8.530765609948133,
          9.369385096487514,
          10.481218144130889,
          10.619655276155134,
          9.926245506651705,
          7.125016348901798,
          5.994092949108534,
          4.0041729407093225,
          3.1480960995626615,
          2.433606100720186,
          1.7183580016553597,
          1.8614576304666637,
          2.2906100426385625,
          2.719505461272472,
          2.719505461272472,
          2.719505461272472,
          2.719505461272472
        ],
        "horizontal_dist_map": 711,
        "slope_dist_map": 727,
        "elevation_diff_map": 132.6,
        "avg_slope_deg_map": 10.3,
        "max_slope_deg_map": 17.7
      },
      "geometry": {
        "type": "LineString",
        "coordinates": [
          [
            136.91937235944653,
            36.00686012019432,
            1032.3
          ],
          [
            136.91926285227314,
            36.00684578714939,
            1031.8
          ],
          [
            136.91915334509974,
            36.006831454104464,
            1031.0
          ],
          [
            136.91904383792635,
            36.006817121059534,
            1029.8
          ],
          [
            136.91893433075296,
            36.00680278801461,
            1029.0
          ],
          [
            136.91882482357957,
            36.00678845496968,
            1027.4
          ],
          [
            136.91871531640618,
            36.00677412192476,
            1026.4
          ],
          [
            136.9186058092328,
            36.006759788879826,
            1024.7
          ],
          [
            136.91849630205942,
            36.0067454558349,
            1023.5
          ],
          [
            136.91838679488603,
            36.00673112278997,
            1021.8
          ],
          [
            136.91827726246657,
            36.00671692914832,
            1020.6
          ],
          [
            136.9181673209236,
            36.00670499459943,
            1018.6
          ],
          [
            136.9180573793806,
            36.006693060050544,
            1016.5
          ],
          [
            136.9179474378376,
            36.006681125501665,
            1015.5
          ],
          [
            136.91783749629462,
            36.00666919095278,
            1014.0
          ],
          [
            136.91772755475162,
            36.00665725640389,
            1013.1
          ],
          [
            136.91761761320862,
            36.00664532185501,
            1012.2
          ],
          [
            136.91750767166565,
            36.006633387306124,
            1011.2
          ],
          [
            136.91739773012264,
            36.00662145275724,
            1008.9
          ],
          [
            136.91728778857967,
            36.00660951820836,
            1007.2
          ],
          [
            136.91717784703667,
            36.00659758365947,
            1004.2
          ],
          [
            136.91706790549367,
            36.00658564911059,
            1001.2
          ],
          [
            136.9169579639507,
            36.0065737145617,
            999.4
          ],
          [
            136.9168480224077,
            36.00656178001282,
            996.3
          ],
          [
            136.9167380808647,
            36.00654984546394,
            994.2
          ],
          [
            136.91662813932172,
            36.00653791091505,
            991.1
          ],
          [
            136.91651819777871,
            36.00652597636616,
            988.5
          ],
          [
            136.9164082562357,
            36.00651404181728,
            985.0
          ],
          [
            136.91629831469274,
            36.006502107268396,
            981.4
          ],
          [
            136.91618837314974,
            36.00649017271951,
            978.9
          ],
          [
            136.91607843160673,
            36.00647823817063,
            975.8
          ],
          [
            136.91596849006376,
            36.00646630362174,
            973.5
          ],
          [
            136.91585854852076,
            36.006454369072856,
            970.5
          ],
          [
            136.9157486069778,
            36.006442434523976,
            968.4
          ],
          [
            136.91563866543478,
            36.00643049997509,
            965.3
          ],
          [
            136.91552872389178,
            36.0064185654262,
            963.3
          ],
          [
            136.9154187823488,
            36.00640663087732,
            959.8
          ],
          [
            136.9153088408058,
            36.006394696328435,
            956.6
          ],
          [
            136.9151988992628,
            36.00638276177955,
            954.3
          ],
          [
            136.91508895771983,
            36.00637082723067,
            951.3
          ],
          [
            136.91497901617683,
            36.00635889268178,
            949.1
          ],
          [
            136.91486907463383,
            36.0063469581329,
            946.0
          ],
          [
            136.91475913309085,
            36.006335023584015,
            943.9
          ],
          [
            136.91464919154785,
            36.00632308903513,
            940.4
          ],
          [
            136.91453925000485,
            36.00631115448625,
            937.3
          ],
          [
            136.91442930846188,
            36.00629921993736,
            934.8
          ],
          [
            136.91431936691887,
            36.006287285388474,
            931.6
          ],
          [
            136.9142094253759,
            36.006275350839594,
            929.6
          ],
          [
            136.9140994838329,
            36.00626341629071,
            927.2
          ],
          [
            136.9139895422899,
            36.00625148174182,
            925.7
          ],
          [
            136.91387960074692,
            36.00623954719294,
            923.6
          ],
          [
            136.91376965920392,
            36.006227612644054,
            922.4
          ],
          [
            136.91365971766092,
            36.00621567809517,
            920.5
          ],
          [
            136.91354977611795,
            36.00620374354629,
            918.7
          ],
          [
            136.91343983457494,
            36.0061918089974,
            917.3
          ],
          [
            136.91332989303194,
            36.00617987444851,
            915.2
          ],
          [
            136.91321995148897,
            36.00616793989963,
            914.4
          ],
          [
            136.91311000994597,
            36.006156005350746,
            912.8
          ],
          [
            136.91300006840297,
            36.00614407080187,
            911.3
          ],
          [
            136.9128903061271,
            36.00613121325188,
            908.6
          ],
          [
            136.9127811806641,
            36.006115076913396,
            907.0
          ],
          [
            136.91267205520106,
            36.00609894057492,
            905.3
          ],
          [
            136.91256292973804,
            36.00608280423645,
            904.3
          ],
          [
            136.91245380427503,
            36.00606666789797,
            903.6
          ],
          [
            136.91234467881202,
            36.006050531559495,
            902.8
          ],
          [
            136.912235553349,
            36.00603439522102,
            902.5
          ],
          [
            136.912126427886,
            36.00601825888254,
            902.1
          ],
          [
            136.91201730242295,
            36.00600212254407,
            901.9
          ],
          [
            136.91190817695994,
            36.005985986205594,
            901.6
          ],
          [
            136.91179905149693,
            36.005969849867114,
            901.2
          ],
          [
            136.91168992603392,
            36.00595371352864,
            900.5
          ],
          [
            136.9115808005709,
            36.00593757719017,
            900.0
          ],
          [
            136.9115591299165,
            36.005934372759185,
            899.7
          ]
        ]
      }
    },
    {
      "type": "Feature",
      "properties": {
        "name": "ハートスロープ",
        "slope_deg": [
          3.8616074096751394,
          3.8616074096751394,
          3.8616074096751394,
          5.568737077976604,
          6.418786730238786,
          6.842773412631036,
          7.125016348901798,
          6.983937460085259,
          6.842773412630876,
          7.266008446995867,
          7.829076510059608,
          8.250387228905435,
          8.11004782941916,
          8.670801453590993,
          8.670801453590993,
          8.670801453590993,
          9.22988624372772,
          8.39062701325255,
          8.250387228905435,
          7.68844776990284,
          7.125016348901798,
          6.701525844729548,
          5.568737077976604,
          4.146688825966138,
          3.290883686067228,
          2.004534032105872,
          2.004534032105872,
          2.004534032105872,
          2.004534032105872
        ],
        "horizontal_dist_map": 277,
        "slope_dist_map": 279,
        "elevation_diff_map": 30.5,
        "avg_slope_deg_map": 6.2,
        "max_slope_deg_map": 9.2
      },
      "geometry": {
        "type": "LineString",
        "coordinates": [
          [
            136.91151435379115,
            36.00592012717225,
            899.7
          ],
          [
            136.91140662864325,
            36.00589866077532,
            899.3
          ],
          [
            136.91129890349532,
            36.00587719437839,
            898.8
          ],
          [
            136.91119117834742,
            36.00585572798147,
            897.6
          ],
          [
            136.9110834531995,
            36.00583426158454,
            897.0
          ],
          [
            136.9109757280516,
            36.00581279518761,
            895.4
          ],
          [
            136.9108680029037,
            36.00579132879068,
            894.3
          ],
          [
            136.91076027775577,
            36.00576986239375,
            892.8
          ],
          [
            136.91065255260787,
            36.00574839599682,
            892.0
          ],
          [
            136.91054482745994,
            36.005726929599895,
            890.5
          ],
          [
            136.91043710231204,
            36.005705463202965,
            889.5
          ],
          [
            136.91032937716415,
            36.005683996806034,
            887.7
          ],
          [
            136.91022165201622,
            36.005662530409104,
            886.5
          ],
          [
            136.91011391923666,
            36.00564108977131,
            884.7
          ],
          [
            136.91000598828177,
            36.00562031803521,
            883.8
          ],
          [
            136.9098980573269,
            36.005599546299116,
            881.6
          ],
          [
            136.909790126372,
            36.00557877456302,
            880.4
          ],
          [
            136.90968219541713,
            36.00555800282692,
            878.6
          ],
          [
            136.90957426446224,
            36.00553723109083,
            877.3
          ],
          [
            136.90946633350734,
            36.00551645935473,
            875.7
          ],
          [
            136.90935833729412,
            36.005495913522594,
            874.6
          ],
          [
            136.9092503377503,
            36.005475379219824,
            873.2
          ],
          [
            136.90914233820652,
            36.00545484491706,
            872.3
          ],
          [
            136.9090343386627,
            36.00543431061429,
            871.0
          ],
          [
            136.90892633911892,
            36.00541377631153,
            870.7
          ],
          [
            136.9088183395751,
            36.00539324200876,
            870.3
          ],
          [
            136.90871034003132,
            36.005372707705995,
            870.0
          ],
          [
            136.9086023404875,
            36.005352173403224,
            869.6
          ],
          [
            136.9085258014635,
            36.0053376207909,
            869.2
          ]
        ]
      }
    },
    {
      "type": "Feature",
      "properties": {
        "name": "ダイヤスロープ",
        "slope_deg": [
          8.39062701325255,
          8.39062701325255,
          8.39062701325255,
          7.969610394321392,
          7.829076510059608,
          7.829076510059608,
          7.125016348901798,
          7.406912128495294,
          5.9940929491083725,
          5.994092949108534,
          5.710593137499643,
          5.9940929491083725,
          7.406912128495294,
          7.125016348901798,
          8.810732985984973,
          8.810732985984973,
          9.090276920822289,
          9.787203664656081,
          8.9505586562316,
          8.530765609948133,
          6.701525844729548,
          5.426812498572917,
          4.289153328819018,
          3.576334374997351,
          3.4336303624504896,
          3.4336303624504896,
          3.4336303624504896,
          3.4336303624504896
        ],
        "horizontal_dist_map": 269,
        "slope_dist_map": 271,
        "elevation_diff_map": 31.8,
        "avg_slope_deg_map": 6.7,
        "max_slope_deg_map": 9.8
      },
      "geometry": {
        "type": "LineString",
        "coordinates": [
          [
            136.91166544689787,
            36.00531526266967,
            902.5
          ],
          [
            136.91155709378648,
            36.00529599812874,
            901.2
          ],
          [
            136.9114487406751,
            36.005276733587806,
            899.4
          ],
          [
            136.9113403875637,
            36.005257469046875,
            898.2
          ],
          [
            136.91123203445235,
            36.00523820450594,
            896.6
          ],
          [
            136.91112368134097,
            36.00521893996501,
            895.6
          ],
          [
            136.91101657475448,
            36.005196288369454,
            893.9
          ],
          [
            136.9109129927268,
            36.00516405985083,
            892.7
          ],
          [
            136.91080941069907,
            36.0051318313322,
            891.6
          ],
          [
            136.91070582867138,
            36.00509960281357,
            890.4
          ],
          [
            136.91059695359593,
            36.00508429969428,
            889.7
          ],
          [
            136.9104870016465,
            36.00507244005856,
            888.5
          ],
          [
            136.9103770361533,
            36.00506130191044,
            887.6
          ],
          [
            136.91026669019809,
            36.005070431387196,
            886.2
          ],
          [
            136.9101563442429,
            36.005079560863955,
            884.5
          ],
          [
            136.91004599828767,
            36.00508869034071,
            883.5
          ],
          [
            136.90993565233245,
            36.00509781981747,
            881.4
          ],
          [
            136.90982530637723,
            36.00510694929423,
            880.0
          ],
          [
            136.90971489077913,
            36.00510598463741,
            878.1
          ],
          [
            136.9096044257873,
            36.00509786079427,
            876.6
          ],
          [
            136.90949396079552,
            36.00508973695114,
            875.1
          ],
          [
            136.90938485151338,
            36.00507383867653,
            874.0
          ],
          [
            136.90927595684641,
            36.00505670967333,
            873.4
          ],
          [
            136.90916706217942,
            36.005039580670136,
            872.8
          ],
          [
            136.90905816751243,
            36.00502245166694,
            872.1
          ],
          [
            136.90894927284543,
            36.00500532266374,
            871.5
          ],
          [
            136.90884037817847,
            36.004988193660544,
            871.0
          ],
          [
            136.90874089177362,
            36.00497254456593,
            870.7
          ]
        ]
      }
    },
    {
      "type": "Feature",
      "properties": {
        "name": "バンク・ウェーブ",
        "slope_deg": [
          11.58512622485511,
          11.58512622485511,
          11.58512622485511,
          11.58512622485511,
          11.034209003250188,
          10.203973721731748,
          9.090276920822289,
          9.22988624372772,
          9.50877195829791,
          10.757967088389877,
          10.481218144130889,
          11.034209003250188,
          10.342657140474548,
          9.926245506651705,
          9.22988624372772,
          7.547725773843206,
          7.969610394321392,
          7.266008446996026,
          7.68844776990284,
          7.547725773843047,
          7.406912128495133,
          6.418786730238786,
          5.426812498572917,
          5.568737077976604,
          5.000644597558433,
          5.568737077976604,
          5.568737077976604,
          5.852378988915653,
          5.710593137499643,
          6.418786730238786,
          6.560196400571341,
          6.842773412631036,
          6.98393746008542,
          6.98393746008542,
          7.266008446995867,
          6.701525844729388,
          6.842773412630876,
          5.568737077976604,
          5.426812498572917,
          4.858462919034255,
          4.573921259900927,
          4.7162212343382155,
          4.7162212343382155,
          4.573921259900927,
          4.858462919034255,
          4.858462919034255,
          5.568737077976604,
          6.418786730238786,
          8.110047829419,
          8.810732985984973,
          9.50877195829791,
          10.203973721731748,
          10.619655276155134,
          10.896152141141194,
          10.342657140474548,
          9.090276920822289,
          5.994092949108534,
          4.573921259900764,
          2.862405226111748,
          2.147585428298503,
          2.5765718302687652,
          4.858462919034255,
          6.560196400571341,
          9.369385096487514,
          6.418786730238786,
          4.146688825966138,
          2.862405226111748,
          2.719505461272472,
          2.719505461272472,
          2.719505461272472,
          2.719505461272472
        ],
        "horizontal_dist_map": 695,
        "slope_dist_map": 702,
        "elevation_diff_map": 87.1,
        "avg_slope_deg_map": 7.1,
        "max_slope_deg_map": 11.6
      },
      "geometry": {
        "type": "LineString",
        "coordinates": [
          [
            136.91525822590484,
            36.00443760628427,
            957.0
          ],
          [
            136.91516178571226,
            36.004393090393215,
            955.2
          ],
          [
            136.91506534551968,
            36.00434857450216,
            953.3
          ],
          [
            136.9149689053271,
            36.004304058611105,
            951.5
          ],
          [
            136.91487246513452,
            36.00425954272004,
            948.8
          ],
          [
            136.91477602494194,
            36.00421502682899,
            947.0
          ],
          [
            136.91467958474936,
            36.00417051093793,
            945.5
          ],
          [
            136.9145831445568,
            36.00412599504688,
            944.3
          ],
          [
            136.91448670436424,
            36.00408147915582,
            942.4
          ],
          [
            136.91438890382284,
            36.00403897061145,
            940.5
          ],
          [
            136.91429105632346,
            36.00399653135885,
            938.8
          ],
          [
            136.9141932088241,
            36.003954092106255,
            936.7
          ],
          [
            136.9140953613247,
            36.00391165285366,
            935.0
          ],
          [
            136.91399751382534,
            36.003869213601064,
            932.7
          ],
          [
            136.91389966632596,
            36.00382677434846,
            931.5
          ],
          [
            136.91380181882658,
            36.003784335095865,
            929.7
          ],
          [
            136.9137039825386,
            36.00374187892617,
            928.5
          ],
          [
            136.91360618272535,
            36.0036993677191,
            927.4
          ],
          [
            136.9135083829121,
            36.00365685651202,
            925.9
          ],
          [
            136.91341058309885,
            36.00361434530495,
            924.6
          ],
          [
            136.91331278328562,
            36.003571834097876,
            923.1
          ],
          [
            136.91321498347236,
            36.003529322890806,
            922.1
          ],
          [
            136.9131171836591,
            36.003486811683736,
            920.7
          ],
          [
            136.9130160403221,
            36.003449829882285,
            920.1
          ],
          [
            136.91291486646782,
            36.003412898549236,
            919.3
          ],
          [
            136.91281369261355,
            36.00337596721618,
            918.2
          ],
          [
            136.9127109583808,
            36.00334246773764,
            917.2
          ],
          [
            136.91260453663378,
            36.00331707847896,
            916.2
          ],
          [
            136.91249811488674,
            36.003291689220276,
            915.4
          ],
          [
            136.91239023208217,
            36.003275545319916,
            914.1
          ],
          [
            136.91227936853858,
            36.00327826310048,
            913.2
          ],
          [
            136.91216850499498,
            36.003280980881044,
            911.7
          ],
          [
            136.91205764145138,
            36.00328369866161,
            910.8
          ],
          [
            136.91194745257033,
            36.0032907919295,
            909.3
          ],
          [
            136.91183919068703,
            36.00331038263659,
            908.3
          ],
          [
            136.9117309288037,
            36.003329973343675,
            906.8
          ],
          [
            136.9116226669204,
            36.003349564050765,
            905.7
          ],
          [
            136.9115144050371,
            36.003369154757856,
            904.6
          ],
          [
            136.91140614315378,
            36.00338874546494,
            903.5
          ],
          [
            136.91129788127049,
            36.00340833617203,
            902.9
          ],
          [
            136.91118934650248,
            36.00342689916091,
            901.9
          ],
          [
            136.91108076763203,
            36.00344529605452,
            901.2
          ],
          [
            136.9109721887616,
            36.00346369294813,
            900.3
          ],
          [
            136.91086360989115,
            36.00348208984175,
            899.6
          ],
          [
            136.91075503102073,
            36.00350048673536,
            898.6
          ],
          [
            136.91064645215027,
            36.00351888362898,
            898.0
          ],
          [
            136.91053787327985,
            36.00353728052259,
            896.9
          ],
          [
            136.9104292944094,
            36.00355567741621,
            896.2
          ],
          [
            136.91032071553897,
            36.003574074309824,
            894.7
          ],
          [
            136.91021213666852,
            36.00359247120343,
            893.5
          ],
          [
            136.91010365308406,
            36.00361115568634,
            891.2
          ],
          [
            136.90999838413117,
            36.00363954247504,
            890.0
          ],
          [
            136.9098931151783,
            36.00366792926374,
            888.0
          ],
          [
            136.9097878462254,
            36.003696316052434,
            886.3
          ],
          [
            136.90968257727255,
            36.00372470284113,
            883.7
          ],
          [
            136.90957730831968,
            36.00375308962983,
            882.3
          ],
          [
            136.9094720393668,
            36.00378147641853,
            880.7
          ],
          [
            136.90936751547696,
            36.003811048588126,
            879.9
          ],
          [
            136.90927749998264,
            36.00386370333448,
            879.5
          ],
          [
            136.90918748448829,
            36.00391635808083,
            879.1
          ],
          [
            136.90909746899396,
            36.00396901282718,
            878.7
          ],
          [
            136.90900745349964,
            36.004021667573525,
            878.4
          ],
          [
            136.9089174380053,
            36.00407432231988,
            877.7
          ],
          [
            136.90882742251097,
            36.00412697706623,
            875.7
          ],
          [
            136.90874204809472,
            36.00418439226051,
            874.1
          ],
          [
            136.9086583689296,
            36.004243546308224,
            871.8
          ],
          [
            136.90857468976446,
            36.00430270035593,
            873.2
          ],
          [
            136.9084910105993,
            36.00436185440364,
            872.8
          ],
          [
            136.90840733143418,
            36.00442100845135,
            872.1
          ],
          [
            136.90832365226905,
            36.004480162499064,
            869.9
          ],
          [
            136.9082766407107,
            36.00451339566959,
            869.9
          ]
        ]
      }
    },
    {
      "type": "Feature",
      "properties": {
        "name": "クローバースロープ",
        "slope_deg": [
          5.9940929491083725,
          5.9940929491083725,
          5.9940929491083725,
          6.842773412630876,
          7.68844776990284,
          7.547725773843047,
          8.39062701325255,
          7.969610394321392,
          7.969610394321392,
          8.250387228905435,
          7.266008446996026,
          6.983937460085259,
          7.125016348901798,
          7.125016348901798,
          6.842773412631036,
          5.852378988915653,
          5.852378988915653,
          5.852378988915653,
          5.852378988915653
        ],
        "horizontal_dist_map": 179,
        "slope_dist_map": 181,
        "elevation_diff_map": 20.5,
        "avg_slope_deg_map": 6.5,
        "max_slope_deg_map": 8.4
      },
      "geometry": {
        "type": "LineString",
        "coordinates": [
          [
            136.9117865224094,
            36.00337673509179,
            907.3
          ],
          [
            136.9116838972376,
            36.003410920567646,
            906.4
          ],
          [
            136.91158127206577,
            36.00344510604349,
            905.5
          ],
          [
            136.91147864689398,
            36.00347929151935,
            904.3
          ],
          [
            136.91137602172216,
            36.0035134769952,
            903.1
          ],
          [
            136.9112771113405,
            36.003553400091945,
            901.6
          ],
          [
            136.91118430794717,
            36.003602755641886,
            900.1
          ],
          [
            136.91109150455384,
            36.00365211119183,
            899.0
          ],
          [
            136.91099870116054,
            36.00370146674178,
            897.2
          ],
          [
            136.9109058977672,
            36.00375082229173,
            896.0
          ],
          [
            136.9108282958476,
            36.003814248793454,
            894.5
          ],
          [
            136.91075604234717,
            36.003882625956514,
            893.2
          ],
          [
            136.91068378884677,
            36.003951003119575,
            892.1
          ],
          [
            136.91065374547406,
            36.00403585535643,
            891.1
          ],
          [
            136.91063409003038,
            36.00412451314081,
            889.5
          ],
          [
            136.9106262915194,
            36.004214413414395,
            888.2
          ],
          [
            136.91061839489305,
            36.004304306591045,
            887.3
          ],
          [
            136.91060652719227,
            36.00439391253015,
            887.0
          ],
          [
            136.9105947662029,
            36.004482712754935,
            886.8
          ]
        ]
      }
    },
    {
      "type": "Feature",
      "properties": {
        "name": "林間",
        "slope_deg": [
          8.250387228905435,
          8.250387228905435,
          8.250387228905435,
          7.406912128495133,
          5.710593137499643,
          6.277298489597523,
          5.568737077976604,
          6.418786730238786,
          7.125016348901798,
          6.418786730238786,
          6.98393746008542,
          5.994092949108534,
          5.9940929491083725,
          6.135733340186889,
          5.568737077976604,
          6.277298489597523,
          5.710593137499643,
          6.135733340186728,
          6.418786730238786,
          6.418786730238786,
          8.670801453590993,
          9.648045316098093,
          10.896152141141036,
          13.088732789694154,
          12.270720357815385,
          12.95276451337558,
          11.859779120948104,
          10.20397372173159,
          9.787203664656081,
          7.829076510059608,
          8.39062701325255,
          7.125016348901798,
          6.418786730238786,
          6.560196400571341,
          6.701525844729388,
          7.266008446996026,
          6.701525844729548,
          6.135733340186728,
          4.858462919034416,
          4.573921259900927,
          4.7162212343382155,
          5.710593137499643,
          5.852378988915493,
          6.701525844729388,
          6.701525844729388,
          6.701525844729388,
          6.701525844729388
        ],
        "horizontal_dist_map": 459,
        "slope_dist_map": 464,
        "elevation_diff_map": 59.8,
        "avg_slope_deg_map": 7.3,
        "max_slope_deg_map": 13.1
      },
      "geometry": {
        "type": "LineString",
        "coordinates": [
          [
            136.918594,
            36.006088,
            1020.4
          ],
          [
            136.9186089612289,
            36.0059987003353,
            1018.9
          ],
          [
            136.9186239224578,
            36.005909400670596,
            1016.9
          ],
          [
            136.9186388836867,
            36.00582010100589,
            1016.0
          ],
          [
            136.9186538449156,
            36.00573080134119,
            1014.6
          ],
          [
            136.9186688061445,
            36.005641501676486,
            1013.7
          ],
          [
            136.9186788996772,
            36.00555188016789,
            1012.9
          ],
          [
            136.91868190411012,
            36.00546178993993,
            1011.6
          ],
          [
            136.918684908543,
            36.005371699711965,
            1010.7
          ],
          [
            136.9186879129759,
            36.005281609484,
            1009.2
          ],
          [
            136.9186846737825,
            36.00519152888425,
            1007.9
          ],
          [
            136.91868124834645,
            36.00510144857169,
            1007.1
          ],
          [
            136.91867358094586,
            36.00501181091456,
            1005.8
          ],
          [
            136.91864888147487,
            36.004923950579744,
            1005.0
          ],
          [
            136.91862335496052,
            36.00483633133198,
            1003.7
          ],
          [
            136.91857368283485,
            36.00475575064391,
            1002.8
          ],
          [
            136.91852401070918,
            36.00467516995583,
            1001.9
          ],
          [
            136.9184723047224,
            36.00459558967678,
            1000.6
          ],
          [
            136.91840746672267,
            36.00452246872987,
            999.7
          ],
          [
            136.91834262872294,
            36.00444934778296,
            998.5
          ],
          [
            136.9182477861586,
            36.004404032910394,
            997.4
          ],
          [
            136.91815009121387,
            36.00436136141901,
            996.1
          ],
          [
            136.91805239626913,
            36.00431868992762,
            993.6
          ],
          [
            136.9179535516959,
            36.00427826586365,
            991.7
          ],
          [
            136.91784741509582,
            36.00425209710116,
            989.7
          ],
          [
            136.91774127849575,
            36.00422592833866,
            986.8
          ],
          [
            136.9176351418957,
            36.004199759576174,
            984.9
          ],
          [
            136.91752788557432,
            36.00417865273312,
            982.5
          ],
          [
            136.91741717714265,
            36.004173151830926,
            981.3
          ],
          [
            136.91730646871096,
            36.00416765092874,
            979.6
          ],
          [
            136.9171958026095,
            36.00416497800462,
            978.0
          ],
          [
            136.91708529158166,
            36.00417266516895,
            977.0
          ],
          [
            136.9169747805538,
            36.004180352333286,
            975.4
          ],
          [
            136.91686426952595,
            36.00418803949762,
            974.6
          ],
          [
            136.91675445671444,
            36.004200694125714,
            973.5
          ],
          [
            136.91664465858167,
            36.00421345318568,
            972.4
          ],
          [
            136.9165348604489,
            36.00422621224565,
            970.7
          ],
          [
            136.9164250623161,
            36.00423897130562,
            969.5
          ],
          [
            136.91631598431135,
            36.004255154274176,
            968.8
          ],
          [
            136.91620720340262,
            36.00427274981063,
            968.1
          ],
          [
            136.91609842249392,
            36.00429034534709,
            967.3
          ],
          [
            136.91598964158518,
            36.00430794088354,
            966.3
          ],
          [
            136.91588297737096,
            36.00433203314298,
            965.5
          ],
          [
            136.91577773128483,
            36.004360478031124,
            964.1
          ],
          [
            136.91567248519868,
            36.00438892291927,
            963.2
          ],
          [
            136.91556723911256,
            36.00441736780741,
            961.6
          ],
          [
            136.915465,
            36.004445,
            960.6
          ]
        ]
      }
    }
  ]
}