{
  "type": "FeatureCollection",
  "features": [
    {
      "type": "Feature",
      "properties": {
        "name": "第2リフト沿い",
        "slope_deg": [
          15.242997742901547,
          15.242997742901547,
          15.242997742901547,
          15.37625124882619,
          14.036243467926479,
          14.439965121002807,
          15.642246457208639,
          14.708303899682749,
          15.242997742901547,
          15.774985955414008,
          14.842227057911131,
          16.69924423399362,
          19.162339354971866,
          19.798876354524904,
          21.305783617828798,
          21.305783617828798,
          20.806791012711287,
          20.806791012711287,
          22.293629159694053,
          23.749494492866788,
          23.14670784188283,
          22.416147479343643,
          20.304473709960526,
          18.64953875405141,
          18.64953875405141,
          19.290046219188735,
          20.30447370996038,
          21.305783617828798,
          20.17838007450879,
          20.556045219583467,
          19.417554141579483,
          17.61464330000695,
          18.26288994219419,
          18.00416160591338,
          16.96170588653282,
          16.830565983210626,
          16.304198003832227,
          18.00416160591338,
          18.52084947747122,
          18.39196625070548,
          19.925580658184323,
          17.874511367250282,
          17.484427323220586,
          18.00416160591338,
          18.00416160591338,
          17.484427323220732,
          16.567741642975037,
          16.43605922463559,
          15.907551930525813,
          16.567741642974887,
          19.544862326628685,
          19.925580658184323,
          20.304473709960526,
          20.68152167820093,
          18.520849477471074,
          17.744671625056874,
          15.774985955414008,
          15.642246457208788,
          15.774985955414158,
          13.360218444764483,
          12.270720357815385,
          10.757967088389877,
          10.342657140474548,
          10.896152141141194,
          11.172136252167116,
          10.619655276155134,
          9.50877195829791,
          9.787203664656081,
          9.648045316098093,
          9.78720366465624,
          10.342657140474548,
          9.648045316098251,
          9.648045316098251,
          9.648045316098251,
          9.648045316098251
        ],
        "horizontal_dist_map": 730,
        "slope_dist_map": 765,
        "elevation_diff_map": 220.0,
        "avg_slope_deg_map": 16.0,
        "max_slope_deg_map": 23.7
      },
      "geometry": {
        "type": "LineString",
        "coordinates": [
          [
            140.32022528033875,
            40.64170468874468,
            748.8
          ],
          [
            140.3203071874066,
            40.64163975374804,
            745.7
          ],
          [
            140.32038909447448,
            40.64157481875139,
            742.3
          ],
          [
            140.32047100154233,
            40.64150988375474,
            740.2
          ],
          [
            140.32055290861018,
            40.64144494875809,
            737.9
          ],
          [
            140.32063481567806,
            40.64138001376145,
            734.7
          ],
          [
            140.3207167227459,
            40.6413150787648,
            732.3
          ],
          [
            140.3207986298138,
            40.641250143768154,
            729.9
          ],
          [
            140.32088053688165,
            40.6411852087715,
            726.7
          ],
          [
            140.3209624439495,
            40.64112027377486,
            724.2
          ],
          [
            140.32104328858975,
            40.64105459643001,
            721.4
          ],
          [
            140.32112117380026,
            40.640986851248016,
            718.6
          ],
          [
            140.32119905901078,
            40.640919106066015,
            716.1
          ],
          [
            140.3212769442213,
            40.64085136088402,
            712.2
          ],
          [
            140.3213548294318,
            40.64078361570202,
            707.5
          ],
          [
            140.32143271464233,
            40.640715870520026,
            704.2
          ],
          [
            140.32151297296338,
            40.640649783758704,
            700.5
          ],
          [
            140.32159486676517,
            40.64058483993408,
            696.6
          ],
          [
            140.321676760567,
            40.64051989610946,
            692.3
          ],
          [
            140.32175865436878,
            40.640454952284834,
            689.0
          ],
          [
            140.3218405481706,
            40.640390008460216,
            684.1
          ],
          [
            140.3219224419724,
            40.64032506463559,
            679.0
          ],
          [
            140.3220043357742,
            40.64026012081097,
            675.2
          ],
          [
            140.322086229576,
            40.640195176986346,
            672.5
          ],
          [
            140.32216812337782,
            40.64013023316173,
            669.3
          ],
          [
            140.32224724880706,
            40.640063398052405,
            665.5
          ],
          [
            140.3223231317524,
            40.639994347757046,
            661.7
          ],
          [
            140.32239901469777,
            40.63992529746169,
            658.5
          ],
          [
            140.3224748976431,
            40.63985624716633,
            654.5
          ],
          [
            140.32255078058844,
            40.63978719687097,
            649.9
          ],
          [
            140.32262666353378,
            40.63971814657561,
            647.0
          ],
          [
            140.32270254647912,
            40.63964909628025,
            643.5
          ],
          [
            140.3227784294245,
            40.63958004598489,
            640.4
          ],
          [
            140.32285431236983,
            40.639510995689534,
            637.2
          ],
          [
            140.32293019531517,
            40.639441945394175,
            633.8
          ],
          [
            140.3230060782605,
            40.639372895098816,
            630.5
          ],
          [
            140.32308196120584,
            40.63930384480346,
            628.2
          ],
          [
            140.32315784415118,
            40.639234794508106,
            625.1
          ],
          [
            140.32322990541326,
            40.639163530576035,
            622.1
          ],
          [
            140.32329697876136,
            40.639089377490514,
            617.5
          ],
          [
            140.3233640521095,
            40.63901522440499,
            614.8
          ],
          [
            140.3234311254576,
            40.63894107131948,
            611.8
          ],
          [
            140.3234981988057,
            40.63886691823396,
            607.6
          ],
          [
            140.32356527215381,
            40.63879276514844,
            604.6
          ],
          [
            140.32363234550195,
            40.638718612062924,
            602.2
          ],
          [
            140.32369941885005,
            40.6386444589774,
            598.8
          ],
          [
            140.32376649219816,
            40.63857030589189,
            594.6
          ],
          [
            140.3238335655463,
            40.63849615280637,
            592.0
          ],
          [
            140.3239006388944,
            40.63842199972085,
            590.3
          ],
          [
            140.3239677122425,
            40.638347846635334,
            587.0
          ],
          [
            140.32403557858942,
            40.638274163494565,
            583.2
          ],
          [
            140.32411342542352,
            40.63820639496254,
            580.1
          ],
          [
            140.32419127225762,
            40.63813862643051,
            576.1
          ],
          [
            140.32426911909172,
            40.638070857898484,
            572.5
          ],
          [
            140.32434696592583,
            40.63800308936646,
            568.4
          ],
          [
            140.32442481275993,
            40.63793532083444,
            565.0
          ],
          [
            140.32450265959403,
            40.63786755230241,
            562.7
          ],
          [
            140.32458050642813,
            40.63779978377038,
            559.7
          ],
          [
            140.32465835326224,
            40.637732015238356,
            557.1
          ],
          [
            140.32473620009637,
            40.637664246706336,
            553.8
          ],
          [
            140.32481530765205,
            40.637597419981965,
            551.4
          ],
          [
            140.3249027216411,
            40.637536798483744,
            550.2
          ],
          [
            140.32499013563015,
            40.63747617698553,
            548.4
          ],
          [
            140.3250775496192,
            40.637415555487316,
            546.2
          ],
          [
            140.32516496360827,
            40.637354933989094,
            544.1
          ],
          [
            140.32525237759734,
            40.63729431249088,
            542.5
          ],
          [
            140.32533979158637,
            40.63723369099266,
            540.5
          ],
          [
            140.32542720557544,
            40.637173069494445,
            538.7
          ],
          [
            140.3255146195645,
            40.63711244799623,
            537.4
          ],
          [
            140.32560203355357,
            40.63705182649801,
            535.6
          ],
          [
            140.325687613448,
            40.636989788120516,
            533.7
          ],
          [
            140.3257684115401,
            40.636924055693335,
            531.8
          ],
          [
            140.3258492096322,
            40.63685832326616,
            530.1
          ],
          [
            140.3259300077243,
            40.63679259083898,
            528.8
          ],
          [
            140.32593561024518,
            40.6367880329678,
            528.8
          ]
        ]
      }
    },
    {
      "type": "Feature",
      "properties": {
        "name": "第1リフト沿い",
        "slope_deg": [
          20.556045219583467,
          20.556045219583467,
          20.556045219583467,
          20.931852540892464,
          18.52084947747115,
          19.41755414157941,
          18.39196625070533,
          17.092662950267496,
          16.961705886532894,
          18.39196625070541,
          17.874511367250353,
          17.48442732322066,
          17.6146433000071,
          13.90135076950909,
          12.270720357815309,
          11.996899307923577,
          10.481218144130889,
          10.896152141141116,
          11.034209003250266,
          10.342657140474627,
          11.996899307923577,
          11.034209003250266,
          12.270720357815309,
          11.72252097010228,
          10.619655276155134,
          10.896152141141116,
          10.896152141141116,
          11.447596263685636,
          10.896152141141116,
          12.543973346572155,
          12.270720357815309,
          13.495733280795767,
          13.901350769509168,
          13.766300685466197,
          13.495733280795843,
          12.68038349181982,
          12.81664764899739,
          11.996899307923577,
          11.996899307923577,
          11.172136252167194,
          11.172136252167194,
          10.481218144130967,
          10.757967088390036,
          10.342657140474548,
          9.090276920822289,
          8.95055865623168,
          6.701525844729468,
          5.710593137499643,
          5.284821092509,
          5.710593137499643,
          5.852378988915572,
          6.701525844729548,
          7.406912128495215,
          5.994092949108454,
          6.1357333401868095,
          7.406912128495215,
          7.688447769902922,
          8.670801453590913,
          11.034209003250266,
          10.481218144130889,
          11.996899307923577,
          12.816647648997467,
          14.842227057911131,
          16.039943306049665,
          17.74467162505695,
          18.520849477471074,
          18.520849477471074,
          18.64953875405141,
          19.290046219188735,
          18.77803322244557,
          17.614643300007028,
          16.304198003832298,
          13.088732789694,
          11.72252097010228,
          8.810732985984894,
          7.266008446996026,
          6.560196400571341,
          6.701525844729468,
          6.701525844729548,
          8.11004782941908,
          7.68844776990284,
          6.983937460085259,
          6.701525844729468,
          6.418786730238786,
          5.994092949108534,
          7.969610394321392,
          8.95055865623168,
          6.560196400571341,
          5.4268124985727555,
          3.576334374997351,
          2.5765718302687652,
          4.858462919034255,
          5.852378988915653,
          5.568737077976604,
          5.142764557884274,
          4.431564716435877,
          5.284821092509,
          5.2848210925090795,
          6.701525844729468,
          8.11004782941908,
          7.547725773843127,
          7.969610394321312,
          6.701525844729468,
          5.426812498572835,
          6.418786730238786,
          6.418786730238786,
          6.418786730238786,
          6.418786730238786
        ],
        "horizontal_dist_map": 1062,
        "slope_dist_map": 1086,
        "elevation_diff_map": 205.8,
        "avg_slope_deg_map": 10.7,
        "max_slope_deg_map": 20.9
      },
      "geometry": {
        "type": "LineString",
        "coordinates": [
          [
            140.32587882815437,
            40.636552135916375,
            524.4
          ],
          [
            140.3259329245295,
            40.636472066982414,
            520.8
          ],
          [
            140.32598702090462,
            40.63639199804845,
            516.2
          ],
          [
            140.32604111727974,
            40.63631192911449,
            513.3
          ],
          [
            140.32609521365487,
            40.63623186018053,
            509.4
          ],
          [
            140.32614931003,
            40.63615179124657,
            505.5
          ],
          [
            140.3262034064051,
            40.63607172231261,
            502.8
          ],
          [
            140.32625750278024,
            40.63599165337865,
            499.2
          ],
          [
            140.32631159915536,
            40.63591158444469,
            496.1
          ],
          [
            140.32636602071793,
            40.63583165239781,
            493.2
          ],
          [
            140.32642620516987,
            40.63575414622914,
            490.6
          ],
          [
            140.3264863896218,
            40.63567664006047,
            485.9
          ],
          [
            140.32654657407377,
            40.635599133891795,
            483.2
          ],
          [
            140.3266067585257,
            40.63552162772312,
            480.6
          ],
          [
            140.32666694297765,
            40.63544412155446,
            477.9
          ],
          [
            140.3267271274296,
            40.635366615385784,
            476.0
          ],
          [
            140.32678731188156,
            40.63528910921711,
            474.5
          ],
          [
            140.3268474963335,
            40.63521160304844,
            472.1
          ],
          [
            140.32690768078544,
            40.63513409687977,
            470.5
          ],
          [
            140.32696786523738,
            40.635056590711095,
            468.3
          ],
          [
            140.32702804968935,
            40.63497908454242,
            466.7
          ],
          [
            140.32708823414129,
            40.63490157837375,
            464.8
          ],
          [
            140.32714521416776,
            40.63482272332751,
            462.0
          ],
          [
            140.32719933449064,
            40.63474266451163,
            460.5
          ],
          [
            140.32725345481353,
            40.634662605695745,
            458.0
          ],
          [
            140.3273075751364,
            40.63458254687986,
            456.5
          ],
          [
            140.32736169545927,
            40.63450248806398,
            454.5
          ],
          [
            140.32741581578216,
            40.6344224292481,
            452.8
          ],
          [
            140.32746993610502,
            40.634342370432215,
            450.3
          ],
          [
            140.3275240564279,
            40.63426231161633,
            448.4
          ],
          [
            140.3275781767508,
            40.63418225280045,
            446.8
          ],
          [
            140.32763229707365,
            40.63410219398457,
            443.9
          ],
          [
            140.32768641739654,
            40.634022135168685,
            441.6
          ],
          [
            140.32774053771942,
            40.6339420763528,
            438.8
          ],
          [
            140.32779465804228,
            40.63386201753692,
            436.9
          ],
          [
            140.32784877836517,
            40.63378195872104,
            434.1
          ],
          [
            140.32790289868805,
            40.633701899905155,
            432.0
          ],
          [
            140.3279570190109,
            40.63362184108927,
            429.8
          ],
          [
            140.3280111393338,
            40.63354178227339,
            427.8
          ],
          [
            140.32806525965668,
            40.63346172345751,
            425.6
          ],
          [
            140.32811937997954,
            40.633381664641625,
            423.5
          ],
          [
            140.32817350030243,
            40.63330160582574,
            421.9
          ],
          [
            140.3282276206253,
            40.63322154700986,
            419.9
          ],
          [
            140.32828174094817,
            40.63314148819398,
            418.2
          ],
          [
            140.32833586127106,
            40.633061429378095,
            415.9
          ],
          [
            140.32838998159394,
            40.63298137056221,
            414.6
          ],
          [
            140.3284441019168,
            40.63290131174633,
            413.5
          ],
          [
            140.3284982222397,
            40.63282125293045,
            411.9
          ],
          [
            140.32855234256257,
            40.632741194114566,
            411.2
          ],
          [
            140.32860845763506,
            40.63266193947059,
            410.6
          ],
          [
            140.32866485125737,
            40.63258279712235,
            409.8
          ],
          [
            140.32872124487966,
            40.632503654774126,
            407.9
          ],
          [
            140.32877763850195,
            40.63242451242589,
            407.1
          ],
          [
            140.32883403212423,
            40.632345370077665,
            405.9
          ],
          [
            140.32889042574652,
            40.63226622772943,
            404.6
          ],
          [
            140.3289468193688,
            40.632187085381204,
            403.7
          ],
          [
            140.32900321299113,
            40.63210794303297,
            402.8
          ],
          [
            140.3290596066134,
            40.63202880068474,
            400.7
          ],
          [
            140.3291160002357,
            40.63194965833651,
            399.2
          ],
          [
            140.329172393858,
            40.63187051598828,
            397.6
          ],
          [
            140.32922878748028,
            40.63179137364005,
            395.0
          ],
          [
            140.32928518110256,
            40.63171223129182,
            393.3
          ],
          [
            140.32934157472488,
            40.63163308894359,
            390.7
          ],
          [
            140.32939796834717,
            40.63155394659536,
            388.5
          ],
          [
            140.32945436196945,
            40.63147480424713,
            384.4
          ],
          [
            140.3295065001664,
            40.631394079074575,
            381.8
          ],
          [
            140.32955373351004,
            40.63131152952012,
            377.9
          ],
          [
            140.32960096685372,
            40.63122897996566,
            375.1
          ],
          [
            140.3296482001974,
            40.631146430411206,
            371.0
          ],
          [
            140.32969543354108,
            40.63106388085676,
            368.3
          ],
          [
            140.32974266688475,
            40.6309813313023,
            363.9
          ],
          [
            140.32978990022843,
            40.630898781747845,
            361.5
          ],
          [
            140.3298371335721,
            40.63081623219339,
            358.3
          ],
          [
            140.3298843669158,
            40.63073368263893,
            356.6
          ],
          [
            140.32993160025947,
            40.63065113308448,
            354.6
          ],
          [
            140.32997883360312,
            40.63056858353003,
            353.2
          ],
          [
            140.3300260669468,
            40.63048603397557,
            352.1
          ],
          [
            140.33007330029048,
            40.630403484421116,
            351.5
          ],
          [
            140.33012053363416,
            40.63032093486666,
            350.0
          ],
          [
            140.33016776697784,
            40.630238385312204,
            348.5
          ],
          [
            140.33021037183772,
            40.63015474412195,
            347.4
          ],
          [
            140.3302326183999,
            40.63006630139246,
            345.8
          ],
          [
            140.33025486496203,
            40.62997785866297,
            344.6
          ],
          [
            140.3302771115242,
            40.62988941593348,
            343.6
          ],
          [
            140.33029935808636,
            40.629800973203984,
            342.7
          ],
          [
            140.33032160464853,
            40.6297125304745,
            341.3
          ],
          [
            140.33034385121067,
            40.62962408774501,
            340.4
          ],
          [
            140.3303713688072,
            40.629536519877504,
            338.0
          ],
          [
            140.33039942346042,
            40.629449041148206,
            336.4
          ],
          [
            140.33042747811365,
            40.6293615624189,
            336.7
          ],
          [
            140.33045553276688,
            40.6292740836896,
            336.6
          ],
          [
            140.33049036822587,
            40.629188584815324,
            335.5
          ],
          [
            140.33054623262132,
            40.629109225955496,
            334.6
          ],
          [
            140.3306020970168,
            40.629029867095674,
            333.3
          ],
          [
            140.33065796141227,
            40.62895050823585,
            332.5
          ],
          [
            140.33071382580772,
            40.628871149376025,
            331.6
          ],
          [
            140.3307696902032,
            40.6287917905162,
            331.0
          ],
          [
            140.33082555459868,
            40.62871243165638,
            330.2
          ],
          [
            140.33088141899412,
            40.62863307279656,
            328.8
          ],
          [
            140.3309412301515,
            40.62855556991745,
            327.9
          ],
          [
            140.3310092925179,
            40.62848194720273,
            326.3
          ],
          [
            140.33107735488431,
            40.62840832448801,
            324.5
          ],
          [
            140.33114541725072,
            40.628334701773284,
            323.5
          ],
          [
            140.33121347961713,
            40.628261079058554,
            322.3
          ],
          [
            140.33128154198357,
            40.62818745634383,
            321.6
          ],
          [
            140.33134960434998,
            40.62811383362911,
            320.7
          ],
          [
            140.3314176667164,
            40.628040210914385,
            319.0
          ],
          [
            140.33143221883236,
            40.628024469964735,
            318.6
          ]
        ]
      }
    },
    {
      "type": "Feature",
      "properties": {
        "name": "第3リフト沿い",
        "slope_deg": [
          13.90135076950909,
          13.90135076950909,
          13.90135076950909,
          16.304198003832227,
          17.092662950267496,
          17.354024636261396,
          17.744671625056874,
          17.484427323220732,
          17.874511367250353,
          16.961705886532894,
          16.436059224635663,
          16.304198003832298,
          13.360218444764483,
          12.68038349181982,
          11.996899307923577,
          11.447596263685636,
          11.309932474020215,
          11.585126224855031,
          13.088732789694076,
          13.088732789694076,
          13.495733280795767,
          14.30555184662194,
          14.43996512100273,
          13.495733280795767,
          14.842227057911131,
          13.631094443421603,
          12.68038349181982,
          13.360218444764483,
          12.543973346572077,
          12.68038349181982,
          13.224551192213497,
          14.43996512100273,
          13.901350769509168,
          15.50933452267483,
          15.907551930525889,
          15.774985955414085,
          15.907551930525813,
          15.642246457208712,
          16.43605922463559,
          15.242997742901547,
          15.774985955414085,
          14.708303899682749,
          13.088732789694076,
          13.088732789694076,
          12.68038349181982,
          12.95276451337558,
          12.270720357815309,
          11.72252097010228,
          11.996899307923577,
          10.757967088389957,
          11.309932474020215,
          10.342657140474627,
          10.342657140474627,
          10.619655276155134,
          10.757967088390036,
          12.270720357815309,
          12.543973346572077,
          13.088732789694076,
          13.766300685466273,
          12.68038349181982,
          11.309932474020215,
          10.619655276155134,
          8.670801453590913,
          8.530765609948133,
          7.829076510059608,
          7.406912128495215,
          7.125016348901798,
          5.568737077976604,
          5.426812498572835,
          5.142764557884274,
          5.2848210925090795,
          6.2772984895976025,
          6.701525844729468,
          7.829076510059608,
          7.68844776990284,
          8.9505586562316,
          10.065169352759877,
          10.619655276155134,
          12.270720357815309,
          11.72252097010228,
          11.034209003250188,
          11.585126224855031,
          11.447596263685636,
          11.585126224855031,
          12.270720357815385,
          12.13388017063338,
          11.309932474020215,
          12.40741852740076,
          10.757967088389957,
          9.787203664656081,
          9.50877195829783,
          8.390627013252628,
          8.810732985984894,
          8.39062701325255,
          7.969610394321392,
          7.969610394321312,
          7.969610394321312,
          7.969610394321312,
          7.969610394321312
        ],
        "horizontal_dist_map": 971,
        "slope_dist_map": 995,
        "elevation_diff_map": 206.8,
        "avg_slope_deg_map": 11.7,
        "max_slope_deg_map": 17.9
      },
      "geometry": {
        "type": "LineString",
        "coordinates": [
          [
            140.32606190724317,
            40.63686130153442,
            528.3
          ],
          [
            140.32613013446155,
            40.63678776303349,
            526.8
          ],
          [
            140.32619836167993,
            40.63671422453256,
            523.6
          ],
          [
            140.3262665888983,
            40.636640686031626,
            520.7
          ],
          [
            140.3263348161167,
            40.6365671475307,
            518.4
          ],
          [
            140.3264030433351,
            40.63649360902977,
            515.1
          ],
          [
            140.32647127055347,
            40.63642007052884,
            511.3
          ],
          [
            140.32653949777185,
            40.636346532027915,
            508.2
          ],
          [
            140.32660772499023,
            40.63627299352699,
            505.6
          ],
          [
            140.32667599675167,
            40.636199479185194,
            502.5
          ],
          [
            140.32674432715586,
            40.636125996649874,
            498.4
          ],
          [
            140.32681265756005,
            40.63605251411455,
            496.0
          ],
          [
            140.32688098796427,
            40.63597903157923,
            493.8
          ],
          [
            140.32694931836846,
            40.63590554904391,
            490.8
          ],
          [
            140.32701764877265,
            40.63583206650859,
            488.9
          ],
          [
            140.32708597917684,
            40.63575858397328,
            487.0
          ],
          [
            140.32715430958103,
            40.63568510143796,
            485.3
          ],
          [
            140.32722263998522,
            40.63561161890264,
            482.7
          ],
          [
            140.3272866094971,
            40.63553597606807,
            480.9
          ],
          [
            140.32734706581397,
            40.635458592866605,
            478.8
          ],
          [
            140.3274075221308,
            40.63538120966515,
            476.0
          ],
          [
            140.3274679784477,
            40.63530382646369,
            473.4
          ],
          [
            140.32752843476456,
            40.63522644326223,
            471.3
          ],
          [
            140.3275888910814,
            40.63514906006077,
            468.6
          ],
          [
            140.32764934739828,
            40.63507167685931,
            465.7
          ],
          [
            140.32770980371512,
            40.634994293657854,
            463.8
          ],
          [
            140.327770260032,
            40.6349169104564,
            460.7
          ],
          [
            140.32783071634884,
            40.63483952725493,
            458.9
          ],
          [
            140.32789117266572,
            40.634762144053475,
            456.7
          ],
          [
            140.3279610404739,
            40.63468967960038,
            454.3
          ],
          [
            140.3280340377301,
            40.63461885069756,
            451.8
          ],
          [
            140.32810703498632,
            40.634548021794735,
            449.9
          ],
          [
            140.32818003224253,
            40.63447719289192,
            447.3
          ],
          [
            140.32825302949874,
            40.6344063639891,
            444.0
          ],
          [
            140.32832602675495,
            40.63433553508628,
            441.9
          ],
          [
            140.32839902401116,
            40.63426470618346,
            438.8
          ],
          [
            140.32847202126737,
            40.634193877280644,
            435.9
          ],
          [
            140.32854501852358,
            40.63412304837782,
            432.7
          ],
          [
            140.32861801577977,
            40.634052219475,
            430.5
          ],
          [
            140.32869101303598,
            40.63398139057219,
            427.6
          ],
          [
            140.3287640102922,
            40.63391056166937,
            424.1
          ],
          [
            140.3288370075484,
            40.633839732766546,
            421.8
          ],
          [
            140.3289100048046,
            40.633768903863725,
            419.2
          ],
          [
            140.32898300206082,
            40.63369807496091,
            417.1
          ],
          [
            140.32905599931703,
            40.63362724605809,
            414.8
          ],
          [
            140.32912899657325,
            40.63355641715527,
            412.5
          ],
          [
            140.32920199382946,
            40.63348558825245,
            410.2
          ],
          [
            140.32927499108564,
            40.633414759349634,
            407.9
          ],
          [
            140.32934798834185,
            40.63334393044681,
            406.1
          ],
          [
            140.32942098559806,
            40.63327310154399,
            404.2
          ],
          [
            140.32949398285427,
            40.63320227264118,
            401.7
          ],
          [
            140.32955835655764,
            40.63312676691971,
            400.3
          ],
          [
            140.3296223206653,
            40.633051039061854,
            398.1
          ],
          [
            140.32968628477292,
            40.63297531120401,
            396.9
          ],
          [
            140.32975024888057,
            40.63289958334615,
            394.4
          ],
          [
            140.3298142129882,
            40.6328238554883,
            392.8
          ],
          [
            140.32987817709585,
            40.63274812763044,
            390.5
          ],
          [
            140.3299421412035,
            40.63267239977259,
            388.2
          ],
          [
            140.33000610531113,
            40.63259667191473,
            385.5
          ],
          [
            140.3300747079002,
            40.632523365370034,
            383.5
          ],
          [
            140.33014430518799,
            40.632450578063626,
            380.7
          ],
          [
            140.3302139024758,
            40.63237779075721,
            379.2
          ],
          [
            140.33029393883302,
            40.63231160525517,
            377.5
          ],
          [
            140.33037503190624,
            40.632246088034165,
            376.0
          ],
          [
            140.33045612497943,
            40.632180570813155,
            374.6
          ],
          [
            140.33053721805265,
            40.632115053592145,
            373.2
          ],
          [
            140.33061831112585,
            40.63204953637114,
            372.0
          ],
          [
            140.33069940419907,
            40.63198401915013,
            370.8
          ],
          [
            140.33079397219782,
            40.631931565745674,
            369.6
          ],
          [
            140.33089670452156,
            40.63188702757927,
            369.3
          ],
          [
            140.3310017407534,
            40.63184603385187,
            368.2
          ],
          [
            140.33111050531116,
            40.631810775953895,
            367.2
          ],
          [
            140.33121926986894,
            40.63177551805592,
            365.9
          ],
          [
            140.3313280344267,
            40.63174026015794,
            364.9
          ],
          [
            140.33143679898447,
            40.63170500225996,
            363.5
          ],
          [
            140.3315462115236,
            40.631670936411474,
            361.7
          ],
          [
            140.33165584049368,
            40.63163726871704,
            360.5
          ],
          [
            140.3317654694638,
            40.631603601022604,
            358.6
          ],
          [
            140.33187509843387,
            40.631569933328166,
            356.4
          ],
          [
            140.33197060719476,
            40.6315209382192,
            354.2
          ],
          [
            140.3320479671373,
            40.631452982526625,
            351.8
          ],
          [
            140.33211213071473,
            40.631377353385815,
            350.3
          ],
          [
            140.33217629429217,
            40.631301724245006,
            348.6
          ],
          [
            140.3322404578696,
            40.63122609510419,
            346.0
          ],
          [
            140.33231773293974,
            40.63115821061151,
            343.7
          ],
          [
            140.33239788432132,
            40.63109202508787,
            342.1
          ],
          [
            140.3324780357029,
            40.631025839564224,
            339.9
          ],
          [
            140.3325257932149,
            40.63094353575561,
            337.4
          ],
          [
            140.33257311777592,
            40.63086101652269,
            335.7
          ],
          [
            140.33262044233695,
            40.630778497289754,
            333.3
          ],
          [
            140.33266776689797,
            40.63069597805683,
            332.3
          ],
          [
            140.33272779378026,
            40.63061929393443,
            330.5
          ],
          [
            140.33280149365055,
            40.63054889082115,
            329.0
          ],
          [
            140.3328781683659,
            40.630480699266734,
            327.4
          ],
          [
            140.33296881417198,
            40.63042290854915,
            326.1
          ],
          [
            140.3330620758298,
            40.63036758410024,
            324.6
          ],
          [
            140.33315581643575,
            40.63031274639026,
            323.4
          ],
          [
            140.33325166673572,
            40.630260052691575,
            321.8
          ],
          [
            140.33327051407304,
            40.63024969136862,
            321.5
          ]
        ]
      }
    }
  ]
}