{
  "type": "FeatureCollection",
  "features": [
    {
      "type": "Feature",
      "properties": {
        "name": "ほろたち",
        "slope_deg": [
          14.036243467926479,
          14.036243467926479,
          14.036243467926479,
          14.036243467926479,
          15.37625124882619,
          14.036243467926479,
          12.68038349181982,
          14.036243467926479,
          15.37625124882619,
          18.00416160591338,
          21.80140948635181,
          26.565051177077994,
          26.565051177077994,
          30.96375653207352,
          33.02386755579665,
          34.99202019855866,
          36.86989764584402,
          34.01934998982646,
          30.96375653207352,
          25.407718108948472,
          24.22774531795417,
          24.22774531795417,
          24.22774531795417,
          25.407718108948472,
          25.407718108948472,
          24.22774531795417,
          26.565051177077994,
          29.357753542791276,
          27.248467426644748,
          26.679528106691272,
          22.660536301999294,
          14.842227057911092,
          12.13388017063334,
          7.96961039432135,
          4.431564716435877,
          2.4336061007201457,
          2.4336061007201457,
          2.4336061007201457
        ],
        "horizontal_dist_map": 375,
        "slope_dist_map": 409,
        "elevation_diff_map": 142.8,
        "avg_slope_deg_map": 19.2,
        "max_slope_deg_map": 36.9
      },
      "geometry": {
        "type": "LineString",
        "coordinates": [
          [
            142.1345741,
            44.0159002,
            302.0
          ],
          [
            142.1346584307364,
            44.01583389671409,
            300.0
          ],
          [
            142.13474276147278,
            44.01576759342819,
            298.0
          ],
          [
            142.13482709220918,
            44.01570129014229,
            295.0
          ],
          [
            142.13491142294555,
            44.015634986856384,
            292.0
          ],
          [
            142.1349944880321,
            44.01556789327105,
            290.0
          ],
          [
            142.13507330389118,
            44.01549814637514,
            287.0
          ],
          [
            142.13515211975024,
            44.01542839947922,
            285.0
          ],
          [
            142.1352309356093,
            44.0153586525833,
            283.0
          ],
          [
            142.13530975146836,
            44.01528890568739,
            280.0
          ],
          [
            142.1353885673274,
            44.015219158791474,
            276.0
          ],
          [
            142.13546738318647,
            44.01514941189556,
            272.0
          ],
          [
            142.13554619904554,
            44.01507966499965,
            267.0
          ],
          [
            142.13562501490458,
            44.01500991810373,
            260.0
          ],
          [
            142.13570383076365,
            44.01494017120782,
            256.0
          ],
          [
            142.13578264662272,
            44.0148704243119,
            248.0
          ],
          [
            142.13586146248176,
            44.014800677415984,
            241.0
          ],
          [
            142.13594027834083,
            44.014730930520074,
            232.0
          ],
          [
            142.13601983750004,
            44.01466163628907,
            226.0
          ],
          [
            142.13610182734038,
            44.0145938223269,
            221.0
          ],
          [
            142.13618381718075,
            44.01452600836473,
            217.0
          ],
          [
            142.1362658070211,
            44.014458194402565,
            213.0
          ],
          [
            142.13634779686143,
            44.014390380440396,
            208.0
          ],
          [
            142.1364297867018,
            44.01432256647823,
            203.0
          ],
          [
            142.13651177654214,
            44.01425475251606,
            199.0
          ],
          [
            142.13659376638248,
            44.01418693855389,
            194.0
          ],
          [
            142.136676284572,
            44.014119464811756,
            189.0
          ],
          [
            142.13676029753998,
            44.014052953602764,
            185.0
          ],
          [
            142.13684431050797,
            44.01398644239377,
            179.0
          ],
          [
            142.13692832347596,
            44.01391993118477,
            171.5
          ],
          [
            142.13701233644392,
            44.01385341997578,
            168.4
          ],
          [
            142.1370963494119,
            44.01378690876679,
            164.9
          ],
          [
            142.1371803623799,
            44.0137203975578,
            162.3
          ],
          [
            142.13726437534788,
            44.013653886348806,
            160.9
          ],
          [
            142.13734838831587,
            44.01358737513981,
            159.8
          ],
          [
            142.13743240128386,
            44.013520863930815,
            159.3
          ],
          [
            142.13751641425185,
            44.01345435272182,
            159.2
          ],
          [
            142.1376004272198,
            44.01338784151283,
            159.2
          ]
        ]
      }
    },
    {
      "type": "Feature",
      "properties": {
        "name": "からまつ",
        "slope_deg": [
          14.036243467926479,
          14.036243467926479,
          14.036243467926479,
          14.036243467926479,
          15.37625124882619,
          16.69924423399362,
          15.37625124882619,
          15.37625124882619,
          15.37625124882619,
          11.309932474020215,
          9.926245506651705,
          11.309932474020215,
          8.530765609948133,
          8.530765609948133,
          11.309932474020215,
          8.530765609948133,
          9.926245506651705,
          9.926245506651705,
          8.530765609948133,
          9.926245506651705,
          8.530765609948133,
          12.68038349181982,
          12.68038349181982,
          16.69924423399362,
          18.00416160591338,
          18.00416160591338,
          18.00416160591338,
          14.036243467926479,
          15.37625124882619,
          11.309932474020215,
          12.68038349181982,
          12.68038349181982,
          14.036243467926479,
          15.37625124882619,
          18.00416160591338,
          20.556045219583467,
          20.556045219583467,
          19.290046219188735,
          18.00416160591338,
          18.00416160591338,
          18.00416160591338,
          25.407718108948472,
          26.565051177077994,
          26.565051177077994,
          27.699472808055,
          24.22774531795417,
          24.22774531795417,
          23.025492008528037,
          21.80140948635181,
          21.80140948635181,
          20.556045219583467,
          20.556045219583467,
          20.556045219583467,
          19.290046219188735,
          18.00416160591338,
          18.00416160591338,
          21.056705590704784,
          22.416147479343643,
          22.660536301999294,
          23.26770481005694,
          19.290046219188735,
          18.262889942194118,
          18.133621430820412,
          14.43996512100273,
          14.43996512100273,
          14.43996512100273
        ],
        "horizontal_dist_map": 651,
        "slope_dist_map": 685,
        "elevation_diff_map": 195.5,
        "avg_slope_deg_map": 15.9,
        "max_slope_deg_map": 27.7
      },
      "geometry": {
        "type": "LineString",
        "coordinates": [
          [
            142.13175825006567,
            44.01675005528963,
            356.0
          ],
          [
            142.13185697523403,
            44.01669506435602,
            354.0
          ],
          [
            142.13195570040236,
            44.016640073422415,
            352.0
          ],
          [
            142.13205442557071,
            44.0165850824888,
            349.0
          ],
          [
            142.13215315073904,
            44.0165300915552,
            346.0
          ],
          [
            142.1322518759074,
            44.01647510062159,
            344.0
          ],
          [
            142.13235060107576,
            44.016420109687985,
            341.0
          ],
          [
            142.1324535072985,
            44.01636929169609,
            337.0
          ],
          [
            142.13256737221707,
            44.01633326203982,
            335.0
          ],
          [
            142.1326832143144,
            44.01629992615651,
            333.0
          ],
          [
            142.13279905641173,
            44.016266590273204,
            330.0
          ],
          [
            142.13291519037614,
            44.01623380585007,
            329.0
          ],
          [
            142.13303232532755,
            44.016202912714114,
            328.0
          ],
          [
            142.13314946027893,
            44.01617201957816,
            325.0
          ],
          [
            142.13326659523034,
            44.0161411264422,
            324.0
          ],
          [
            142.13338373018175,
            44.01611023330625,
            323.0
          ],
          [
            142.13350086513313,
            44.01607934017029,
            320.0
          ],
          [
            142.13362071966012,
            44.01605466973376,
            319.0
          ],
          [
            142.13374121811088,
            44.016031472668416,
            317.0
          ],
          [
            142.13386171656165,
            44.01600827560306,
            316.0
          ],
          [
            142.13398221501242,
            44.01598507853771,
            314.0
          ],
          [
            142.134105210039,
            44.015973454731785,
            312.0
          ],
          [
            142.13422977737528,
            44.01596911960814,
            311.0
          ],
          [
            142.13435434471157,
            44.015964784484495,
            307.0
          ],
          [
            142.13447891204785,
            44.015960449360854,
            305.0
          ],
          [
            142.13460347410668,
            44.0159567110463,
            300.0
          ],
          [
            142.1347279546306,
            44.01596219325106,
            298.0
          ],
          [
            142.13485243515453,
            44.01596767545582,
            294.0
          ],
          [
            142.13497691567844,
            44.015973157660575,
            292.0
          ],
          [
            142.13510139620234,
            44.01597863986533,
            290.0
          ],
          [
            142.13522587672628,
            44.015984122070094,
            287.0
          ],
          [
            142.13535021906242,
            44.01599059546979,
            286.0
          ],
          [
            142.13547371791762,
            44.01600311900012,
            283.0
          ],
          [
            142.1355972167728,
            44.01601564253045,
            281.0
          ],
          [
            142.13572080170326,
            44.01600881563333,
            277.0
          ],
          [
            142.1358294363274,
            44.01596754188577,
            275.0
          ],
          [
            142.13590176632295,
            44.015894225831886,
            270.0
          ],
          [
            142.1359776997765,
            44.01582288205611,
            266.0
          ],
          [
            142.1360560209085,
            44.015752845126684,
            262.0
          ],
          [
            142.13613434204052,
            44.015682808197255,
            261.0
          ],
          [
            142.13621266317253,
            44.01561277126782,
            257.0
          ],
          [
            142.13629098430457,
            44.01554273433839,
            253.0
          ],
          [
            142.13636930543657,
            44.01547269740896,
            249.0
          ],
          [
            142.13644657141992,
            44.015402058138704,
            242.0
          ],
          [
            142.136523020909,
            44.01533095276558,
            237.0
          ],
          [
            142.1365994703981,
            44.01525984739246,
            233.0
          ],
          [
            142.13667591988718,
            44.01518874201933,
            228.0
          ],
          [
            142.1367523693763,
            44.01511763664621,
            224.0
          ],
          [
            142.13682881886538,
            44.015046531273086,
            219.0
          ],
          [
            142.13690526835447,
            44.01497542589996,
            216.0
          ],
          [
            142.13698171784355,
            44.01490432052684,
            212.0
          ],
          [
            142.13705816733267,
            44.014833215153715,
            208.0
          ],
          [
            142.13713461682175,
            44.01476210978059,
            204.0
          ],
          [
            142.1372158350855,
            44.014693918023845,
            201.0
          ],
          [
            142.1373003918004,
            44.014627765987285,
            197.0
          ],
          [
            142.1373849485153,
            44.01456161395072,
            194.0
          ],
          [
            142.1374695052302,
            44.01449546191415,
            191.0
          ],
          [
            142.13755406194508,
            44.014429309877585,
            188.0
          ],
          [
            142.13763861866,
            44.01436315784102,
            181.6
          ],
          [
            142.13772317537487,
            44.01429700580446,
            177.5
          ],
          [
            142.13780773208978,
            44.01423085376789,
            174.3
          ],
          [
            142.1378898982642,
            44.01416319689337,
            170.8
          ],
          [
            142.13796924070505,
            44.01409376248714,
            167.6
          ],
          [
            142.13804858314592,
            44.01402432808092,
            164.3
          ],
          [
            142.13812792558676,
            44.01395489367469,
            161.2
          ],
          [
            142.1382072680276,
            44.01388545926847,
            160.5
          ]
        ]
      }
    },
    {
      "type": "Feature",
      "properties": {
        "name": "しらかば",
        "slope_deg": [
          0.0,
          0.0,
          0.0,
          2.862405226111748,
          4.289153328819018,
          4.289153328819018,
          7.125016348901798,
          7.125016348901798,
          9.926245506651705,
          9.926245506651705,
          12.68038349181982,
          14.036243467926479,
          15.37625124882619,
          16.69924423399362,
          15.37625124882619,
          16.69924423399362,
          15.37625124882619,
          16.69924423399362,
          18.00416160591338,
          19.290046219188735,
          19.290046219188735,
          20.556045219583467,
          20.556045219583467,
          20.556045219583467,
          20.556045219583467,
          20.556045219583467,
          21.80140948635181,
          21.80140948635181,
          23.025492008528037,
          21.80140948635181,
          20.556045219583467,
          16.69924423399362,
          14.036243467926479,
          15.37625124882619,
          12.68038349181982,
          16.69924423399362,
          16.69924423399362,
          18.00416160591338,
          20.556045219583467,
          19.290046219188735,
          26.565051177077994,
          24.22774531795417,
          25.407718108948472,
          26.565051177077994,
          23.025492008528037,
          25.407718108948472,
          24.22774531795417,
          26.565051177077994,
          27.699472808055,
          27.699472808055,
          29.89890183861456,
          29.89890183861456,
          28.810793742973065,
          28.810793742973065,
          27.699472808055,
          24.22774531795417,
          21.80140948635181,
          15.37625124882619,
          13.631094443421526,
          11.034209003250266,
          8.11004782941908,
          8.810732985984894,
          4.1466888259660175,
          3.4336303624504896,
          3.148096099562783,
          2.004534032105912,
          2.004534032105912,
          2.004534032105912
        ],
        "horizontal_dist_map": 679,
        "slope_dist_map": 720,
        "elevation_diff_map": 202.3,
        "avg_slope_deg_map": 15.7,
        "max_slope_deg_map": 29.9
      },
      "geometry": {
        "type": "LineString",
        "coordinates": [
          [
            142.13150059404268,
            44.01659240087687,
            362.0
          ],
          [
            142.13149831066755,
            44.01650241713784,
            363.0
          ],
          [
            142.13149602729243,
            44.01641243339883,
            363.0
          ],
          [
            142.1314937439173,
            44.0163224496598,
            362.0
          ],
          [
            142.13149146054215,
            44.01623246592079,
            362.0
          ],
          [
            142.1314886541075,
            44.0161424977445,
            361.0
          ],
          [
            142.13148066493457,
            44.01605268377162,
            360.0
          ],
          [
            142.13147267576164,
            44.01596286979875,
            359.0
          ],
          [
            142.13146468658874,
            44.01587305582587,
            357.0
          ],
          [
            142.1314566974158,
            44.01578324185299,
            356.0
          ],
          [
            142.13145536115962,
            44.01569324978832,
            353.0
          ],
          [
            142.1314541082089,
            44.01560325549364,
            352.0
          ],
          [
            142.13145285525817,
            44.01551326119896,
            348.0
          ],
          [
            142.13146432983189,
            44.0154245741675,
            346.0
          ],
          [
            142.13150032581,
            44.01533840576641,
            342.0
          ],
          [
            142.13153632178813,
            44.01525223736532,
            340.0
          ],
          [
            142.13160490666587,
            44.015182320590746,
            337.0
          ],
          [
            142.13170386501037,
            44.0151275506374,
            334.0
          ],
          [
            142.13180282335483,
            44.01507278068406,
            331.0
          ],
          [
            142.13190140175473,
            44.015017695305055,
            328.0
          ],
          [
            142.1319903334914,
            44.014954601376566,
            324.0
          ],
          [
            142.13207926522804,
            44.01489150744808,
            320.0
          ],
          [
            142.1321681969647,
            44.01482841351959,
            317.0
          ],
          [
            142.13225712870135,
            44.01476531959109,
            313.0
          ],
          [
            142.132346060438,
            44.0147022256626,
            309.0
          ],
          [
            142.1324206719925,
            44.01463014715716,
            305.0
          ],
          [
            142.1324948862855,
            44.01455781940725,
            302.0
          ],
          [
            142.13256910057854,
            44.01448549165734,
            298.0
          ],
          [
            142.13264331487153,
            44.01441316390743,
            293.0
          ],
          [
            142.13271752916455,
            44.01434083615752,
            289.0
          ],
          [
            142.1327973335055,
            44.014272591212745,
            285.0
          ],
          [
            142.13289843596064,
            44.01421990177864,
            282.0
          ],
          [
            142.1329995384158,
            44.01416721234454,
            278.0
          ],
          [
            142.13310064087094,
            44.01411452291043,
            277.0
          ],
          [
            142.13320174332608,
            44.01406183347633,
            275.0
          ],
          [
            142.13330284578123,
            44.01400914404223,
            271.0
          ],
          [
            142.1334112639046,
            44.01396516759135,
            269.0
          ],
          [
            142.13352277553304,
            44.01392487551443,
            265.0
          ],
          [
            142.13363428716147,
            44.013884583437495,
            263.0
          ],
          [
            142.1337457987899,
            44.01384429136057,
            258.0
          ],
          [
            142.13385731041834,
            44.013803999283645,
            254.0
          ],
          [
            142.13396882204677,
            44.013763707206714,
            251.0
          ],
          [
            142.1340803336752,
            44.01372341512979,
            243.0
          ],
          [
            142.1341918453036,
            44.013683123052864,
            240.0
          ],
          [
            142.13430335693204,
            44.01364283097594,
            235.0
          ],
          [
            142.13441486856047,
            44.01360253889901,
            231.0
          ],
          [
            142.1345263801889,
            44.01356224682208,
            226.0
          ],
          [
            142.13463789181733,
            44.01352195474516,
            221.0
          ],
          [
            142.13474940344577,
            44.013481662668234,
            217.0
          ],
          [
            142.13485951996512,
            44.01343953610202,
            211.0
          ],
          [
            142.1349665099631,
            44.01339329833753,
            205.0
          ],
          [
            142.1350734999611,
            44.013347060573054,
            200.0
          ],
          [
            142.13518048995908,
            44.01330082280857,
            194.0
          ],
          [
            142.13528747995707,
            44.01325458504408,
            188.0
          ],
          [
            142.13539446995506,
            44.0132083472796,
            183.0
          ],
          [
            142.13550145995305,
            44.013162109515115,
            178.0
          ],
          [
            142.1356140476009,
            44.01312396808304,
            173.0
          ],
          [
            142.13572957252396,
            44.013090075068995,
            170.0
          ],
          [
            142.135845097447,
            44.01305618205494,
            167.0
          ],
          [
            142.13596062237005,
            44.01302228904089,
            167.0
          ],
          [
            142.1360761472931,
            44.012988396026834,
            163.3
          ],
          [
            142.13619167221614,
            44.012954503012786,
            162.2
          ],
          [
            142.13630867131238,
            44.012924311117715,
            161.3
          ],
          [
            142.13643150013655,
            44.01290875557389,
            160.8
          ],
          [
            142.1365543289607,
            44.01289320003006,
            160.4
          ],
          [
            142.13667564032437,
            44.01290008126141,
            159.8
          ],
          [
            142.13679578614693,
            44.01292419587988,
            159.1
          ],
          [
            142.13691593196947,
            44.01294831049836,
            159.4
          ]
        ]
      }
    },
    {
      "type": "Feature",
      "properties": {
        "name": "林間",
        "slope_deg": [
          9.926245506651705,
          9.926245506651705,
          9.926245506651705,
          11.309932474020215,
          9.926245506651705,
          12.68038349181982,
          12.68038349181982,
          11.309932474020215,
          14.036243467926479,
          12.68038349181982,
          15.37625124882619,
          15.37625124882619,
          14.036243467926479,
          15.37625124882619,
          9.926245506651705,
          8.530765609948133,
          7.125016348901798,
          5.710593137499643,
          7.125016348901798,
          7.125016348901798,
          8.530765609948133,
          8.530765609948133,
          11.309932474020215,
          11.309932474020215,
          12.68038349181982,
          12.68038349181982,
          9.926245506651705,
          14.036243467926479,
          11.309932474020215,
          9.926245506651705,
          9.926245506651705,
          5.710593137499643,
          5.710593137499643,
          5.710593137499643,
          7.125016348901798,
          7.125016348901798,
          8.530765609948133,
          8.530765609948133,
          8.530765609948133,
          7.125016348901798,
          5.710593137499643,
          7.125016348901798,
          4.289153328819018,
          7.125016348901798,
          7.125016348901798,
          4.289153328819018,
          7.125016348901798,
          5.710593137499643,
          8.530765609948133,
          9.926245506651705,
          9.926245506651705,
          12.68038349181982,
          11.309932474020215,
          15.37625124882619,
          14.036243467926479,
          15.37625124882619,
          15.37625124882619,
          12.68038349181982,
          12.68038349181982,
          5.710593137499643,
          1.4320961841646465,
          -4.289153328819018,
          -7.125016348901798,
          -5.710593137499643,
          -4.289153328819018,
          1.4320961841646465,
          2.862405226111748,
          4.289153328819018,
          9.926245506651705,
          8.530765609948133,
          12.68038349181982,
          12.68038349181982,
          11.309932474020215,
          11.309932474020215,
          9.926245506651705,
          12.68038349181982,
          11.309932474020215,
          12.68038349181982,
          18.00416160591338,
          18.00416160591338,
          19.290046219188735,
          25.407718108948472,
          20.556045219583467,
          20.556045219583467,
          21.80140948635181,
          16.69924423399362,
          18.00416160591338,
          19.290046219188735,
          18.00416160591338,
          25.873385226286096,
          26.450345065034202,
          23.989064009552404,
          23.388482428994916,
          14.036243467926479,
          11.996899307923577,
          11.72252097010224,
          11.034209003250226,
          9.787203664656122,
          9.787203664656122,
          9.22988624372772,
          7.829076510059608,
          7.266008446995988,
          4.858462919034255,
          3.290883686067309,
          2.004534032105912,
          1.2889375601869035,
          1.0025738037600869,
          0.7161599454704085,
          0.7161599454704085,
          0.7161599454704085
        ],
        "horizontal_dist_map": 1095,
        "slope_dist_map": 1125,
        "elevation_diff_map": 199.5,
        "avg_slope_deg_map": 10.1,
        "max_slope_deg_map": 26.5
      },
      "geometry": {
        "type": "LineString",
        "coordinates": [
          [
            142.13164630343437,
            44.01685179057872,
            359.0
          ],
          [
            142.13173276037796,
            44.01691665327572,
            357.0
          ],
          [
            142.13181921732158,
            44.016981515972724,
            355.0
          ],
          [
            142.13190567426517,
            44.017046378669725,
            354.0
          ],
          [
            142.13200789388793,
            44.017097102760715,
            352.0
          ],
          [
            142.13211955628825,
            44.01713597539811,
            349.0
          ],
          [
            142.13223746793537,
            44.01716529352691,
            348.0
          ],
          [
            142.13235986914628,
            44.0171821051087,
            345.0
          ],
          [
            142.13248267611394,
            44.017197786376855,
            343.0
          ],
          [
            142.13260548308156,
            44.017213467645014,
            341.0
          ],
          [
            142.13272727209466,
            44.017232725285034,
            338.0
          ],
          [
            142.13284870054846,
            44.01725324967508,
            336.0
          ],
          [
            142.1329701290023,
            44.01727377406513,
            332.0
          ],
          [
            142.1330915574561,
            44.01729429845518,
            330.0
          ],
          [
            142.13321355341168,
            44.01731289043236,
            328.0
          ],
          [
            142.13333608208458,
            44.017329668441654,
            325.0
          ],
          [
            142.13345861075751,
            44.01734644645095,
            325.0
          ],
          [
            142.13358113943045,
            44.01736322446025,
            324.0
          ],
          [
            142.13370366810335,
            44.01738000246954,
            323.0
          ],
          [
            142.13382619677628,
            44.01739678047883,
            321.0
          ],
          [
            142.13394872544922,
            44.01741355848813,
            320.0
          ],
          [
            142.13407044128925,
            44.01743312101936,
            319.0
          ],
          [
            142.13419193379403,
            44.01745344863032,
            317.0
          ],
          [
            142.13431342629877,
            44.01747377624128,
            315.0
          ],
          [
            142.13443491880355,
            44.01749410385224,
            312.0
          ],
          [
            142.13455641130832,
            44.017514431463205,
            311.0
          ],
          [
            142.1346779038131,
            44.01753475907417,
            308.0
          ],
          [
            142.13479939631785,
            44.01755508668513,
            306.0
          ],
          [
            142.13492088882262,
            44.01757541429609,
            305.0
          ],
          [
            142.1350423813274,
            44.01759574190705,
            301.0
          ],
          [
            142.13516441336174,
            44.01761429333011,
            300.0
          ],
          [
            142.13528655403724,
            44.01763248709518,
            299.0
          ],
          [
            142.1354086947127,
            44.017650680860235,
            298.0
          ],
          [
            142.1355308353882,
            44.0176688746253,
            297.0
          ],
          [
            142.1356529760637,
            44.01768706839036,
            296.0
          ],
          [
            142.13577547115707,
            44.01770383082677,
            295.0
          ],
          [
            142.1358987858009,
            44.017717283481154,
            293.0
          ],
          [
            142.13602210044468,
            44.01773073613555,
            292.0
          ],
          [
            142.1361454150885,
            44.01774418878994,
            290.0
          ],
          [
            142.13627003794406,
            44.017740893302104,
            289.0
          ],
          [
            142.136394666422,
            44.017737525835045,
            287.0
          ],
          [
            142.13651929489995,
            44.017734158367986,
            287.0
          ],
          [
            142.13664392337787,
            44.01773079090093,
            286.0
          ],
          [
            142.13676624520593,
            44.01771720097827,
            284.0
          ],
          [
            142.13688591621604,
            44.01769186333921,
            284.0
          ],
          [
            142.13700558722616,
            44.01766652570015,
            282.0
          ],
          [
            142.13712525823627,
            44.01764118806109,
            281.0
          ],
          [
            142.1372449292464,
            44.01761585042203,
            281.0
          ],
          [
            142.13736460025652,
            44.017590512782974,
            279.0
          ],
          [
            142.13748427126663,
            44.017565175143915,
            278.0
          ],
          [
            142.13760394227674,
            44.017539837504856,
            275.0
          ],
          [
            142.13772361328685,
            44.0175144998658,
            274.0
          ],
          [
            142.13784477022705,
            44.017493274078845,
            272.0
          ],
          [
            142.1379663442754,
            44.017473202509855,
            269.0
          ],
          [
            142.13808791832378,
            44.01745313094086,
            267.0
          ],
          [
            142.13820949237214,
            44.01743305937187,
            263.0
          ],
          [
            142.1383310664205,
            44.01741298780288,
            262.0
          ],
          [
            142.13845264046887,
            44.01739291623388,
            258.0
          ],
          [
            142.13857421451723,
            44.01737284466489,
            256.0
          ],
          [
            142.1386957885656,
            44.0173527730959,
            254.0
          ],
          [
            142.13881667651916,
            44.017331080579865,
            253.0
          ],
          [
            142.13893304380912,
            44.01729870767973,
            254.0
          ],
          [
            142.13904941109908,
            44.01726633477959,
            255.0
          ],
          [
            142.13915532158796,
            44.017221159044276,
            257.0
          ],
          [
            142.1392509314483,
            44.01716337168441,
            258.0
          ],
          [
            142.1393465413086,
            44.01710558432455,
            258.0
          ],
          [
            142.13940972715065,
            44.01702891146196,
            258.0
          ],
          [
            142.13946782296009,
            44.016949273888976,
            256.0
          ],
          [
            142.13950265190084,
            44.01686427969164,
            256.0
          ],
          [
            142.13951919912483,
            44.016775076578604,
            255.0
          ],
          [
            142.13953574634883,
            44.01668587346557,
            251.0
          ],
          [
            142.13955229357282,
            44.01659667035253,
            250.0
          ],
          [
            142.13953714738537,
            44.01650851175889,
            247.0
          ],
          [
            142.13950940222855,
            44.01642076838935,
            246.0
          ],
          [
            142.13948165707174,
            44.01633302501982,
            243.0
          ],
          [
            142.13945391191493,
            44.01624528165028,
            242.0
          ],
          [
            142.13941393741658,
            44.01616066839975,
            240.0
          ],
          [
            142.13935887234018,
            44.01607991760617,
            237.0
          ],
          [
            142.13930380726381,
            44.01599916681259,
            235.0
          ],
          [
            142.13924874218745,
            44.01591841601901,
            233.0
          ],
          [
            142.13919367711105,
            44.01583766522544,
            227.0
          ],
          [
            142.13913861203469,
            44.01575691443186,
            224.0
          ],
          [
            142.13908618404196,
            44.01567536824653,
            221.0
          ],
          [
            142.13904524398086,
            44.01559035709485,
            214.0
          ],
          [
            142.13900430391976,
            44.015505345943176,
            212.0
          ],
          [
            142.13896336385864,
            44.01542033479151,
            209.0
          ],
          [
            142.13892242379754,
            44.01533532363983,
            205.0
          ],
          [
            142.1388814837364,
            44.015250312488156,
            202.0
          ],
          [
            142.13884054367531,
            44.01516530133648,
            199.0
          ],
          [
            142.13879960361422,
            44.01508029018481,
            195.0
          ],
          [
            142.13876641568626,
            44.01499358775467,
            192.0
          ],
          [
            142.13873523662946,
            44.01490644705026,
            182.6
          ],
          [
            142.13870405757262,
            44.01481930634584,
            179.1
          ],
          [
            142.13867287851582,
            44.01473216564143,
            177.2
          ],
          [
            142.13864169945901,
            44.014645024937025,
            174.7
          ],
          [
            142.1386105204022,
            44.014557884232616,
            172.6
          ],
          [
            142.13858065566131,
            44.01447051113638,
            170.6
          ],
          [
            142.1385524812649,
            44.01438283916055,
            168.9
          ],
          [
            142.13852430686845,
            44.01429516718471,
            166.9
          ],
          [
            142.13849613247203,
            44.01420749520887,
            165.7
          ],
          [
            142.1384679580756,
            44.01411982323304,
            163.7
          ],
          [
            142.13842244214135,
            44.01403743958185,
            162.4
          ],
          [
            142.13835496697726,
            44.01396175242653,
            161.4
          ],
          [
            142.1382874918132,
            44.013886065271215,
            160.6
          ],
          [
            142.13822001664911,
            44.013810378115906,
            160.3
          ],
          [
            142.13815254148503,
            44.01373469096059,
            160.1
          ],
          [
            142.13808506632094,
            44.01365900380527,
            160.0
          ],
          [
            142.13801759115685,
            44.01358331664996,
            159.7
          ],
          [
            142.13795011599277,
            44.01350762949464,
            159.6
          ],
          [
            142.13788264082868,
            44.013431942339324,
            159.6
          ]
        ]
      }
    }
  ]
}