{
  "type": "FeatureCollection",
  "features": [
    {
      "type": "Feature",
      "properties": {
        "name": "ウィング",
        "slope_deg": [
          -0.2864765102771396,
          -0.2864765102771396,
          -0.2864765102771396,
          -1.8614576304666637,
          -3.0052693596899664,
          2.719505461272472,
          9.090276920822289,
          11.034209003250188,
          13.495733280795843,
          8.250387228905435,
          3.718993973158075,
          3.576334374997351,
          7.547725773843206,
          7.266008446996026,
          7.68844776990284,
          10.481218144131045,
          9.648045316098093,
          13.766300685466197,
          15.774985955414158,
          15.37625124882619,
          15.907551930525813,
          13.901350769509243,
          14.57421619803871,
          14.708303899682749,
          14.170977562933123,
          13.360218444764483,
          12.68038349181982,
          11.859779120947948,
          9.926245506651705,
          10.481218144130889,
          9.090276920822289,
          9.926245506651705,
          10.203973721731748,
          10.342657140474548,
          10.619655276155134,
          10.896152141141036,
          11.034209003250188,
          10.619655276155134,
          12.13388017063338,
          11.447596263685636,
          12.68038349181982,
          12.407418527400838,
          12.13388017063338,
          12.270720357815385,
          12.270720357815385,
          11.996899307923577,
          11.585126224854955,
          11.447596263685636,
          10.896152141141036,
          11.172136252167116,
          11.034209003250343,
          10.619655276155134,
          9.50877195829791,
          9.090276920822289,
          8.110047829419,
          8.110047829419,
          8.110047829419,
          8.110047829419
        ],
        "horizontal_dist_map": 568,
        "slope_dist_map": 580,
        "elevation_diff_map": 98.4,
        "avg_slope_deg_map": 9.6,
        "max_slope_deg_map": 15.9
      },
      "geometry": {
        "type": "LineString",
        "coordinates": [
          [
            132.87859203397866,
            33.72008319079687,
            994.8
          ],
          [
            132.87869461345193,
            33.72005525287363,
            994.7
          ],
          [
            132.87879843311603,
            33.720031927477905,
            995.1
          ],
          [
            132.87890545499627,
            33.72002051178955,
            994.3
          ],
          [
            132.87901247687648,
            33.720009096101194,
            995.0
          ],
          [
            132.8791195533728,
            33.71999804474183,
            996.0
          ],
          [
            132.87922663618977,
            33.71998703554599,
            997.2
          ],
          [
            132.87933032241347,
            33.71996554517359,
            992.4
          ],
          [
            132.87940953570248,
            33.71991105756064,
            988.6
          ],
          [
            132.8794157363716,
            33.71982471626025,
            988.2
          ],
          [
            132.87940367268567,
            33.71973512439692,
            987.6
          ],
          [
            132.87939694660076,
            33.71964515828153,
            986.6
          ],
          [
            132.8793909755472,
            33.719555139226244,
            986.0
          ],
          [
            132.87938356482,
            33.719465197764926,
            985.7
          ],
          [
            132.87937564782501,
            33.71937528358988,
            982.3
          ],
          [
            132.87936019904322,
            33.71928608784653,
            981.5
          ],
          [
            132.87931512929694,
            33.71920614202434,
            980.6
          ],
          [
            132.8792342062942,
            33.719149130758254,
            978.3
          ],
          [
            132.87913925138696,
            33.719107769681635,
            975.5
          ],
          [
            132.8790366250842,
            33.71907995508151,
            971.7
          ],
          [
            132.87893360074852,
            33.71905324787926,
            969.3
          ],
          [
            132.87882961963209,
            33.719029202609875,
            967.3
          ],
          [
            132.87872563851562,
            33.71900515734049,
            964.1
          ],
          [
            132.87862104156073,
            33.718983139207545,
            961.8
          ],
          [
            132.87851592742987,
            33.71896282344674,
            958.9
          ],
          [
            132.87841032438752,
            33.7189458849686,
            956.8
          ],
          [
            132.8783024452954,
            33.71894466889272,
            954.0
          ],
          [
            132.87819531005186,
            33.71894874111632,
            952.3
          ],
          [
            132.8780907087254,
            33.718970827909274,
            949.9
          ],
          [
            132.8779877997248,
            33.71899779897926,
            948.4
          ],
          [
            132.877885258782,
            33.71902583231293,
            947.0
          ],
          [
            132.87778135965706,
            33.719049538171,
            944.9
          ],
          [
            132.87767555301335,
            33.71906716624245,
            943.5
          ],
          [
            132.87756974636963,
            33.7190847943139,
            941.4
          ],
          [
            132.87746436692865,
            33.719104087796175,
            939.8
          ],
          [
            132.87735921104655,
            33.71912425280232,
            937.6
          ],
          [
            132.87725405516446,
            33.719144417808465,
            936.0
          ],
          [
            132.87714881820153,
            33.71916427605856,
            933.7
          ],
          [
            132.8770432791515,
            33.71918299141131,
            932.0
          ],
          [
            132.87693774010145,
            33.71920170676405,
            930.1
          ],
          [
            132.87683220105143,
            33.719220422116805,
            927.4
          ],
          [
            132.87672597430813,
            33.71923600777516,
            925.6
          ],
          [
            132.87661936285596,
            33.71924984262225,
            923.0
          ],
          [
            132.87651275140382,
            33.719263677469336,
            921.3
          ],
          [
            132.87640575730833,
            33.71927234550855,
            918.8
          ],
          [
            132.8762979180058,
            33.719269600771554,
            916.9
          ],
          [
            132.87619007870327,
            33.71926685603456,
            914.3
          ],
          [
            132.87608223940074,
            33.71926411129757,
            912.8
          ],
          [
            132.87597597074776,
            33.719249697309934,
            910.6
          ],
          [
            132.87587009615825,
            33.71923235560039,
            908.8
          ],
          [
            132.87576422156874,
            33.719215013890846,
            906.6
          ],
          [
            132.87565834697924,
            33.71919767218131,
            904.9
          ],
          [
            132.87556073916934,
            33.71915984529778,
            902.8
          ],
          [
            132.8754639184446,
            33.719120068008245,
            901.3
          ],
          [
            132.87536661662045,
            33.719081237120996,
            899.9
          ],
          [
            132.87526513891817,
            33.719050620878164,
            898.5
          ],
          [
            132.8751703398,
            33.71900859469479,
            897.1
          ],
          [
            132.87509201959026,
            33.718967256393924,
            896.4
          ]
        ]
      }
    },
    {
      "type": "Feature",
      "properties": {
        "name": "皿ヶ嶺",
        "slope_deg": [
          16.567741642974887,
          16.567741642974887,
          16.567741642974887,
          19.162339354971866,
          19.162339354971866,
          15.774985955414158,
          16.039943306049665,
          13.360218444764483,
          15.242997742901547,
          15.907551930525813,
          15.2429977429017,
          14.9759845147566,
          12.68038349181982,
          13.224551192213497,
          11.034209003250188,
          11.996899307923577,
          11.996899307923577,
          9.926245506651705,
          11.7225209701022,
          11.7225209701022,
          11.7225209701022,
          11.7225209701022
        ],
        "horizontal_dist_map": 209,
        "slope_dist_map": 216,
        "elevation_diff_map": 51.9,
        "avg_slope_deg_map": 13.5,
        "max_slope_deg_map": 19.2
      },
      "geometry": {
        "type": "LineString",
        "coordinates": [
          [
            132.87937781506818,
            33.71972065467687,
            987.1
          ],
          [
            132.87927518400184,
            33.71969285062996,
            985.3
          ],
          [
            132.8791725529355,
            33.71966504658306,
            982.8
          ],
          [
            132.8790699218692,
            33.71963724253615,
            978.2
          ],
          [
            132.87896729080285,
            33.71960943848924,
            975.2
          ],
          [
            132.87886465485647,
            33.71958164713877,
            971.4
          ],
          [
            132.8787618579122,
            33.719554274656815,
            968.9
          ],
          [
            132.87865906096795,
            33.719526902174856,
            966.9
          ],
          [
            132.87855423303736,
            33.71950588131084,
            963.7
          ],
          [
            132.87844879865165,
            33.719486757048095,
            961.9
          ],
          [
            132.87834336426596,
            33.71946763278535,
            958.0
          ],
          [
            132.87823949906928,
            33.719443522551984,
            955.5
          ],
          [
            132.87813644668896,
            33.71941682966073,
            952.8
          ],
          [
            132.87803339430863,
            33.719390136769476,
            951.2
          ],
          [
            132.8779303419283,
            33.71936344387822,
            949.0
          ],
          [
            132.87782611924126,
            33.71934033393558,
            946.1
          ],
          [
            132.87772112946504,
            33.719319572472116,
            945.0
          ],
          [
            132.87761613968883,
            33.71929881100866,
            942.7
          ],
          [
            132.87751246429946,
            33.71927390436833,
            940.5
          ],
          [
            132.87740894665285,
            33.71924850025528,
            939.1
          ],
          [
            132.87730542900624,
            33.719223096142244,
            936.7
          ],
          [
            132.87720307376924,
            33.719197977294435,
            935.2
          ]
        ]
      }
    },
    {
      "type": "Feature",
      "properties": {
        "name": "三坂",
        "slope_deg": [
          4.289153328819018,
          4.289153328819018,
          4.289153328819018,
          4.146688825965976,
          3.718993973158075,
          4.004172940709484,
          5.142764557884274,
          6.277298489597523,
          5.9940929491083725,
          4.431564716435877,
          3.8616074096751394,
          3.8616074096751394,
          3.576334374997351,
          4.858462919034255,
          5.568737077976604,
          7.266008446996026,
          11.172136252167274,
          15.109575122340402,
          18.133621430820412,
          16.69924423399362,
          16.43605922463559,
          14.708303899682749,
          11.996899307923577,
          12.816647648997312,
          11.859779120947948,
          11.447596263685636,
          10.342657140474548,
          10.203973721731748,
          11.172136252167116,
          11.309932474020215,
          14.170977562933123,
          14.708303899682749,
          14.97598451475675,
          15.774985955414008,
          14.439965121002654,
          14.036243467926479,
          12.13388017063338,
          11.034209003250343,
          10.896152141141194,
          9.090276920822289,
          9.508771958297752,
          9.090276920822289,
          8.670801453590993,
          10.203973721731748,
          10.757967088390036,
          10.757967088390036,
          11.585126224854955,
          11.034209003250188,
          11.034209003250188,
          11.034209003250188,
          11.034209003250188
        ],
        "horizontal_dist_map": 496,
        "slope_dist_map": 506,
        "elevation_diff_map": 87.3,
        "avg_slope_deg_map": 9.8,
        "max_slope_deg_map": 18.1
      },
      "geometry": {
        "type": "LineString",
        "coordinates": [
          [
            132.87846389139017,
            33.72017591649231,
            994.7
          ],
          [
            132.8783848106625,
            33.72023724672663,
            993.9
          ],
          [
            132.87831750002402,
            33.72030721304111,
            993.0
          ],
          [
            132.87827684037086,
            33.72038927551522,
            992.2
          ],
          [
            132.87828715679746,
            33.7204775372392,
            991.7
          ],
          [
            132.87834333185947,
            33.72055346984824,
            991.0
          ],
          [
            132.87841673033964,
            33.72061954894617,
            990.4
          ],
          [
            132.87849012881983,
            33.7206856280441,
            989.4
          ],
          [
            132.87856655677606,
            33.72074909312453,
            988.1
          ],
          [
            132.87864794697768,
            33.72080827647567,
            986.6
          ],
          [
            132.87871242993853,
            33.72087969292766,
            986.2
          ],
          [
            132.87874675165307,
            33.72096374280711,
            986.3
          ],
          [
            132.87875773572202,
            33.72105298925134,
            985.4
          ],
          [
            132.87873076574658,
            33.72113857260057,
            983.9
          ],
          [
            132.87867125617754,
            33.721209319602984,
            983.7
          ],
          [
            132.87857491011215,
            33.72124819080857,
            982.9
          ],
          [
            132.87847319037718,
            33.72126427759141,
            981.5
          ],
          [
            132.87837440302616,
            33.72122802935443,
            978.8
          ],
          [
            132.8782872485324,
            33.721175829989335,
            975.8
          ],
          [
            132.87820390256203,
            33.72111862589661,
            972.1
          ],
          [
            132.878127667329,
            33.721054828691706,
            968.4
          ],
          [
            132.878051432096,
            33.720991031486804,
            966.8
          ],
          [
            132.87797119887753,
            33.720930928311475,
            964.0
          ],
          [
            132.87788760235205,
            33.720873932740126,
            961.6
          ],
          [
            132.8778040058266,
            33.72081693716878,
            959.9
          ],
          [
            132.8777204093011,
            33.72075994159743,
            957.7
          ],
          [
            132.8776484739763,
            33.720692776654076,
            955.6
          ],
          [
            132.87757676224714,
            33.72062541671992,
            953.5
          ],
          [
            132.87750505051795,
            33.72055805678576,
            952.6
          ],
          [
            132.8774333387888,
            33.720490696851606,
            950.5
          ],
          [
            132.87735690933502,
            33.7204271663572,
            947.7
          ],
          [
            132.87727841876918,
            33.720365308894884,
            945.5
          ],
          [
            132.8771999282033,
            33.72030345143258,
            942.5
          ],
          [
            132.87712143763747,
            33.720241593970265,
            940.0
          ],
          [
            132.87703946438089,
            33.72018312958316,
            937.0
          ],
          [
            132.87695435180868,
            33.72012772373174,
            934.2
          ],
          [
            132.8768692392365,
            33.72007231788033,
            932.2
          ],
          [
            132.87678412666432,
            33.72001691202892,
            930.0
          ],
          [
            132.87670296110264,
            33.71995760855751,
            928.4
          ],
          [
            132.8766234880363,
            33.7198966337696,
            926.4
          ],
          [
            132.87654401496997,
            33.7198356589817,
            924.5
          ],
          [
            132.87646454190363,
            33.719774684193794,
            923.6
          ],
          [
            132.87638332211935,
            33.71971537648927,
            921.7
          ],
          [
            132.876300501583,
            33.719657596556935,
            920.0
          ],
          [
            132.87621768104665,
            33.719599816624594,
            918.4
          ],
          [
            132.87613486051032,
            33.71954203669226,
            916.4
          ],
          [
            132.87605203997396,
            33.71948425675993,
            914.1
          ],
          [
            132.87596921943762,
            33.71942647682759,
            912.4
          ],
          [
            132.8758863989013,
            33.71936869689525,
            910.2
          ],
          [
            132.87580357836495,
            33.71931091696292,
            908.6
          ],
          [
            132.87574863476544,
            33.7192725854379,
            907.4
          ]
        ]
      }
    },
    {
      "type": "Feature",
      "properties": {
        "name": "モーグル",
        "slope_deg": [
          17.6146433000071,
          17.6146433000071,
          17.6146433000071,
          15.907551930525813,
          16.69924423399362,
          14.842227057911131,
          15.907551930525813,
          16.039943306049665,
          15.37625124882619,
          15.37625124882619,
          15.37625124882619,
          15.37625124882619
        ],
        "horizontal_dist_map": 108,
        "slope_dist_map": 113,
        "elevation_diff_map": 31.3,
        "avg_slope_deg_map": 15.4,
        "max_slope_deg_map": 17.6
      },
      "geometry": {
        "type": "LineString",
        "coordinates": [
          [
            132.87930066085895,
            33.71945366958751,
            983.5
          ],
          [
            132.87919696618226,
            33.71942877449761,
            979.9
          ],
          [
            132.87909327150555,
            33.719403879407714,
            977.1
          ],
          [
            132.87898957682887,
            33.719378984317814,
            973.4
          ],
          [
            132.8788858821522,
            33.71935408922791,
            970.8
          ],
          [
            132.87878218747548,
            33.71932919413801,
            968.5
          ],
          [
            132.8786784927988,
            33.71930429904812,
            965.1
          ],
          [
            132.87857479812212,
            33.71927940395822,
            962.8
          ],
          [
            132.8784711034454,
            33.71925450886832,
            959.4
          ],
          [
            132.87836740876872,
            33.71922961377842,
            957.0
          ],
          [
            132.87826371409204,
            33.71920471868852,
            954.1
          ],
          [
            132.87817052802103,
            33.719182346511964,
            952.2
          ]
        ]
      }
    }
  ]
}