{
  "type": "FeatureCollection",
  "features": [
    {
      "type": "Feature",
      "properties": {
        "name": "E1",
        "slope_deg": [
          26.565051177077994,
          26.565051177077994,
          26.565051177077994,
          27.699472808055,
          26.565051177077994,
          26.565051177077994,
          28.810793742973065,
          29.89890183861456,
          29.89890183861456,
          25.407718108948472,
          18.00416160591338,
          12.68038349181982,
          8.530765609948133,
          7.125016348901798,
          8.530765609948133,
          8.530765609948133,
          14.036243467926479,
          16.69924423399362,
          18.00416160591338,
          25.407718108948472,
          23.025492008528037,
          21.80140948635181,
          23.025492008528037,
          14.036243467926479,
          11.309932474020215,
          11.309932474020215,
          5.710593137499643,
          5.710593137499643,
          5.710593137499643,
          2.862405226111748,
          2.862405226111748,
          2.862405226111748,
          1.4320961841646465,
          1.4320961841646465,
          2.862405226111748,
          2.862405226111748,
          2.862405226111748,
          4.289153328819018,
          4.289153328819018,
          5.710593137499643,
          8.530765609948133,
          11.309932474020215,
          19.290046219188735,
          21.80140948635181,
          26.565051177077994,
          26.565051177077994,
          25.407718108948472,
          25.407718108948472,
          23.025492008528037,
          23.025492008528037,
          16.69924423399362,
          15.37625124882619,
          14.036243467926479,
          11.309932474020215,
          12.68038349181982,
          12.68038349181982,
          9.926245506651705,
          11.309932474020215,
          14.036243467926479,
          14.036243467926479,
          16.69924423399362,
          20.556045219583467,
          18.00416160591338,
          18.00416160591338,
          20.556045219583467,
          18.00416160591338,
          18.00416160591338,
          18.00416160591338,
          12.68038349181982,
          12.68038349181982,
          11.309932474020215,
          12.68038349181982,
          12.68038349181982,
          9.926245506651705,
          14.036243467926479,
          9.926245506651705,
          9.926245506651705,
          9.926245506651705
        ],
        "horizontal_dist_map": 775,
        "slope_dist_map": 815,
        "elevation_diff_map": 211.0,
        "avg_slope_deg_map": 14.5,
        "max_slope_deg_map": 29.9
      },
      "geometry": {
        "type": "LineString",
        "coordinates": [
          [
            140.54956560822885,
            38.43165591430606,
            1021.0
          ],
          [
            140.54948633878885,
            38.431720935462,
            1017.0
          ],
          [
            140.54940706934886,
            38.43178595661794,
            1012.0
          ],
          [
            140.5493277999089,
            38.43185097777388,
            1006.0
          ],
          [
            140.5492485304689,
            38.43191599892981,
            1001.0
          ],
          [
            140.5491692610289,
            38.43198102008575,
            996.0
          ],
          [
            140.54908999158891,
            38.432046041241684,
            992.0
          ],
          [
            140.54901072214895,
            38.432111062397624,
            986.0
          ],
          [
            140.54893145270896,
            38.43217608355356,
            979.0
          ],
          [
            140.54885218326896,
            38.4322411047095,
            973.0
          ],
          [
            140.54877291382897,
            38.43230612586544,
            969.0
          ],
          [
            140.548693644389,
            38.43237114702137,
            967.0
          ],
          [
            140.548614374949,
            38.43243616817731,
            966.0
          ],
          [
            140.54853510550902,
            38.432501189333244,
            964.0
          ],
          [
            140.54846159467363,
            38.4325700994797,
            963.0
          ],
          [
            140.54839188325465,
            38.432641575507226,
            962.0
          ],
          [
            140.5483221718357,
            38.43271305153475,
            960.0
          ],
          [
            140.54829541764255,
            38.432797986691725,
            958.0
          ],
          [
            140.5482835586917,
            38.43288758874677,
            953.0
          ],
          [
            140.54827169974087,
            38.43297719080183,
            950.0
          ],
          [
            140.54825984079002,
            38.43306679285688,
            947.0
          ],
          [
            140.54824798183918,
            38.43315639491193,
            939.0
          ],
          [
            140.5482361228883,
            38.43324599696698,
            936.0
          ],
          [
            140.54822426393747,
            38.43333559902204,
            934.0
          ],
          [
            140.54821240498663,
            38.433425201077085,
            930.0
          ],
          [
            140.5482005460358,
            38.43351480313214,
            929.0
          ],
          [
            140.54818868708495,
            38.43360440518719,
            928.0
          ],
          [
            140.5481768281341,
            38.43369400724224,
            926.0
          ],
          [
            140.54816496918326,
            38.43378360929729,
            926.0
          ],
          [
            140.54815832660503,
            38.43387351199104,
            925.0
          ],
          [
            140.5481534540306,
            38.4339635166966,
            924.0
          ],
          [
            140.5481485814562,
            38.43405352140216,
            924.0
          ],
          [
            140.54814370888178,
            38.434143526107725,
            924.0
          ],
          [
            140.54813883630734,
            38.43423353081329,
            923.0
          ],
          [
            140.54813396373294,
            38.43432353551885,
            923.0
          ],
          [
            140.5481290911585,
            38.43441354022441,
            923.0
          ],
          [
            140.5481242185841,
            38.434503544929974,
            922.0
          ],
          [
            140.54811934600968,
            38.43459354963554,
            921.0
          ],
          [
            140.54810339345147,
            38.43468209827643,
            921.0
          ],
          [
            140.54807080331636,
            38.43476846050729,
            920.0
          ],
          [
            140.54803821318126,
            38.43485482273815,
            919.0
          ],
          [
            140.5480016408545,
            38.43493987552071,
            917.0
          ],
          [
            140.5479463863714,
            38.43501878512388,
            915.0
          ],
          [
            140.54789113188832,
            38.435097694727055,
            912.0
          ],
          [
            140.54783587740525,
            38.43517660433022,
            905.0
          ],
          [
            140.54778062292215,
            38.43525551393339,
            901.0
          ],
          [
            140.54772536843907,
            38.43533442353656,
            895.0
          ],
          [
            140.54767011395597,
            38.43541333313973,
            892.0
          ],
          [
            140.5476148594729,
            38.4354922427429,
            886.0
          ],
          [
            140.54755960498983,
            38.43557115234607,
            882.0
          ],
          [
            140.54750671103722,
            38.435650878942184,
            878.0
          ],
          [
            140.54747007133562,
            38.4357362312265,
            875.0
          ],
          [
            140.547433431634,
            38.435821583510815,
            874.0
          ],
          [
            140.5473967919324,
            38.43590693579513,
            871.0
          ],
          [
            140.54736015223082,
            38.43599228807945,
            868.0
          ],
          [
            140.54732351252923,
            38.43607764036376,
            867.0
          ],
          [
            140.54731245818093,
            38.4361669893216,
            865.0
          ],
          [
            140.54730484981852,
            38.43625687657493,
            862.0
          ],
          [
            140.5472972414561,
            38.43634676382826,
            861.0
          ],
          [
            140.54728963309367,
            38.43643665108159,
            859.0
          ],
          [
            140.54728202473126,
            38.436526538334924,
            855.0
          ],
          [
            140.54727441636885,
            38.436616425588255,
            852.0
          ],
          [
            140.54728047195476,
            38.43670621970998,
            849.0
          ],
          [
            140.54729005961843,
            38.43679598975754,
            844.0
          ],
          [
            140.5472996472821,
            38.4368857598051,
            842.0
          ],
          [
            140.54730923494574,
            38.43697552985266,
            839.0
          ],
          [
            140.5473188226094,
            38.437065299900226,
            834.0
          ],
          [
            140.54732841027308,
            38.437155069947785,
            831.0
          ],
          [
            140.54733799793675,
            38.437244839995344,
            829.0
          ],
          [
            140.54736977119904,
            38.43733108217167,
            826.0
          ],
          [
            140.54740527495815,
            38.43741673113829,
            825.0
          ],
          [
            140.54744077871726,
            38.43750238010492,
            822.0
          ],
          [
            140.54747628247637,
            38.43758802907154,
            821.0
          ],
          [
            140.54751178623548,
            38.437673678038166,
            817.0
          ],
          [
            140.54754728999458,
            38.43775932700479,
            816.0
          ],
          [
            140.5475827937537,
            38.437844975971416,
            815.0
          ],
          [
            140.5476182975128,
            38.43793062493804,
            811.0
          ],
          [
            140.5476538012719,
            38.438016273904665,
            810.0
          ]
        ]
      }
    },
    {
      "type": "Feature",
      "properties": {
        "name": "E2",
        "slope_deg": [
          12.68038349181982,
          12.68038349181982,
          12.68038349181982,
          16.69924423399362,
          16.69924423399362,
          12.68038349181982,
          12.68038349181982,
          8.530765609948133,
          7.125016348901798,
          8.530765609948133,
          5.710593137499643,
          7.125016348901798,
          9.926245506651705,
          9.926245506651705,
          14.036243467926479,
          14.036243467926479,
          9.926245506651705,
          9.926245506651705,
          4.289153328819018,
          -1.4320961841646465,
          -1.4320961841646465,
          0.0,
          4.289153328819018,
          9.926245506651705,
          8.530765609948133,
          5.710593137499643,
          5.710593137499643,
          2.862405226111748,
          2.862405226111748,
          5.710593137499643,
          4.289153328819018,
          8.530765609948133,
          11.309932474020215,
          15.37625124882619,
          24.22774531795417,
          21.80140948635181,
          23.025492008528037,
          18.00416160591338,
          11.309932474020215,
          14.036243467926479,
          15.37625124882619,
          18.00416160591338,
          18.00416160591338,
          16.69924423399362,
          15.37625124882619,
          16.69924423399362,
          14.036243467926479,
          15.37625124882619,
          14.036243467926479,
          11.309932474020215,
          11.309932474020215,
          9.926245506651705,
          9.926245506651705,
          9.926245506651705,
          11.309932474020215,
          9.926245506651705,
          9.926245506651705,
          9.926245506651705,
          12.68038349181982,
          15.37625124882619,
          16.69924423399362,
          15.37625124882619,
          14.036243467926479,
          14.036243467926479,
          14.036243467926479,
          15.37625124882619,
          14.036243467926479,
          12.68038349181982,
          11.309932474020215,
          11.309932474020215,
          12.68038349181982,
          14.036243467926479,
          15.37625124882619,
          16.69924423399362,
          14.036243467926479,
          12.68038349181982,
          9.926245506651705,
          8.530765609948133,
          8.530765609948133,
          8.530765609948133,
          9.926245506651705,
          9.926245506651705,
          11.309932474020215,
          12.68038349181982,
          14.036243467926479,
          16.69924423399362,
          15.37625124882619,
          15.37625124882619,
          14.036243467926479,
          11.309932474020215,
          11.309932474020215,
          8.530765609948133,
          8.530765609948133,
          11.309932474020215,
          14.036243467926479,
          16.69924423399362,
          18.00416160591338,
          15.37625124882619,
          15.37625124882619,
          16.69924423399362,
          18.00416160591338,
          18.00416160591338,
          14.036243467926479,
          9.926245506651705,
          5.710593137499643,
          4.289153328819018,
          5.710593137499643,
          5.710593137499643,
          7.125016348901798,
          8.530765609948133,
          9.926245506651705,
          11.309932474020215,
          9.926245506651705,
          11.309932474020215,
          12.68038349181982,
          12.68038349181982,
          16.69924423399362,
          19.290046219188735,
          16.69924423399362,
          12.68038349181982,
          4.289153328819018,
          -1.4320961841646465,
          -4.289153328819018,
          -4.289153328819018,
          -1.4320961841646465,
          -1.4320961841646465,
          1.4320961841646465,
          8.530765609948133,
          11.309932474020215,
          12.68038349181982,
          12.68038349181982,
          8.530765609948133,
          8.530765609948133,
          7.125016348901798,
          8.530765609948133,
          7.125016348901798,
          4.289153328819018,
          2.862405226111748,
          4.289153328819018,
          7.125016348901798,
          7.125016348901798,
          8.530765609948133,
          4.289153328819018,
          2.862405226111748,
          4.289153328819018,
          4.289153328819018,
          5.710593137499643,
          8.530765609948133,
          9.926245506651705,
          12.68038349181982,
          15.37625124882619,
          14.036243467926479,
          20.556045219583467,
          23.025492008528037,
          24.22774531795417,
          28.810793742973065,
          24.22774531795417,
          21.80140948635181,
          16.69924423399362,
          14.036243467926479,
          11.309932474020215,
          7.125016348901798,
          4.289153328819018,
          -2.862405226111748,
          -2.862405226111748,
          -2.862405226111748
        ],
        "horizontal_dist_map": 1652,
        "slope_dist_map": 1700,
        "elevation_diff_map": 320.0,
        "avg_slope_deg_map": 10.7,
        "max_slope_deg_map": 28.8
      },
      "geometry": {
        "type": "LineString",
        "coordinates": [
          [
            140.5506619304739,
            38.43123343501523,
            1031.0
          ],
          [
            140.5506877461744,
            38.43132120284173,
            1030.0
          ],
          [
            140.55071600448656,
            38.431408178778945,
            1027.0
          ],
          [
            140.5507763070624,
            38.43148476603713,
            1024.0
          ],
          [
            140.55083660963822,
            38.431561353295315,
            1022.0
          ],
          [
            140.55089849352183,
            38.43163657576054,
            1018.0
          ],
          [
            140.55100102232845,
            38.43167671846152,
            1015.0
          ],
          [
            140.55110355113504,
            38.43171686116249,
            1015.0
          ],
          [
            140.55120607994166,
            38.43175700386347,
            1013.0
          ],
          [
            140.55130860874826,
            38.43179714656444,
            1012.0
          ],
          [
            140.5514189960375,
            38.43181894011073,
            1010.0
          ],
          [
            140.55153150576956,
            38.43183577786179,
            1009.0
          ],
          [
            140.55164401550158,
            38.431852615612854,
            1009.0
          ],
          [
            140.55175652523363,
            38.431869453363916,
            1007.0
          ],
          [
            140.55186893452475,
            38.43188650103633,
            1003.0
          ],
          [
            140.55196763908492,
            38.43193219158048,
            1002.0
          ],
          [
            140.5520663436451,
            38.431977882124635,
            999.0
          ],
          [
            140.55216504820527,
            38.43202357266879,
            997.0
          ],
          [
            140.55225101827997,
            38.43207815687297,
            996.0
          ],
          [
            140.55229701376746,
            38.43216065900038,
            995.0
          ],
          [
            140.55234300925497,
            38.43224316112779,
            996.0
          ],
          [
            140.55238900474248,
            38.43232566325521,
            998.0
          ],
          [
            140.55243500022996,
            38.432408165382625,
            997.0
          ],
          [
            140.55248784578097,
            38.432487822356954,
            995.0
          ],
          [
            140.55254852756576,
            38.43256422457535,
            993.0
          ],
          [
            140.55260920935055,
            38.43264062679375,
            991.0
          ],
          [
            140.55266989113534,
            38.432717029012146,
            991.0
          ],
          [
            140.55273057292015,
            38.432793431230536,
            991.0
          ],
          [
            140.55279125470494,
            38.43286983344893,
            989.0
          ],
          [
            140.55285193648973,
            38.43294623566733,
            989.0
          ],
          [
            140.55291261827455,
            38.43302263788573,
            989.0
          ],
          [
            140.55297330005934,
            38.433099040104125,
            987.0
          ],
          [
            140.55294415418493,
            38.43317752782013,
            986.0
          ],
          [
            140.55288930630806,
            38.4332566122506,
            983.0
          ],
          [
            140.55283445843116,
            38.43333569668108,
            981.0
          ],
          [
            140.5527796105543,
            38.43341478111156,
            976.0
          ],
          [
            140.55272476267743,
            38.43349386554203,
            968.0
          ],
          [
            140.55266991480056,
            38.43357294997251,
            967.0
          ],
          [
            140.55261506692366,
            38.43365203440299,
            964.0
          ],
          [
            140.5525602190468,
            38.433731118833464,
            963.0
          ],
          [
            140.55250537116993,
            38.43381020326394,
            960.0
          ],
          [
            140.55245052329306,
            38.43388928769442,
            957.0
          ],
          [
            140.55239567541616,
            38.433968372124895,
            953.0
          ],
          [
            140.5523408275393,
            38.43404745655537,
            950.0
          ],
          [
            140.55228597966243,
            38.43412654098585,
            947.0
          ],
          [
            140.55223113178556,
            38.434205625416325,
            945.0
          ],
          [
            140.55217628390866,
            38.4342847098468,
            942.0
          ],
          [
            140.5521214360318,
            38.434363794277274,
            938.0
          ],
          [
            140.55206136030654,
            38.434440240758065,
            937.0
          ],
          [
            140.55199282839305,
            38.43451242028283,
            934.0
          ],
          [
            140.55192429647954,
            38.434584599807586,
            932.0
          ],
          [
            140.55185576456603,
            38.43465677933234,
            930.0
          ],
          [
            140.55178723265252,
            38.4347289588571,
            929.0
          ],
          [
            140.55171870073903,
            38.434801138381864,
            927.0
          ],
          [
            140.55165016882552,
            38.43487331790662,
            925.0
          ],
          [
            140.551581636912,
            38.43494549743138,
            923.0
          ],
          [
            140.5515131049985,
            38.435017676956136,
            921.0
          ],
          [
            140.551444573085,
            38.43508985648089,
            920.0
          ],
          [
            140.5513760411715,
            38.43516203600566,
            918.0
          ],
          [
            140.55130750925798,
            38.435234215530414,
            916.0
          ],
          [
            140.55123897734447,
            38.43530639505517,
            912.0
          ],
          [
            140.5511667947393,
            38.435376290896464,
            909.0
          ],
          [
            140.55109279365033,
            38.43544504918859,
            906.0
          ],
          [
            140.55101879256136,
            38.43551380748071,
            905.0
          ],
          [
            140.5509447914724,
            38.43558256577283,
            902.0
          ],
          [
            140.55087079038347,
            38.435651324064956,
            899.0
          ],
          [
            140.5507967892945,
            38.435720082357086,
            896.0
          ],
          [
            140.55072278820555,
            38.43578884064921,
            894.0
          ],
          [
            140.5506487871166,
            38.43585759894133,
            892.0
          ],
          [
            140.55057478602765,
            38.435926357233456,
            890.0
          ],
          [
            140.5505007849387,
            38.43599511552558,
            888.0
          ],
          [
            140.55042678384973,
            38.4360638738177,
            886.0
          ],
          [
            140.55035278276077,
            38.43613263210983,
            883.0
          ],
          [
            140.55027878167184,
            38.436201390401955,
            880.0
          ],
          [
            140.55020478058287,
            38.43627014869408,
            877.0
          ],
          [
            140.5501307794939,
            38.4363389069862,
            874.0
          ],
          [
            140.55005677840495,
            38.436407665278324,
            873.0
          ],
          [
            140.54998363196904,
            38.43647696743114,
            871.0
          ],
          [
            140.54991361414704,
            38.43654826048554,
            870.0
          ],
          [
            140.54984359632502,
            38.436619553539934,
            868.0
          ],
          [
            140.54977357850302,
            38.43669084659433,
            867.0
          ],
          [
            140.549703560681,
            38.43676213964873,
            865.0
          ],
          [
            140.549633542859,
            38.436833432703125,
            863.0
          ],
          [
            140.54956352503697,
            38.43690472575752,
            861.0
          ],
          [
            140.54949350721498,
            38.43697601881192,
            859.0
          ],
          [
            140.54942348939295,
            38.437047311866316,
            856.0
          ],
          [
            140.54935347157095,
            38.43711860492071,
            853.0
          ],
          [
            140.54928345374893,
            38.43718989797511,
            849.0
          ],
          [
            140.54921343592693,
            38.437261191029506,
            848.0
          ],
          [
            140.5491434181049,
            38.4373324840839,
            845.0
          ],
          [
            140.5490734002829,
            38.43740377713831,
            843.0
          ],
          [
            140.54900338246088,
            38.437475070192704,
            841.0
          ],
          [
            140.54893336463888,
            38.4375463632471,
            840.0
          ],
          [
            140.54886334681686,
            38.4376176563015,
            839.0
          ],
          [
            140.54879332899486,
            38.437688949355895,
            837.0
          ],
          [
            140.54871123302465,
            38.437748951270834,
            833.0
          ],
          [
            140.548609946905,
            38.437791013461116,
            830.0
          ],
          [
            140.54850866078536,
            38.4378330756514,
            827.0
          ],
          [
            140.54840737466571,
            38.43787513784167,
            824.0
          ],
          [
            140.54830608854607,
            38.437917200031954,
            822.0
          ],
          [
            140.54820480242643,
            38.437959262222236,
            819.0
          ],
          [
            140.54810351630678,
            38.43800132441252,
            815.0
          ],
          [
            140.54800223018714,
            38.43804338660279,
            811.0
          ],
          [
            140.54790094406752,
            38.438085448793075,
            809.0
          ],
          [
            140.54779935744875,
            38.43812705145422,
            809.0
          ],
          [
            140.54769692126223,
            38.43816735493973,
            808.0
          ],
          [
            140.5475944850757,
            38.43820765842524,
            807.0
          ],
          [
            140.54749204888918,
            38.43824796191076,
            806.0
          ],
          [
            140.5473896127027,
            38.438288265396274,
            805.0
          ],
          [
            140.54728717651616,
            38.43832856888179,
            804.0
          ],
          [
            140.54718474032964,
            38.438368872367306,
            802.0
          ],
          [
            140.54708230414312,
            38.43840917585282,
            800.0
          ],
          [
            140.54697986795662,
            38.43844947933834,
            798.0
          ],
          [
            140.5468774317701,
            38.43848978282385,
            796.0
          ],
          [
            140.54677499558358,
            38.43853008630937,
            795.0
          ],
          [
            140.54667255939705,
            38.43857038979488,
            792.0
          ],
          [
            140.54657012321056,
            38.4386106932804,
            789.0
          ],
          [
            140.5464754815138,
            38.438658522058624,
            787.0
          ],
          [
            140.54640458795825,
            38.43872927879234,
            783.0
          ],
          [
            140.5463336944027,
            38.43880003552605,
            778.0
          ],
          [
            140.5462628008472,
            38.43887079225976,
            777.0
          ],
          [
            140.54619190729164,
            38.43894154899347,
            778.0
          ],
          [
            140.54612101373613,
            38.43901230572718,
            780.0
          ],
          [
            140.54605012018058,
            38.439083062460895,
            779.0
          ],
          [
            140.54597922662504,
            38.43915381919461,
            780.0
          ],
          [
            140.54590833306952,
            38.43922457592832,
            781.0
          ],
          [
            140.54584986092934,
            38.439301700374976,
            781.0
          ],
          [
            140.54579617359383,
            38.43938127770335,
            780.0
          ],
          [
            140.5457424862583,
            38.439460855031726,
            779.0
          ],
          [
            140.54568879892278,
            38.4395404323601,
            775.0
          ],
          [
            140.54563511158727,
            38.43962000968847,
            773.0
          ],
          [
            140.54558142425174,
            38.43969958701684,
            771.0
          ],
          [
            140.54552773691623,
            38.43977916434522,
            770.0
          ],
          [
            140.5454740495807,
            38.43985874167359,
            769.0
          ],
          [
            140.54542036224518,
            38.43993831900196,
            767.0
          ],
          [
            140.54533651121466,
            38.4399970776217,
            766.0
          ],
          [
            140.54522475552855,
            38.44001483880642,
            764.0
          ],
          [
            140.5451120181826,
            38.44003076311148,
            764.0
          ],
          [
            140.54499928083666,
            38.44004668741653,
            764.0
          ],
          [
            140.54488654349072,
            38.440062611721594,
            764.0
          ],
          [
            140.5447738061448,
            38.44007853602665,
            761.0
          ],
          [
            140.54466106879886,
            38.44009446033171,
            759.0
          ],
          [
            140.54454833145292,
            38.44011038463676,
            759.0
          ],
          [
            140.54443559410697,
            38.44012630894182,
            758.0
          ],
          [
            140.54432285676103,
            38.440142233246874,
            758.0
          ],
          [
            140.54421011941508,
            38.440158157551934,
            757.0
          ],
          [
            140.54409738206917,
            38.44017408185699,
            756.0
          ],
          [
            140.54398464472322,
            38.44019000616205,
            755.0
          ],
          [
            140.54387190737728,
            38.4402059304671,
            754.0
          ],
          [
            140.54375917003134,
            38.44022185477216,
            751.0
          ],
          [
            140.5436464326854,
            38.440237779077215,
            749.0
          ],
          [
            140.5435331696784,
            38.44025008498092,
            746.0
          ],
          [
            140.54341877040946,
            38.44025456939612,
            743.0
          ],
          [
            140.54330437114052,
            38.44025905381132,
            741.0
          ],
          [
            140.543191211714,
            38.440251367277355,
            734.0
          ],
          [
            140.54307917948734,
            38.44023261555341,
            729.0
          ],
          [
            140.5429671472607,
            38.44021386382946,
            725.0
          ],
          [
            140.54285511503403,
            38.44019511210551,
            719.0
          ],
          [
            140.54274308280736,
            38.44017636038157,
            716.0
          ],
          [
            140.54263105058072,
            38.44015760865762,
            713.0
          ],
          [
            140.54251901835406,
            38.44013885693367,
            713.0
          ],
          [
            140.5424069861274,
            38.44012010520972,
            709.0
          ],
          [
            140.54229495390075,
            38.44010135348578,
            708.0
          ],
          [
            140.54218292167408,
            38.44008260176183,
            708.0
          ],
          [
            140.54207088944742,
            38.44006385003788,
            710.0
          ],
          [
            140.54195885722078,
            38.44004509831394,
            711.0
          ]
        ]
      }
    },
    {
      "type": "Feature",
      "properties": {
        "name": "W1",
        "slope_deg": [
          -2.862405226111748,
          -2.862405226111748,
          -2.862405226111748,
          0.0,
          -1.4320961841646465,
          -1.4320961841646465,
          0.0,
          -1.4320961841646465,
          0.0,
          1.4320961841646465,
          1.4320961841646465,
          2.862405226111748,
          2.862405226111748,
          1.4320961841646465,
          2.862405226111748,
          0.0,
          1.4320961841646465,
          2.862405226111748,
          4.289153328819018,
          11.309932474020215,
          8.530765609948133,
          7.125016348901798,
          7.125016348901798,
          0.0,
          2.862405226111748,
          4.289153328819018,
          2.862405226111748,
          7.125016348901798,
          12.68038349181982,
          12.68038349181982,
          14.036243467926479,
          14.036243467926479,
          9.926245506651705,
          11.309932474020215,
          8.530765609948133,
          7.125016348901798,
          7.125016348901798,
          7.125016348901798,
          8.530765609948133,
          8.530765609948133,
          7.125016348901798,
          5.710593137499643,
          5.710593137499643,
          9.926245506651705,
          8.530765609948133,
          12.68038349181982,
          9.926245506651705,
          9.926245506651705,
          9.926245506651705,
          9.926245506651705,
          11.309932474020215,
          9.926245506651705,
          14.036243467926479,
          12.68038349181982,
          16.69924423399362,
          20.556045219583467,
          16.69924423399362,
          16.69924423399362,
          15.37625124882619,
          8.530765609948133,
          11.309932474020215,
          4.289153328819018,
          4.289153328819018,
          9.926245506651705,
          8.530765609948133,
          11.309932474020215,
          12.68038349181982,
          7.125016348901798,
          8.530765609948133,
          12.68038349181982,
          11.309932474020215,
          11.309932474020215,
          12.68038349181982,
          9.926245506651705,
          12.68038349181982,
          12.68038349181982,
          11.309932474020215,
          11.309932474020215,
          11.309932474020215,
          11.309932474020215,
          12.68038349181982,
          19.290046219188735,
          15.37625124882619,
          18.00416160591338,
          16.69924423399362,
          12.68038349181982,
          11.309932474020215,
          8.530765609948133,
          7.125016348901798,
          7.125016348901798,
          8.530765609948133,
          8.530765609948133,
          9.926245506651705,
          8.530765609948133,
          8.530765609948133,
          11.309932474020215,
          11.309932474020215,
          9.926245506651705,
          11.309932474020215,
          9.926245506651705,
          8.530765609948133,
          9.926245506651705,
          8.530765609948133,
          7.125016348901798,
          8.530765609948133,
          7.125016348901798,
          9.926245506651705,
          16.69924423399362,
          16.69924423399362,
          19.290046219188735,
          21.80140948635181,
          16.69924423399362,
          15.37625124882619,
          14.036243467926479,
          8.530765609948133,
          5.710593137499643,
          7.125016348901798,
          4.289153328819018,
          2.862405226111748,
          2.862405226111748,
          1.4320961841646465,
          1.4320961841646465,
          2.862405226111748,
          2.862405226111748,
          2.862405226111748,
          5.710593137499643,
          8.530765609948133,
          11.309932474020215,
          11.309932474020215,
          11.309932474020215,
          9.926245506651705,
          9.926245506651705,
          11.309932474020215,
          12.68038349181982,
          15.37625124882619,
          15.37625124882619,
          19.290046219188735,
          16.69924423399362,
          14.036243467926479,
          12.68038349181982,
          7.125016348901798,
          7.125016348901798,
          5.710593137499643,
          5.710593137499643,
          5.710593137499643,
          4.289153328819018,
          14.036243467926479,
          16.69924423399362,
          18.00416160591338,
          19.290046219188735,
          9.926245506651705,
          7.125016348901798,
          5.710593137499643,
          8.530765609948133,
          8.530765609948133,
          9.926245506651705,
          12.68038349181982,
          12.68038349181982,
          14.036243467926479,
          16.69924423399362,
          20.556045219583467,
          21.80140948635181,
          25.407718108948472,
          25.407718108948472,
          20.556045219583467,
          19.290046219188735,
          15.37625124882619,
          12.68038349181982,
          11.309932474020215,
          8.530765609948133,
          7.125016348901798,
          7.125016348901798,
          7.125016348901798
        ],
        "horizontal_dist_map": 1722,
        "slope_dist_map": 1767,
        "elevation_diff_map": 296.0,
        "avg_slope_deg_map": 9.5,
        "max_slope_deg_map": 25.4
      },
      "geometry": {
        "type": "LineString",
        "coordinates": [
          [
            140.55043425492093,
            38.431104120772474,
            1031.0
          ],
          [
            140.55032370114927,
            38.43112764357486,
            1032.0
          ],
          [
            140.55021314737763,
            38.43115116637724,
            1032.0
          ],
          [
            140.55010259360597,
            38.43117468917963,
            1032.0
          ],
          [
            140.54999203983434,
            38.43119821198201,
            1033.0
          ],
          [
            140.54988148606267,
            38.431221734784394,
            1032.0
          ],
          [
            140.54977093229104,
            38.431245257586774,
            1033.0
          ],
          [
            140.54966037851938,
            38.43126878038916,
            1033.0
          ],
          [
            140.54954788942354,
            38.43128564437457,
            1033.0
          ],
          [
            140.54943532258065,
            38.4313022408578,
            1033.0
          ],
          [
            140.54932275573776,
            38.431318837341024,
            1033.0
          ],
          [
            140.54921018889488,
            38.43133543382425,
            1032.0
          ],
          [
            140.549097622052,
            38.43135203030748,
            1032.0
          ],
          [
            140.5489850552091,
            38.43136862679071,
            1031.0
          ],
          [
            140.54887188440028,
            38.431363952423446,
            1031.0
          ],
          [
            140.54875848779247,
            38.43135132572387,
            1031.0
          ],
          [
            140.54864509118462,
            38.431338699024295,
            1030.0
          ],
          [
            140.54853169457678,
            38.431326072324715,
            1031.0
          ],
          [
            140.54841829796896,
            38.43131344562514,
            1030.0
          ],
          [
            140.54830490136112,
            38.431300818925564,
            1029.0
          ],
          [
            140.54819150475328,
            38.43128819222599,
            1027.0
          ],
          [
            140.54807810814543,
            38.43127556552641,
            1023.0
          ],
          [
            140.547965477426,
            38.43125965418893,
            1024.0
          ],
          [
            140.54785376438943,
            38.43123980721815,
            1024.0
          ],
          [
            140.54774205135286,
            38.431219960247375,
            1022.0
          ],
          [
            140.54763033831628,
            38.431200113276596,
            1023.0
          ],
          [
            140.5475186252797,
            38.431180266305816,
            1022.0
          ],
          [
            140.54740653565605,
            38.43116383410291,
            1021.0
          ],
          [
            140.54729214657735,
            38.43116825260302,
            1020.0
          ],
          [
            140.54717775749864,
            38.43117267110313,
            1018.0
          ],
          [
            140.547065643153,
            38.431186685995876,
            1013.0
          ],
          [
            140.54695691628004,
            38.43121499158445,
            1012.0
          ],
          [
            140.54684818940711,
            38.431243297173026,
            1010.0
          ],
          [
            140.54673946253416,
            38.431271602761605,
            1008.0
          ],
          [
            140.54663073566124,
            38.43129990835018,
            1006.0
          ],
          [
            140.5465220087883,
            38.431328213938755,
            1004.0
          ],
          [
            140.54641328191533,
            38.43135651952733,
            1004.0
          ],
          [
            140.54630469260175,
            38.43138514423828,
            1003.0
          ],
          [
            140.5461965142795,
            38.43141472240344,
            1001.0
          ],
          [
            140.54608833595725,
            38.4314443005686,
            999.0
          ],
          [
            140.545980157635,
            38.43147387873376,
            998.0
          ],
          [
            140.54587197931275,
            38.43150345689892,
            997.0
          ],
          [
            140.54576380099053,
            38.431533035064085,
            996.0
          ],
          [
            140.54565562266828,
            38.431562613229254,
            995.0
          ],
          [
            140.54554744434603,
            38.431592191394415,
            994.0
          ],
          [
            140.54544050748268,
            38.43162435191244,
            990.0
          ],
          [
            140.5453345204029,
            38.431658488070795,
            990.0
          ],
          [
            140.54522853332307,
            38.43169262422916,
            986.0
          ],
          [
            140.54512254624328,
            38.43172676038751,
            987.0
          ],
          [
            140.54501655916349,
            38.431760896545875,
            983.0
          ],
          [
            140.5449105720837,
            38.43179503270423,
            983.0
          ],
          [
            140.54480458500387,
            38.431829168862585,
            979.0
          ],
          [
            140.54469859792408,
            38.43186330502095,
            979.0
          ],
          [
            140.54459130207292,
            38.431894589278954,
            976.0
          ],
          [
            140.54448203064675,
            38.43192156862688,
            973.0
          ],
          [
            140.5443717553107,
            38.43193514469223,
            970.0
          ],
          [
            140.54425921228727,
            38.4319184446788,
            967.0
          ],
          [
            140.54414669509498,
            38.43190166529243,
            961.0
          ],
          [
            140.54403779293773,
            38.431873777764,
            961.0
          ],
          [
            140.5439288907805,
            38.431845890235564,
            958.0
          ],
          [
            140.54381998862326,
            38.43181800270713,
            956.0
          ],
          [
            140.543711086466,
            38.4317901151787,
            955.0
          ],
          [
            140.54360218430875,
            38.43176222765027,
            953.0
          ],
          [
            140.54349203927885,
            38.43173801539694,
            955.0
          ],
          [
            140.54337991583546,
            38.43171965347256,
            953.0
          ],
          [
            140.54326779239204,
            38.43170129154819,
            948.0
          ],
          [
            140.54315566894863,
            38.43168292962381,
            947.0
          ],
          [
            140.5430435455052,
            38.431664567699436,
            947.0
          ],
          [
            140.54293142206183,
            38.43164620577506,
            944.0
          ],
          [
            140.5428192986184,
            38.431627843850684,
            943.0
          ],
          [
            140.542707175175,
            38.43160948192631,
            941.0
          ],
          [
            140.54259566037874,
            38.431589587673336,
            938.0
          ],
          [
            140.54249018982816,
            38.431554476441434,
            936.0
          ],
          [
            140.54238471927758,
            38.431519365209525,
            935.0
          ],
          [
            140.542279248727,
            38.431484253977615,
            932.0
          ],
          [
            140.54217377817645,
            38.43144914274571,
            931.0
          ],
          [
            140.54206830762587,
            38.4314140315138,
            927.0
          ],
          [
            140.5419628370753,
            38.4313789202819,
            926.0
          ],
          [
            140.5418573665247,
            38.43134380904999,
            924.0
          ],
          [
            140.54175189597413,
            38.43130869781808,
            923.0
          ],
          [
            140.54164465989587,
            38.43127790542043,
            919.0
          ],
          [
            140.541532940985,
            38.431258078928906,
            918.0
          ],
          [
            140.54142122207415,
            38.43123825243739,
            915.0
          ],
          [
            140.54130950316326,
            38.43121842594587,
            909.0
          ],
          [
            140.5411977842524,
            38.431198599454355,
            908.0
          ],
          [
            140.54108606534155,
            38.43117877296284,
            905.0
          ],
          [
            140.5409743464307,
            38.43115894647132,
            903.0
          ],
          [
            140.54086190268495,
            38.43114622015529,
            900.0
          ],
          [
            140.54074759327057,
            38.431151769139454,
            900.0
          ],
          [
            140.5407598668267,
            38.431236646678734,
            899.0
          ],
          [
            140.54077853035432,
            38.43132552876303,
            898.0
          ],
          [
            140.54079719388193,
            38.43141441084733,
            895.0
          ],
          [
            140.54081585740954,
            38.43150329293163,
            894.0
          ],
          [
            140.54083452093715,
            38.43159217501593,
            893.0
          ],
          [
            140.54085318446477,
            38.43168105710023,
            891.0
          ],
          [
            140.54087184799238,
            38.43176993918453,
            889.0
          ],
          [
            140.54089051152,
            38.431858821268825,
            888.0
          ],
          [
            140.5409091750476,
            38.431947703353124,
            885.0
          ],
          [
            140.54092783857521,
            38.43203658543742,
            883.0
          ],
          [
            140.54094650210283,
            38.43212546752172,
            882.0
          ],
          [
            140.54096516563044,
            38.43221434960602,
            880.0
          ],
          [
            140.54098382915805,
            38.43230323169032,
            878.0
          ],
          [
            140.54100012074505,
            38.43239234996499,
            877.0
          ],
          [
            140.5410102042055,
            38.432482086425345,
            875.0
          ],
          [
            140.5410202876659,
            38.432571822885706,
            874.0
          ],
          [
            140.54103037112634,
            38.43266155934606,
            873.0
          ],
          [
            140.54104045458678,
            38.43275129580642,
            871.0
          ],
          [
            140.54105053804722,
            38.43284103226677,
            870.0
          ],
          [
            140.54106062150763,
            38.43293076872713,
            867.0
          ],
          [
            140.54107070496806,
            38.433020505187486,
            861.0
          ],
          [
            140.5410795071864,
            38.43311032157992,
            859.0
          ],
          [
            140.54108753440048,
            38.43320018632206,
            856.0
          ],
          [
            140.54109556161458,
            38.433290051064205,
            851.0
          ],
          [
            140.5411035888287,
            38.433379915806356,
            849.0
          ],
          [
            140.5411116160428,
            38.4334697805485,
            848.0
          ],
          [
            140.54111964325688,
            38.43355964529065,
            846.0
          ],
          [
            140.54112468945965,
            38.433649619965905,
            845.0
          ],
          [
            140.54112738727898,
            38.43373968124435,
            845.0
          ],
          [
            140.5411300850983,
            38.433829742522796,
            843.0
          ],
          [
            140.54113278291763,
            38.433919803801246,
            843.0
          ],
          [
            140.54113548073695,
            38.43400986507969,
            843.0
          ],
          [
            140.54114532557094,
            38.434099502605264,
            843.0
          ],
          [
            140.541159822542,
            38.43418886430148,
            842.0
          ],
          [
            140.54117431951303,
            38.434278225997694,
            842.0
          ],
          [
            140.5411888164841,
            38.43436758769391,
            841.0
          ],
          [
            140.541223854525,
            38.43445259869788,
            841.0
          ],
          [
            140.5412683675946,
            38.434535602847546,
            840.0
          ],
          [
            140.54131288066424,
            38.43461860699722,
            838.0
          ],
          [
            140.54135739373385,
            38.43470161114689,
            835.0
          ],
          [
            140.5414019068035,
            38.434784615296564,
            833.0
          ],
          [
            140.5414030809167,
            38.43486671207851,
            832.0
          ],
          [
            140.54135301675808,
            38.4349477361084,
            830.0
          ],
          [
            140.54129596996597,
            38.4350257521549,
            828.0
          ],
          [
            140.54123611897032,
            38.43510256020478,
            826.0
          ],
          [
            140.5411762679747,
            38.435179368254666,
            824.0
          ],
          [
            140.54111641697907,
            38.43525617630454,
            821.0
          ],
          [
            140.54105656598344,
            38.435332984354424,
            817.0
          ],
          [
            140.54099671498778,
            38.43540979240431,
            815.0
          ],
          [
            140.54093686399216,
            38.43548660045419,
            810.0
          ],
          [
            140.54087701299653,
            38.43556340850407,
            809.0
          ],
          [
            140.5408171620009,
            38.435640216553956,
            807.0
          ],
          [
            140.54075731100525,
            38.43571702460384,
            806.0
          ],
          [
            140.54069746000962,
            38.43579383265372,
            805.0
          ],
          [
            140.540637609014,
            38.435870640703605,
            804.0
          ],
          [
            140.54057775801834,
            38.43594744875348,
            803.0
          ],
          [
            140.54051790702272,
            38.436024256803364,
            802.0
          ],
          [
            140.5404580560271,
            38.43610106485325,
            801.0
          ],
          [
            140.54039820503147,
            38.43617787290313,
            801.0
          ],
          [
            140.5403383540358,
            38.43625468095301,
            793.0
          ],
          [
            140.54027850304018,
            38.436331489002896,
            790.0
          ],
          [
            140.54021865204456,
            38.43640829705278,
            788.0
          ],
          [
            140.54015880104893,
            38.43648510510266,
            787.0
          ],
          [
            140.54009895005328,
            38.436561913152545,
            786.0
          ],
          [
            140.54003909905765,
            38.43663872120242,
            785.0
          ],
          [
            140.53997924806202,
            38.436715529252304,
            784.0
          ],
          [
            140.5399193970664,
            38.43679233730219,
            781.0
          ],
          [
            140.53985954607074,
            38.43686914535207,
            780.0
          ],
          [
            140.53979969507512,
            38.43694595340195,
            778.0
          ],
          [
            140.5397398440795,
            38.437022761451836,
            775.0
          ],
          [
            140.53967999308384,
            38.43709956950172,
            772.0
          ],
          [
            140.5396201420882,
            38.4371763775516,
            770.0
          ],
          [
            140.53956029109258,
            38.437253185601485,
            766.0
          ],
          [
            140.53950044009696,
            38.43732999365136,
            760.0
          ],
          [
            140.5394405891013,
            38.43740680170124,
            756.0
          ],
          [
            140.53938073810568,
            38.437483609751126,
            751.0
          ],
          [
            140.53932088711005,
            38.43756041780101,
            747.0
          ],
          [
            140.53926103611442,
            38.43763722585089,
            745.0
          ],
          [
            140.53920118511877,
            38.437714033900775,
            742.0
          ],
          [
            140.53914133412314,
            38.43779084195066,
            740.0
          ],
          [
            140.53908148312752,
            38.43786765000054,
            738.0
          ],
          [
            140.53902163213186,
            38.437944458050424,
            737.0
          ],
          [
            140.53896178113624,
            38.4380212661003,
            736.0
          ],
          [
            140.5389019301406,
            38.43809807415018,
            735.0
          ]
        ]
      }
    },
    {
      "type": "Feature",
      "properties": {
        "name": "W3",
        "slope_deg": [
          20.556045219583467,
          20.556045219583467,
          20.556045219583467,
          14.036243467926479,
          9.926245506651705,
          9.926245506651705,
          9.926245506651705,
          11.309932474020215,
          18.00416160591338,
          20.556045219583467,
          20.556045219583467,
          23.025492008528037,
          16.69924423399362,
          15.37625124882619,
          19.290046219188735,
          21.80140948635181,
          25.407718108948472,
          25.407718108948472,
          23.025492008528037,
          20.556045219583467,
          18.00416160591338,
          20.556045219583467,
          26.565051177077994,
          27.699472808055,
          32.005383208083494,
          30.96375653207352,
          23.025492008528037,
          19.290046219188735,
          11.309932474020215,
          9.926245506651705,
          11.309932474020215,
          9.926245506651705,
          12.68038349181982,
          11.309932474020215,
          9.926245506651705,
          12.68038349181982,
          11.309932474020215,
          9.926245506651705,
          11.309932474020215,
          8.530765609948133,
          12.68038349181982,
          15.37625124882619,
          19.290046219188735,
          20.556045219583467,
          15.37625124882619,
          12.68038349181982,
          9.926245506651705,
          8.530765609948133,
          8.530765609948133,
          14.036243467926479,
          12.68038349181982,
          14.036243467926479,
          16.69924423399362,
          12.68038349181982,
          11.309932474020215,
          12.68038349181982,
          9.926245506651705,
          8.530765609948133,
          11.309932474020215,
          8.530765609948133,
          8.530765609948133,
          11.309932474020215,
          7.125016348901798,
          9.926245506651705,
          11.309932474020215,
          11.309932474020215,
          15.37625124882619,
          11.309932474020215,
          11.309932474020215,
          4.289153328819018,
          2.862405226111748,
          2.862405226111748,
          1.4320961841646465,
          4.289153328819018,
          4.289153328819018,
          5.710593137499643,
          5.710593137499643,
          7.125016348901798,
          5.710593137499643,
          5.710593137499643,
          5.710593137499643,
          5.710593137499643,
          5.710593137499643,
          9.926245506651705,
          11.309932474020215,
          12.68038349181982,
          12.68038349181982,
          12.68038349181982
        ],
        "horizontal_dist_map": 878,
        "slope_dist_map": 915,
        "elevation_diff_map": 211.0,
        "avg_slope_deg_map": 13.0,
        "max_slope_deg_map": 32.0
      },
      "geometry": {
        "type": "LineString",
        "coordinates": [
          [
            140.54553223001844,
            38.43165609332142,
            992.0
          ],
          [
            140.54552337308607,
            38.43174590983426,
            986.0
          ],
          [
            140.5455145161537,
            38.4318357263471,
            981.0
          ],
          [
            140.54550565922133,
            38.43192554285995,
            979.0
          ],
          [
            140.54549680228894,
            38.43201535937279,
            977.0
          ],
          [
            140.54548794535657,
            38.43210517588563,
            976.0
          ],
          [
            140.5454790884242,
            38.43219499239847,
            974.0
          ],
          [
            140.54547023149183,
            38.43228480891131,
            972.0
          ],
          [
            140.54546137455947,
            38.43237462542416,
            970.0
          ],
          [
            140.5454525176271,
            38.432464441937,
            968.0
          ],
          [
            140.54544366069473,
            38.43255425844984,
            961.0
          ],
          [
            140.54543480376233,
            38.43264407496268,
            957.0
          ],
          [
            140.54542594682997,
            38.43273389147552,
            955.0
          ],
          [
            140.5454170898976,
            38.43282370798837,
            951.0
          ],
          [
            140.54540823296523,
            38.43291352450121,
            949.0
          ],
          [
            140.54537784425168,
            38.432997522392924,
            946.0
          ],
          [
            140.54531465449895,
            38.433072656325926,
            941.0
          ],
          [
            140.54525146474623,
            38.43314779025893,
            935.0
          ],
          [
            140.54517341796708,
            38.43321248023687,
            930.0
          ],
          [
            140.54508556812084,
            38.43327027901136,
            927.0
          ],
          [
            140.54499771827463,
            38.43332807778586,
            924.0
          ],
          [
            140.5449098684284,
            38.43338587656035,
            920.0
          ],
          [
            140.54486049740314,
            38.43346490473846,
            917.0
          ],
          [
            140.5448213186141,
            38.43354955614233,
            912.0
          ],
          [
            140.54478437346998,
            38.43363474115676,
            904.0
          ],
          [
            140.54475708273577,
            38.43372223257857,
            899.0
          ],
          [
            140.54472979200153,
            38.433809724000376,
            892.0
          ],
          [
            140.54470250126732,
            38.43389721542219,
            888.0
          ],
          [
            140.5446920301027,
            38.43398459856271,
            887.0
          ],
          [
            140.5447211379716,
            38.4340717269007,
            885.0
          ],
          [
            140.5447502458405,
            38.43415885523868,
            884.0
          ],
          [
            140.54477935370943,
            38.434245983576666,
            881.0
          ],
          [
            140.54483573224135,
            38.434323947499855,
            879.0
          ],
          [
            140.54489565308583,
            38.4344007210148,
            878.0
          ],
          [
            140.54495557393034,
            38.43447749452976,
            875.0
          ],
          [
            140.54501916005174,
            38.43455239982357,
            873.0
          ],
          [
            140.5450837767343,
            38.43462677983207,
            872.0
          ],
          [
            140.54514839341684,
            38.43470115984057,
            869.0
          ],
          [
            140.5452130100994,
            38.43477553984906,
            867.0
          ],
          [
            140.54526561845552,
            38.43485312012656,
            866.0
          ],
          [
            140.54527179224547,
            38.43494307540927,
            864.0
          ],
          [
            140.5452721923223,
            38.43503312119349,
            863.0
          ],
          [
            140.54527058000536,
            38.435123198521474,
            858.0
          ],
          [
            140.5452689676884,
            38.435213275849456,
            855.0
          ],
          [
            140.54525901571435,
            38.435302978907586,
            850.0
          ],
          [
            140.54524759146543,
            38.43539261589248,
            848.0
          ],
          [
            140.54523616721647,
            38.43548225287738,
            847.0
          ],
          [
            140.54522474296755,
            38.435571889862274,
            846.0
          ],
          [
            140.54521331871862,
            38.43566152684717,
            843.0
          ],
          [
            140.5452018944697,
            38.435751163832066,
            842.0
          ],
          [
            140.54519002273486,
            38.43584073955939,
            841.0
          ],
          [
            140.54516227214646,
            38.43592814158713,
            836.0
          ],
          [
            140.54513452155803,
            38.436015543614864,
            834.0
          ],
          [
            140.54510677096962,
            38.4361029456426,
            832.0
          ],
          [
            140.5450790203812,
            38.43619034767034,
            829.0
          ],
          [
            140.5450512697928,
            38.43627774969807,
            827.0
          ],
          [
            140.54502351920436,
            38.43636515172581,
            826.0
          ],
          [
            140.54499576861596,
            38.43645255375355,
            823.0
          ],
          [
            140.5449739095772,
            38.4365407212781,
            822.0
          ],
          [
            140.5449644477205,
            38.43663049958485,
            821.0
          ],
          [
            140.5449549858638,
            38.43672027789161,
            818.0
          ],
          [
            140.5449455240071,
            38.43681005619836,
            817.0
          ],
          [
            140.5449480978517,
            38.43689990488032,
            816.0
          ],
          [
            140.54495586158868,
            38.43698978390864,
            813.0
          ],
          [
            140.54499872040972,
            38.437068717385685,
            813.0
          ],
          [
            140.54507137833426,
            38.43713835703642,
            810.0
          ],
          [
            140.5451440362588,
            38.43720799668716,
            808.0
          ],
          [
            140.54521669418332,
            38.43727763633789,
            805.0
          ],
          [
            140.54527256815692,
            38.4373557486326,
            802.0
          ],
          [
            140.5453228002885,
            38.43743670896462,
            802.0
          ],
          [
            140.5453730324201,
            38.43751766929664,
            800.0
          ],
          [
            140.54542326455166,
            38.43759862962866,
            802.0
          ],
          [
            140.54545582934895,
            38.43768405968427,
            800.0
          ],
          [
            140.54547502753675,
            38.43777287140736,
            800.0
          ],
          [
            140.54549422572452,
            38.43786168313046,
            799.0
          ],
          [
            140.54551342391233,
            38.43795049485355,
            799.0
          ],
          [
            140.5455326221001,
            38.43803930657665,
            797.0
          ],
          [
            140.54555182028787,
            38.43812811829974,
            796.0
          ],
          [
            140.5455730392497,
            38.43821648666161,
            795.0
          ],
          [
            140.54561506323657,
            38.43830029036592,
            794.0
          ],
          [
            140.54565708722345,
            38.43838409407024,
            793.0
          ],
          [
            140.54569911121035,
            38.43846789777455,
            792.0
          ],
          [
            140.54574113519723,
            38.438551701478865,
            791.0
          ],
          [
            140.5457831591841,
            38.43863550518318,
            790.0
          ],
          [
            140.54582518317102,
            38.43871930888749,
            789.0
          ],
          [
            140.5458672071579,
            38.438803112591806,
            785.0
          ],
          [
            140.54590923114478,
            38.43888691629612,
            783.0
          ],
          [
            140.54595125513168,
            38.438970720000434,
            781.0
          ]
        ]
      }
    },
    {
      "type": "Feature",
      "properties": {
        "name": "無名_2",
        "slope_deg": [
          7.125016348901798,
          7.125016348901798,
          7.125016348901798,
          11.309932474020215,
          8.530765609948133,
          9.926245506651705,
          9.926245506651705,
          11.309932474020215,
          11.309932474020215,
          11.309932474020215,
          11.309932474020215,
          5.710593137499643,
          5.710593137499643,
          5.710593137499643,
          4.289153328819018,
          7.125016348901798,
          9.926245506651705,
          7.125016348901798,
          7.125016348901798,
          9.926245506651705,
          4.289153328819018,
          4.289153328819018,
          1.4320961841646465,
          -5.710593137499643,
          -2.862405226111748,
          -1.4320961841646465,
          7.125016348901798,
          11.309932474020215,
          11.309932474020215,
          15.37625124882619,
          12.68038349181982,
          12.68038349181982,
          12.68038349181982,
          8.530765609948133,
          4.289153328819018,
          2.862405226111748,
          4.289153328819018,
          4.289153328819018,
          5.710593137499643,
          7.125016348901798,
          5.710593137499643,
          5.710593137499643,
          5.710593137499643,
          5.710593137499643
        ],
        "horizontal_dist_map": 436,
        "slope_dist_map": 445,
        "elevation_diff_map": 58.0,
        "avg_slope_deg_map": 7.4,
        "max_slope_deg_map": 15.4
      },
      "geometry": {
        "type": "LineString",
        "coordinates": [
          [
            140.54702681129922,
            38.4360587796159,
            863.0
          ],
          [
            140.546913954137,
            38.43604341846907,
            864.0
          ],
          [
            140.54680109697478,
            38.43602805732224,
            861.0
          ],
          [
            140.54668823981257,
            38.43601269617541,
            860.0
          ],
          [
            140.54657538265033,
            38.43599733502858,
            858.0
          ],
          [
            140.54646252548812,
            38.43598197388175,
            856.0
          ],
          [
            140.5463496683259,
            38.43596661273493,
            855.0
          ],
          [
            140.54623681116368,
            38.4359512515881,
            853.0
          ],
          [
            140.54612395400144,
            38.43593589044127,
            851.0
          ],
          [
            140.54601109683924,
            38.43592052929444,
            848.0
          ],
          [
            140.5458967676517,
            38.43591612127965,
            847.0
          ],
          [
            140.5457823216593,
            38.43591258239353,
            845.0
          ],
          [
            140.54566787566688,
            38.435909043507415,
            843.0
          ],
          [
            140.54555342967447,
            38.435905504621296,
            844.0
          ],
          [
            140.54543898368206,
            38.435901965735184,
            843.0
          ],
          [
            140.54532453768965,
            38.435898426849064,
            841.0
          ],
          [
            140.54521009169724,
            38.43589488796295,
            840.0
          ],
          [
            140.54509598534767,
            38.435896900551874,
            839.0
          ],
          [
            140.54498250021146,
            38.435909066897246,
            836.0
          ],
          [
            140.54486901507525,
            38.435921233242624,
            836.0
          ],
          [
            140.54475552993904,
            38.435933399587995,
            835.0
          ],
          [
            140.54464204480283,
            38.43594556593337,
            832.0
          ],
          [
            140.54452855966662,
            38.435957732278744,
            833.0
          ],
          [
            140.5444150745304,
            38.435969898624116,
            833.0
          ],
          [
            140.54430415027522,
            38.43599025492286,
            834.0
          ],
          [
            140.54419643680922,
            38.436020879646215,
            836.0
          ],
          [
            140.54408872334324,
            38.43605150436958,
            835.0
          ],
          [
            140.54398100987723,
            38.43608212909294,
            834.0
          ],
          [
            140.54387329641125,
            38.4361127538163,
            829.0
          ],
          [
            140.54376558294524,
            38.43614337853966,
            828.0
          ],
          [
            140.54365786947926,
            38.43617400326302,
            827.0
          ],
          [
            140.54355015601325,
            38.436204627986385,
            823.0
          ],
          [
            140.54344020341682,
            38.43622515758479,
            820.0
          ],
          [
            140.54332566863084,
            38.43622502837048,
            819.0
          ],
          [
            140.54321113384486,
            38.436224899156166,
            818.0
          ],
          [
            140.54309659905886,
            38.43622476994185,
            817.0
          ],
          [
            140.54298206427288,
            38.43622464072754,
            817.0
          ],
          [
            140.54286752948687,
            38.436224511513224,
            817.0
          ],
          [
            140.54275428204423,
            38.43623729386077,
            815.0
          ],
          [
            140.5426411730951,
            38.43625146524552,
            814.0
          ],
          [
            140.54252806414598,
            38.43626563663026,
            813.0
          ],
          [
            140.54241495519685,
            38.43627980801501,
            812.0
          ],
          [
            140.54230184624774,
            38.43629397939975,
            811.0
          ],
          [
            140.5421887372986,
            38.4363081507845,
            810.0
          ]
        ]
      }
    },
    {
      "type": "Feature",
      "properties": {
        "name": "W2",
        "slope_deg": [
          16.69924423399362,
          16.69924423399362,
          16.69924423399362,
          15.37625124882619,
          14.036243467926479,
          11.309932474020215,
          11.309932474020215,
          14.036243467926479,
          12.68038349181982,
          12.68038349181982,
          12.68038349181982,
          9.926245506651705,
          8.530765609948133,
          12.68038349181982,
          11.309932474020215,
          11.309932474020215,
          16.69924423399362,
          16.69924423399362,
          16.69924423399362,
          20.556045219583467,
          16.69924423399362,
          16.69924423399362,
          18.00416160591338,
          14.036243467926479,
          14.036243467926479,
          16.69924423399362,
          15.37625124882619,
          16.69924423399362,
          18.00416160591338,
          15.37625124882619,
          19.290046219188735,
          18.00416160591338,
          16.69924423399362,
          14.036243467926479,
          9.926245506651705,
          9.926245506651705,
          11.309932474020215,
          12.68038349181982,
          12.68038349181982,
          16.69924423399362,
          16.69924423399362,
          16.69924423399362,
          18.00416160591338,
          15.37625124882619,
          16.69924423399362,
          18.00416160591338,
          18.00416160591338,
          16.69924423399362,
          12.68038349181982,
          11.309932474020215,
          8.530765609948133,
          11.309932474020215,
          11.309932474020215,
          11.309932474020215,
          18.00416160591338,
          15.37625124882619,
          19.290046219188735,
          19.290046219188735,
          18.00416160591338,
          18.00416160591338,
          15.37625124882619,
          16.69924423399362,
          14.036243467926479,
          12.68038349181982,
          14.036243467926479,
          15.37625124882619,
          14.036243467926479,
          15.37625124882619,
          18.00416160591338,
          15.37625124882619,
          15.37625124882619,
          16.69924423399362,
          12.68038349181982,
          12.68038349181982,
          11.309932474020215,
          8.530765609948133,
          7.125016348901798,
          8.530765609948133,
          7.125016348901798,
          5.710593137499643,
          7.125016348901798,
          4.289153328819018,
          5.710593137499643,
          11.309932474020215,
          11.309932474020215,
          12.68038349181982,
          14.036243467926479,
          11.309932474020215,
          9.926245506651705,
          9.926245506651705,
          8.530765609948133,
          7.125016348901798,
          9.926245506651705,
          8.530765609948133,
          9.926245506651705,
          9.926245506651705,
          9.926245506651705
        ],
        "horizontal_dist_map": 967,
        "slope_dist_map": 1002,
        "elevation_diff_map": 233.0,
        "avg_slope_deg_map": 13.1,
        "max_slope_deg_map": 20.6
      },
      "geometry": {
        "type": "LineString",
        "coordinates": [
          [
            140.54347392062755,
            38.431855635415786,
            949.0
          ],
          [
            140.5435128299604,
            38.431940363491904,
            946.0
          ],
          [
            140.54355173929324,
            38.43202509156803,
            942.0
          ],
          [
            140.5435906486261,
            38.43210981964415,
            940.0
          ],
          [
            140.54362955795895,
            38.43219454772027,
            937.0
          ],
          [
            140.5436684672918,
            38.43227927579639,
            935.0
          ],
          [
            140.54370737662464,
            38.43236400387251,
            932.0
          ],
          [
            140.5437462859575,
            38.43244873194863,
            932.0
          ],
          [
            140.543767823665,
            38.43253667517381,
            929.0
          ],
          [
            140.5437810280772,
            38.432626160729434,
            925.0
          ],
          [
            140.5437942324894,
            38.43271564628506,
            923.0
          ],
          [
            140.54380743690157,
            38.43280513184069,
            923.0
          ],
          [
            140.54382064131377,
            38.432894617396315,
            920.0
          ],
          [
            140.54383384572597,
            38.43298410295194,
            918.0
          ],
          [
            140.54384705013814,
            38.43307358850757,
            917.0
          ],
          [
            140.54386025455034,
            38.433163074063195,
            914.0
          ],
          [
            140.54387345896254,
            38.43325255961882,
            912.0
          ],
          [
            140.54388666337474,
            38.43334204517445,
            910.0
          ],
          [
            140.5438883187034,
            38.433431993276166,
            905.0
          ],
          [
            140.54388673825076,
            38.43352207097241,
            902.0
          ],
          [
            140.54388515779812,
            38.43361214866865,
            900.0
          ],
          [
            140.54388357734547,
            38.43370222636489,
            895.0
          ],
          [
            140.54388199689282,
            38.433792304061136,
            893.0
          ],
          [
            140.54388041644017,
            38.43388238175738,
            890.0
          ],
          [
            140.54387883598753,
            38.43397245945362,
            887.0
          ],
          [
            140.54387725553488,
            38.43406253714986,
            885.0
          ],
          [
            140.54387567508226,
            38.434152614846106,
            883.0
          ],
          [
            140.54387409462962,
            38.43424269254235,
            878.0
          ],
          [
            140.54387251417697,
            38.43433277023859,
            876.0
          ],
          [
            140.54381841848766,
            38.4344108130803,
            873.0
          ],
          [
            140.54375824038573,
            38.43448746202271,
            870.0
          ],
          [
            140.5436947686403,
            38.43456244170347,
            867.0
          ],
          [
            140.54363089500995,
            38.43463721770371,
            862.0
          ],
          [
            140.54356702137963,
            38.43471199370394,
            860.0
          ],
          [
            140.54349331516553,
            38.434780489945794,
            858.0
          ],
          [
            140.54341338529017,
            38.434845011333195,
            857.0
          ],
          [
            140.5433334554148,
            38.434909532720596,
            855.0
          ],
          [
            140.54325352553943,
            38.434974054108,
            853.0
          ],
          [
            140.54317359566406,
            38.435038575495405,
            850.0
          ],
          [
            140.5430936657887,
            38.435103096882806,
            848.0
          ],
          [
            140.54301373591332,
            38.435167618270206,
            846.0
          ],
          [
            140.54292985688465,
            38.43522742422598,
            841.0
          ],
          [
            140.54282293399106,
            38.43525971497501,
            838.0
          ],
          [
            140.54271601109747,
            38.435292005724044,
            836.0
          ],
          [
            140.54260908820387,
            38.43532429647307,
            833.0
          ],
          [
            140.54250216531028,
            38.4353565872221,
            830.0
          ],
          [
            140.54241064421873,
            38.43540715250284,
            826.0
          ],
          [
            140.5423311931621,
            38.435472039110095,
            823.0
          ],
          [
            140.54225174208244,
            38.43553692573616,
            820.0
          ],
          [
            140.5421722909496,
            38.43560181240568,
            818.0
          ],
          [
            140.54209476277052,
            38.43566760454215,
            817.0
          ],
          [
            140.54205957664988,
            38.43575333440914,
            815.0
          ],
          [
            140.54202439052926,
            38.43583906427614,
            814.0
          ],
          [
            140.54198920440865,
            38.43592479414313,
            810.0
          ],
          [
            140.541954018288,
            38.43601052401013,
            809.0
          ],
          [
            140.5419188321674,
            38.436096253877125,
            807.0
          ],
          [
            140.54188364604678,
            38.43618198374411,
            801.0
          ],
          [
            140.54184845992614,
            38.43626771361111,
            799.0
          ],
          [
            140.54181327380553,
            38.436353443478104,
            795.0
          ],
          [
            140.54177808768492,
            38.4364391733451,
            793.0
          ],
          [
            140.54174290156428,
            38.436524903212096,
            788.0
          ],
          [
            140.54170771544366,
            38.436610633079084,
            786.0
          ],
          [
            140.54167252932305,
            38.43669636294608,
            784.0
          ],
          [
            140.5416373432024,
            38.436782092813075,
            781.0
          ],
          [
            140.5416021570818,
            38.43686782268007,
            778.0
          ],
          [
            140.54157278287212,
            38.43695486394798,
            777.0
          ],
          [
            140.54154483784126,
            38.43704222769614,
            774.0
          ],
          [
            140.54151689281042,
            38.4371295914443,
            770.0
          ],
          [
            140.54148894777958,
            38.43721695519245,
            768.0
          ],
          [
            140.54146738697605,
            38.43730507761611,
            766.0
          ],
          [
            140.54146126929137,
            38.43739503523696,
            761.0
          ],
          [
            140.54145515160673,
            38.43748499285781,
            759.0
          ],
          [
            140.54144903392208,
            38.43757495047867,
            757.0
          ],
          [
            140.54144291623743,
            38.43766490809952,
            754.0
          ],
          [
            140.54143679855275,
            38.43775486572037,
            752.0
          ],
          [
            140.5414306808681,
            38.43784482334122,
            750.0
          ],
          [
            140.54142456318345,
            38.437934780962074,
            749.0
          ],
          [
            140.5414184454988,
            38.438024738582925,
            748.0
          ],
          [
            140.54141232781413,
            38.438114696203776,
            747.0
          ],
          [
            140.54140750103625,
            38.43820470040787,
            744.0
          ],
          [
            140.54140311838617,
            38.438294720638616,
            744.0
          ],
          [
            140.5413987357361,
            38.43838474086936,
            744.0
          ],
          [
            140.541394353086,
            38.4384747611001,
            742.0
          ],
          [
            140.54138997043592,
            38.43856478133085,
            741.0
          ],
          [
            140.54138558778584,
            38.43865480156159,
            740.0
          ],
          [
            140.54138120513576,
            38.43874482179233,
            736.0
          ],
          [
            140.54138154423913,
            38.4388346213444,
            734.0
          ],
          [
            140.5413994506824,
            38.43892359985881,
            732.0
          ],
          [
            140.54141735712568,
            38.439012578373216,
            730.0
          ],
          [
            140.54143526356896,
            38.43910155688763,
            728.0
          ],
          [
            140.54145317001226,
            38.439190535402034,
            727.0
          ],
          [
            140.54147107645554,
            38.439279513916446,
            725.0
          ],
          [
            140.5414889828988,
            38.43936849243085,
            724.0
          ],
          [
            140.5415068893421,
            38.439457470945264,
            723.0
          ],
          [
            140.5415247957854,
            38.43954644945967,
            720.0
          ],
          [
            140.54154270222867,
            38.43963542797408,
            719.0
          ],
          [
            140.54156060867194,
            38.43972440648849,
            717.0
          ]
        ]
      }
    },
    {
      "type": "Feature",
      "properties": {
        "name": "無名_1",
        "slope_deg": [
          2.862405226111748,
          2.862405226111748,
          2.862405226111748,
          2.862405226111748,
          0.0,
          2.862405226111748,
          0.0,
          0.0,
          4.289153328819018,
          2.862405226111748,
          4.289153328819018,
          4.289153328819018,
          5.710593137499643,
          7.125016348901798,
          7.125016348901798,
          7.125016348901798,
          2.862405226111748,
          1.4320961841646465,
          2.862405226111748,
          4.289153328819018,
          7.125016348901798,
          12.68038349181982,
          15.37625124882619,
          8.530765609948133,
          9.926245506651705,
          9.926245506651705,
          7.125016348901798,
          14.036243467926479,
          11.309932474020215,
          5.710593137499643,
          4.289153328819018,
          4.289153328819018,
          9.926245506651705,
          16.69924423399362,
          23.025492008528037,
          23.025492008528037,
          21.80140948635181,
          20.556045219583467,
          18.00416160591338,
          19.290046219188735,
          15.37625124882619,
          11.309932474020215,
          8.530765609948133,
          7.125016348901798,
          7.125016348901798,
          5.710593137499643,
          7.125016348901798,
          7.125016348901798,
          9.926245506651705,
          11.309932474020215,
          9.926245506651705,
          9.926245506651705,
          8.530765609948133,
          5.710593137499643,
          5.710593137499643,
          7.125016348901798,
          5.710593137499643,
          8.530765609948133,
          9.926245506651705,
          15.37625124882619,
          15.37625124882619,
          15.37625124882619
        ],
        "horizontal_dist_map": 610,
        "slope_dist_map": 626,
        "elevation_diff_map": 96.0,
        "avg_slope_deg_map": 8.7,
        "max_slope_deg_map": 23.0
      },
      "geometry": {
        "type": "LineString",
        "coordinates": [
          [
            140.55035683306915,
            38.43118934012111,
            1031.0
          ],
          [
            140.55025573567204,
            38.43123166854084,
            1031.0
          ],
          [
            140.55015463827493,
            38.43127399696057,
            1030.0
          ],
          [
            140.5500525942736,
            38.43131469348936,
            1030.0
          ],
          [
            140.5499456922111,
            38.43134701500136,
            1029.0
          ],
          [
            140.5498387901486,
            38.43137933651336,
            1029.0
          ],
          [
            140.54972885179728,
            38.431403149922566,
            1030.0
          ],
          [
            140.54961618227105,
            38.43141931020043,
            1028.0
          ],
          [
            140.54950351274482,
            38.43143547047829,
            1029.0
          ],
          [
            140.54939279817253,
            38.43145738726653,
            1029.0
          ],
          [
            140.5493130323012,
            38.43148540820239,
            1027.0
          ],
          [
            140.5494263332318,
            38.431498557005106,
            1026.0
          ],
          [
            140.54954063196536,
            38.43150395185554,
            1026.0
          ],
          [
            140.54965245678844,
            38.4315188134524,
            1026.0
          ],
          [
            140.54975325750456,
            38.431554819951195,
            1023.0
          ],
          [
            140.5497674080067,
            38.43162483930098,
            1021.0
          ],
          [
            140.5496534632201,
            38.43163391645598,
            1021.0
          ],
          [
            140.54953951843353,
            38.43164299361098,
            1021.0
          ],
          [
            140.5494252457049,
            38.43164816948036,
            1021.0
          ],
          [
            140.54931077344946,
            38.43165097172612,
            1020.0
          ],
          [
            140.54919630119403,
            38.43165377397189,
            1019.0
          ],
          [
            140.54908196524093,
            38.4316588975034,
            1018.0
          ],
          [
            140.54896765201602,
            38.43166440810514,
            1016.0
          ],
          [
            140.5488537638885,
            38.43166803283395,
            1011.0
          ],
          [
            140.54874882760782,
            38.43163194420551,
            1008.0
          ],
          [
            140.5486428603245,
            38.431599000456536,
            1012.0
          ],
          [
            140.5485288232242,
            38.4315906721642,
            1009.0
          ],
          [
            140.54841478612389,
            38.43158234387185,
            1004.0
          ],
          [
            140.5483007490236,
            38.43157401557951,
            1003.0
          ],
          [
            140.5481867119233,
            38.43156568728717,
            1002.0
          ],
          [
            140.54807267482303,
            38.43155735899482,
            1001.0
          ],
          [
            140.54795910821838,
            38.431564213570944,
            1000.0
          ],
          [
            140.54784572240496,
            38.43157690227071,
            1000.0
          ],
          [
            140.5477352543445,
            38.43159566022952,
            999.0
          ],
          [
            140.54763956552247,
            38.431645160690174,
            994.0
          ],
          [
            140.54754387670042,
            38.43169466115082,
            988.0
          ],
          [
            140.54744818787836,
            38.43174416161147,
            983.0
          ],
          [
            140.54736462730338,
            38.431805528207796,
            982.0
          ],
          [
            140.547282612632,
            38.431868407298154,
            978.0
          ],
          [
            140.5472005979606,
            38.43193128638851,
            973.0
          ],
          [
            140.54712799526578,
            38.43200028117669,
            970.0
          ],
          [
            140.54706497721784,
            38.43207550386009,
            968.0
          ],
          [
            140.5470019591699,
            38.43215072654349,
            967.0
          ],
          [
            140.54693894112197,
            38.43222594922689,
            965.0
          ],
          [
            140.54687592293456,
            38.43230117190957,
            964.0
          ],
          [
            140.54681290463358,
            38.432376394591664,
            963.0
          ],
          [
            140.5467498863326,
            38.43245161727376,
            962.0
          ],
          [
            140.54668686803163,
            38.43252683995586,
            961.0
          ],
          [
            140.546623097548,
            38.432601667280835,
            959.0
          ],
          [
            140.54655883984935,
            38.432676238519164,
            958.0
          ],
          [
            140.54649368449532,
            38.43275028821045,
            955.0
          ],
          [
            140.5464219585115,
            38.43282052029803,
            953.0
          ],
          [
            140.5463380126813,
            38.43287982195723,
            952.0
          ],
          [
            140.54624028649775,
            38.43292679734321,
            951.0
          ],
          [
            140.54614256031417,
            38.43297377272918,
            949.0
          ],
          [
            140.54604225082466,
            38.43301720259358,
            949.0
          ],
          [
            140.5459413172637,
            38.43305977593584,
            948.0
          ],
          [
            140.5458403837027,
            38.4331023492781,
            946.0
          ],
          [
            140.54573945014175,
            38.43314492262036,
            945.0
          ],
          [
            140.5456333525753,
            38.433178842027445,
            943.0
          ],
          [
            140.54552722499795,
            38.43321271114172,
            941.0
          ],
          [
            140.54542109742061,
            38.433246580256,
            935.0
          ]
        ]
      }
    }
  ]
}