{
  "type": "FeatureCollection",
  "features": [
    {
      "type": "Feature",
      "properties": {
        "name": "ダイナミック",
        "slope_deg": [
          15.37625124882619,
          15.37625124882619,
          15.37625124882619,
          16.69924423399362,
          21.80140948635181,
          23.025492008528037,
          20.556045219583467,
          20.556045219583467,
          15.37625124882619,
          16.69924423399362,
          18.00416160591338,
          16.69924423399362,
          21.80140948635181,
          20.556045219583467,
          21.80140948635181,
          21.80140948635181,
          18.00416160591338,
          24.22774531795417,
          23.025492008528037,
          26.565051177077994,
          25.407718108948472,
          21.80140948635181,
          19.290046219188735,
          15.37625124882619,
          18.00416160591338,
          15.37625124882619,
          16.69924423399362,
          14.036243467926479,
          12.68038349181982,
          11.309932474020215,
          9.926245506651705,
          11.309932474020215,
          8.530765609948133,
          9.926245506651705,
          7.125016348901798,
          4.289153328819018,
          2.862405226111748,
          2.862405226111748,
          2.862405226111748,
          4.289153328819018,
          5.710593137499643,
          5.710593137499643,
          5.710593137499643,
          5.710593137499643
        ],
        "horizontal_dist_map": 421,
        "slope_dist_map": 442,
        "elevation_diff_map": 114.0,
        "avg_slope_deg_map": 14.5,
        "max_slope_deg_map": 26.6
      },
      "geometry": {
        "type": "LineString",
        "coordinates": [
          [
            141.54014640141517,
            43.808058390416065,
            308.0
          ],
          [
            141.5400278516754,
            43.80803137946574,
            305.0
          ],
          [
            141.53990930193564,
            43.80800436851542,
            303.0
          ],
          [
            141.53979075219587,
            43.80797735756509,
            302.0
          ],
          [
            141.53967230265874,
            43.80795012937479,
            297.0
          ],
          [
            141.5395551314254,
            43.807920129813695,
            293.0
          ],
          [
            141.53943796019206,
            43.8078901302526,
            287.0
          ],
          [
            141.53932078895872,
            43.80786013069151,
            285.0
          ],
          [
            141.53920361772538,
            43.807830131130416,
            282.0
          ],
          [
            141.53908644649204,
            43.80780013156932,
            278.0
          ],
          [
            141.53896927525867,
            43.80777013200823,
            276.0
          ],
          [
            141.5388509189412,
            43.807743804092205,
            273.0
          ],
          [
            141.5387275263994,
            43.807733079480194,
            269.0
          ],
          [
            141.53860413385763,
            43.80772235486818,
            266.0
          ],
          [
            141.53848074131585,
            43.807711630256165,
            260.0
          ],
          [
            141.53835725608948,
            43.80770290643115,
            258.0
          ],
          [
            141.5382331484909,
            43.80770761779029,
            253.0
          ],
          [
            141.5381090408923,
            43.807712329149425,
            250.0
          ],
          [
            141.5379849332937,
            43.80771704050856,
            247.0
          ],
          [
            141.5378608256951,
            43.807721751867696,
            240.0
          ],
          [
            141.5377367180965,
            43.80772646322683,
            236.0
          ],
          [
            141.53761323925727,
            43.80773533338122,
            230.0
          ],
          [
            141.53749066457897,
            43.80775018391636,
            228.0
          ],
          [
            141.5373680899007,
            43.80776503445151,
            224.0
          ],
          [
            141.53724551522242,
            43.807779884986665,
            222.0
          ],
          [
            141.53712294054415,
            43.80779473552182,
            219.0
          ],
          [
            141.53700036586588,
            43.80780958605697,
            215.0
          ],
          [
            141.53687779118758,
            43.80782443659212,
            213.0
          ],
          [
            141.53675505647848,
            43.8078382595744,
            210.0
          ],
          [
            141.5366309932862,
            43.80784355240776,
            209.0
          ],
          [
            141.5365069300939,
            43.80784884524112,
            206.0
          ],
          [
            141.53638286690162,
            43.807854138074475,
            205.0
          ],
          [
            141.5362588037093,
            43.80785943090783,
            203.0
          ],
          [
            141.536134740517,
            43.8078647237412,
            201.0
          ],
          [
            141.53601067732473,
            43.807870016574554,
            200.0
          ],
          [
            141.535886724148,
            43.80787648282066,
            198.0
          ],
          [
            141.53576281238279,
            43.80788339075658,
            198.0
          ],
          [
            141.53563890061753,
            43.8078902986925,
            198.0
          ],
          [
            141.5355149888523,
            43.80789720662842,
            198.0
          ],
          [
            141.53539107708707,
            43.80790411456434,
            196.0
          ],
          [
            141.53526716532184,
            43.80791102250026,
            196.0
          ],
          [
            141.5351432535566,
            43.80791793043617,
            195.0
          ],
          [
            141.53501934179135,
            43.80792483837209,
            194.0
          ],
          [
            141.53500195113165,
            43.80792580788102,
            194.0
          ]
        ]
      }
    },
    {
      "type": "Feature",
      "properties": {
        "name": "チャレンジ",
        "slope_deg": [
          12.68038349181982,
          12.68038349181982,
          12.68038349181982,
          11.309932474020215,
          14.036243467926479,
          15.37625124882619,
          15.37625124882619,
          18.00416160591338,
          20.556045219583467,
          21.80140948635181,
          20.556045219583467,
          24.22774531795417,
          20.556045219583467,
          21.80140948635181,
          20.556045219583467,
          20.556045219583467,
          20.556045219583467,
          23.025492008528037,
          24.22774531795417,
          19.290046219188735,
          24.22774531795417,
          21.80140948635181,
          24.22774531795417,
          24.22774531795417,
          20.556045219583467,
          18.00416160591338,
          14.036243467926479,
          16.69924423399362,
          15.37625124882619,
          16.69924423399362,
          15.37625124882619,
          14.036243467926479,
          12.68038349181982,
          9.926245506651705,
          12.68038349181982,
          11.309932474020215,
          9.926245506651705,
          7.125016348901798,
          7.125016348901798,
          7.125016348901798,
          7.125016348901798
        ],
        "horizontal_dist_map": 391,
        "slope_dist_map": 413,
        "elevation_diff_map": 118.0,
        "avg_slope_deg_map": 15.9,
        "max_slope_deg_map": 24.2
      },
      "geometry": {
        "type": "LineString",
        "coordinates": [
          [
            141.5403253,
            43.8084285,
            313.0
          ],
          [
            141.54020216693635,
            43.80841630370605,
            311.0
          ],
          [
            141.54007903387273,
            43.8084041074121,
            309.0
          ],
          [
            141.53995516861545,
            43.80839737763242,
            308.0
          ],
          [
            141.53983109444525,
            43.80839220758413,
            304.0
          ],
          [
            141.53970702027505,
            43.80838703753584,
            303.0
          ],
          [
            141.53958294610482,
            43.80838186748754,
            299.0
          ],
          [
            141.5394588719346,
            43.80837669743925,
            297.0
          ],
          [
            141.53933522620508,
            43.80836763330344,
            293.0
          ],
          [
            141.53921158670065,
            43.80835851258747,
            290.0
          ],
          [
            141.53908794719624,
            43.808349391871495,
            284.0
          ],
          [
            141.53896430769183,
            43.80834027115552,
            281.0
          ],
          [
            141.53884066818742,
            43.80833115043954,
            278.0
          ],
          [
            141.53871702868298,
            43.80832202972357,
            272.0
          ],
          [
            141.5385932004562,
            43.80831458899978,
            269.0
          ],
          [
            141.53846915142645,
            43.808309113847216,
            265.0
          ],
          [
            141.53834510239673,
            43.808303638694646,
            263.0
          ],
          [
            141.53822105336698,
            43.808298163542084,
            257.0
          ],
          [
            141.53809700433723,
            43.80829268838952,
            254.0
          ],
          [
            141.53797295530748,
            43.80828721323695,
            248.0
          ],
          [
            141.53784927889092,
            43.808278607270225,
            245.0
          ],
          [
            141.53772576537798,
            43.80826863253556,
            243.0
          ],
          [
            141.53760225186502,
            43.808258657800884,
            236.0
          ],
          [
            141.5374787383521,
            43.80824868306622,
            232.0
          ],
          [
            141.53735522483913,
            43.80823870833155,
            227.0
          ],
          [
            141.5372328593829,
            43.80822365593484,
            225.0
          ],
          [
            141.53711140273327,
            43.808204584039125,
            221.0
          ],
          [
            141.53698994608365,
            43.80818551214341,
            219.0
          ],
          [
            141.53686848943403,
            43.808166440247696,
            217.0
          ],
          [
            141.53674583476896,
            43.80815215131251,
            213.0
          ],
          [
            141.53662286758959,
            43.808139110060566,
            210.0
          ],
          [
            141.5364999004102,
            43.80812606880861,
            207.0
          ],
          [
            141.53637693323083,
            43.80811302755666,
            206.0
          ],
          [
            141.53625396605142,
            43.80809998630471,
            203.0
          ],
          [
            141.53613099887204,
            43.80808694505276,
            201.0
          ],
          [
            141.53600803169266,
            43.8080739038008,
            200.0
          ],
          [
            141.53588506451328,
            43.80806086254886,
            197.0
          ],
          [
            141.5357620973339,
            43.8080478212969,
            195.0
          ],
          [
            141.5356391301545,
            43.808034780044956,
            194.0
          ],
          [
            141.5355161629751,
            43.808021738793,
            195.0
          ],
          [
            141.53549526185444,
            43.80801952213013,
            195.0
          ]
        ]
      }
    },
    {
      "type": "Feature",
      "properties": {
        "name": "ジャイアント",
        "slope_deg": [
          4.289153328819018,
          4.289153328819018,
          4.289153328819018,
          5.710593137499643,
          5.710593137499643,
          7.125016348901798,
          5.710593137499643,
          5.710593137499643,
          5.710593137499643,
          5.710593137499643,
          8.530765609948133,
          8.530765609948133,
          9.926245506651705,
          9.926245506651705,
          8.530765609948133,
          11.309932474020215,
          14.036243467926479,
          15.37625124882619,
          16.69924423399362,
          15.37625124882619,
          12.68038349181982,
          9.926245506651705,
          9.926245506651705,
          12.68038349181982,
          12.68038349181982,
          14.036243467926479,
          18.00416160591338,
          15.37625124882619,
          15.37625124882619,
          18.00416160591338,
          15.37625124882619,
          21.80140948635181,
          21.80140948635181,
          19.290046219188735,
          21.80140948635181,
          15.37625124882619,
          19.290046219188735,
          20.556045219583467,
          16.69924423399362,
          16.69924423399362,
          12.68038349181982,
          11.309932474020215,
          12.68038349181982,
          11.309932474020215,
          14.036243467926479,
          11.309932474020215,
          11.309932474020215,
          9.926245506651705,
          7.125016348901798,
          8.530765609948133,
          4.289153328819018,
          5.710593137499643,
          1.4320961841646465,
          1.4320961841646465,
          2.862405226111748,
          4.289153328819018,
          8.530765609948133,
          9.926245506651705,
          8.530765609948133,
          9.926245506651705,
          9.926245506651705,
          9.926245506651705,
          12.68038349181982,
          11.309932474020215,
          11.309932474020215,
          9.926245506651705,
          11.309932474020215,
          11.309932474020215,
          11.309932474020215,
          12.68038349181982,
          12.68038349181982,
          14.036243467926479,
          14.036243467926479,
          14.036243467926479,
          14.036243467926479,
          14.036243467926479,
          14.036243467926479
        ],
        "horizontal_dist_map": 757,
        "slope_dist_map": 778,
        "elevation_diff_map": 153.0,
        "avg_slope_deg_map": 11.1,
        "max_slope_deg_map": 21.8
      },
      "geometry": {
        "type": "LineString",
        "coordinates": [
          [
            141.5405171288054,
            43.808998460624956,
            319.0
          ],
          [
            141.54050500717491,
            43.80890888763603,
            319.0
          ],
          [
            141.54049288554447,
            43.80881931464711,
            318.0
          ],
          [
            141.540480763914,
            43.80872974165818,
            317.0
          ],
          [
            141.5404686422835,
            43.808640168669264,
            316.0
          ],
          [
            141.54045033227987,
            43.80855146191671,
            315.0
          ],
          [
            141.54041548824847,
            43.80846506956502,
            314.0
          ],
          [
            141.54038064421704,
            43.80837867721333,
            312.0
          ],
          [
            141.54034580018563,
            43.80829228486163,
            312.0
          ],
          [
            141.54028537755636,
            43.8082141931368,
            311.0
          ],
          [
            141.54021953389264,
            43.808137860616455,
            310.0
          ],
          [
            141.54015384892836,
            43.80806146761456,
            308.0
          ],
          [
            141.54010425461829,
            43.807978942342935,
            306.0
          ],
          [
            141.54004469396833,
            43.80790040647048,
            305.0
          ],
          [
            141.5399745847365,
            43.80782609306127,
            303.0
          ],
          [
            141.5399044755047,
            43.807751779652065,
            301.0
          ],
          [
            141.5398307491156,
            43.80767944748335,
            300.0
          ],
          [
            141.53975109932,
            43.80761035976654,
            297.0
          ],
          [
            141.5396714495244,
            43.80754127204973,
            293.0
          ],
          [
            141.53958694808412,
            43.80747553632031,
            290.0
          ],
          [
            141.5394954050395,
            43.80741466561509,
            288.0
          ],
          [
            141.53940386199486,
            43.80735379490987,
            286.0
          ],
          [
            141.53931231895024,
            43.80729292420466,
            284.0
          ],
          [
            141.53921608319212,
            43.807236728698356,
            283.0
          ],
          [
            141.53910788834534,
            43.80719244764596,
            281.0
          ],
          [
            141.53899969349857,
            43.807148166593564,
            277.0
          ],
          [
            141.53889134817126,
            43.80710414126423,
            275.0
          ],
          [
            141.53877230892746,
            43.80707828892643,
            273.0
          ],
          [
            141.53865326968366,
            43.80705243658862,
            268.0
          ],
          [
            141.5385342304399,
            43.80702658425081,
            266.0
          ],
          [
            141.5384151911961,
            43.80700073191301,
            264.0
          ],
          [
            141.5382961519523,
            43.80697487957519,
            260.0
          ],
          [
            141.5381771127085,
            43.80694902723739,
            257.0
          ],
          [
            141.5380580734647,
            43.80692317489958,
            250.0
          ],
          [
            141.5379390342209,
            43.806897322561774,
            248.0
          ],
          [
            141.5378199949771,
            43.80687147022397,
            246.0
          ],
          [
            141.53769717895358,
            43.80686664257288,
            241.0
          ],
          [
            141.5375741712545,
            43.806876608153566,
            239.0
          ],
          [
            141.53745272543432,
            43.80689570742452,
            234.0
          ],
          [
            141.53733127961414,
            43.80691480669548,
            231.0
          ],
          [
            141.53720983379398,
            43.80693390596644,
            229.0
          ],
          [
            141.53709281390346,
            43.8069641877656,
            227.0
          ],
          [
            141.5369758394384,
            43.80699458433645,
            225.0
          ],
          [
            141.53685886497334,
            43.80702498090729,
            223.0
          ],
          [
            141.5367418905083,
            43.807055377478136,
            220.0
          ],
          [
            141.53662491604322,
            43.80708577404898,
            219.0
          ],
          [
            141.53650794157818,
            43.80711617061982,
            215.0
          ],
          [
            141.53639096711314,
            43.807146567190664,
            215.0
          ],
          [
            141.53627399264806,
            43.807176963761506,
            212.0
          ],
          [
            141.53615701818302,
            43.80720736033235,
            212.0
          ],
          [
            141.53604328647452,
            43.807243522857405,
            210.0
          ],
          [
            141.53593027745436,
            43.80728097039652,
            209.0
          ],
          [
            141.53581726843422,
            43.807318417935626,
            209.0
          ],
          [
            141.53570425941405,
            43.80735586547474,
            208.0
          ],
          [
            141.535593123635,
            43.80739567929699,
            209.0
          ],
          [
            141.53549140515304,
            43.80744738907376,
            208.0
          ],
          [
            141.53538968667107,
            43.807499098850535,
            207.0
          ],
          [
            141.5352879681891,
            43.807550808627305,
            205.0
          ],
          [
            141.5351862497071,
            43.80760251840408,
            203.0
          ],
          [
            141.53508453122512,
            43.80765422818085,
            201.0
          ],
          [
            141.53498281274315,
            43.80770593795763,
            201.0
          ],
          [
            141.53488109426118,
            43.8077576477344,
            198.0
          ],
          [
            141.5347793757792,
            43.80780935751117,
            196.0
          ],
          [
            141.53468898304737,
            43.80786984732435,
            194.0
          ],
          [
            141.5346108319798,
            43.80793982721602,
            192.0
          ],
          [
            141.5345326809122,
            43.80800980710769,
            190.0
          ],
          [
            141.53444844577993,
            43.808075625176585,
            188.0
          ],
          [
            141.53435642036172,
            43.80813611427695,
            187.0
          ],
          [
            141.5342643949435,
            43.80819660337732,
            184.0
          ],
          [
            141.53417236952532,
            43.80825709247768,
            182.0
          ],
          [
            141.5340803441071,
            43.808317581578045,
            180.0
          ],
          [
            141.5339883186889,
            43.808378070678415,
            178.0
          ],
          [
            141.53389629327071,
            43.80843855977878,
            175.0
          ],
          [
            141.5338008878651,
            43.80849612851068,
            172.0
          ],
          [
            141.53370256125902,
            43.80855117327407,
            170.0
          ],
          [
            141.53360423465296,
            43.80860621803746,
            168.0
          ],
          [
            141.53352916305738,
            43.80864824428427,
            166.0
          ]
        ]
      }
    },
    {
      "type": "Feature",
      "properties": {
        "name": "連絡",
        "slope_deg": [
          8.530765609948133,
          8.530765609948133,
          8.530765609948133,
          11.309932474020215,
          11.309932474020215,
          14.036243467926479,
          14.036243467926479,
          12.68038349181982,
          11.309932474020215,
          9.926245506651705,
          9.926245506651705,
          9.926245506651705,
          11.309932474020215,
          11.309932474020215,
          12.68038349181982,
          12.68038349181982,
          14.036243467926479,
          15.37625124882619,
          15.37625124882619,
          16.69924423399362,
          15.37625124882619,
          15.37625124882619,
          14.036243467926479,
          14.036243467926479,
          14.036243467926479,
          14.036243467926479,
          14.036243467926479,
          14.036243467926479,
          14.036243467926479,
          12.68038349181982,
          12.68038349181982,
          9.926245506651705,
          9.926245506651705,
          8.530765609948133,
          8.530765609948133,
          9.926245506651705,
          8.530765609948133,
          11.309932474020215,
          9.926245506651705,
          9.926245506651705,
          11.309932474020215,
          12.68038349181982,
          14.036243467926479,
          14.036243467926479,
          14.036243467926479,
          14.036243467926479,
          15.37625124882619,
          18.00416160591338,
          20.556045219583467,
          19.290046219188735,
          18.00416160591338,
          16.69924423399362,
          15.37625124882619,
          15.37625124882619,
          12.68038349181982,
          11.309932474020215,
          7.125016348901798,
          4.289153328819018,
          1.4320961841646465,
          0.0,
          0.0,
          -4.289153328819018,
          1.4320961841646465,
          0.0,
          -2.862405226111748,
          1.4320961841646465,
          2.862405226111748,
          8.530765609948133,
          15.37625124882619,
          18.00416160591338,
          15.37625124882619,
          12.68038349181982,
          11.309932474020215,
          8.530765609948133,
          9.926245506651705,
          7.125016348901798,
          7.125016348901798,
          7.125016348901798,
          5.710593137499643,
          7.125016348901798,
          5.710593137499643,
          4.289153328819018,
          4.289153328819018,
          4.289153328819018,
          4.289153328819018
        ],
        "horizontal_dist_map": 835,
        "slope_dist_map": 856,
        "elevation_diff_map": 156.0,
        "avg_slope_deg_map": 10.3,
        "max_slope_deg_map": 20.6
      },
      "geometry": {
        "type": "LineString",
        "coordinates": [
          [
            141.5377646707985,
            43.8051108976729,
            285.0
          ],
          [
            141.5376808250299,
            43.805177328317356,
            284.0
          ],
          [
            141.53759697926125,
            43.80524375896182,
            282.0
          ],
          [
            141.53751313349264,
            43.80531018960628,
            281.0
          ],
          [
            141.53742928772402,
            43.80537662025075,
            279.0
          ],
          [
            141.5373471160139,
            43.80544412933699,
            276.0
          ],
          [
            141.53726580541985,
            43.80551219316104,
            274.0
          ],
          [
            141.5371844948258,
            43.805580256985095,
            271.0
          ],
          [
            141.53710318423177,
            43.80564832080915,
            269.0
          ],
          [
            141.5370218736377,
            43.8057163846332,
            267.0
          ],
          [
            141.53694056304366,
            43.80578444845725,
            266.0
          ],
          [
            141.53685741145063,
            43.80585123566984,
            264.0
          ],
          [
            141.53676704165318,
            43.80591301753335,
            262.0
          ],
          [
            141.5366766718557,
            43.80597479939686,
            260.0
          ],
          [
            141.53658630205823,
            43.806036581260365,
            258.0
          ],
          [
            141.53649593226075,
            43.80609836312387,
            256.0
          ],
          [
            141.5364055624633,
            43.80616014498738,
            253.0
          ],
          [
            141.53631519266582,
            43.80622192685089,
            251.0
          ],
          [
            141.53622482286835,
            43.806283708714396,
            248.0
          ],
          [
            141.53613445307087,
            43.806345490577904,
            245.0
          ],
          [
            141.53604380599987,
            43.80640705953117,
            242.0
          ],
          [
            141.53595314782228,
            43.806468619956036,
            239.0
          ],
          [
            141.5358624896447,
            43.8065301803809,
            237.0
          ],
          [
            141.53577183146712,
            43.80659174080578,
            234.0
          ],
          [
            141.53568117328953,
            43.80665330123065,
            232.0
          ],
          [
            141.53559051511198,
            43.806714861655514,
            229.0
          ],
          [
            141.5354998569344,
            43.80677642208038,
            227.0
          ],
          [
            141.53541176937455,
            43.80683987808869,
            224.0
          ],
          [
            141.53532515758906,
            43.806904422338704,
            222.0
          ],
          [
            141.53523854580357,
            43.80696896658872,
            219.0
          ],
          [
            141.53515193401807,
            43.80703351083873,
            217.0
          ],
          [
            141.5350653222326,
            43.807098055088744,
            215.0
          ],
          [
            141.53497871044712,
            43.80716259933876,
            213.0
          ],
          [
            141.53489209866163,
            43.80722714358877,
            212.0
          ],
          [
            141.53480846260302,
            43.807293677662784,
            210.0
          ],
          [
            141.5347265278767,
            43.80736134939224,
            209.0
          ],
          [
            141.5346445931504,
            43.807429021121685,
            207.0
          ],
          [
            141.5345626584241,
            43.80749669285113,
            205.0
          ],
          [
            141.5344807236978,
            43.807564364580585,
            204.0
          ],
          [
            141.5343987889715,
            43.80763203631003,
            201.0
          ],
          [
            141.5343168542452,
            43.807699708039486,
            200.0
          ],
          [
            141.53423502410956,
            43.807767445365286,
            198.0
          ],
          [
            141.5341542996978,
            43.80783587617015,
            196.0
          ],
          [
            141.53407357528602,
            43.807904306975026,
            192.0
          ],
          [
            141.53399285087423,
            43.80797273777989,
            190.0
          ],
          [
            141.53391212646247,
            43.808041168584765,
            188.0
          ],
          [
            141.53383140205068,
            43.80810959938963,
            186.0
          ],
          [
            141.5337506776389,
            43.808178030194505,
            182.0
          ],
          [
            141.53366995322713,
            43.80824646099937,
            179.0
          ],
          [
            141.53358922881534,
            43.80831489180424,
            175.0
          ],
          [
            141.5334993534103,
            43.80837691001036,
            171.0
          ],
          [
            141.53340756254943,
            43.80843758595242,
            168.0
          ],
          [
            141.53331577168854,
            43.80849826189448,
            166.0
          ],
          [
            141.53322206708188,
            43.80855702610442,
            163.0
          ],
          [
            141.53311388953622,
            43.808601332604084,
            160.0
          ],
          [
            141.53300571199057,
            43.80864563910375,
            157.0
          ],
          [
            141.53289297751652,
            43.80868338142383,
            157.0
          ],
          [
            141.532779344252,
            43.80871982905119,
            155.0
          ],
          [
            141.5326646330614,
            43.80875443500921,
            155.0
          ],
          [
            141.53254944036888,
            43.808788218306624,
            154.0
          ],
          [
            141.53243424767635,
            43.808822001604035,
            156.0
          ],
          [
            141.53231905498384,
            43.808855784901446,
            155.0
          ],
          [
            141.5322055434908,
            43.808892384634596,
            155.0
          ],
          [
            141.53209264594508,
            43.80893001288533,
            157.0
          ],
          [
            141.53198060056496,
            43.808968717259845,
            155.0
          ],
          [
            141.531878737932,
            43.80902028051539,
            155.0
          ],
          [
            141.53177687529902,
            43.80907184377094,
            157.0
          ],
          [
            141.53167501266606,
            43.80912340702648,
            156.0
          ],
          [
            141.53157591860716,
            43.80917770415608,
            153.0
          ],
          [
            141.5314774015758,
            43.80923257108104,
            149.0
          ],
          [
            141.53137888454447,
            43.809287438006,
            146.0
          ],
          [
            141.53128357639773,
            43.80934512296279,
            143.0
          ],
          [
            141.53119043898755,
            43.809404714253276,
            142.0
          ],
          [
            141.53109730157738,
            43.80946430554376,
            140.0
          ],
          [
            141.5310041641672,
            43.80952389683425,
            138.0
          ],
          [
            141.5309112504017,
            43.809583670847964,
            137.0
          ],
          [
            141.5308184440412,
            43.809643532614224,
            135.0
          ],
          [
            141.53071232068788,
            43.80968813289544,
            135.0
          ],
          [
            141.5305978225883,
            43.80972313558454,
            133.0
          ],
          [
            141.53047547796763,
            43.80973520658101,
            132.0
          ],
          [
            141.53035145246673,
            43.809734784762355,
            131.0
          ],
          [
            141.53022853498533,
            43.80972336536183,
            130.0
          ],
          [
            141.5301067692919,
            43.809705345661484,
            129.0
          ],
          [
            141.52999131193386,
            43.80967283163256,
            129.0
          ],
          [
            141.52992483628157,
            43.80965196169348,
            129.0
          ]
        ]
      }
    },
    {
      "type": "Feature",
      "properties": {
        "name": "スノーボード",
        "slope_deg": [
          9.926245506651705,
          9.926245506651705,
          9.926245506651705,
          9.926245506651705,
          7.125016348901798,
          9.926245506651705,
          9.926245506651705,
          12.68038349181982,
          12.68038349181982,
          8.530765609948133,
          11.309932474020215,
          8.530765609948133,
          12.68038349181982,
          16.69924423399362,
          16.69924423399362,
          16.69924423399362,
          15.37625124882619,
          12.68038349181982,
          8.530765609948133,
          9.926245506651705,
          8.530765609948133,
          11.309932474020215,
          12.68038349181982,
          15.37625124882619,
          16.69924423399362,
          16.69924423399362,
          15.37625124882619,
          11.309932474020215,
          7.125016348901798,
          4.289153328819018,
          4.289153328819018,
          4.289153328819018,
          5.710593137499643,
          5.710593137499643,
          7.125016348901798,
          7.125016348901798,
          7.125016348901798,
          7.125016348901798,
          5.710593137499643,
          5.710593137499643,
          5.710593137499643,
          4.289153328819018,
          4.289153328819018,
          4.289153328819018,
          4.289153328819018,
          7.125016348901798,
          7.125016348901798,
          7.125016348901798,
          7.125016348901798,
          7.125016348901798
        ],
        "horizontal_dist_map": 480,
        "slope_dist_map": 490,
        "elevation_diff_map": 80.0,
        "avg_slope_deg_map": 9.3,
        "max_slope_deg_map": 16.7
      },
      "geometry": {
        "type": "LineString",
        "coordinates": [
          [
            141.53398669773497,
            43.806847161181416,
            209.0
          ],
          [
            141.53386335060475,
            43.80685814591576,
            208.0
          ],
          [
            141.53374000347452,
            43.8068691306501,
            205.0
          ],
          [
            141.53361806816514,
            43.80688476981981,
            204.0
          ],
          [
            141.533499720703,
            43.806912237262615,
            202.0
          ],
          [
            141.53338137324081,
            43.80693970470543,
            201.0
          ],
          [
            141.53326302577864,
            43.80696717214824,
            200.0
          ],
          [
            141.53314525551414,
            43.806995822392565,
            197.0
          ],
          [
            141.53302935966857,
            43.807028313722185,
            195.0
          ],
          [
            141.53291346382304,
            43.807060805051805,
            192.0
          ],
          [
            141.53279756797747,
            43.807093296381424,
            191.0
          ],
          [
            141.5326816721319,
            43.807125787711044,
            191.0
          ],
          [
            141.53257133282384,
            43.80716651817031,
            187.0
          ],
          [
            141.53246469752023,
            43.80721274085788,
            186.0
          ],
          [
            141.5323580622166,
            43.80725896354545,
            182.0
          ],
          [
            141.5322490212618,
            43.80730198212593,
            179.0
          ],
          [
            141.53213747850714,
            43.80734166853805,
            175.0
          ],
          [
            141.53202593575247,
            43.807381354950174,
            174.0
          ],
          [
            141.53190998206065,
            43.80741246655385,
            171.0
          ],
          [
            141.53178977194514,
            43.80743530372135,
            170.0
          ],
          [
            141.5316695618296,
            43.807458140888855,
            169.0
          ],
          [
            141.53155067757712,
            43.80748268228237,
            167.0
          ],
          [
            141.53146142575534,
            43.80754531234587,
            165.0
          ],
          [
            141.53137217393356,
            43.807607942409376,
            162.0
          ],
          [
            141.53130135028138,
            43.80768138185142,
            160.0
          ],
          [
            141.5312363124175,
            43.80775806814761,
            156.0
          ],
          [
            141.53117283638412,
            43.80783544519512,
            153.0
          ],
          [
            141.53110685569337,
            43.80791168741512,
            150.0
          ],
          [
            141.5310385309453,
            43.80798686757343,
            149.0
          ],
          [
            141.53097020619722,
            43.808062047731745,
            148.0
          ],
          [
            141.53088650355588,
            43.80812568813916,
            148.0
          ],
          [
            141.530780328043,
            43.80817246464098,
            147.0
          ],
          [
            141.53067523624517,
            43.80822047541899,
            146.0
          ],
          [
            141.5305700946124,
            43.808268155073144,
            145.0
          ],
          [
            141.53045684480034,
            43.80830522215688,
            144.0
          ],
          [
            141.5303435949883,
            43.80834228924062,
            143.0
          ],
          [
            141.530241571105,
            43.8083936556938,
            141.0
          ],
          [
            141.5301396676309,
            43.808445175521825,
            140.0
          ],
          [
            141.53003776415676,
            43.80849669534985,
            139.0
          ],
          [
            141.52997226949228,
            43.80856962399831,
            138.0
          ],
          [
            141.5299235700451,
            43.808652428437696,
            137.0
          ],
          [
            141.5298739914405,
            43.80873495683835,
            136.0
          ],
          [
            141.5298238116574,
            43.808817296480385,
            135.0
          ],
          [
            141.5297769555046,
            43.80890055660991,
            135.0
          ],
          [
            141.52973846233735,
            43.808986132888634,
            134.0
          ],
          [
            141.52969996917014,
            43.80907170916736,
            133.0
          ],
          [
            141.52966147600293,
            43.809157285446084,
            132.0
          ],
          [
            141.5296245794145,
            43.809243229478646,
            130.0
          ],
          [
            141.5295877396136,
            43.80932918659157,
            129.0
          ],
          [
            141.52958420429164,
            43.80933743544365,
            129.0
          ]
        ]
      }
    },
    {
      "type": "Feature",
      "properties": {
        "name": "シーガル",
        "slope_deg": [
          8.530765609948133,
          8.530765609948133,
          8.530765609948133,
          8.530765609948133,
          9.926245506651705,
          9.926245506651705,
          12.68038349181982,
          14.036243467926479,
          12.68038349181982,
          12.68038349181982,
          11.309932474020215,
          9.926245506651705,
          11.309932474020215,
          11.309932474020215,
          11.309932474020215,
          11.309932474020215,
          12.68038349181982,
          14.036243467926479,
          15.37625124882619,
          18.00416160591338,
          18.00416160591338,
          16.69924423399362,
          18.00416160591338,
          15.37625124882619,
          15.37625124882619,
          15.37625124882619,
          14.036243467926479,
          14.036243467926479,
          9.926245506651705,
          8.530765609948133,
          5.710593137499643,
          4.289153328819018,
          8.530765609948133,
          8.530765609948133,
          8.530765609948133,
          8.530765609948133,
          4.289153328819018,
          4.289153328819018,
          5.710593137499643,
          5.710593137499643,
          9.926245506651705,
          11.309932474020215,
          9.926245506651705,
          11.309932474020215,
          9.926245506651705,
          9.926245506651705,
          11.309932474020215,
          12.68038349181982,
          11.309932474020215,
          11.309932474020215,
          9.926245506651705,
          9.926245506651705,
          11.309932474020215,
          9.926245506651705,
          11.309932474020215,
          11.309932474020215,
          9.926245506651705,
          9.926245506651705,
          7.125016348901798,
          4.289153328819018,
          4.289153328819018,
          4.289153328819018,
          7.125016348901798,
          7.125016348901798,
          9.926245506651705,
          11.309932474020215,
          12.68038349181982,
          16.69924423399362,
          18.00416160591338,
          19.290046219188735,
          18.00416160591338,
          15.37625124882619,
          12.68038349181982,
          12.68038349181982,
          12.68038349181982,
          12.68038349181982,
          11.309932474020215,
          8.530765609948133,
          8.530765609948133,
          7.125016348901798,
          7.125016348901798,
          7.125016348901798,
          7.125016348901798
        ],
        "horizontal_dist_map": 819,
        "slope_dist_map": 837,
        "elevation_diff_map": 159.0,
        "avg_slope_deg_map": 10.7,
        "max_slope_deg_map": 19.3
      },
      "geometry": {
        "type": "LineString",
        "coordinates": [
          [
            141.53755475986932,
            43.80486874738066,
            287.0
          ],
          [
            141.5374742130562,
            43.80493728535724,
            285.0
          ],
          [
            141.53739366624308,
            43.80500582333382,
            284.0
          ],
          [
            141.53731311942997,
            43.805074361310396,
            282.0
          ],
          [
            141.5372289085429,
            43.805140479436574,
            281.0
          ],
          [
            141.5371420776128,
            43.805204867217725,
            279.0
          ],
          [
            141.53705524668274,
            43.805269254998876,
            277.0
          ],
          [
            141.5369634497709,
            43.80532985581408,
            275.0
          ],
          [
            141.53687018091762,
            43.80538933415394,
            272.0
          ],
          [
            141.53677691206437,
            43.805448812493815,
            269.0
          ],
          [
            141.53668364321112,
            43.80550829083368,
            268.0
          ],
          [
            141.53659037435784,
            43.80556776917355,
            266.0
          ],
          [
            141.5364971055046,
            43.805627247513414,
            264.0
          ],
          [
            141.53640560043596,
            43.80568814514168,
            262.0
          ],
          [
            141.53631416195756,
            43.80574909635399,
            260.0
          ],
          [
            141.53622272347914,
            43.805810047566304,
            258.0
          ],
          [
            141.53613128500075,
            43.80587099877862,
            256.0
          ],
          [
            141.53603984652233,
            43.805931949990935,
            254.0
          ],
          [
            141.53594848629083,
            43.80599296253183,
            251.0
          ],
          [
            141.5358574738159,
            43.80605424763832,
            248.0
          ],
          [
            141.53576646134096,
            43.80611553274482,
            245.0
          ],
          [
            141.53567544886602,
            43.80617681785131,
            241.0
          ],
          [
            141.5355844363911,
            43.806238102957806,
            238.0
          ],
          [
            141.53549363779348,
            43.80629955210967,
            236.0
          ],
          [
            141.5354039623103,
            43.80636186269798,
            232.0
          ],
          [
            141.53531428682714,
            43.8064241732863,
            230.0
          ],
          [
            141.535224611344,
            43.806486483874615,
            227.0
          ],
          [
            141.53513379448634,
            43.8065478500255,
            225.0
          ],
          [
            141.53503662835132,
            43.806603962427346,
            222.0
          ],
          [
            141.5349394622163,
            43.80666007482918,
            220.0
          ],
          [
            141.53484229608128,
            43.806716187231025,
            220.0
          ],
          [
            141.5347451299463,
            43.80677229963287,
            219.0
          ],
          [
            141.53464796381127,
            43.806828412034704,
            218.0
          ],
          [
            141.53455082239932,
            43.80688454683512,
            217.0
          ],
          [
            141.53445403174757,
            43.806940999416724,
            214.0
          ],
          [
            141.53435724109582,
            43.806997451998335,
            213.0
          ],
          [
            141.53426045044407,
            43.80705390457994,
            212.0
          ],
          [
            141.53416365979234,
            43.80711035716154,
            211.0
          ],
          [
            141.5340668691406,
            43.80716680974315,
            211.0
          ],
          [
            141.53397007848884,
            43.807223262324754,
            210.0
          ],
          [
            141.53387328783708,
            43.80727971490636,
            208.0
          ],
          [
            141.53377649718533,
            43.80733616748797,
            207.0
          ],
          [
            141.5336797065336,
            43.80739262006957,
            204.0
          ],
          [
            141.53358291588185,
            43.807449072651174,
            202.0
          ],
          [
            141.5334861252301,
            43.807505525232784,
            201.0
          ],
          [
            141.53338933457835,
            43.80756197781439,
            199.0
          ],
          [
            141.5332925439266,
            43.80761843039599,
            197.0
          ],
          [
            141.53319575327487,
            43.8076748829776,
            195.0
          ],
          [
            141.53309883517497,
            43.807731220723966,
            193.0
          ],
          [
            141.53300166655814,
            43.8077873327458,
            190.0
          ],
          [
            141.5329044979413,
            43.80784344476763,
            189.0
          ],
          [
            141.53280732932447,
            43.80789955678946,
            187.0
          ],
          [
            141.53271016070764,
            43.80795566881129,
            186.0
          ],
          [
            141.5326129920908,
            43.80801178083312,
            183.0
          ],
          [
            141.53251582347394,
            43.80806789285495,
            181.0
          ],
          [
            141.5324186548571,
            43.80812400487678,
            180.0
          ],
          [
            141.53232148624028,
            43.80818011689862,
            178.0
          ],
          [
            141.53222431762345,
            43.80823622892045,
            175.0
          ],
          [
            141.5321280687374,
            43.80829315111483,
            174.0
          ],
          [
            141.53203329426825,
            43.80835137209379,
            173.0
          ],
          [
            141.5319385197991,
            43.80840959307274,
            173.0
          ],
          [
            141.53184374532995,
            43.80846781405169,
            172.0
          ],
          [
            141.5317489708608,
            43.80852603503064,
            171.0
          ],
          [
            141.53165419639166,
            43.808584256009595,
            170.0
          ],
          [
            141.5315594219225,
            43.808642476988545,
            168.0
          ],
          [
            141.53146464745336,
            43.808700697967495,
            167.0
          ],
          [
            141.53136987298421,
            43.808758918946445,
            164.0
          ],
          [
            141.53127509851507,
            43.8088171399254,
            162.0
          ],
          [
            141.53118032404592,
            43.80887536090435,
            159.0
          ],
          [
            141.53108554957677,
            43.8089335818833,
            155.0
          ],
          [
            141.53099077510763,
            43.80899180286225,
            151.0
          ],
          [
            141.53089600063848,
            43.80905002384121,
            148.0
          ],
          [
            141.53080122616933,
            43.80910824482016,
            146.0
          ],
          [
            141.53070581843156,
            43.809165899207244,
            144.0
          ],
          [
            141.53060741714268,
            43.8092208752339,
            142.0
          ],
          [
            141.5305090158538,
            43.809275851260544,
            139.0
          ],
          [
            141.53041061456494,
            43.8093308272872,
            137.0
          ],
          [
            141.53031221327606,
            43.80938580331385,
            135.0
          ],
          [
            141.53021381198718,
            43.809440779340505,
            134.0
          ],
          [
            141.53011541069833,
            43.80949575536715,
            133.0
          ],
          [
            141.53001700940945,
            43.809550731393806,
            131.0
          ],
          [
            141.52991860812057,
            43.80960570742046,
            130.0
          ],
          [
            141.5298296722646,
            43.809655395184144,
            128.0
          ]
        ]
      }
    }
  ]
}