{
  "type": "FeatureCollection",
  "features": [
    {
      "type": "Feature",
      "properties": {
        "name": "A",
        "slope_deg": [
          2.862405226111748,
          2.862405226111748,
          2.862405226111748,
          2.7195054612723095,
          3.005269359689804,
          3.005269359690129,
          3.005269359690129,
          3.718993973158237,
          5.000644597558433,
          6.56019640057118,
          7.688447769902681,
          9.22988624372772,
          11.309932474020215,
          13.360218444764483,
          18.26288994219419,
          20.30447370996038,
          23.50904022419257,
          27.587067675863988,
          26.565051177077994,
          29.574910497101147,
          27.248467426644652,
          25.873385226285933,
          24.93842765545712,
          22.170895633834377,
          22.04794746356044,
          18.39196625070533,
          18.00416160591338,
          14.97598451475675,
          14.574216198038554,
          14.305551846622015,
          16.172159015782732,
          20.681521678200784,
          21.30578361782894,
          25.407718108948472,
          25.056088833535423,
          25.29073439214831,
          27.47443162627708,
          25.407718108948472,
          27.587067675863732,
          25.873385226285933,
          25.873385226286064,
          27.923589715138434,
          25.407718108948472,
          26.793775628803207,
          24.1085158999753,
          23.26770481005701,
          24.22774531795417,
          21.554019920478787,
          23.629377730656817,
          21.80140948635181,
          22.17089563383452,
          24.22774531795417,
          22.04794746356044,
          22.782405730481635,
          19.798876354524904,
          18.00416160591338,
          16.43605922463559,
          14.57421619803871,
          14.97598451475675,
          13.088732789694154,
          14.036243467926479,
          13.224551192213497,
          13.088732789694,
          13.766300685466197,
          12.270720357815385,
          12.68038349181982,
          11.034209003250188,
          10.757967088390036,
          11.7225209701022,
          10.757967088390036,
          11.447596263685636,
          10.065169352759877,
          9.369385096487514,
          9.22988624372772,
          8.250387228905595,
          7.68844776990284,
          5.710593137499643,
          4.858462919034255,
          5.000644597558433,
          5.000644597558433,
          5.994092949108534,
          5.852378988915653,
          5.9940929491083725,
          5.852378988915653,
          6.983937460085259,
          9.22988624372772,
          7.969610394321392,
          9.648045316098093,
          9.369385096487514,
          8.39062701325255,
          10.481218144130889,
          11.034209003250343,
          13.360218444764483,
          13.224551192213651,
          13.088732789694154,
          11.172136252167116,
          8.810732985984814,
          8.810732985984814,
          8.810732985984814,
          8.810732985984814
        ],
        "horizontal_dist_map": 983,
        "slope_dist_map": 1030,
        "elevation_diff_map": 268.2,
        "avg_slope_deg_map": 14.6,
        "max_slope_deg_map": 29.6
      },
      "geometry": {
        "type": "LineString",
        "coordinates": [
          [
            138.92928767219271,
            36.742645281866956,
            1134.2
          ],
          [
            138.9293797319893,
            36.74269657462651,
            1133.6
          ],
          [
            138.92947179178586,
            36.74274786738606,
            1133.1
          ],
          [
            138.92956385158243,
            36.742799160145616,
            1132.7
          ],
          [
            138.92965356112938,
            36.74285268791105,
            1132.2
          ],
          [
            138.92973163917384,
            36.742917276832074,
            1131.7
          ],
          [
            138.9298097172183,
            36.742981865753094,
            1131.0
          ],
          [
            138.92987807863585,
            36.743052086803495,
            1130.6
          ],
          [
            138.9299294553552,
            36.74313215283604,
            1130.1
          ],
          [
            138.92997964742776,
            36.74321269678074,
            1129.1
          ],
          [
            138.9300286122301,
            36.74329373583283,
            1127.5
          ],
          [
            138.93007757703245,
            36.74337477488491,
            1126.0
          ],
          [
            138.93013776111516,
            36.74345074933077,
            1124.7
          ],
          [
            138.9301981629469,
            36.743526625480406,
            1122.6
          ],
          [
            138.93028214573172,
            36.743575406590764,
            1119.5
          ],
          [
            138.93039139275427,
            36.74359515853046,
            1116.5
          ],
          [
            138.93050094889506,
            36.74361365977772,
            1111.5
          ],
          [
            138.93061127307166,
            36.743629053552255,
            1107.8
          ],
          [
            138.93072159724824,
            36.74364444732678,
            1102.1
          ],
          [
            138.9308319214248,
            36.74365984110131,
            1095.6
          ],
          [
            138.9309422456014,
            36.743675234875845,
            1091.5
          ],
          [
            138.93105256977796,
            36.74369062865038,
            1085.1
          ],
          [
            138.93116289395454,
            36.74370602242491,
            1081.5
          ],
          [
            138.9312737289945,
            36.743718819074246,
            1076.2
          ],
          [
            138.93138456842107,
            36.74373159342315,
            1072.9
          ],
          [
            138.93149540784762,
            36.74374436777205,
            1068.8
          ],
          [
            138.93160624727417,
            36.743757142120955,
            1065.3
          ],
          [
            138.93171708670073,
            36.74376991646986,
            1062.9
          ],
          [
            138.93182792612728,
            36.74378269081877,
            1059.9
          ],
          [
            138.93193876555387,
            36.74379546516767,
            1058.1
          ],
          [
            138.93204960498042,
            36.743808239516575,
            1054.9
          ],
          [
            138.93216044440697,
            36.74382101386548,
            1052.7
          ],
          [
            138.93227157147635,
            36.74383200925884,
            1048.3
          ],
          [
            138.93238278323366,
            36.74384248089149,
            1043.0
          ],
          [
            138.93249399499095,
            36.743852952524136,
            1039.3
          ],
          [
            138.93260520674824,
            36.743863424156785,
            1033.7
          ],
          [
            138.93271641850552,
            36.74387389578944,
            1029.6
          ],
          [
            138.93282763026284,
            36.74388436742209,
            1024.1
          ],
          [
            138.93293900351003,
            36.74389354350427,
            1018.5
          ],
          [
            138.93305058424218,
            36.7439010550418,
            1014.7
          ],
          [
            138.9331621649743,
            36.743908566579336,
            1008.7
          ],
          [
            138.93327374570643,
            36.74391607811687,
            1004.7
          ],
          [
            138.93338532643855,
            36.74392358965439,
            999.1
          ],
          [
            138.93349722787977,
            36.74392616189728,
            993.5
          ],
          [
            138.93360917375935,
            36.74392804973722,
            989.7
          ],
          [
            138.93372111963893,
            36.743929937577164,
            984.5
          ],
          [
            138.9338330655185,
            36.74393182541711,
            981.2
          ],
          [
            138.93394472673776,
            36.743926472097044,
            976.3
          ],
          [
            138.93405630047465,
            36.74391889341099,
            971.7
          ],
          [
            138.93416787421157,
            36.74391131472494,
            968.7
          ],
          [
            138.9342793852223,
            36.743903384188926,
            963.7
          ],
          [
            138.93438910605414,
            36.74388541199803,
            960.3
          ],
          [
            138.93449882688597,
            36.74386743980713,
            955.4
          ],
          [
            138.9346085477178,
            36.743849467616236,
            950.7
          ],
          [
            138.93471827865682,
            36.743831535658046,
            947.5
          ],
          [
            138.9348280367278,
            36.743813711701485,
            943.5
          ],
          [
            138.93493779479874,
            36.743795887744916,
            941.0
          ],
          [
            138.9350476645443,
            36.743778626181395,
            937.7
          ],
          [
            138.93515885825204,
            36.74376803208842,
            935.7
          ],
          [
            138.93527005195978,
            36.74375743799544,
            933.1
          ],
          [
            138.93538124566751,
            36.74374684390246,
            930.3
          ],
          [
            138.93549267614608,
            36.74373972412122,
            928.4
          ],
          [
            138.93560464251433,
            36.743740467841505,
            925.7
          ],
          [
            138.9357166088826,
            36.74374121156178,
            923.7
          ],
          [
            138.93582857525084,
            36.74374195528207,
            921.0
          ],
          [
            138.93594053611287,
            36.74374183987807,
            918.6
          ],
          [
            138.93605248699333,
            36.74374016707999,
            917.0
          ],
          [
            138.9361644378738,
            36.74373849428192,
            914.7
          ],
          [
            138.93627638875427,
            36.74373682148384,
            913.2
          ],
          [
            138.93638833963473,
            36.743735148685765,
            911.0
          ],
          [
            138.9365002905152,
            36.74373347588769,
            908.7
          ],
          [
            138.93661224139566,
            36.74373180308962,
            907.1
          ],
          [
            138.93672419227613,
            36.74373013029154,
            905.1
          ],
          [
            138.93683084315805,
            36.743704894644296,
            903.9
          ],
          [
            138.93693178340328,
            36.74366758056439,
            902.1
          ],
          [
            138.93702384448554,
            36.74361628809058,
            900.6
          ],
          [
            138.9371159055678,
            36.743564995616765,
            899.3
          ],
          [
            138.93721581652804,
            36.74352485953287,
            898.5
          ],
          [
            138.93731782710998,
            36.743487707469725,
            898.1
          ],
          [
            138.9374234010462,
            36.74345875029883,
            897.2
          ],
          [
            138.93753193687317,
            36.74343660479305,
            895.8
          ],
          [
            138.93764047270017,
            36.74341445928727,
            895.0
          ],
          [
            138.93774900852716,
            36.7433923137815,
            893.9
          ],
          [
            138.93785754435413,
            36.74337016827572,
            893.1
          ],
          [
            138.93796864953956,
            36.743359119511446,
            891.6
          ],
          [
            138.9380798115839,
            36.74334831631363,
            890.9
          ],
          [
            138.9381909736282,
            36.74333751311581,
            889.0
          ],
          [
            138.9383021356725,
            36.743326709917994,
            886.6
          ],
          [
            138.93841226355863,
            36.74331082509988,
            886.0
          ],
          [
            138.9385219002047,
            36.743292526438815,
            884.1
          ],
          [
            138.93863153685078,
            36.743274227777746,
            882.4
          ],
          [
            138.93874117349685,
            36.74325592911668,
            880.7
          ],
          [
            138.93885081014292,
            36.74323763045561,
            878.6
          ],
          [
            138.9389618329171,
            36.74322609932788,
            876.3
          ],
          [
            138.93907296633805,
            36.743215108413956,
            872.9
          ],
          [
            138.93918409975896,
            36.74320411750003,
            871.3
          ],
          [
            138.9392952331799,
            36.74319312658611,
            869.3
          ],
          [
            138.93940636660082,
            36.743182135672185,
            868.4
          ],
          [
            138.93951750002176,
            36.74317114475826,
            866.7
          ],
          [
            138.93955787219264,
            36.74316715201646,
            866.0
          ]
        ]
      }
    },
    {
      "type": "Feature",
      "properties": {
        "name": "B",
        "slope_deg": [
          1.8614576304666637,
          1.8614576304666637,
          1.8614576304666637,
          3.005269359689804,
          4.289153328819018,
          5.852378988915493,
          9.648045316098093,
          12.133880170633535,
          14.17097756293297,
          17.744671625056874,
          19.925580658184323,
          21.056705590704606,
          21.67782085250454,
          23.146707841883106,
          23.26770481005701,
          23.749494492866926,
          25.524475356294268,
          23.14670784188283,
          20.806791012711287,
          20.681521678200784,
          17.6146433000071,
          18.52084947747122,
          18.262889942193894,
          16.567741642975037,
          15.509334522674754,
          13.49573328079569,
          11.859779120948104,
          10.203973721731748,
          8.390627013252708,
          5.4268124985727555,
          3.8616074096751394,
          4.289153328819018,
          7.547725773843047,
          10.757967088390194,
          15.109575122340402,
          15.642246457208486,
          15.642246457208788,
          18.778033222445426,
          18.26288994219419,
          20.806791012711287,
          21.05670559070489,
          19.6719699892005,
          20.052082146098424,
          19.290046219188735,
          18.39196625070533,
          17.6146433000071,
          16.961705886532968,
          16.304198003832376,
          15.642246457208788,
          14.84222705791098,
          14.439965121002654,
          12.543973346572233,
          13.224551192213344,
          11.58512622485511,
          11.172136252167274,
          12.133880170633224,
          12.133880170633535,
          11.859779120948104,
          11.44759626368548,
          11.859779120948104,
          11.996899307923577,
          13.766300685466197,
          14.439965121002654,
          15.642246457208486,
          15.37625124882619,
          16.304198003832376,
          15.642246457208788,
          15.2429977429017,
          14.708303899682749,
          14.305551846622015,
          15.109575122340402,
          13.360218444764483,
          13.088732789694,
          11.996899307923425,
          10.757967088390194,
          12.13388017063338,
          12.68038349181982,
          12.68038349181982,
          11.996899307923577,
          11.034209003250188,
          10.342657140474548,
          9.648045316098251,
          12.27072035781523,
          12.407418527400838,
          15.242997742901547,
          16.039943306049665,
          16.172159015782583,
          15.109575122340402,
          11.859779120947948,
          10.757967088389877,
          10.757967088389877,
          10.757967088389877,
          10.757967088389877
        ],
        "horizontal_dist_map": 911,
        "slope_dist_map": 945,
        "elevation_diff_map": 230.1,
        "avg_slope_deg_map": 13.7,
        "max_slope_deg_map": 25.5
      },
      "geometry": {
        "type": "LineString",
        "coordinates": [
          [
            138.92582639405197,
            36.743345578373315,
            1214.1
          ],
          [
            138.92593827076533,
            36.74334924835935,
            1214.0
          ],
          [
            138.92605014200487,
            36.74335300323866,
            1213.3
          ],
          [
            138.92616188976424,
            36.74335867318061,
            1213.1
          ],
          [
            138.9262736725556,
            36.74336349309835,
            1212.8
          ],
          [
            138.9263856415626,
            36.74336379463473,
            1211.9
          ],
          [
            138.9264976105696,
            36.743364096171106,
            1210.3
          ],
          [
            138.9266094826627,
            36.74336036682078,
            1209.0
          ],
          [
            138.92671855709733,
            36.74334682045905,
            1206.0
          ],
          [
            138.9268211921776,
            36.74331080006409,
            1203.3
          ],
          [
            138.92691427781892,
            36.743261343188166,
            1200.2
          ],
          [
            138.92700489150462,
            36.7432084081619,
            1196.2
          ],
          [
            138.9271048094243,
            36.7431681609924,
            1191.5
          ],
          [
            138.92720618791353,
            36.74312990555026,
            1187.9
          ],
          [
            138.92730756640276,
            36.74309165010812,
            1184.3
          ],
          [
            138.92740756589583,
            36.74305114029973,
            1179.1
          ],
          [
            138.92750706760845,
            36.74300981672588,
            1174.3
          ],
          [
            138.92760656932109,
            36.742968493152034,
            1170.3
          ],
          [
            138.92770607103373,
            36.74292716957818,
            1165.2
          ],
          [
            138.92780618497778,
            36.742886949005566,
            1162.0
          ],
          [
            138.92791082316202,
            36.74285487934208,
            1159.1
          ],
          [
            138.9280154613463,
            36.7428228096786,
            1155.2
          ],
          [
            138.92812009953056,
            36.74279074001512,
            1152.5
          ],
          [
            138.9282257191927,
            36.74276095641456,
            1148.6
          ],
          [
            138.92833263568141,
            36.742734193388465,
            1145.9
          ],
          [
            138.92843955217012,
            36.74270743036237,
            1143.3
          ],
          [
            138.92854646865882,
            36.74268066733628,
            1141.4
          ],
          [
            138.92865340364722,
            36.742653957307255,
            1139.0
          ],
          [
            138.92876199455344,
            36.74263199107057,
            1137.5
          ],
          [
            138.92887058545966,
            36.74261002483388,
            1136.1
          ],
          [
            138.92897917636589,
            36.74258805859719,
            1135.5
          ],
          [
            138.9290877672721,
            36.742566092360505,
            1135.2
          ],
          [
            138.9291964884346,
            36.742544562404355,
            1134.8
          ],
          [
            138.9293056225244,
            36.74252441550733,
            1133.1
          ],
          [
            138.9294147566142,
            36.742504268610304,
            1130.2
          ],
          [
            138.929523890704,
            36.742484121713275,
            1127.6
          ],
          [
            138.92963111245268,
            36.74245866042622,
            1124.0
          ],
          [
            138.92973673508718,
            36.74242875520588,
            1121.9
          ],
          [
            138.92983961840622,
            36.74239463697548,
            1119.0
          ],
          [
            138.92993036045468,
            36.742341845724,
            1114.0
          ],
          [
            138.9300223908449,
            36.74229056684416,
            1110.8
          ],
          [
            138.9301162867504,
            36.74224147787423,
            1106.7
          ],
          [
            138.9302101826559,
            36.74219238890429,
            1103.6
          ],
          [
            138.9302951992293,
            36.742134017776124,
            1099.7
          ],
          [
            138.93037817833547,
            36.74207351674754,
            1096.2
          ],
          [
            138.9304613590088,
            36.74201319806091,
            1092.7
          ],
          [
            138.9305456694453,
            36.74195390138208,
            1090.3
          ],
          [
            138.93062997988181,
            36.741894604703255,
            1087.0
          ],
          [
            138.93071429031832,
            36.74183530802442,
            1084.0
          ],
          [
            138.93079102800075,
            36.741770039401224,
            1081.0
          ],
          [
            138.93086297855044,
            36.74170099560056,
            1079.1
          ],
          [
            138.93093492910015,
            36.7416319517999,
            1076.4
          ],
          [
            138.93100687964983,
            36.741562907999246,
            1073.7
          ],
          [
            138.93107789680224,
            36.741493264581436,
            1072.1
          ],
          [
            138.9311456088835,
            36.741421497976276,
            1069.7
          ],
          [
            138.93121332096473,
            36.741349731371116,
            1068.2
          ],
          [
            138.931281033046,
            36.741277964765956,
            1065.8
          ],
          [
            138.93135674071823,
            36.74121173568801,
            1063.5
          ],
          [
            138.93143481977606,
            36.74114714896674,
            1061.1
          ],
          [
            138.93151289883386,
            36.74108256224547,
            1059.8
          ],
          [
            138.9315909778917,
            36.741017975524194,
            1057.7
          ],
          [
            138.9316765278012,
            36.74095997058342,
            1055.1
          ],
          [
            138.9317634911746,
            36.74090321089681,
            1052.6
          ],
          [
            138.931850454548,
            36.74084645121021,
            1050.0
          ],
          [
            138.93194093205793,
            36.74079385787714,
            1047.4
          ],
          [
            138.93203857482058,
            36.74074975965388,
            1043.9
          ],
          [
            138.9321458048149,
            36.74072562127555,
            1041.6
          ],
          [
            138.93225554272584,
            36.74070805565976,
            1038.3
          ],
          [
            138.93236625651156,
            36.74069461756274,
            1036.2
          ],
          [
            138.93247786307458,
            36.74069955689755,
            1033.0
          ],
          [
            138.93258954254105,
            36.74070599691867,
            1031.1
          ],
          [
            138.9326989916632,
            36.74072476190955,
            1028.1
          ],
          [
            138.93280687091985,
            36.74074783911443,
            1025.4
          ],
          [
            138.93290980089856,
            36.740783303946706,
            1023.5
          ],
          [
            138.93301273087727,
            36.74081876877899,
            1021.8
          ],
          [
            138.93311756794697,
            36.74084970797096,
            1019.6
          ],
          [
            138.93322606901975,
            36.74087195226593,
            1017.8
          ],
          [
            138.9333345700925,
            36.74089419656089,
            1014.9
          ],
          [
            138.93344307116527,
            36.740916440855855,
            1012.8
          ],
          [
            138.93355155877848,
            36.74093872705605,
            1010.6
          ],
          [
            138.93365985145522,
            36.740961620174915,
            1009.3
          ],
          [
            138.93376814413196,
            36.74098451329378,
            1007.1
          ],
          [
            138.9338764368087,
            36.74100740641265,
            1005.5
          ],
          [
            138.93398472948547,
            36.741030299531516,
            1003.8
          ],
          [
            138.93409302216222,
            36.741053192650384,
            1000.6
          ],
          [
            138.93420136721238,
            36.74107592309442,
            998.3
          ],
          [
            138.93430986019607,
            36.7410981940486,
            994.6
          ],
          [
            138.93441835317975,
            36.74112046500277,
            992.3
          ],
          [
            138.93452684616344,
            36.74114273595695,
            989.0
          ],
          [
            138.93463533914712,
            36.741165006911125,
            987.5
          ],
          [
            138.9347438321308,
            36.7411872778653,
            986.2
          ],
          [
            138.9348523251145,
            36.74120954881948,
            984.7
          ],
          [
            138.9348696034984,
            36.74121309564881,
            984.0
          ]
        ]
      }
    },
    {
      "type": "Feature",
      "properties": {
        "name": "C_#下部",
        "slope_deg": [
          5.142764557884436,
          5.142764557884436,
          5.142764557884436,
          5.710593137499643,
          6.277298489597361,
          6.56019640057118,
          6.135733340186728,
          6.418786730238786,
          6.701525844729548,
          6.98393746008542,
          7.406912128495294,
          7.406912128495294,
          7.266008446996189,
          7.969610394321233,
          9.926245506651705,
          10.619655276155134,
          11.309932474020215,
          11.172136252167274,
          8.670801453590833,
          7.266008446995867,
          6.277298489597361,
          5.142764557884112,
          4.858462919034416,
          5.2848210925090795,
          6.418786730238786,
          7.266008446996189,
          7.547725773843047,
          7.829076510059608,
          6.560196400571501,
          7.125016348901798,
          7.266008446995867,
          8.11004782941916,
          9.369385096487358,
          9.090276920822133,
          10.342657140474548,
          11.85977912094779,
          13.631094443421603,
          14.842227057911282,
          17.09266295026772,
          16.961705886532968,
          16.43605922463559,
          18.26288994219419,
          16.69924423399362,
          16.69924423399362,
          16.69924423399362,
          16.69924423399362
        ],
        "horizontal_dist_map": 449,
        "slope_dist_map": 456,
        "elevation_diff_map": 74.3,
        "avg_slope_deg_map": 9.2,
        "max_slope_deg_map": 18.3
      },
      "geometry": {
        "type": "LineString",
        "coordinates": [
          [
            138.9288193,
            36.7405779,
            1107.7
          ],
          [
            138.92891490309168,
            36.74053099686405,
            1107.0
          ],
          [
            138.9290105061834,
            36.74048409372811,
            1106.3
          ],
          [
            138.9291061092751,
            36.740437190592154,
            1105.5
          ],
          [
            138.9292017123668,
            36.74039028745621,
            1104.1
          ],
          [
            138.92929731545848,
            36.74034338432026,
            1103.0
          ],
          [
            138.9293929185502,
            36.740296481184316,
            1101.9
          ],
          [
            138.9294885216419,
            36.74024957804836,
            1100.9
          ],
          [
            138.9295831241479,
            36.74020144987019,
            1099.8
          ],
          [
            138.92967453886465,
            36.74014941880133,
            1098.5
          ],
          [
            138.92976595358138,
            36.74009738773246,
            1097.2
          ],
          [
            138.92985736829812,
            36.7400453566636,
            1096.0
          ],
          [
            138.92994878301482,
            36.73999332559473,
            1094.6
          ],
          [
            138.93004019773156,
            36.73994129452587,
            1093.3
          ],
          [
            138.93013208537957,
            36.739889811121536,
            1092.1
          ],
          [
            138.93022452162307,
            36.73983896300251,
            1090.4
          ],
          [
            138.93031695786658,
            36.73978811488349,
            1087.6
          ],
          [
            138.9304093941101,
            36.739737266764465,
            1085.8
          ],
          [
            138.9305018303536,
            36.73968641864544,
            1084.1
          ],
          [
            138.9305942665971,
            36.73963557052642,
            1082.5
          ],
          [
            138.9306867028406,
            36.73958472240739,
            1081.5
          ],
          [
            138.9307791390841,
            36.73953387428837,
            1080.7
          ],
          [
            138.93087676826454,
            36.7394898358473,
            1079.7
          ],
          [
            138.9309749480163,
            36.739446519389446,
            1078.9
          ],
          [
            138.93107312776806,
            36.73940320293159,
            1078.1
          ],
          [
            138.93117130751983,
            36.739359886473736,
            1077.0
          ],
          [
            138.93126948727158,
            36.73931657001588,
            1075.2
          ],
          [
            138.93136766702335,
            36.739273253558025,
            1073.8
          ],
          [
            138.9314658467751,
            36.73922993710017,
            1072.8
          ],
          [
            138.9315727348985,
            36.739204268742824,
            1071.5
          ],
          [
            138.93168108785275,
            36.73918156896362,
            1070.6
          ],
          [
            138.9317907039709,
            36.73917252205605,
            1068.8
          ],
          [
            138.931902039158,
            36.7391820556564,
            1067.7
          ],
          [
            138.93201188113252,
            36.739197425126406,
            1065.8
          ],
          [
            138.93211883760702,
            36.73922407189405,
            1064.0
          ],
          [
            138.93222579408155,
            36.73925071866169,
            1062.4
          ],
          [
            138.93232691325906,
            36.73928885204783,
            1060.4
          ],
          [
            138.93242641484278,
            36.73933016853105,
            1057.4
          ],
          [
            138.9325259164265,
            36.73937148501427,
            1054.3
          ],
          [
            138.93262541801022,
            36.73941280149749,
            1051.8
          ],
          [
            138.93272511161052,
            36.73945380976949,
            1048.1
          ],
          [
            138.93282577680117,
            36.73949325851446,
            1045.2
          ],
          [
            138.9329264419918,
            36.73953270725942,
            1042.5
          ],
          [
            138.93302073050293,
            36.73958097567428,
            1038.6
          ],
          [
            138.9331130815751,
            36.73963192378657,
            1036.1
          ],
          [
            138.93319936869423,
            36.73967952654561,
            1033.4
          ]
        ]
      }
    },
    {
      "type": "Feature",
      "properties": {
        "name": "D",
        "slope_deg": [
          7.125016348901798,
          7.125016348901798,
          7.125016348901798,
          7.688447769902681,
          9.09027692082245,
          8.390627013252708,
          10.896152141141194,
          10.757967088390194,
          12.407418527400683,
          13.360218444764483,
          13.631094443421603,
          14.17097756293297,
          12.95276451337558,
          12.133880170633224,
          10.757967088389877,
          10.896152141141194,
          11.44759626368548,
          11.859779120948104,
          12.270720357815385,
          13.088732789694,
          13.495733280795996,
          13.088732789694,
          12.543973346572077,
          11.034209003250188,
          10.481218144130889,
          10.896152141141194,
          12.68038349181982,
          14.57421619803886,
          14.57421619803871,
          15.509334522674754,
          15.642246457208639,
          14.305551846621862,
          14.170977562933123,
          13.088732789694154,
          11.034209003250343,
          8.670801453590993,
          7.68844776990284,
          7.406912128495133,
          8.810732985984814,
          12.543973346572077,
          13.90135076950909,
          14.842227057911131,
          16.830565983210626,
          15.642246457208788,
          15.109575122340555,
          14.97598451475675,
          12.68038349181982,
          12.543973346572077,
          11.7225209701022,
          11.034209003250188,
          9.787203664656081,
          9.787203664656081,
          10.203973721731748,
          11.996899307923577,
          12.95276451337558,
          12.68038349181982,
          13.766300685466197,
          12.407418527400838,
          14.57421619803871,
          15.642246457208788,
          16.304198003832376,
          18.906332035086518,
          17.223436191131434,
          19.417554141579483,
          19.034434354835135,
          16.961705886532968,
          16.69924423399362,
          15.509334522674754,
          14.97598451475675,
          14.57421619803871,
          15.907551930525962,
          14.305551846622015,
          14.57421619803871,
          16.039943306049665,
          15.242997742901547,
          17.092662950267425,
          16.567741642974887,
          14.57421619803871,
          14.842227057911131,
          12.270720357815385,
          12.543973346572077,
          11.722520970102357,
          10.619655276155134,
          10.757967088390036,
          9.369385096487514,
          11.034209003250188,
          10.896152141141036,
          11.859779120947948,
          12.68038349181982,
          13.088732789694,
          12.95276451337558,
          13.766300685466197,
          14.170977562933123,
          14.708303899682749,
          15.509334522674907,
          15.2429977429017,
          15.37625124882619,
          15.109575122340555,
          15.907551930525813,
          14.17097756293297,
          13.495733280795843,
          10.342657140474548,
          7.266008446996026,
          7.266008446996026,
          7.266008446996026,
          7.266008446996026
        ],
        "horizontal_dist_map": 1044,
        "slope_dist_map": 1074,
        "elevation_diff_map": 238.9,
        "avg_slope_deg_map": 12.5,
        "max_slope_deg_map": 19.4
      },
      "geometry": {
        "type": "LineString",
        "coordinates": [
          [
            138.93343221724948,
            36.73822665665942,
            1062.0
          ],
          [
            138.933394833557,
            36.73831159735621,
            1060.6
          ],
          [
            138.93335744986453,
            36.738396538052996,
            1059.9
          ],
          [
            138.93332006617206,
            36.73848147874978,
            1057.7
          ],
          [
            138.93328973755712,
            36.73856809171909,
            1057.0
          ],
          [
            138.93326395305695,
            36.73865578178475,
            1055.2
          ],
          [
            138.93324284044564,
            36.73874410829222,
            1053.5
          ],
          [
            138.93323133290707,
            36.738833743278974,
            1051.8
          ],
          [
            138.93321982536847,
            36.73892337826574,
            1049.3
          ],
          [
            138.9332239929437,
            36.739013262185395,
            1047.6
          ],
          [
            138.93323109817317,
            36.73910319275726,
            1044.7
          ],
          [
            138.93323820340262,
            36.73919312332913,
            1042.3
          ],
          [
            138.93325580129016,
            36.739282015946074,
            1039.6
          ],
          [
            138.93327596617075,
            36.73937065463088,
            1037.5
          ],
          [
            138.93329613105138,
            36.73945929331568,
            1035.5
          ],
          [
            138.93331968685922,
            36.739547305931865,
            1033.7
          ],
          [
            138.93334954201174,
            36.739634155496816,
            1032.0
          ],
          [
            138.9333872355661,
            36.73971810721768,
            1029.8
          ],
          [
            138.9334496484579,
            36.73979292024074,
            1027.4
          ],
          [
            138.9335120613497,
            36.739867733263786,
            1025.3
          ],
          [
            138.93357447424148,
            36.73994254628684,
            1023.3
          ],
          [
            138.9336424375971,
            36.740013986864234,
            1020.5
          ],
          [
            138.93371474168248,
            36.74008279002684,
            1017.8
          ],
          [
            138.93378734952435,
            36.740151380816634,
            1016.0
          ],
          [
            138.93386189391572,
            36.74021861765844,
            1014.4
          ],
          [
            138.9339364383071,
            36.74028585450024,
            1012.7
          ],
          [
            138.93401014949455,
            36.74035367230851,
            1010.4
          ],
          [
            138.9340822107634,
            36.74042264055232,
            1008.3
          ],
          [
            138.93415427203223,
            36.74049160879613,
            1005.4
          ],
          [
            138.9342263333011,
            36.74056057703994,
            1002.3
          ],
          [
            138.93429839456994,
            36.74062954528375,
            1000.0
          ],
          [
            138.93437034268024,
            36.74069859004113,
            997.2
          ],
          [
            138.9344422182531,
            36.74076768384558,
            994.2
          ],
          [
            138.93451409382598,
            36.74083677765004,
            992.1
          ],
          [
            138.93458948717458,
            36.74090337432761,
            989.9
          ],
          [
            138.9346656932516,
            36.7409693940821,
            987.9
          ],
          [
            138.93474189932857,
            36.74103541383659,
            986.4
          ],
          [
            138.93481810540558,
            36.74110143359108,
            986.0
          ],
          [
            138.9348943114826,
            36.741167453345575,
            984.5
          ],
          [
            138.93498667316592,
            36.74121832130974,
            982.7
          ],
          [
            138.93507932347453,
            36.74126891858215,
            980.2
          ],
          [
            138.93517502453312,
            36.74131526743148,
            977.1
          ],
          [
            138.93527575407072,
            36.74135461370573,
            974.6
          ],
          [
            138.93537648360828,
            36.74139395997997,
            972.1
          ],
          [
            138.93547721314587,
            36.741433306254216,
            968.1
          ],
          [
            138.93557445905373,
            36.74147751583966,
            965.9
          ],
          [
            138.93566724196498,
            36.74152795597856,
            963.8
          ],
          [
            138.93576002487626,
            36.741578396117454,
            961.4
          ],
          [
            138.9358528077875,
            36.74162883625635,
            959.1
          ],
          [
            138.9359455906988,
            36.741679276395246,
            957.0
          ],
          [
            138.93603837447435,
            36.741729715615094,
            955.5
          ],
          [
            138.93613116053575,
            36.74178015240428,
            953.6
          ],
          [
            138.93622394659718,
            36.74183058919347,
            952.2
          ],
          [
            138.9363167326586,
            36.74188102598266,
            950.1
          ],
          [
            138.93640951872,
            36.741931462771845,
            948.3
          ],
          [
            138.93650230478144,
            36.74198189956103,
            945.1
          ],
          [
            138.9365952677898,
            36.7420321224565,
            943.0
          ],
          [
            138.9366888976808,
            36.74208153922332,
            941.1
          ],
          [
            138.93678252757178,
            36.74213095599014,
            938.5
          ],
          [
            138.93687615746276,
            36.74218037275696,
            936.3
          ],
          [
            138.93697607967283,
            36.742220753158044,
            932.6
          ],
          [
            138.9370773283085,
            36.74225922868642,
            929.9
          ],
          [
            138.93717902468666,
            36.742296797641025,
            926.8
          ],
          [
            138.93728546623552,
            36.742324758735286,
            922.6
          ],
          [
            138.93739190778436,
            36.742352719829555,
            920.2
          ],
          [
            138.9374983493332,
            36.742380680923816,
            915.8
          ],
          [
            138.9376043343803,
            36.74240969434707,
            913.0
          ],
          [
            138.93770926855356,
            36.742441130247364,
            910.4
          ],
          [
            138.93781420272683,
            36.74247256614766,
            908.2
          ],
          [
            138.9379191369001,
            36.74250400204796,
            904.7
          ],
          [
            138.93801862426554,
            36.74254534182971,
            902.3
          ],
          [
            138.9381180911687,
            36.74258671881789,
            900.0
          ],
          [
            138.93821755807184,
            36.74262809580606,
            896.8
          ],
          [
            138.93831910405837,
            36.74266597262139,
            894.5
          ],
          [
            138.93842158011097,
            36.74270228365437,
            891.9
          ],
          [
            138.93852405616357,
            36.74273859468734,
            888.5
          ],
          [
            138.93862653221618,
            36.74277490572032,
            885.9
          ],
          [
            138.9387290082688,
            36.74281121675329,
            882.2
          ],
          [
            138.9388331646701,
            36.742843802109775,
            880.0
          ],
          [
            138.93894072314467,
            36.7428688443743,
            878.1
          ],
          [
            138.93904828161925,
            36.742893886638825,
            875.3
          ],
          [
            138.93915584009386,
            36.74291892890334,
            873.5
          ],
          [
            138.93926339856844,
            36.74294397116787,
            871.1
          ],
          [
            138.93937095704302,
            36.74296901343239,
            869.8
          ],
          [
            138.9394785441081,
            36.74299397637228,
            867.8
          ],
          [
            138.93958613724817,
            36.74301892245708,
            865.9
          ],
          [
            138.93969373038826,
            36.74304386854188,
            864.5
          ],
          [
            138.93980132352831,
            36.74306881462668,
            862.0
          ],
          [
            138.93991000034137,
            36.74309048263521,
            860.1
          ],
          [
            138.94001877383573,
            36.74311185818594,
            857.5
          ],
          [
            138.9401275473301,
            36.743133233736664,
            855.5
          ],
          [
            138.94023632082443,
            36.743154609287394,
            852.7
          ],
          [
            138.9403450943188,
            36.74317598483812,
            850.9
          ],
          [
            138.9404538395441,
            36.74319745341108,
            847.7
          ],
          [
            138.94056255715955,
            36.74321901283703,
            845.4
          ],
          [
            138.94067127477504,
            36.743240572262984,
            842.2
          ],
          [
            138.9407799923905,
            36.74326213168894,
            839.8
          ],
          [
            138.94088871000596,
            36.74328369111489,
            836.8
          ],
          [
            138.94099749761278,
            36.74330498052084,
            834.4
          ],
          [
            138.94110785910703,
            36.743320198015866,
            831.4
          ],
          [
            138.94121822060131,
            36.743335415510884,
            828.4
          ],
          [
            138.94132858209557,
            36.74335063300591,
            826.7
          ],
          [
            138.94143894358984,
            36.74336585050093,
            824.8
          ],
          [
            138.94154930508412,
            36.743381067995955,
            824.1
          ],
          [
            138.94165966657837,
            36.743396285490974,
            823.3
          ],
          [
            138.9417120729678,
            36.74340351168862,
            823.1
          ]
        ]
      }
    },
    {
      "type": "Feature",
      "properties": {
        "name": "C_#上部",
        "slope_deg": [
          18.00416160591338,
          18.00416160591338,
          18.00416160591338,
          19.798876354525046,
          21.181349500266236,
          18.26288994219419,
          16.304198003832376,
          17.092662950267425,
          16.567741642975037,
          16.69924423399362,
          17.484427323220586,
          17.223436191131583,
          16.17215901578243,
          17.223436191131583,
          17.744671625056874,
          16.830565983210477,
          18.64953875405141,
          18.26288994219419,
          18.778033222445714,
          20.681521678200784,
          21.181349500266236,
          21.305783617828656,
          21.305783617828656,
          19.925580658184323,
          19.034434354835135,
          19.417554141579338,
          17.223436191131583,
          15.907551930525962,
          13.360218444764483,
          10.342657140474863,
          8.9505586562316,
          7.547725773843047,
          6.418786730238786,
          5.710593137499643,
          4.7162212343382155,
          4.573921259900927,
          4.858462919034416,
          4.573921259900602,
          4.573921259900927,
          4.0041729407093225,
          3.7189939731579127,
          3.7189939731579127,
          3.7189939731579127,
          3.7189939731579127
        ],
        "horizontal_dist_map": 423,
        "slope_dist_map": 439,
        "elevation_diff_map": 106.1,
        "avg_slope_deg_map": 13.6,
        "max_slope_deg_map": 21.3
      },
      "geometry": {
        "type": "LineString",
        "coordinates": [
          [
            138.92573489106712,
            36.74325959921909,
            1213.8
          ],
          [
            138.925743214117,
            36.743169736375535,
            1212.2
          ],
          [
            138.92575394474412,
            36.74308007797191,
            1209.7
          ],
          [
            138.92576910832693,
            36.74299079599366,
            1204.9
          ],
          [
            138.92578471450494,
            36.74290159692031,
            1200.8
          ],
          [
            138.9258200966386,
            36.74281610218815,
            1197.8
          ],
          [
            138.92585547877226,
            36.742730607456,
            1194.2
          ],
          [
            138.9258999924643,
            36.74264821626577,
            1191.7
          ],
          [
            138.9259514641845,
            36.74256818989995,
            1189.1
          ],
          [
            138.92600293590468,
            36.74248816353413,
            1185.5
          ],
          [
            138.92607151365203,
            36.742417653515794,
            1182.3
          ],
          [
            138.92614634783527,
            36.7423506240495,
            1179.7
          ],
          [
            138.92622118201848,
            36.74228359458321,
            1176.5
          ],
          [
            138.92630002473786,
            36.74221981063832,
            1173.1
          ],
          [
            138.92638375729686,
            36.74215998576445,
            1170.7
          ],
          [
            138.92646748985587,
            36.74210016089059,
            1167.3
          ],
          [
            138.92655122241487,
            36.74204033601672,
            1163.7
          ],
          [
            138.92663495497388,
            36.741980511142856,
            1161.0
          ],
          [
            138.9267157156435,
            36.741918194964065,
            1157.2
          ],
          [
            138.92679340318026,
            36.74185330260895,
            1154.1
          ],
          [
            138.926871090717,
            36.74178841025384,
            1150.1
          ],
          [
            138.92694637832838,
            36.74172186227059,
            1145.9
          ],
          [
            138.92701418449386,
            36.74165015308829,
            1141.7
          ],
          [
            138.92708199065933,
            36.74157844390598,
            1138.5
          ],
          [
            138.92715053744692,
            36.74150719434482,
            1134.5
          ],
          [
            138.92721945978752,
            36.74143617784734,
            1131.4
          ],
          [
            138.92728948277517,
            36.74136588524707,
            1127.9
          ],
          [
            138.92736222488142,
            36.741297381015244,
            1124.4
          ],
          [
            138.9274349669877,
            36.74122887678342,
            1122.1
          ],
          [
            138.92751663460976,
            36.7411677493644,
            1120.0
          ],
          [
            138.92760365430163,
            36.74111104535551,
            1118.4
          ],
          [
            138.92769559462425,
            36.741060305241966,
            1117.1
          ],
          [
            138.9277942931148,
            36.741017756152814,
            1115.8
          ],
          [
            138.92789299160535,
            36.74097520706366,
            1114.7
          ],
          [
            138.9279916900959,
            36.74093265797451,
            1113.9
          ],
          [
            138.92809029048226,
            36.740889962372286,
            1113.1
          ],
          [
            138.92818876683356,
            36.740847081530696,
            1112.5
          ],
          [
            138.92828724318488,
            36.74080420068911,
            1111.5
          ],
          [
            138.9283857195362,
            36.74076131984753,
            1110.5
          ],
          [
            138.92848421970456,
            36.740718475106185,
            1109.9
          ],
          [
            138.92858350596902,
            36.74067682187453,
            1109.3
          ],
          [
            138.92868279223347,
            36.740635168642875,
            1108.7
          ],
          [
            138.92878207849793,
            36.74059351541121,
            1107.9
          ],
          [
            138.9288193,
            36.7405779,
            1107.7
          ]
        ]
      }
    },
    {
      "type": "Feature",
      "properties": {
        "name": "E_#上部",
        "slope_deg": [
          19.544862326628827,
          19.544862326628827,
          19.544862326628827,
          19.925580658184323,
          21.80140948635181,
          22.660536301999084,
          20.556045219583467,
          21.05670559070489,
          18.133621430820412,
          17.6146433000071,
          18.26288994219404,
          16.96170588653282,
          17.35402463626132,
          18.64953875405141,
          18.520849477471074,
          18.77803322244557,
          20.17838007450879,
          18.133621430820412,
          17.874511367250282,
          17.223436191131434,
          15.907551930525813,
          15.109575122340555,
          13.766300685466351,
          13.224551192213497,
          11.309932474020215,
          11.034209003250188,
          9.648045316098093,
          8.250387228905595,
          7.547725773843047,
          6.842773412630876,
          9.648045316098093,
          10.481218144130889,
          13.224551192213651,
          15.37625124882619,
          16.830565983210626,
          18.906332035086663,
          19.034434354835135,
          22.04794746356044,
          22.04794746356044,
          20.931852540892464,
          20.430362329285547,
          17.092662950267425,
          16.039943306049665,
          15.907551930525813,
          15.109575122340555,
          13.901350769509243,
          11.447596263685636,
          10.342657140474707,
          10.481218144130889,
          10.065169352759717,
          10.065169352759717,
          10.065169352759717,
          9.369385096487514,
          9.78720366465624,
          10.481218144131045,
          11.172136252167274,
          12.68038349181982,
          12.27072035781523,
          12.27072035781523,
          12.68038349181982,
          11.585126224854955,
          12.68038349181982,
          14.439965121002807,
          14.439965121002807,
          14.439965121002807,
          14.439965121002807
        ],
        "horizontal_dist_map": 645,
        "slope_dist_map": 671,
        "elevation_diff_map": 174.7,
        "avg_slope_deg_map": 14.6,
        "max_slope_deg_map": 22.7
      },
      "geometry": {
        "type": "LineString",
        "coordinates": [
          [
            138.93351773928418,
            36.738327694928266,
            1058.8
          ],
          [
            138.93361298874618,
            36.73837505879627,
            1055.7
          ],
          [
            138.93370823820817,
            36.73842242266427,
            1052.2
          ],
          [
            138.9338034876702,
            36.73846978653228,
            1049.1
          ],
          [
            138.93389873713218,
            36.73851715040028,
            1044.6
          ],
          [
            138.93399398659417,
            36.73856451426828,
            1041.2
          ],
          [
            138.93408923605617,
            36.73861187813628,
            1036.2
          ],
          [
            138.9341844855182,
            36.73865924200429,
            1032.4
          ],
          [
            138.93427973498018,
            36.738706605872295,
            1029.6
          ],
          [
            138.93437697117778,
            36.738751271548054,
            1025.8
          ],
          [
            138.9344743377364,
            36.738795760180125,
            1023.1
          ],
          [
            138.934571704295,
            36.7388402488122,
            1019.7
          ],
          [
            138.9346690708536,
            36.73888473744428,
            1016.4
          ],
          [
            138.93476643741218,
            36.73892922607635,
            1013.6
          ],
          [
            138.93486380397079,
            36.73897371470843,
            1010.6
          ],
          [
            138.9349611770367,
            36.739018193988755,
            1006.2
          ],
          [
            138.9350592079339,
            36.739061727894104,
            1003.0
          ],
          [
            138.93515723883107,
            36.73910526179945,
            1000.0
          ],
          [
            138.93525526972826,
            36.7391487957048,
            995.9
          ],
          [
            138.93535330062542,
            36.73919232961015,
            993.1
          ],
          [
            138.93545133152261,
            36.739235863515496,
            990.1
          ],
          [
            138.93554936241978,
            36.739279397420844,
            987.6
          ],
          [
            138.93564695883177,
            36.73932351725266,
            984.5
          ],
          [
            138.93574109851957,
            36.73937229866139,
            982.3
          ],
          [
            138.93583523820737,
            36.739421080070116,
            980.3
          ],
          [
            138.93592937789518,
            36.73946986147884,
            978.2
          ],
          [
            138.93602351758298,
            36.73951864288757,
            976.5
          ],
          [
            138.93611765727078,
            36.7395674242963,
            974.5
          ],
          [
            138.9362117969586,
            36.739616205705026,
            973.5
          ],
          [
            138.93630509008136,
            36.73966602022441,
            972.4
          ],
          [
            138.93639785509706,
            36.739716479222366,
            971.2
          ],
          [
            138.93649062011275,
            36.73976693822033,
            969.7
          ],
          [
            138.93658338512844,
            36.73981739721828,
            966.7
          ],
          [
            138.93667615014414,
            36.73986785621624,
            965.0
          ],
          [
            138.93676891515983,
            36.7399183152142,
            961.8
          ],
          [
            138.93686168017553,
            36.73996877421216,
            958.7
          ],
          [
            138.93695444519122,
            36.74001923321011,
            954.6
          ],
          [
            138.9370472102069,
            36.740069692208074,
            951.3
          ],
          [
            138.9371385821849,
            36.740121751416794,
            948.0
          ],
          [
            138.93722917444433,
            36.74017470630413,
            942.5
          ],
          [
            138.93731976670372,
            36.74022766119147,
            938.4
          ],
          [
            138.93741035896315,
            36.74028061607881,
            936.0
          ],
          [
            138.93750095122255,
            36.74033357096615,
            933.1
          ],
          [
            138.93759154348197,
            36.74038652585349,
            930.2
          ],
          [
            138.93768099531283,
            36.74044070882103,
            926.9
          ],
          [
            138.93776973841875,
            36.74049565498512,
            924.6
          ],
          [
            138.93785848152464,
            36.7405506011492,
            922.3
          ],
          [
            138.93794722463053,
            36.74060554731329,
            920.3
          ],
          [
            138.93803596773645,
            36.74066049347737,
            918.8
          ],
          [
            138.93812471084235,
            36.740715439641455,
            917.3
          ],
          [
            138.93821345394826,
            36.74077038580555,
            914.9
          ],
          [
            138.93830219705416,
            36.74082533196963,
            913.2
          ],
          [
            138.93839094016008,
            36.740880278133716,
            911.7
          ],
          [
            138.93847968326597,
            36.7409352242978,
            910.2
          ],
          [
            138.93857031153988,
            36.7409880511832,
            908.3
          ],
          [
            138.9386635502245,
            36.74103794348249,
            906.3
          ],
          [
            138.93875678890913,
            36.74108783578177,
            904.3
          ],
          [
            138.93885002759376,
            36.74113772808105,
            902.3
          ],
          [
            138.9389432662784,
            36.74118762038034,
            899.3
          ],
          [
            138.939036504963,
            36.74123751267962,
            897.6
          ],
          [
            138.93912974364767,
            36.741287404978905,
            895.6
          ],
          [
            138.9392229823323,
            36.741337297278186,
            893.3
          ],
          [
            138.93931622101692,
            36.741387189577466,
            891.1
          ],
          [
            138.93940945970155,
            36.741437081876754,
            888.6
          ],
          [
            138.93950269838618,
            36.741486974176034,
            885.3
          ],
          [
            138.93955361506224,
            36.741514219841825,
            884.1
          ]
        ]
      }
    },
    {
      "type": "Feature",
      "properties": {
        "name": "E_#下部",
        "slope_deg": [
          15.774985955414158,
          15.774985955414158,
          15.774985955414158,
          15.509334522674907,
          14.57421619803871,
          14.708303899682749,
          12.543973346572077,
          13.495733280795843,
          14.305551846622015,
          13.63109444342145,
          14.9759845147566,
          14.439965121002654,
          16.43605922463559,
          17.092662950267574,
          16.830565983210626,
          18.133621430820412,
          16.304198003832376,
          18.26288994219404,
          17.744671625057023,
          15.642246457208788,
          13.224551192213497,
          9.09027692082245,
          7.266008446995867,
          5.284821092508918,
          4.146688825965976,
          2.719505461272472,
          2.719505461272472,
          2.719505461272472,
          2.719505461272472
        ],
        "horizontal_dist_map": 272,
        "slope_dist_map": 280,
        "elevation_diff_map": 61.8,
        "avg_slope_deg_map": 12.4,
        "max_slope_deg_map": 18.3
      },
      "geometry": {
        "type": "LineString",
        "coordinates": [
          [
            138.93955361506224,
            36.741514219841825,
            884.1
          ],
          [
            138.9396487762496,
            36.74156170362587,
            881.7
          ],
          [
            138.93974393743702,
            36.741609187409914,
            878.9
          ],
          [
            138.9398390986244,
            36.741656671193965,
            876.4
          ],
          [
            138.9399342598118,
            36.74170415497801,
            872.8
          ],
          [
            138.94002942099917,
            36.741751638762054,
            870.6
          ],
          [
            138.94012458218654,
            36.7417991225461,
            868.5
          ],
          [
            138.94021974337394,
            36.74184660633014,
            865.9
          ],
          [
            138.94031490456132,
            36.74189409011419,
            863.9
          ],
          [
            138.94040999270038,
            36.74194166663623,
            861.0
          ],
          [
            138.94050392965858,
            36.74199070463186,
            858.3
          ],
          [
            138.94059786661677,
            36.7420397426275,
            856.2
          ],
          [
            138.94069180357494,
            36.742088780623135,
            853.2
          ],
          [
            138.94078574053313,
            36.74213781861877,
            850.7
          ],
          [
            138.94087967749132,
            36.74218685661441,
            846.5
          ],
          [
            138.9409736144495,
            36.74223589461004,
            843.9
          ],
          [
            138.94106755140768,
            36.74228493260568,
            841.1
          ],
          [
            138.94116148836588,
            36.742333970601315,
            837.6
          ],
          [
            138.94125542532407,
            36.74238300859695,
            834.8
          ],
          [
            138.94134936228224,
            36.74243204659258,
            830.7
          ],
          [
            138.94144348836107,
            36.74248084878116,
            828.3
          ],
          [
            138.9415377679995,
            36.74252945950233,
            826.4
          ],
          [
            138.94163204763794,
            36.742578070223495,
            825.4
          ],
          [
            138.94172632727637,
            36.74262668094466,
            824.3
          ],
          [
            138.9418205513825,
            36.74267536138862,
            823.2
          ],
          [
            138.9419147030337,
            36.74272413280242,
            822.7
          ],
          [
            138.94200885468487,
            36.74277290421622,
            822.5
          ],
          [
            138.94210300633605,
            36.74282167563002,
            822.4
          ],
          [
            138.94212514695778,
            36.74283314467395,
            822.3
          ]
        ]
      }
    },
    {
      "type": "Feature",
      "properties": {
        "name": "無名_E・D連絡",
        "slope_deg": [
          13.360218444764483,
          13.360218444764483,
          13.360218444764483,
          10.896152141141194,
          10.342657140474707,
          7.406912128495294,
          3.718993973158075,
          3.0052693596899664,
          2.862405226111748,
          5.568737077976604,
          9.926245506651705,
          11.859779120947948,
          14.036243467926479,
          15.509334522674907,
          14.97598451475675,
          15.509334522674907,
          15.774985955414008,
          14.708303899682749,
          14.708303899682749,
          14.708303899682749,
          14.708303899682749
        ],
        "horizontal_dist_map": 199,
        "slope_dist_map": 204,
        "elevation_diff_map": 41.2,
        "avg_slope_deg_map": 11.4,
        "max_slope_deg_map": 15.8
      },
      "geometry": {
        "type": "LineString",
        "coordinates": [
          [
            138.939492276954,
            36.74166218710062,
            884.6
          ],
          [
            138.93956280131903,
            36.741732177562085,
            881.6
          ],
          [
            138.93962333028497,
            36.74180664187653,
            879.6
          ],
          [
            138.9396600061016,
            36.74189178265146,
            877.5
          ],
          [
            138.93968300670795,
            36.74197971434915,
            875.1
          ],
          [
            138.93970117449314,
            36.74206863235932,
            873.9
          ],
          [
            138.9397193422783,
            36.74215755036949,
            872.3
          ],
          [
            138.93974759420007,
            36.7422445580144,
            872.3
          ],
          [
            138.9397806172716,
            36.74233066180019,
            872.5
          ],
          [
            138.93981364034312,
            36.742416765585986,
            871.8
          ],
          [
            138.939864319684,
            36.74249662723432,
            870.3
          ],
          [
            138.93992077207486,
            36.74257444789818,
            868.4
          ],
          [
            138.9399772244657,
            36.74265226856204,
            865.5
          ],
          [
            138.9400442692403,
            36.742724319897455,
            863.4
          ],
          [
            138.94011305305975,
            36.74279542403143,
            860.3
          ],
          [
            138.94019528224698,
            36.742853488119984,
            857.3
          ],
          [
            138.9402948028023,
            36.742894782103825,
            854.8
          ],
          [
            138.9403943233576,
            36.742936076087666,
            852.3
          ],
          [
            138.94049756958844,
            36.74297065777368,
            849.0
          ],
          [
            138.94060219560905,
            36.74300275358572,
            846.8
          ],
          [
            138.94070330781764,
            36.74303377147614,
            843.4
          ]
        ]
      }
    },
    {
      "type": "Feature",
      "properties": {
        "name": "無名_B・C連絡",
        "slope_deg": [
          4.289153328819018,
          4.289153328819018,
          4.289153328819018,
          7.125016348901798,
          7.547725773843047,
          7.547725773843367,
          8.9505586562316,
          10.619655276155134,
          12.68038349181982,
          12.270720357815076,
          10.619655276155134,
          8.250387228905435,
          7.406912128495294,
          8.810732985984973,
          9.22988624372772,
          9.926245506651705,
          8.670801453590833,
          8.670801453590833,
          8.670801453590833,
          8.670801453590833
        ],
        "horizontal_dist_map": 182,
        "slope_dist_map": 184,
        "elevation_diff_map": 26.4,
        "avg_slope_deg_map": 8.1,
        "max_slope_deg_map": 12.7
      },
      "geometry": {
        "type": "LineString",
        "coordinates": [
          [
            138.92898460586616,
            36.74241950548932,
            1135.1
          ],
          [
            138.92893204054465,
            36.742339940962005,
            1135.1
          ],
          [
            138.92887947522317,
            36.742260376434686,
            1134.6
          ],
          [
            138.92882690990166,
            36.742180811907375,
            1133.4
          ],
          [
            138.9287940157078,
            36.74209537768481,
            1132.1
          ],
          [
            138.92876942619515,
            36.742007465416826,
            1130.1
          ],
          [
            138.9287470411531,
            36.741919269864624,
            1129.3
          ],
          [
            138.92873639206925,
            36.74182956618987,
            1128.1
          ],
          [
            138.92872574298542,
            36.74173986251512,
            1125.8
          ],
          [
            138.9287150939016,
            36.741650158840365,
            1122.6
          ],
          [
            138.92872140339406,
            36.741560196318865,
            1120.3
          ],
          [
            138.92872781863898,
            36.74147023218322,
            1119.4
          ],
          [
            138.92873423388392,
            36.741380268047564,
            1118.3
          ],
          [
            138.92876100823483,
            36.74129278243389,
            1116.8
          ],
          [
            138.92878794118496,
            36.74120531612812,
            1115.1
          ],
          [
            138.9288148741351,
            36.741117849822345,
            1113.2
          ],
          [
            138.92882676213225,
            36.74102881203406,
            1111.8
          ],
          [
            138.9288284638717,
            36.74093871026597,
            1109.8
          ],
          [
            138.92883016561112,
            36.74084860849789,
            1109.0
          ],
          [
            138.9288305623619,
            36.74082760178837,
            1108.7
          ]
        ]
      }
    }
  ]
}