{
  "type": "FeatureCollection",
  "features": [
    {
      "type": "Feature",
      "properties": {
        "name": "ぬまパーク_こそ練エリア",
        "slope_deg": [
          3.8616074096751394,
          3.8616074096751394,
          3.8616074096751394,
          5.568737077976766,
          5.710593137499643,
          5.994092949108534,
          7.266008446995867,
          6.277298489597683,
          6.842773412630876,
          6.842773412630876,
          7.125016348901798,
          7.406912128495133,
          7.406912128495133,
          7.969610394321392,
          6.983937460085259,
          7.68844776990284,
          6.983937460085259,
          6.701525844729548,
          6.842773412631036,
          5.4268124985727555,
          6.277298489597683,
          4.7162212343382155,
          4.858462919034255,
          5.710593137499643,
          5.000644597558433,
          6.560196400571341,
          6.135733340186728,
          7.547725773843206,
          8.39062701325255,
          9.090276920822289,
          11.034209003250343,
          10.065169352759877,
          10.757967088390036,
          10.757967088390036,
          10.757967088390036,
          10.757967088390036
        ],
        "horizontal_dist_map": 347,
        "slope_dist_map": 350,
        "elevation_diff_map": 42.8,
        "avg_slope_deg_map": 7.0,
        "max_slope_deg_map": 11.0
      },
      "geometry": {
        "type": "LineString",
        "coordinates": [
          [
            140.2373114054103,
            37.6249083,
            1033.8
          ],
          [
            140.23721392299402,
            37.62486240754428,
            1033.4
          ],
          [
            140.2371054828992,
            37.624838142041696,
            1032.6
          ],
          [
            140.23699523227404,
            37.62481744994705,
            1031.7
          ],
          [
            140.23688536300426,
            37.624795844946846,
            1031.1
          ],
          [
            140.2367814651201,
            37.62475994537725,
            1029.5
          ],
          [
            140.23667756723594,
            37.62472404580765,
            1028.6
          ],
          [
            140.23657366935177,
            37.62468814623806,
            1027.5
          ],
          [
            140.23646935945555,
            37.624653048913835,
            1026.0
          ],
          [
            140.23636357815988,
            37.624620816611255,
            1025.1
          ],
          [
            140.2362577968642,
            37.62458858430867,
            1023.8
          ],
          [
            140.23615201556854,
            37.62455635200609,
            1022.7
          ],
          [
            140.23604623427286,
            37.6245241197035,
            1021.0
          ],
          [
            140.23593844282348,
            37.62449840017877,
            1019.9
          ],
          [
            140.2358259212194,
            37.62448800607256,
            1018.6
          ],
          [
            140.2357133996153,
            37.62447761196634,
            1017.1
          ],
          [
            140.2356008780112,
            37.62446721786013,
            1016.1
          ],
          [
            140.23548835640713,
            37.62445682375392,
            1014.5
          ],
          [
            140.23537583480305,
            37.624446429647705,
            1013.7
          ],
          [
            140.2352635489589,
            37.6244479842822,
            1012.4
          ],
          [
            140.23515149283736,
            37.62446118167733,
            1011.3
          ],
          [
            140.23503943671585,
            37.62447437907247,
            1010.7
          ],
          [
            140.23492738059434,
            37.6244875764676,
            1009.3
          ],
          [
            140.23481532447283,
            37.624500773862735,
            1009.1
          ],
          [
            140.23470385556143,
            37.624516198083086,
            1007.9
          ],
          [
            140.23459457632174,
            37.624539926002605,
            1006.7
          ],
          [
            140.23448529708205,
            37.624563653922124,
            1005.8
          ],
          [
            140.23437601784235,
            37.62458738184164,
            1004.5
          ],
          [
            140.23426673860266,
            37.624611109761155,
            1003.6
          ],
          [
            140.23415420065928,
            37.62461983031215,
            1001.4
          ],
          [
            140.23404124548145,
            37.624626629365444,
            999.9
          ],
          [
            140.2339282903036,
            37.62463342841873,
            998.1
          ],
          [
            140.23381533512577,
            37.62464022747203,
            995.8
          ],
          [
            140.2337023799479,
            37.624647026525324,
            994.3
          ],
          [
            140.2335894247701,
            37.62465382557861,
            992.3
          ],
          [
            140.23350807437097,
            37.624658722261614,
            991.0
          ]
        ]
      }
    },
    {
      "type": "Feature",
      "properties": {
        "name": "しゃくなげ",
        "slope_deg": [
          10.065169352759877,
          10.065169352759877,
          10.065169352759877,
          8.530765609948133,
          9.50877195829791,
          9.22988624372772,
          9.22988624372772,
          11.722520970102357,
          11.034209003250188,
          13.088732789694154,
          13.224551192213497,
          13.766300685466197,
          14.57421619803886,
          13.90135076950909,
          14.842227057911131,
          13.90135076950909,
          16.304198003832227,
          17.092662950267425,
          16.304198003832376,
          16.961705886532968,
          15.37625124882619,
          15.109575122340555,
          14.708303899682749,
          14.842227057911131,
          14.439965121002807,
          15.242997742901547,
          17.223436191131434,
          15.509334522674754,
          16.43605922463559,
          14.708303899682749,
          13.90135076950909,
          13.766300685466351,
          11.447596263685636,
          10.065169352759877,
          8.11004782941916,
          6.983937460085259,
          6.701525844729388,
          6.56019640057118,
          6.277298489597523,
          6.277298489597523,
          6.277298489597523,
          6.277298489597523,
          6.277298489597523
        ],
        "horizontal_dist_map": 415,
        "slope_dist_map": 425,
        "elevation_diff_map": 89.5,
        "avg_slope_deg_map": 11.9,
        "max_slope_deg_map": 17.2
      },
      "geometry": {
        "type": "LineString",
        "coordinates": [
          [
            140.23242612219136,
            37.62544905281734,
            987.6
          ],
          [
            140.23231457728113,
            37.625464759392884,
            985.6
          ],
          [
            140.23220303237088,
            37.62548046596842,
            984.2
          ],
          [
            140.23209148746065,
            37.62549617254397,
            982.6
          ],
          [
            140.23197984882242,
            37.62551136008118,
            980.5
          ],
          [
            140.23186725472607,
            37.62552125657026,
            979.6
          ],
          [
            140.23175466062972,
            37.62553115305934,
            977.5
          ],
          [
            140.23164206653337,
            37.62554104954842,
            976.1
          ],
          [
            140.2315304047088,
            37.62553451240304,
            974.0
          ],
          [
            140.23141938869566,
            37.62551659120724,
            971.3
          ],
          [
            140.23130837268252,
            37.62549867001143,
            969.7
          ],
          [
            140.2311988524811,
            37.625477017298756,
            966.8
          ],
          [
            140.23109528163175,
            37.6254405230743,
            964.6
          ],
          [
            140.23099171078238,
            37.62540402884986,
            961.5
          ],
          [
            140.23088813993303,
            37.62536753462541,
            959.3
          ],
          [
            140.23079552223368,
            37.625315732131,
            956.9
          ],
          [
            140.23070317662123,
            37.62526354936432,
            954.0
          ],
          [
            140.23061083100876,
            37.62521136659764,
            951.6
          ],
          [
            140.2305184853963,
            37.62515918383096,
            947.6
          ],
          [
            140.23042927929671,
            37.62510420380118,
            944.6
          ],
          [
            140.23035365193957,
            37.62503712529746,
            942.3
          ],
          [
            140.2302780245824,
            37.62497004679374,
            939.4
          ],
          [
            140.2302023972252,
            37.62490296829002,
            936.6
          ],
          [
            140.23012676986806,
            37.624835889786304,
            933.8
          ],
          [
            140.2300575032391,
            37.62476472558894,
            931.8
          ],
          [
            140.22999097541768,
            37.62469180217028,
            928.8
          ],
          [
            140.22992444759623,
            37.62461887875163,
            926.3
          ],
          [
            140.22987101397456,
            37.62454056147368,
            922.9
          ],
          [
            140.22983451878642,
            37.624455266791315,
            919.4
          ],
          [
            140.22979802359828,
            37.62436997210895,
            917.7
          ],
          [
            140.22976152841014,
            37.62428467742659,
            914.5
          ],
          [
            140.2297255736981,
            37.62419924239167,
            912.4
          ],
          [
            140.229691756041,
            37.62411325239953,
            909.5
          ],
          [
            140.22965793838392,
            37.62402726240739,
            907.9
          ],
          [
            140.22962412072684,
            37.623941272415244,
            906.4
          ],
          [
            140.2295858276421,
            37.623856485521976,
            905.3
          ],
          [
            140.22954712729256,
            37.62377180811094,
            903.8
          ],
          [
            140.22950842694303,
            37.623687130699906,
            903.0
          ],
          [
            140.22946972659346,
            37.62360245328887,
            901.7
          ],
          [
            140.22943102624393,
            37.623517775877836,
            900.7
          ],
          [
            140.2293923258944,
            37.6234330984668,
            899.4
          ],
          [
            140.22935362554483,
            37.623348421055766,
            898.6
          ],
          [
            140.22933425912936,
            37.623306046815145,
            898.1
          ]
        ]
      }
    },
    {
      "type": "Feature",
      "properties": {
        "name": "しらかば",
        "slope_deg": [
          4.573921259900927,
          4.573921259900927,
          4.573921259900927,
          2.5765718302687652,
          2.719505461272635,
          3.4336303624503275,
          4.573921259900927,
          5.142764557884112,
          5.4268124985727555,
          5.2848210925090795,
          4.8584629190340936,
          4.289153328819018,
          4.0041729407093225,
          4.146688825966138,
          4.004172940709647,
          5.142764557884436,
          5.4268124985727555,
          6.701525844729548,
          7.406912128494972,
          7.969610394321233,
          8.530765609948133,
          9.090276920822133,
          9.369385096487674,
          9.50877195829791,
          9.50877195829791,
          9.78720366465624,
          10.065169352759717,
          9.369385096487514,
          10.619655276155134,
          10.481218144130889,
          13.088732789694154,
          14.708303899682749,
          14.170977562933123,
          14.439965121002654,
          11.172136252167116,
          9.369385096487514,
          8.110047829419,
          6.560196400571341,
          6.701525844729548,
          7.406912128495133,
          8.810732985984973,
          9.50877195829791,
          11.44759626368548,
          11.859779120947948,
          13.495733280795843,
          13.63109444342145,
          13.495733280795843,
          13.495733280795843,
          12.68038349181982,
          12.68038349181982,
          13.360218444764483,
          13.360218444764483,
          14.439965121002654,
          15.109575122340555,
          16.039943306049665,
          18.26288994219419,
          16.830565983210626,
          18.520849477471074,
          16.567741642974887,
          16.304198003832227,
          16.304198003832376,
          15.642246457208639,
          16.567741642975037,
          14.170977562933123,
          14.305551846621862,
          12.13388017063338,
          11.172136252167116,
          10.896152141141194,
          10.757967088390036,
          11.172136252167116,
          9.22988624372772,
          8.670801453590993,
          6.701525844729548,
          5.568737077976766,
          6.418786730238786,
          5.9940929491083725,
          6.277298489597523,
          5.9940929491083725,
          5.710593137499643,
          6.560196400571341,
          6.277298489597523,
          7.68844776990284,
          7.266008446996026,
          5.852378988915653,
          5.568737077976604,
          4.573921259900927,
          4.7162212343382155,
          6.560196400571341,
          6.983937460085259,
          6.277298489597523,
          6.277298489597523,
          6.277298489597523,
          6.277298489597523
        ],
        "horizontal_dist_map": 912,
        "slope_dist_map": 927,
        "elevation_diff_map": 150.9,
        "avg_slope_deg_map": 9.2,
        "max_slope_deg_map": 18.5
      },
      "geometry": {
        "type": "LineString",
        "coordinates": [
          [
            140.23902296564927,
            37.62476112727972,
            1048.2
          ],
          [
            140.23893056682667,
            37.6247090049625,
            1046.3
          ],
          [
            140.23883816800404,
            37.62465688264527,
            1045.5
          ],
          [
            140.23874576918143,
            37.62460476032805,
            1045.3
          ],
          [
            140.2386533703588,
            37.624552638010826,
            1045.0
          ],
          [
            140.23855590858616,
            37.62450806695239,
            1044.5
          ],
          [
            140.2384500122167,
            37.62447607587654,
            1043.6
          ],
          [
            140.2383441158472,
            37.62444408480068,
            1042.9
          ],
          [
            140.23823821947775,
            37.62441209372483,
            1041.8
          ],
          [
            140.2381323231083,
            37.62438010264897,
            1040.9
          ],
          [
            140.23802642673883,
            37.62434811157311,
            1039.8
          ],
          [
            140.23792053036934,
            37.62431612049726,
            1039.2
          ],
          [
            140.23781463399988,
            37.624284129421405,
            1038.4
          ],
          [
            140.2377087376304,
            37.624252138345554,
            1037.9
          ],
          [
            140.23760284126095,
            37.624220147269696,
            1037.0
          ],
          [
            140.2374969448915,
            37.62418815619384,
            1036.3
          ],
          [
            140.237391048522,
            37.62415616511799,
            1035.6
          ],
          [
            140.23728515215254,
            37.62412417404213,
            1034.3
          ],
          [
            140.23717925578308,
            37.62409218296628,
            1033.2
          ],
          [
            140.2370733594136,
            37.62406019189042,
            1031.6
          ],
          [
            140.23696746304415,
            37.624028200814564,
            1030.4
          ],
          [
            140.23686156667466,
            37.62399620973871,
            1028.7
          ],
          [
            140.2367556703052,
            37.623964218662856,
            1027.2
          ],
          [
            140.23664977393574,
            37.623932227587005,
            1025.2
          ],
          [
            140.23654387756628,
            37.62390023651115,
            1023.8
          ],
          [
            140.23643798119681,
            37.62386824543529,
            1022.0
          ],
          [
            140.23633208482732,
            37.62383625435944,
            1020.5
          ],
          [
            140.23622618845786,
            37.62380426328358,
            1018.3
          ],
          [
            140.2361202920884,
            37.62377227220773,
            1016.7
          ],
          [
            140.23601568755396,
            37.62373770352935,
            1015.4
          ],
          [
            140.23591114832828,
            37.62370300454024,
            1013.0
          ],
          [
            140.23580660910258,
            37.62366830555112,
            1010.9
          ],
          [
            140.23570206987688,
            37.62363360656201,
            1007.4
          ],
          [
            140.23560105991814,
            37.62359309350017,
            1004.9
          ],
          [
            140.23550188165444,
            37.62354956292547,
            1002.9
          ],
          [
            140.23540270339078,
            37.623506032350775,
            1000.6
          ],
          [
            140.23530352512708,
            37.623462501776075,
            999.5
          ],
          [
            140.2352042763076,
            37.62341907337852,
            998.3
          ],
          [
            140.23510496391822,
            37.62337573704129,
            997.2
          ],
          [
            140.23500565152884,
            37.623332400704065,
            996.0
          ],
          [
            140.23490633913946,
            37.62328906436684,
            994.8
          ],
          [
            140.2348087571135,
            37.6232434776864,
            993.1
          ],
          [
            140.23471501091905,
            37.62319290249479,
            991.0
          ],
          [
            140.23462126472458,
            37.623142327303185,
            989.3
          ],
          [
            140.23452751853014,
            37.62309175211157,
            986.7
          ],
          [
            140.23443361162973,
            37.623041368616505,
            984.7
          ],
          [
            140.2343388889057,
            37.62299195826885,
            981.4
          ],
          [
            140.23424416618172,
            37.622942547921184,
            979.6
          ],
          [
            140.2341494434577,
            37.62289313757352,
            977.1
          ],
          [
            140.2340547207337,
            37.62284372722586,
            975.1
          ],
          [
            140.23394736142498,
            37.62281537844387,
            972.4
          ],
          [
            140.23383948825523,
            37.622787886120925,
            970.6
          ],
          [
            140.23373100784826,
            37.62276214910698,
            967.6
          ],
          [
            140.2336206380409,
            37.622741873684234,
            965.6
          ],
          [
            140.23351026823352,
            37.622721598261485,
            962.1
          ],
          [
            140.23339989842614,
            37.62270132283874,
            959.8
          ],
          [
            140.23328952861877,
            37.622681047415995,
            956.1
          ],
          [
            140.23317916695038,
            37.622660744557415,
            952.4
          ],
          [
            140.23306903506833,
            37.622639667106945,
            950.0
          ],
          [
            140.23295890318627,
            37.622618589656476,
            946.4
          ],
          [
            140.23284877130422,
            37.622597512206006,
            944.2
          ],
          [
            140.23273863942217,
            37.62257643475554,
            940.7
          ],
          [
            140.23262850754014,
            37.62255535730507,
            938.3
          ],
          [
            140.2325183756581,
            37.6225342798546,
            935.2
          ],
          [
            140.23240791260966,
            37.62251435430871,
            932.3
          ],
          [
            140.23229721312535,
            37.622495251163805,
            930.6
          ],
          [
            140.23218651364107,
            37.62247614801889,
            928.1
          ],
          [
            140.23207581415676,
            37.622457044873975,
            926.6
          ],
          [
            140.23196511467245,
            37.62243794172906,
            924.4
          ],
          [
            140.23185441518817,
            37.622418838584146,
            922.9
          ],
          [
            140.23174371570386,
            37.62239973543923,
            920.5
          ],
          [
            140.2316324422369,
            37.6223852686739,
            918.7
          ],
          [
            140.23151918448607,
            37.62238683008059,
            917.9
          ],
          [
            140.23140592673522,
            37.622388391487284,
            916.8
          ],
          [
            140.2312926689844,
            37.622389952893975,
            915.8
          ],
          [
            140.23117941123357,
            37.622391514300666,
            914.8
          ],
          [
            140.2310683575937,
            37.622406886241876,
            913.4
          ],
          [
            140.2309582017668,
            37.6224278837063,
            912.6
          ],
          [
            140.23084804593995,
            37.622448881170726,
            911.4
          ],
          [
            140.23073789011306,
            37.62246987863515,
            910.6
          ],
          [
            140.23062773428617,
            37.622490876099576,
            909.4
          ],
          [
            140.2305175784593,
            37.622511873564,
            908.0
          ],
          [
            140.23041089840567,
            37.62254137979108,
            907.0
          ],
          [
            140.23030626411688,
            37.6225758940915,
            905.2
          ],
          [
            140.2302016298281,
            37.62261040839192,
            904.3
          ],
          [
            140.23009699553927,
            37.62264492269234,
            903.9
          ],
          [
            140.2299925051353,
            37.62267962840605,
            903.1
          ],
          [
            140.2299047566561,
            37.62273660628642,
            902.0
          ],
          [
            140.2298170081769,
            37.62279358416679,
            901.0
          ],
          [
            140.22972925969768,
            37.62285056204717,
            899.3
          ],
          [
            140.2296415112185,
            37.622907539927546,
            898.2
          ],
          [
            140.22955376273927,
            37.622964517807915,
            897.6
          ],
          [
            140.22953405868304,
            37.62297731227876,
            897.3
          ]
        ]
      }
    },
    {
      "type": "Feature",
      "properties": {
        "name": "しらかば_2",
        "slope_deg": [
          5.568737077976766,
          5.568737077976766,
          5.568737077976766,
          6.135733340186728,
          7.68844776990284,
          8.250387228905435,
          9.090276920822289,
          11.172136252167274,
          10.342657140474548,
          10.619655276155134,
          11.447596263685636,
          10.619655276155134,
          10.619655276155134,
          11.58512622485511,
          11.996899307923577,
          11.996899307923577,
          11.996899307923577,
          11.996899307923577
        ],
        "horizontal_dist_map": 167,
        "slope_dist_map": 169,
        "elevation_diff_map": 28.2,
        "avg_slope_deg_map": 9.4,
        "max_slope_deg_map": 12.0
      },
      "geometry": {
        "type": "LineString",
        "coordinates": [
          [
            140.23543206313272,
            37.624356491129745,
            1013.7
          ],
          [
            140.2353782923439,
            37.62427719012824,
            1013.0
          ],
          [
            140.23532452155507,
            37.624197889126734,
            1011.9
          ],
          [
            140.23527075076626,
            37.62411858812523,
            1010.8
          ],
          [
            140.23521697997742,
            37.62403928712372,
            1009.8
          ],
          [
            140.2351632091886,
            37.623959986122216,
            1008.7
          ],
          [
            140.2351094383998,
            37.62388068512071,
            1006.5
          ],
          [
            140.23505566761096,
            37.623801384119204,
            1005.0
          ],
          [
            140.2350016974173,
            37.62372217629105,
            1003.4
          ],
          [
            140.23494079363547,
            37.623646208231406,
            1000.8
          ],
          [
            140.23487988985366,
            37.623570240171766,
            999.2
          ],
          [
            140.23481898607184,
            37.62349427211213,
            997.5
          ],
          [
            140.23475111337004,
            37.62342214664394,
            995.3
          ],
          [
            140.23468304352895,
            37.62335012987633,
            993.3
          ],
          [
            140.23461497368785,
            37.62327811310872,
            991.7
          ],
          [
            140.2345469038468,
            37.62320609634111,
            989.3
          ],
          [
            140.2344788340057,
            37.6231340795735,
            986.8
          ],
          [
            140.23443088420035,
            37.62308334947139,
            985.5
          ]
        ]
      }
    },
    {
      "type": "Feature",
      "properties": {
        "name": "ぬまぱーく_ヒットパークエリア",
        "slope_deg": [
          5.994092949108534,
          5.994092949108534,
          5.994092949108534,
          5.710593137499643,
          5.710593137499643,
          4.8584629190340936,
          4.431564716436037,
          4.7162212343382155,
          4.573921259900927,
          5.000644597558433,
          4.7162212343382155,
          4.573921259900927,
          5.142764557884436,
          6.13573334018705,
          7.266008446995867,
          6.98393746008542,
          6.842773412630876,
          6.277298489597361,
          5.710593137499643,
          5.568737077976444,
          5.142764557884112,
          4.146688825966138,
          3.2908836860673905,
          3.148096099562824,
          2.576571830268928,
          2.719505461272472,
          3.576334374997351,
          4.146688825966138,
          5.710593137499643,
          6.418786730238786,
          6.418786730238786,
          5.284821092508918,
          4.573921259900764,
          4.0041729407093225,
          3.4336303624504896,
          3.8616074096751394,
          3.8616074096751394,
          4.573921259900927,
          6.135733340186728,
          7.547725773843047,
          9.50877195829791,
          9.508771958297752,
          10.481218144131045,
          10.757967088390036,
          9.926245506651705,
          11.859779120948104,
          10.619655276155134,
          11.58512622485511,
          11.309932474020215,
          11.172136252167116,
          12.27072035781523,
          11.585126224854955,
          12.816647648997312,
          11.996899307923577,
          12.13388017063338,
          12.543973346572077,
          11.58512622485511,
          12.27072035781523,
          11.172136252167116,
          11.172136252167274,
          12.816647648997467,
          12.13388017063338,
          13.766300685466351,
          14.57421619803871,
          13.495733280795843,
          15.109575122340555,
          14.9759845147566,
          13.766300685466197,
          15.109575122340402,
          13.90135076950909,
          14.439965121002807,
          15.774985955414158,
          14.57421619803871,
          14.842227057911131,
          15.109575122340402,
          14.036243467926479,
          14.97598451475675,
          16.304198003832227,
          14.439965121002654,
          15.109575122340402,
          13.766300685466197,
          11.58512622485511,
          12.543973346572233,
          10.757967088390036,
          9.926245506651705,
          8.9505586562316,
          7.125016348901798,
          7.125016348901798,
          7.125016348901798,
          7.125016348901798
        ],
        "horizontal_dist_map": 885,
        "slope_dist_map": 900,
        "elevation_diff_map": 141.8,
        "avg_slope_deg_map": 9.0,
        "max_slope_deg_map": 16.3
      },
      "geometry": {
        "type": "LineString",
        "coordinates": [
          [
            140.23874564075902,
            37.624842133753766,
            1044.9
          ],
          [
            140.2386328004467,
            37.624850051043516,
            1043.7
          ],
          [
            140.23851996013437,
            37.624857968333274,
            1042.9
          ],
          [
            140.23840711982206,
            37.624865885623024,
            1041.8
          ],
          [
            140.23829427950972,
            37.624873802912774,
            1040.7
          ],
          [
            140.2381814283907,
            37.624881617935465,
            1039.7
          ],
          [
            140.23806850860012,
            37.62488878309683,
            1038.9
          ],
          [
            140.23795558880954,
            37.62489594825819,
            1038.4
          ],
          [
            140.23784266901896,
            37.624903113419556,
            1037.6
          ],
          [
            140.23772970341443,
            37.62490975131658,
            1036.4
          ],
          [
            140.2376166177149,
            37.62491500706192,
            1035.7
          ],
          [
            140.2375038007659,
            37.62492217657034,
            1034.9
          ],
          [
            140.23739204407897,
            37.62493689616823,
            1034.3
          ],
          [
            140.23728028739203,
            37.62495161576613,
            1033.2
          ],
          [
            140.2371720939597,
            37.62497265169719,
            1032.1
          ],
          [
            140.23708397116397,
            37.62502926544717,
            1030.6
          ],
          [
            140.23699583093818,
            37.62508586200602,
            1029.2
          ],
          [
            140.23690753317044,
            37.62514230318227,
            1028.3
          ],
          [
            140.2368192354027,
            37.62519874435853,
            1027.3
          ],
          [
            140.23672812830054,
            37.62525205363681,
            1026.2
          ],
          [
            140.23663229649014,
            37.62530009572291,
            1025.2
          ],
          [
            140.23653646467972,
            37.62534813780902,
            1024.4
          ],
          [
            140.23643378181134,
            37.62538385308749,
            1023.7
          ],
          [
            140.2363246079484,
            37.62540788940464,
            1023.3
          ],
          [
            140.23621231867904,
            37.62540902397842,
            1022.9
          ],
          [
            140.23609920749252,
            37.62540411653609,
            1022.2
          ],
          [
            140.23599330897062,
            37.625373654620006,
            1021.9
          ],
          [
            140.23588841405964,
            37.6253396369101,
            1021.4
          ],
          [
            140.23578578727714,
            37.625301503090355,
            1020.4
          ],
          [
            140.2356832460774,
            37.625263213958426,
            1019.3
          ],
          [
            140.23557993408375,
            37.62522649511407,
            1017.9
          ],
          [
            140.23547190226515,
            37.6251993916579,
            1016.9
          ],
          [
            140.23536387044652,
            37.62517228820173,
            1015.9
          ],
          [
            140.23525583862792,
            37.62514518474557,
            1015.6
          ],
          [
            140.2351478068093,
            37.6251180812894,
            1014.7
          ],
          [
            140.23503977499067,
            37.62509097783323,
            1014.1
          ],
          [
            140.23493174317207,
            37.62506387437706,
            1013.5
          ],
          [
            140.23482371135344,
            37.6250367709209,
            1012.9
          ],
          [
            140.23471567953484,
            37.62500966746473,
            1012.0
          ],
          [
            140.23460764771622,
            37.62498256400856,
            1010.9
          ],
          [
            140.2344996158976,
            37.6249554605524,
            1009.2
          ],
          [
            140.234391584079,
            37.62492835709623,
            1007.6
          ],
          [
            140.23428355226037,
            37.62490125364006,
            1005.3
          ],
          [
            140.23417552044177,
            37.62487415018389,
            1004.2
          ],
          [
            140.23406748862314,
            37.62484704672773,
            1001.8
          ],
          [
            140.23395797499862,
            37.62482474055824,
            1000.0
          ],
          [
            140.23384645310097,
            37.624808936091874,
            998.3
          ],
          [
            140.23373493120332,
            37.624793131625516,
            995.8
          ],
          [
            140.23362340930566,
            37.62477732715915,
            994.3
          ],
          [
            140.23351188740799,
            37.624761522692786,
            991.8
          ],
          [
            140.23340036551033,
            37.62474571822642,
            990.3
          ],
          [
            140.23328884361268,
            37.624729913760056,
            987.9
          ],
          [
            140.233177321715,
            37.62471410929369,
            985.6
          ],
          [
            140.23306579981735,
            37.624698304827334,
            983.6
          ],
          [
            140.2329542779197,
            37.62468250036097,
            981.2
          ],
          [
            140.23284275602205,
            37.624666695894604,
            979.4
          ],
          [
            140.23273123412437,
            37.62465089142824,
            977.0
          ],
          [
            140.23261971222672,
            37.624635086961874,
            974.7
          ],
          [
            140.23250819032907,
            37.62461928249551,
            973.0
          ],
          [
            140.2323966684314,
            37.62460347802915,
            970.7
          ],
          [
            140.23228514653374,
            37.624587673562786,
            969.1
          ],
          [
            140.232172402827,
            37.624585688412004,
            966.8
          ],
          [
            140.23205919770135,
            37.62458892215641,
            963.9
          ],
          [
            140.23194599257567,
            37.624592155900814,
            962.1
          ],
          [
            140.23183278745,
            37.624595389645215,
            959.3
          ],
          [
            140.23171958232436,
            37.62459862338962,
            956.4
          ],
          [
            140.2316063771987,
            37.624601857134024,
            954.3
          ],
          [
            140.23149317207304,
            37.624605090878426,
            951.3
          ],
          [
            140.2313803407583,
            37.62461217151722,
            948.6
          ],
          [
            140.23126785544292,
            37.6246228128408,
            946.6
          ],
          [
            140.23115537012757,
            37.624633454164375,
            943.5
          ],
          [
            140.23104288481218,
            37.624644095487945,
            941.4
          ],
          [
            140.2309303994968,
            37.62465473681152,
            938.3
          ],
          [
            140.23081955052024,
            37.62464986034677,
            935.3
          ],
          [
            140.23071086526184,
            37.62462446483022,
            933.1
          ],
          [
            140.23060872182194,
            37.62458913566157,
            930.8
          ],
          [
            140.2305205876046,
            37.624532533700894,
            927.5
          ],
          [
            140.2304405155725,
            37.624469668508006,
            925.3
          ],
          [
            140.23037144609592,
            37.62439825581117,
            922.4
          ],
          [
            140.23030237661933,
            37.62432684311434,
            919.1
          ],
          [
            140.23023661321824,
            37.62425358065641,
            917.2
          ],
          [
            140.23017544879104,
            37.624177745056045,
            914.5
          ],
          [
            140.23011428436385,
            37.62410190945568,
            912.6
          ],
          [
            140.23005311993666,
            37.62402607385532,
            910.9
          ],
          [
            140.22999195550946,
            37.623950238254956,
            908.3
          ],
          [
            140.22993079108227,
            37.62387440265459,
            906.9
          ],
          [
            140.22986962665507,
            37.62379856705423,
            905.6
          ],
          [
            140.22980846222788,
            37.62372273145387,
            904.6
          ],
          [
            140.22974729780069,
            37.623646895853504,
            903.3
          ],
          [
            140.2297108211425,
            37.6236016697409,
            903.1
          ]
        ]
      }
    },
    {
      "type": "Feature",
      "properties": {
        "name": "チャレンジ",
        "slope_deg": [
          9.648045316098093,
          9.648045316098093,
          9.648045316098093,
          10.896152141141036,
          10.896152141141036,
          12.407418527400838,
          13.224551192213651,
          13.360218444764483,
          15.109575122340555,
          16.039943306049665,
          15.242997742901547,
          16.172159015782583,
          15.907551930525813,
          16.039943306049665,
          16.039943306049665,
          16.43605922463559,
          16.567741642974887,
          15.242997742901547,
          15.774985955414008,
          14.439965121002807,
          12.543973346572077,
          11.859779120947948,
          10.896152141141194,
          12.13388017063338,
          12.816647648997467,
          14.708303899682749,
          15.774985955414008,
          13.088732789694,
          12.543973346572077,
          9.090276920822289,
          6.560196400571341,
          5.710593137499643,
          4.289153328819018,
          4.858462919034255,
          4.431564716435877,
          5.4268124985727555,
          5.142764557884274,
          5.2848210925090795,
          5.2848210925090795,
          5.2848210925090795,
          5.2848210925090795
        ],
        "horizontal_dist_map": 395,
        "slope_dist_map": 405,
        "elevation_diff_map": 79.8,
        "avg_slope_deg_map": 11.1,
        "max_slope_deg_map": 16.6
      },
      "geometry": {
        "type": "LineString",
        "coordinates": [
          [
            140.2315470339899,
            37.62584333795666,
            976.5
          ],
          [
            140.2314356035651,
            37.62582712336341,
            975.3
          ],
          [
            140.23132417314034,
            37.625810908770156,
            973.4
          ],
          [
            140.23121274271554,
            37.6257946941769,
            972.1
          ],
          [
            140.23110131229078,
            37.62577847958365,
            969.7
          ],
          [
            140.23098988186598,
            37.6257622649904,
            967.6
          ],
          [
            140.23088679536528,
            37.625726171801055,
            965.7
          ],
          [
            140.23078546583378,
            37.62568589280166,
            963.3
          ],
          [
            140.2306841363023,
            37.62564561380226,
            960.3
          ],
          [
            140.23058829018512,
            37.62559893680466,
            958.1
          ],
          [
            140.23050411589637,
            37.62553864122329,
            954.9
          ],
          [
            140.23041994160758,
            37.62547834564192,
            951.8
          ],
          [
            140.2303343599062,
            37.62541932555568,
            949.4
          ],
          [
            140.23024827756572,
            37.625360759183415,
            946.5
          ],
          [
            140.23016219522523,
            37.62530219281114,
            943.5
          ],
          [
            140.23007611288475,
            37.62524362643887,
            940.3
          ],
          [
            140.22999003054423,
            37.625185060066606,
            937.9
          ],
          [
            140.22990664595613,
            37.62512424673757,
            934.7
          ],
          [
            140.22982912137905,
            37.62505855260792,
            931.6
          ],
          [
            140.22975159680198,
            37.62499285847827,
            929.4
          ],
          [
            140.2296791780271,
            37.62492402572895,
            926.6
          ],
          [
            140.22961879303597,
            37.62484779561703,
            924.4
          ],
          [
            140.2295672816414,
            37.62476796046098,
            922.7
          ],
          [
            140.2295250262052,
            37.62468436492005,
            921.0
          ],
          [
            140.22948277076898,
            37.62460076937912,
            918.9
          ],
          [
            140.22944051533278,
            37.62451717383819,
            915.8
          ],
          [
            140.22939825989656,
            37.624433578297264,
            913.6
          ],
          [
            140.2293663365585,
            37.62434753083979,
            910.5
          ],
          [
            140.22934409333405,
            37.62425918618864,
            907.6
          ],
          [
            140.22932185010956,
            37.62417084153748,
            906.5
          ],
          [
            140.2292996068851,
            37.624082496886324,
            904.7
          ],
          [
            140.2292777884511,
            37.623994085995335,
            904.1
          ],
          [
            140.22925644200012,
            37.623905601505534,
            903.0
          ],
          [
            140.22923509554914,
            37.623817117015726,
            902.5
          ],
          [
            140.22921374909816,
            37.623728632525925,
            901.7
          ],
          [
            140.2291924026472,
            37.623640148036124,
            900.7
          ],
          [
            140.22916819277535,
            37.623552149734856,
            899.9
          ],
          [
            140.2291422531583,
            37.62346444513204,
            898.7
          ],
          [
            140.22911631354123,
            37.62337674052924,
            898.1
          ],
          [
            140.22909037392418,
            37.623289035926426,
            897.0
          ],
          [
            140.2290748123594,
            37.62323642062172,
            896.7
          ]
        ]
      }
    },
    {
      "type": "Feature",
      "properties": {
        "name": "ファミリー",
        "slope_deg": [
          3.576334374997351,
          3.576334374997351,
          3.576334374997351,
          3.8616074096751394,
          3.576334374997351,
          3.005269359689804,
          3.8616074096749773,
          5.000644597558433,
          5.568737077976766,
          6.560196400571341,
          6.277298489597683,
          6.56019640057118,
          6.56019640057118,
          7.266008446996026,
          7.547725773843047,
          7.547725773843206,
          7.266008446996026,
          6.983937460085259,
          7.125016348901798,
          6.842773412630876,
          6.701525844729548,
          6.842773412631036,
          7.266008446996026,
          6.842773412631036,
          8.39062701325255,
          7.829076510059608,
          8.530765609948133,
          8.810732985984814,
          8.810732985984973,
          8.9505586562316,
          8.110047829419,
          8.950558656231758,
          8.530765609948133,
          9.50877195829791,
          9.926245506651705,
          10.757967088389877,
          10.896152141141036,
          11.172136252167116,
          11.309932474020215,
          11.034209003250343,
          10.757967088390036,
          10.757967088390036,
          10.757967088390036,
          10.896152141141036,
          11.034209003250188,
          10.619655276155134,
          10.342657140474707,
          9.926245506651705,
          9.648045316098251,
          9.926245506651705,
          10.065169352759717,
          10.481218144131045,
          12.13388017063338,
          12.952764513375426,
          13.360218444764483,
          13.088732789694,
          13.49573328079569,
          11.859779120947948,
          12.68038349181982,
          12.816647648997467,
          11.034209003250343,
          11.996899307923577,
          9.926245506651705,
          8.9505586562316,
          8.110047829419,
          6.560196400571341,
          6.842773412631036,
          5.994092949108534,
          5.994092949108534,
          5.426812498572917,
          5.568737077976604,
          5.284821092508918,
          5.710593137499643,
          5.710593137499643,
          5.568737077976604,
          6.277298489597683,
          5.994092949108534,
          6.135733340186728,
          4.431564716435877,
          2.4336061007200236,
          2.147585428298503,
          1.8614576304666637,
          2.5765718302687652,
          3.718993973158075,
          3.7189939731579127,
          3.576334374997351,
          3.718993973158075,
          3.290883686067228,
          3.148096099562824,
          3.148096099562824,
          3.148096099562824,
          3.148096099562824
        ],
        "horizontal_dist_map": 906,
        "slope_dist_map": 915,
        "elevation_diff_map": 120.6,
        "avg_slope_deg_map": 7.5,
        "max_slope_deg_map": 13.5
      },
      "geometry": {
        "type": "LineString",
        "coordinates": [
          [
            140.2351428661017,
            37.62517710675019,
            1014.9
          ],
          [
            140.23502987912977,
            37.625183572169256,
            1014.5
          ],
          [
            140.23491689215786,
            37.625190037588325,
            1013.7
          ],
          [
            140.23480388178317,
            37.625196161505585,
            1012.8
          ],
          [
            140.2346906805733,
            37.62519950068444,
            1012.4
          ],
          [
            140.23457747936342,
            37.6252028398633,
            1011.8
          ],
          [
            140.23446427815358,
            37.62520617904216,
            1011.2
          ],
          [
            140.2343510769437,
            37.62520951822102,
            1010.7
          ],
          [
            140.23423847025117,
            37.62521800868667,
            1009.7
          ],
          [
            140.2341263965754,
            37.62523111755788,
            1008.3
          ],
          [
            140.2340143228996,
            37.62524422642909,
            1007.3
          ],
          [
            140.23390545787476,
            37.62526824247635,
            1006.1
          ],
          [
            140.2337977067165,
            37.625296044893375,
            1005.3
          ],
          [
            140.23368995555825,
            37.6253238473104,
            1003.7
          ],
          [
            140.2335822044,
            37.62535164972741,
            1002.7
          ],
          [
            140.23347445324174,
            37.625379452144436,
            1001.0
          ],
          [
            140.23336670208346,
            37.62540725456146,
            1000.0
          ],
          [
            140.2332589509252,
            37.62543505697848,
            998.4
          ],
          [
            140.23315119976695,
            37.6254628593955,
            997.6
          ],
          [
            140.23304237067944,
            37.62548775784027,
            996.1
          ],
          [
            140.2329329093465,
            37.62551095299781,
            995.0
          ],
          [
            140.23282344801353,
            37.625534148155346,
            993.6
          ],
          [
            140.23271398668058,
            37.625557343312884,
            992.9
          ],
          [
            140.23260452534765,
            37.62558053847042,
            991.3
          ],
          [
            140.2324950640147,
            37.62560373362796,
            989.9
          ],
          [
            140.23238661158462,
            37.62562957311093,
            988.8
          ],
          [
            140.23227940502105,
            37.625658677998985,
            987.0
          ],
          [
            140.23217219845745,
            37.62568778288704,
            985.8
          ],
          [
            140.23206499189388,
            37.6257168877751,
            983.9
          ],
          [
            140.2319577853303,
            37.625745992663155,
            982.6
          ],
          [
            140.23185159253748,
            37.62577728672877,
            980.8
          ],
          [
            140.23174626561,
            37.62581045057909,
            979.5
          ],
          [
            140.23164093868255,
            37.6258436144294,
            978.2
          ],
          [
            140.23153561175508,
            37.62587677827972,
            976.3
          ],
          [
            140.2314302848276,
            37.62590994213003,
            974.8
          ],
          [
            140.23132481486076,
            37.62594281035993,
            972.8
          ],
          [
            140.23121869995742,
            37.62597434569545,
            971.2
          ],
          [
            140.2311125850541,
            37.626005881030956,
            968.7
          ],
          [
            140.23100647015073,
            37.626037416366465,
            967.1
          ],
          [
            140.2309003552474,
            37.62606895170198,
            964.9
          ],
          [
            140.23079424034407,
            37.62610048703749,
            963.2
          ],
          [
            140.23068798975527,
            37.626131726256745,
            960.9
          ],
          [
            140.23058123657682,
            37.62616186863819,
            959.5
          ],
          [
            140.23047448339838,
            37.62619201101964,
            957.3
          ],
          [
            140.23036773021994,
            37.62622215340109,
            955.6
          ],
          [
            140.23026097704152,
            37.626252295782535,
            953.2
          ],
          [
            140.23015422386308,
            37.62628243816398,
            951.7
          ],
          [
            140.23004704553114,
            37.62631135033602,
            949.8
          ],
          [
            140.22993591935992,
            37.62632883917722,
            948.3
          ],
          [
            140.22982479318867,
            37.62634632801843,
            946.2
          ],
          [
            140.22971327318567,
            37.62634106695974,
            944.9
          ],
          [
            140.22960158374377,
            37.6263260181728,
            942.8
          ],
          [
            140.2294954195324,
            37.626303157295425,
            941.2
          ],
          [
            140.22942125465354,
            37.62623505275309,
            938.8
          ],
          [
            140.22934872277455,
            37.626166063032606,
            936.3
          ],
          [
            140.22929614548423,
            37.62608625679796,
            933.6
          ],
          [
            140.22924356819388,
            37.62600645056332,
            931.7
          ],
          [
            140.22919099090356,
            37.62592664432868,
            929.5
          ],
          [
            140.22914653302755,
            37.625844444035486,
            926.7
          ],
          [
            140.2291209978216,
            37.625756664278256,
            925.2
          ],
          [
            140.22909546261565,
            37.62566888452103,
            922.7
          ],
          [
            140.2290699274097,
            37.62558110476381,
            920.4
          ],
          [
            140.22904439220375,
            37.62549332500659,
            918.9
          ],
          [
            140.22901884861434,
            37.62540554693599,
            916.7
          ],
          [
            140.2289888406959,
            37.62531866701663,
            915.7
          ],
          [
            140.2289588327775,
            37.62523178709727,
            914.1
          ],
          [
            140.22892882485908,
            37.62514490717791,
            913.2
          ],
          [
            140.22889881694067,
            37.625058027258554,
            912.1
          ],
          [
            140.22886880902226,
            37.624971147339195,
            910.9
          ],
          [
            140.22883880110385,
            37.62488426741984,
            909.9
          ],
          [
            140.22880879318544,
            37.624797387500486,
            909.0
          ],
          [
            140.22877878526702,
            37.62471050758113,
            908.3
          ],
          [
            140.2287487773486,
            37.62462362766177,
            907.0
          ],
          [
            140.22873902141293,
            37.62453611599227,
            906.2
          ],
          [
            140.2287603820977,
            37.62444763365588,
            905.0
          ],
          [
            140.22879824618303,
            37.624362731272356,
            904.3
          ],
          [
            140.2288316438736,
            37.62427667101784,
            903.1
          ],
          [
            140.22886327612355,
            37.624190156467826,
            901.8
          ],
          [
            140.2288949083735,
            37.62410364191782,
            900.8
          ],
          [
            140.22892654062343,
            37.624017127367814,
            900.0
          ],
          [
            140.22895817287338,
            37.6239306128178,
            900.0
          ],
          [
            140.22898717906227,
            37.62384394824164,
            900.1
          ],
          [
            140.22897141672024,
            37.623754726051494,
            899.3
          ],
          [
            140.22895565437824,
            37.623665503861346,
            898.7
          ],
          [
            140.2289398920362,
            37.6235762816712,
            898.2
          ],
          [
            140.2289241296942,
            37.62348705948105,
            897.5
          ],
          [
            140.22890836735218,
            37.623397837290895,
            896.7
          ],
          [
            140.22889235557437,
            37.62330866830378,
            896.2
          ],
          [
            140.22884987762342,
            37.62322514437904,
            895.6
          ],
          [
            140.22880739967246,
            37.6231416204543,
            895.2
          ],
          [
            140.22876492172153,
            37.62305809652956,
            894.5
          ],
          [
            140.22873865737225,
            37.623006453230296,
            894.3
          ]
        ]
      }
    },
    {
      "type": "Feature",
      "properties": {
        "name": "ポプラ",
        "slope_deg": [
          13.495733280795843,
          13.495733280795843,
          13.495733280795843,
          14.57421619803871,
          16.172159015782583,
          15.907551930525813,
          14.708303899682749,
          13.495733280795843,
          13.360218444764483,
          12.816647648997467,
          13.088732789694,
          12.407418527400683,
          12.13388017063338,
          13.088732789694,
          11.58512622485511,
          13.088732789694154,
          13.088732789694,
          12.816647648997467,
          15.109575122340402,
          15.37625124882619,
          14.439965121002807,
          15.509334522674907,
          13.631094443421603,
          13.766300685466197,
          15.109575122340402,
          13.766300685466197,
          14.305551846622015,
          12.95276451337558,
          13.224551192213497,
          12.543973346572233,
          12.543973346572077,
          13.49573328079569,
          12.95276451337558,
          15.109575122340402,
          15.37625124882619,
          14.170977562933123,
          13.495733280795843,
          11.859779120947948,
          11.7225209701022,
          11.309932474020215,
          9.926245506651705,
          9.369385096487514,
          7.969610394321392,
          7.125016348901798,
          7.125016348901798,
          7.125016348901798,
          7.125016348901798
        ],
        "horizontal_dist_map": 455,
        "slope_dist_map": 468,
        "elevation_diff_map": 103.4,
        "avg_slope_deg_map": 12.5,
        "max_slope_deg_map": 16.2
      },
      "geometry": {
        "type": "LineString",
        "coordinates": [
          [
            140.2339310147083,
            37.62518030127908,
            1006.1
          ],
          [
            140.2338265376605,
            37.625145480402864,
            1003.9
          ],
          [
            140.2337220606127,
            37.62511065952665,
            1002.2
          ],
          [
            140.2336175835649,
            37.62507583865043,
            1000.0
          ],
          [
            140.2335131065171,
            37.625041017774215,
            996.5
          ],
          [
            140.2334086294693,
            37.625006196898,
            993.5
          ],
          [
            140.23330415242148,
            37.62497137602178,
            990.6
          ],
          [
            140.23319930521865,
            37.62493743389478,
            988.6
          ],
          [
            140.2330895422725,
            37.624915161757585,
            986.0
          ],
          [
            140.23297977932637,
            37.62489288962039,
            983.9
          ],
          [
            140.23287001638022,
            37.62487061748319,
            981.1
          ],
          [
            140.23276025343407,
            37.624848345345995,
            979.5
          ],
          [
            140.23265049048794,
            37.6248260732088,
            976.7
          ],
          [
            140.2325407275418,
            37.62480380107161,
            975.1
          ],
          [
            140.23242943578984,
            37.624792578926666,
            972.5
          ],
          [
            140.2323162103164,
            37.62479533344752,
            970.2
          ],
          [
            140.23220298484298,
            37.62479808796838,
            968.5
          ],
          [
            140.23208975936953,
            37.62480084248923,
            965.8
          ],
          [
            140.2319765338961,
            37.624803597010086,
            963.2
          ],
          [
            140.23186330842267,
            37.62480635153094,
            961.1
          ],
          [
            140.23175008294925,
            37.6248091060518,
            957.7
          ],
          [
            140.2316368574758,
            37.62481186057265,
            954.8
          ],
          [
            140.2315236177566,
            37.6248141947091,
            952.9
          ],
          [
            140.23141036994434,
            37.624816290023055,
            950.0
          ],
          [
            140.2312971221321,
            37.624818385337015,
            948.0
          ],
          [
            140.23118387431984,
            37.624820480650975,
            945.0
          ],
          [
            140.23107062650757,
            37.62482257596493,
            942.1
          ],
          [
            140.23095744505838,
            37.62482046216011,
            940.2
          ],
          [
            140.23084429892054,
            37.62481610871197,
            937.8
          ],
          [
            140.23074347130733,
            37.624779691718466,
            935.8
          ],
          [
            140.2306479612367,
            37.62473136010634,
            932.7
          ],
          [
            140.2305563265447,
            37.62467839116849,
            931.3
          ],
          [
            140.23047261878116,
            37.62461783183522,
            928.9
          ],
          [
            140.2303903408546,
            37.62455590336785,
            926.2
          ],
          [
            140.23031263456204,
            37.62449050741725,
            923.5
          ],
          [
            140.2302387655581,
            37.62442220096817,
            920.5
          ],
          [
            140.23016489655416,
            37.62435389451908,
            917.9
          ],
          [
            140.23009906294038,
            37.62428086665112,
            916.1
          ],
          [
            140.2300386834242,
            37.62420463407514,
            913.9
          ],
          [
            140.229978303908,
            37.624128401499156,
            912.1
          ],
          [
            140.22991792439183,
            37.62405216892318,
            909.6
          ],
          [
            140.22985796757627,
            37.623975727283295,
            908.1
          ],
          [
            140.22979869342447,
            37.62389894800407,
            906.9
          ],
          [
            140.2297394192727,
            37.62382216872485,
            905.5
          ],
          [
            140.2296801451209,
            37.623745389445624,
            904.0
          ],
          [
            140.22962087096914,
            37.623668610166405,
            903.1
          ],
          [
            140.2295862,
            37.6236237,
            902.7
          ]
        ]
      }
    },
    {
      "type": "Feature",
      "properties": {
        "name": "一本松林間",
        "slope_deg": [
          7.266008446996026,
          7.266008446996026,
          7.266008446996026,
          8.250387228905435,
          8.530765609948133,
          7.125016348901798,
          7.266008446995867,
          6.560196400571341,
          7.125016348901798,
          8.250387228905595,
          8.11004782941916,
          9.369385096487514,
          9.508771958297752,
          8.9505586562316,
          9.50877195829791,
          9.50877195829791,
          8.670801453590993,
          9.22988624372772,
          7.68844776990284,
          6.135733340186728,
          5.2848210925090795,
          4.146688825965976,
          3.8616074096749773,
          5.568737077976604,
          5.142764557884274,
          5.2848210925090795,
          6.277298489597683,
          4.146688825965976,
          3.4336303624504896,
          4.573921259900764,
          3.1480960995626615,
          2.433606100720186,
          3.1480960995626615,
          0.0,
          -0.8593722436447134,
          -0.4297102894009785,
          1.0025738037601275,
          3.8616074096751394,
          6.98393746008542,
          8.250387228905435,
          8.670801453590993,
          8.39062701325255,
          8.250387228905435,
          8.530765609948133,
          8.250387228905435,
          8.950558656231758,
          8.250387228905435,
          7.547725773843047,
          7.406912128495294,
          5.142764557884112,
          5.000644597558433,
          5.426812498572917,
          5.000644597558433,
          6.418786730238786,
          7.969610394321392,
          7.266008446996026,
          8.9505586562316,
          9.369385096487514,
          8.810732985984973,
          8.530765609948133,
          8.39062701325255,
          6.983937460085259,
          6.135733340186728,
          5.4268124985727555,
          4.004172940709484,
          4.004172940709484,
          3.4336303624504896,
          3.576334374997351,
          3.718993973158075,
          2.147585428298503,
          2.576571830268928,
          4.0041729407093225,
          4.7162212343382155,
          6.842773412630876,
          7.266008446996026,
          5.000644597558433,
          5.568737077976604,
          5.710593137499643,
          4.289153328819018,
          6.418786730238786,
          4.004172940709484,
          4.431564716435877,
          4.431564716435714,
          5.142764557884274,
          5.000644597558433,
          4.858462919034255,
          5.852378988915653,
          4.573921259900927,
          5.4268124985727555,
          4.858462919034255,
          4.858462919034255,
          5.852378988915653,
          5.710593137499643,
          6.701525844729548,
          7.406912128495294,
          7.266008446995867,
          8.11004782941916,
          7.266008446996026,
          7.266008446996026,
          7.266008446996026,
          7.266008446996026
        ],
        "horizontal_dist_map": 991,
        "slope_dist_map": 999,
        "elevation_diff_map": 104.8,
        "avg_slope_deg_map": 6.0,
        "max_slope_deg_map": 9.5
      },
      "geometry": {
        "type": "LineString",
        "coordinates": [
          [
            140.23536274033557,
            37.62437841860248,
            1012.9
          ],
          [
            140.23524957575376,
            37.62437439222013,
            1012.0
          ],
          [
            140.23513641117196,
            37.624370365837784,
            1010.9
          ],
          [
            140.23502324659015,
            37.62436633945544,
            1009.1
          ],
          [
            140.23491008200835,
            37.62436231307309,
            1007.8
          ],
          [
            140.23479691742654,
            37.62435828669074,
            1006.2
          ],
          [
            140.23468375284475,
            37.624354260308394,
            1004.9
          ],
          [
            140.23457058826293,
            37.624350233926044,
            1004.1
          ],
          [
            140.23445742368114,
            37.6243462075437,
            1002.7
          ],
          [
            140.23434425909932,
            37.62434218116135,
            1001.6
          ],
          [
            140.23423109451753,
            37.624338154779004,
            999.9
          ],
          [
            140.2341178544703,
            37.62433625179205,
            998.3
          ],
          [
            140.2340045846957,
            37.624335185253976,
            997.0
          ],
          [
            140.2338913149211,
            37.6243341187159,
            995.0
          ],
          [
            140.2337780451465,
            37.62433305217783,
            993.2
          ],
          [
            140.23366477537192,
            37.624331985639756,
            992.0
          ],
          [
            140.23355150559732,
            37.62433091910168,
            990.3
          ],
          [
            140.23343823582272,
            37.62432985256361,
            988.3
          ],
          [
            140.23332496604812,
            37.624328786025536,
            987.1
          ],
          [
            140.23321169627351,
            37.62432771948747,
            985.5
          ],
          [
            140.23310366614078,
            37.62430341178201,
            984.9
          ],
          [
            140.2330178592983,
            37.624258450830006,
            984.0
          ],
          [
            140.23299326487043,
            37.624170501360815,
            983.4
          ],
          [
            140.2329963120247,
            37.624081432265,
            982.6
          ],
          [
            140.23301405135243,
            37.623992768236015,
            982.2
          ],
          [
            140.23305092943795,
            37.62390757786025,
            980.1
          ],
          [
            140.23310191391198,
            37.623827919531585,
            979.8
          ],
          [
            140.23316442244797,
            37.62375278054914,
            978.9
          ],
          [
            140.2332055959656,
            37.62366917215141,
            977.8
          ],
          [
            140.23325177321917,
            37.62358775004221,
            977.2
          ],
          [
            140.23331875284396,
            37.623515089336756,
            977.4
          ],
          [
            140.23338573246875,
            37.6234424286313,
            975.7
          ],
          [
            140.2334556809272,
            37.623371583625904,
            975.6
          ],
          [
            140.23352725461413,
            37.62330176741086,
            975.5
          ],
          [
            140.23360657066812,
            37.62323802834413,
            975.2
          ],
          [
            140.23370215860498,
            37.62318968320966,
            975.7
          ],
          [
            140.23380498483024,
            37.623152140140604,
            976.2
          ],
          [
            140.23390925433372,
            37.62311693948847,
            975.8
          ],
          [
            140.23396658459095,
            37.62304576542215,
            974.5
          ],
          [
            140.23394969151843,
            37.62296160196256,
            973.0
          ],
          [
            140.23385759133288,
            37.62291744651148,
            971.3
          ],
          [
            140.23374667865275,
            37.622909501909334,
            970.0
          ],
          [
            140.23364773777328,
            37.622953371801586,
            968.4
          ],
          [
            140.23354773813304,
            37.622995585571914,
            967.1
          ],
          [
            140.23344488177239,
            37.62303333083759,
            965.5
          ],
          [
            140.2333420254117,
            37.62307107610327,
            964.0
          ],
          [
            140.23323962571973,
            37.623109586546384,
            962.6
          ],
          [
            140.2331378385661,
            37.62314912333644,
            960.8
          ],
          [
            140.23303605141248,
            37.623188660126495,
            959.7
          ],
          [
            140.23293426425886,
            37.62322819691654,
            958.7
          ],
          [
            140.23283247710523,
            37.6232677337066,
            957.4
          ],
          [
            140.2327309665523,
            37.62330771824881,
            957.2
          ],
          [
            140.23262947203338,
            37.62334772874633,
            956.2
          ],
          [
            140.23252797751445,
            37.62338773924385,
            954.9
          ],
          [
            140.23242648299552,
            37.62342774974137,
            953.9
          ],
          [
            140.2323249884766,
            37.62346776023889,
            952.7
          ],
          [
            140.23222349395766,
            37.62350777073641,
            950.6
          ],
          [
            140.23212199943873,
            37.623547781233924,
            949.8
          ],
          [
            140.23202050491977,
            37.623587791731445,
            947.6
          ],
          [
            140.23191901040084,
            37.62362780222897,
            946.1
          ],
          [
            140.23182239289017,
            37.62367453673319,
            944.4
          ],
          [
            140.23172804271567,
            37.623724397248935,
            943.8
          ],
          [
            140.2316336925412,
            37.62377425776468,
            941.7
          ],
          [
            140.23153934236672,
            37.62382411828043,
            941.2
          ],
          [
            140.23144499219225,
            37.623873978796176,
            940.1
          ],
          [
            140.2313507371126,
            37.62392395080353,
            940.0
          ],
          [
            140.23125762603865,
            37.62397526407276,
            938.9
          ],
          [
            140.23116451496475,
            37.62402657734199,
            938.4
          ],
          [
            140.23107146412005,
            37.62407795973746,
            937.7
          ],
          [
            140.23098117226314,
            37.62413203450154,
            937.5
          ],
          [
            140.23090649591873,
            37.62419842778716,
            936.3
          ],
          [
            140.23088249698063,
            37.624283968495064,
            936.9
          ],
          [
            140.2308504200024,
            37.62436180354859,
            935.9
          ],
          [
            140.23075159703075,
            37.62439923817074,
            934.7
          ],
          [
            140.23067943257072,
            37.62434220254602,
            933.0
          ],
          [
            140.23068654165965,
            37.62426150589659,
            932.1
          ],
          [
            140.23073566099976,
            37.62418036690553,
            930.8
          ],
          [
            140.23078631310094,
            37.62409977734432,
            931.2
          ],
          [
            140.23083744236706,
            37.62401941631944,
            929.1
          ],
          [
            140.23090329919546,
            37.623946109004436,
            928.1
          ],
          [
            140.23096915602386,
            37.62387280168944,
            927.8
          ],
          [
            140.23103501285226,
            37.62379949437444,
            926.7
          ],
          [
            140.2310923951052,
            37.62372229131413,
            926.3
          ],
          [
            140.23113937913524,
            37.62364030821166,
            925.0
          ],
          [
            140.23118168763546,
            37.62355715750546,
            924.7
          ],
          [
            140.23120205142135,
            37.62346852662237,
            923.1
          ],
          [
            140.23122131324675,
            37.623379804415784,
            922.8
          ],
          [
            140.23122413420523,
            37.62328973579925,
            921.6
          ],
          [
            140.23122419984534,
            37.62319963708509,
            920.6
          ],
          [
            140.23122426548545,
            37.623109538370926,
            919.9
          ],
          [
            140.23122433112556,
            37.623019439656765,
            919.0
          ],
          [
            140.23122439676567,
            37.622929340942605,
            918.2
          ],
          [
            140.23119998354616,
            37.622842755916835,
            917.2
          ],
          [
            140.23116032739222,
            37.62275835885744,
            915.8
          ],
          [
            140.23108315479607,
            37.62270527890982,
            915.0
          ],
          [
            140.23097525773494,
            37.622677846423606,
            913.5
          ],
          [
            140.23086736067384,
            37.622650413937386,
            912.0
          ],
          [
            140.23075759356448,
            37.62263571383547,
            910.7
          ],
          [
            140.23064465222913,
            37.622642625723714,
            909.3
          ],
          [
            140.2305317108938,
            37.622649537611956,
            908.4
          ],
          [
            140.23050917350292,
            37.62265091687603,
            908.1
          ]
        ]
      }
    },
    {
      "type": "Feature",
      "properties": {
        "name": "ポニー",
        "slope_deg": [
          -0.2864765102771396,
          -0.2864765102771396,
          -0.2864765102771396,
          -0.14323915036833912,
          -0.14323915036833912,
          0.0,
          0.2864765102771396,
          0.0,
          0.0,
          -0.2864765102769768,
          -0.8593722436447134,
          -1.8614576304666637,
          -3.005269359689804,
          -3.4336303624504896,
          -4.573921259900764,
          -5.142764557884274,
          -5.000644597558433,
          -6.135733340186889,
          -6.560196400571341,
          -5.994092949108534,
          -5.994092949108534,
          -5.142764557884274,
          -5.142764557884274,
          -5.710593137499643,
          -5.568737077976604,
          -5.568737077976604,
          -5.568737077976604,
          -5.568737077976604
        ],
        "horizontal_dist_map": 263,
        "slope_dist_map": 264,
        "elevation_diff_map": -14.1,
        "avg_slope_deg_map": -3.1,
        "max_slope_deg_map": 0.3
      },
      "geometry": {
        "type": "LineString",
        "coordinates": [
          [
            140.2300135195442,
            37.6224803685661,
            903.0
          ],
          [
            140.2300267439865,
            37.62239088594521,
            903.0
          ],
          [
            140.23003996842885,
            37.622301403324315,
            903.1
          ],
          [
            140.23005319287117,
            37.62221192070343,
            903.2
          ],
          [
            140.2300664173135,
            37.622122438082535,
            903.2
          ],
          [
            140.23007964175582,
            37.62203295546164,
            903.1
          ],
          [
            140.23009301687796,
            37.62194348737441,
            903.2
          ],
          [
            140.23010706423372,
            37.62185408412674,
            903.2
          ],
          [
            140.23012111158948,
            37.62176468087907,
            903.0
          ],
          [
            140.23013515894525,
            37.621675277631404,
            903.1
          ],
          [
            140.230149206301,
            37.62158587438373,
            903.2
          ],
          [
            140.2301611205772,
            37.62149629105982,
            903.4
          ],
          [
            140.23017097928818,
            37.62140653420348,
            903.6
          ],
          [
            140.23018083799914,
            37.62131677734714,
            904.4
          ],
          [
            140.23019069671008,
            37.6212270204908,
            905.3
          ],
          [
            140.23020055542105,
            37.62113726363446,
            905.8
          ],
          [
            140.230210414132,
            37.62104750677812,
            906.8
          ],
          [
            140.23022027284296,
            37.620957749921786,
            908.0
          ],
          [
            140.23023207403756,
            37.620868155406,
            908.8
          ],
          [
            140.23024588436925,
            37.62077872880124,
            910.1
          ],
          [
            140.23025969470098,
            37.62068930219649,
            911.4
          ],
          [
            140.23027350503267,
            37.62059987559173,
            912.2
          ],
          [
            140.23028731536436,
            37.62051044898698,
            913.0
          ],
          [
            140.23030017767775,
            37.62042094200051,
            913.7
          ],
          [
            140.23031037699323,
            37.62033120922057,
            915.0
          ],
          [
            140.23032057630869,
            37.62024147644064,
            916.2
          ],
          [
            140.23033077562414,
            37.620151743660706,
            916.9
          ],
          [
            140.2303343048854,
            37.62012069349632,
            917.1
          ]
        ]
      }
    },
    {
      "type": "Feature",
      "properties": {
        "name": "ぬまぱーく_JIBりの森エリア",
        "slope_deg": [
          15.2429977429017,
          15.2429977429017,
          15.2429977429017,
          13.360218444764483,
          11.309932474020215,
          10.065169352759717,
          9.508771958297752,
          9.369385096487514,
          9.22988624372772,
          10.065169352759877,
          9.926245506651705,
          9.090276920822289,
          8.530765609948133,
          5.994092949108534,
          4.289153328819018,
          2.862405226111748,
          3.4336303624504896,
          3.4336303624504896,
          3.4336303624504896,
          3.4336303624504896
        ],
        "horizontal_dist_map": 180,
        "slope_dist_map": 183,
        "elevation_diff_map": 29.6,
        "avg_slope_deg_map": 9.2,
        "max_slope_deg_map": 15.2
      },
      "geometry": {
        "type": "LineString",
        "coordinates": [
          [
            140.2310614549233,
            37.623688843911964,
            924.7
          ],
          [
            140.23096191404088,
            37.62364584013847,
            921.1
          ],
          [
            140.23086237315846,
            37.623602836364974,
            918.0
          ],
          [
            140.23076283227607,
            37.62355983259148,
            915.8
          ],
          [
            140.23066329139365,
            37.62351682881799,
            913.8
          ],
          [
            140.23056375051124,
            37.6234738250445,
            911.6
          ],
          [
            140.23046420962882,
            37.623430821271,
            910.0
          ],
          [
            140.23036456854433,
            37.62338797046907,
            908.7
          ],
          [
            140.23026322885178,
            37.62334771281338,
            907.1
          ],
          [
            140.23016188915926,
            37.62330745515769,
            905.0
          ],
          [
            140.2300605494667,
            37.623267197502,
            903.5
          ],
          [
            140.2299592097742,
            37.62322693984632,
            901.6
          ],
          [
            140.2298575098716,
            37.62318733016182,
            900.1
          ],
          [
            140.22975187791252,
            37.623154793737434,
            898.6
          ],
          [
            140.22964624595343,
            37.62312225731304,
            897.5
          ],
          [
            140.22954061399435,
            37.62308972088865,
            897.4
          ],
          [
            140.22943498203526,
            37.623057184464265,
            897.1
          ],
          [
            140.22932398609092,
            37.623040248131844,
            896.6
          ],
          [
            140.22921223889117,
            37.62302549667746,
            895.1
          ],
          [
            140.22920655335236,
            37.62302474614441,
            895.1
          ]
        ]
      }
    }
  ]
}