{
  "type": "FeatureCollection",
  "features": [
    {
      "type": "Feature",
      "properties": {
        "name": "すぎのき",
        "slope_deg": [
          5.568737077976604,
          5.568737077976604,
          5.568737077976604,
          4.716221234338296,
          5.2848210925090795,
          5.426812498572835,
          6.1357333401868095,
          7.406912128495215,
          7.68844776990284,
          9.369385096487514,
          9.22988624372772,
          10.619655276155134,
          12.13388017063338,
          13.631094443421526,
          17.614643300007028,
          18.64953875405141,
          19.290046219188735,
          20.430362329285547,
          19.417554141579483,
          19.03443435483521,
          17.092662950267425,
          15.37625124882619,
          13.90135076950909,
          12.270720357815309,
          12.816647648997467,
          12.270720357815309,
          12.543973346572155,
          12.543973346572077,
          13.224551192213497,
          13.088732789694076,
          11.996899307923577,
          12.40741852740076,
          11.859779120948026,
          11.309932474020215,
          12.407418527400683,
          12.13388017063338,
          12.543973346572077,
          12.68038349181982,
          12.13388017063338,
          12.13388017063338,
          12.13388017063338,
          12.13388017063338
        ],
        "horizontal_dist_map": 407,
        "slope_dist_map": 418,
        "elevation_diff_map": 88.1,
        "avg_slope_deg_map": 11.9,
        "max_slope_deg_map": 20.4
      },
      "geometry": {
        "type": "LineString",
        "coordinates": [
          [
            138.5632975373376,
            36.999514980653515,
            487.7
          ],
          [
            138.5632571656905,
            36.99943089164535,
            486.5
          ],
          [
            138.56321679404337,
            36.9993468026372,
            485.6
          ],
          [
            138.56317642239628,
            36.99926271362904,
            484.8
          ],
          [
            138.56313088301468,
            36.999180396014594,
            483.8
          ],
          [
            138.5630830161196,
            36.99909887622421,
            483.2
          ],
          [
            138.5630351492245,
            36.99901735643382,
            481.9
          ],
          [
            138.56299197191078,
            36.99893424249889,
            481.0
          ],
          [
            138.56295222877299,
            36.99884996117345,
            479.5
          ],
          [
            138.56291248563522,
            36.998765679848,
            478.0
          ],
          [
            138.56287431704092,
            36.99868094564714,
            476.5
          ],
          [
            138.56283822719533,
            36.99859561354968,
            474.4
          ],
          [
            138.56282561223944,
            36.99850744521376,
            473.0
          ],
          [
            138.5628374856149,
            36.99841855057084,
            470.5
          ],
          [
            138.56287128207669,
            36.99833261644588,
            467.9
          ],
          [
            138.56290745450687,
            36.998247334469355,
            464.7
          ],
          [
            138.562946381944,
            36.99816280867859,
            460.3
          ],
          [
            138.5629853093811,
            36.998078282887825,
            457.0
          ],
          [
            138.56302729638838,
            36.997994978575214,
            453.9
          ],
          [
            138.5630879026122,
            36.997919107648556,
            449.8
          ],
          [
            138.56314850883604,
            36.9978432367219,
            446.2
          ],
          [
            138.56320911505986,
            36.99776736579524,
            443.2
          ],
          [
            138.5632697212837,
            36.99769149486858,
            441.6
          ],
          [
            138.56333032750751,
            36.997615623941925,
            438.8
          ],
          [
            138.56338999671192,
            36.99753927884464,
            436.3
          ],
          [
            138.56344929501185,
            36.99746274605435,
            434.5
          ],
          [
            138.5635085933118,
            36.997386213264065,
            432.5
          ],
          [
            138.56356789161177,
            36.99730968047378,
            430.1
          ],
          [
            138.56362718991173,
            36.997233147683495,
            427.4
          ],
          [
            138.56368927418663,
            36.99715819365111,
            425.6
          ],
          [
            138.56375939316735,
            36.99708779273051,
            423.1
          ],
          [
            138.56382951214806,
            36.99701739180992,
            420.8
          ],
          [
            138.5638996311288,
            36.99694699088932,
            418.9
          ],
          [
            138.56396975010952,
            36.99687658996872,
            416.8
          ],
          [
            138.5640356535403,
            36.99680366961601,
            414.7
          ],
          [
            138.56409970547324,
            36.99672964271181,
            412.8
          ],
          [
            138.5641637574062,
            36.99665561580762,
            410.1
          ],
          [
            138.56422823350957,
            36.996581837767394,
            408.2
          ],
          [
            138.56429678267966,
            36.99651044942604,
            405.8
          ],
          [
            138.56436533184976,
            36.99643906108469,
            403.8
          ],
          [
            138.56443388101988,
            36.99636767274335,
            401.5
          ],
          [
            138.56448639639925,
            36.99631298228067,
            399.6
          ]
        ]
      }
    },
    {
      "type": "Feature",
      "properties": {
        "name": "かもしか",
        "slope_deg": [
          10.619655276155134,
          10.619655276155134,
          10.619655276155134,
          8.530765609948133,
          8.250387228905435,
          7.547725773843047,
          8.670801453590993,
          6.560196400571341,
          4.289153328819018,
          4.716221234338378,
          3.4336303624504896,
          4.716221234338378,
          4.289153328819018,
          4.146688825965976,
          3.718993973158075,
          3.576334374997351,
          4.7162212343382155,
          4.0041729407093225,
          4.716221234338378,
          4.7162212343382155,
          4.289153328819018,
          3.4336303624504896,
          3.290883686067228,
          2.719505461272472,
          2.576571830268928,
          3.0052693596899664,
          4.431564716435877,
          6.135733340186889,
          5.9940929491083725,
          6.277298489597523,
          5.568737077976604,
          4.289153328819018,
          4.858462919034416,
          4.289153328819018,
          6.135733340186728,
          4.858462919034255,
          5.4268124985727555,
          5.994092949108534,
          3.576334374997351,
          5.9940929491083725,
          6.135733340186728,
          5.568737077976604,
          5.710593137499643,
          4.716221234338378,
          5.000644597558433,
          6.842773412631036,
          6.560196400571341,
          5.284821092508918,
          3.576334374997351,
          2.2906100426383995,
          2.004534032105872,
          3.0052693596899664,
          4.004172940709484,
          4.716221234338378,
          5.142764557884274,
          5.000644597558433,
          5.142764557884274,
          7.68844776990284,
          6.560196400571341,
          6.418786730238786,
          4.858462919034255,
          5.142764557884274,
          4.858462919034255,
          5.710593137499643,
          7.125016348901798,
          3.290883686067228,
          3.718993973158075,
          3.718993973158075,
          3.718993973158075,
          2.719505461272472,
          5.000644597558433,
          5.994092949108534,
          4.573921259900764,
          6.98393746008542,
          5.000644597558433,
          2.4336061007200236,
          2.719505461272472,
          0.7161599454704085,
          1.8614576304666637,
          3.0052693596899664,
          3.718993973158075,
          5.710593137499643,
          8.11004782941916,
          9.648045316098093,
          6.701525844729548,
          5.9940929491083725,
          1.5752369256830872,
          -0.4297102894009785,
          3.290883686067228,
          3.8616074096751394,
          6.418786730238786,
          10.619655276155134,
          12.95276451337558,
          4.7162212343382155,
          5.9940929491083725,
          2.433606100720186,
          -1.8614576304668264,
          7.829076510059608,
          3.433630362450652,
          3.7189939731579127,
          5.852378988915653,
          2.147585428298503,
          5.000644597558433,
          4.573921259900927,
          2.719505461272472,
          4.716221234338378,
          5.142764557884112,
          5.000644597558433,
          5.568737077976766,
          10.342657140474548,
          3.8616074096751394,
          2.719505461272472,
          4.431564716435714,
          0.2864765102771396,
          3.8616074096751394,
          5.142764557884274,
          3.148096099562824,
          3.005269359689804,
          4.146688825965976,
          5.2848210925090795,
          3.718993973158075,
          3.576334374997351,
          3.718993973158075,
          2.5765718302687652,
          5.4268124985727555,
          4.289153328819018,
          6.701525844729388,
          6.560196400571341,
          5.710593137499643,
          6.98393746008542,
          3.576334374997351,
          4.858462919034255,
          3.576334374997351,
          1.7183580016553597,
          2.862405226111748,
          2.5765718302687652,
          5.142764557884274,
          4.716221234338378,
          4.858462919034255,
          4.289153328819018,
          3.290883686067228,
          5.4268124985727555,
          5.852378988915653,
          6.418786730238786,
          7.266008446996026,
          4.573921259900927,
          2.862405226111748,
          3.2908836860673905,
          1.7183580016555222,
          5.000644597558433,
          4.858462919034255,
          3.718993973158075,
          4.146688825965976,
          4.0041729407093225,
          5.426812498572917,
          6.418786730238786,
          4.431564716435877,
          4.0041729407093225,
          4.289153328819018,
          4.573921259900764,
          4.573921259900764,
          5.142764557884274,
          4.146688825965976,
          3.4336303624504896,
          3.8616074096751394,
          3.8616074096751394,
          5.142764557884274,
          3.2908836860673905,
          8.250387228905435,
          4.289153328819018,
          3.4336303624504896,
          3.718993973158075,
          0.2864765102771396,
          3.0052693596899664,
          5.2848210925090795,
          5.000644597558433,
          6.842773412630876,
          5.9940929491083725,
          6.277298489597523,
          5.852378988915493,
          3.718993973158075,
          4.289153328819018,
          1.5752369256830057,
          2.8624052261118287,
          5.426812498572835,
          7.547725773843127,
          8.670801453590993,
          6.983937460085259,
          4.431564716435877,
          2.2906100426385625,
          4.716221234338296,
          6.2772984895976025,
          5.000644597558433,
          6.1357333401868095,
          3.576334374997351,
          4.146688825965976,
          5.568737077976604,
          3.718993973157994,
          4.573921259900844,
          6.560196400571341,
          5.568737077976685,
          7.688447769902922,
          4.573921259900844,
          3.005269359689885,
          8.530765609948133,
          7.406912128495215,
          8.39062701325255,
          7.406912128495215,
          4.146688825965976,
          3.290883686067309,
          4.289153328819018,
          5.2848210925090795,
          2.862405226111748,
          5.284821092509,
          7.266008446996026,
          7.829076510059608,
          10.342657140474627,
          10.0651693527598,
          8.250387228905515,
          7.266008446995947,
          5.284821092509,
          2.862405226111748,
          1.5752369256830057,
          1.2889375601869444,
          1.0025738037600465,
          1.0025738037601275,
          1.8614576304667452,
          1.8614576304667452,
          1.8614576304667452,
          1.8614576304667452
        ],
        "horizontal_dist_map": 2286,
        "slope_dist_map": 2305,
        "elevation_diff_map": 194.6,
        "avg_slope_deg_map": 4.8,
        "max_slope_deg_map": 13.0
      },
      "geometry": {
        "type": "LineString",
        "coordinates": [
          [
            138.55901990598534,
            37.00198427259591,
            664.2
          ],
          [
            138.55898693748563,
            37.00189813147447,
            661.2
          ],
          [
            138.55895396898595,
            37.001811990353026,
            658.8
          ],
          [
            138.55890780301672,
            37.001729951028885,
            657.4
          ],
          [
            138.5588581868162,
            37.00164913882286,
            656.7
          ],
          [
            138.5588045657881,
            37.00156996268669,
            655.2
          ],
          [
            138.5587960930589,
            37.001480933707285,
            653.0
          ],
          [
            138.55883612400675,
            37.0013973512528,
            652.1
          ],
          [
            138.55884133577072,
            37.00130898633697,
            650.6
          ],
          [
            138.5587956963684,
            37.00122743027204,
            650.6
          ],
          [
            138.55872781153047,
            37.001155782357706,
            650.0
          ],
          [
            138.55866994376666,
            37.001078576302056,
            648.8
          ],
          [
            138.55865194637119,
            37.00099347646263,
            648.2
          ],
          [
            138.55867643152376,
            37.0009055437159,
            647.3
          ],
          [
            138.55870046187502,
            37.00081752684644,
            647.0
          ],
          [
            138.55872109124292,
            37.00072900859076,
            645.9
          ],
          [
            138.55872243761368,
            37.000639379824435,
            645.6
          ],
          [
            138.5586622235097,
            37.000564855653494,
            644.8
          ],
          [
            138.55857871773796,
            37.000504576374276,
            643.7
          ],
          [
            138.5584899669246,
            37.00044936356015,
            643.1
          ],
          [
            138.5584015320743,
            37.00039382045242,
            642.3
          ],
          [
            138.55831567848378,
            37.000335701821506,
            641.5
          ],
          [
            138.55822741882858,
            37.00028010182629,
            640.7
          ],
          [
            138.55813511760945,
            37.00022873248504,
            640.7
          ],
          [
            138.55804429347108,
            37.000175710510575,
            640.0
          ],
          [
            138.55794376335032,
            37.000139581820086,
            639.6
          ],
          [
            138.55783456552223,
            37.000118405275245,
            638.9
          ],
          [
            138.55772638113515,
            37.0000943184502,
            638.6
          ],
          [
            138.55767956047538,
            37.0000301106822,
            636.9
          ],
          [
            138.55777889060317,
            37.00000538634156,
            635.3
          ],
          [
            138.55789121598667,
            37.000007062698714,
            634.7
          ],
          [
            138.55800355034884,
            37.00000749372505,
            634.2
          ],
          [
            138.5581158923925,
            37.000006859338356,
            633.0
          ],
          [
            138.5582278302668,
            37.000012068388685,
            632.3
          ],
          [
            138.55833844994788,
            37.00002617768046,
            631.3
          ],
          [
            138.55844548062564,
            37.000053561632726,
            631.2
          ],
          [
            138.55855205877629,
            37.00008205436176,
            628.7
          ],
          [
            138.55865877005405,
            37.000110205758425,
            628.9
          ],
          [
            138.55876542306626,
            37.00013844117021,
            627.5
          ],
          [
            138.55887004877255,
            37.00017118416207,
            627.0
          ],
          [
            138.55896893793556,
            37.00021290099071,
            626.2
          ],
          [
            138.55902630673066,
            37.00028769047404,
            624.7
          ],
          [
            138.55906298293297,
            37.00037241674442,
            623.2
          ],
          [
            138.559115350341,
            37.000451591998086,
            623.1
          ],
          [
            138.5591681361193,
            37.00053090637711,
            622.2
          ],
          [
            138.55922233204,
            37.000609833107674,
            621.4
          ],
          [
            138.5592773931215,
            37.00068836240622,
            619.7
          ],
          [
            138.55933902427302,
            37.00076359190176,
            618.3
          ],
          [
            138.55944057519673,
            37.00079525777834,
            617.6
          ],
          [
            138.5595519066489,
            37.00080733695615,
            617.7
          ],
          [
            138.55966331623185,
            37.000818946985675,
            617.2
          ],
          [
            138.5597747258148,
            37.0008305570152,
            616.7
          ],
          [
            138.55988638977766,
            37.00084044150327,
            616.2
          ],
          [
            138.55999794081984,
            37.000845109661064,
            615.6
          ],
          [
            138.56008295216998,
            37.00079834272666,
            614.4
          ],
          [
            138.56006939242855,
            37.00071382068867,
            613.4
          ],
          [
            138.55996982500756,
            37.000674226666,
            612.6
          ],
          [
            138.55986886486485,
            37.000635632444485,
            612.1
          ],
          [
            138.5597809395937,
            37.000580366663556,
            610.8
          ],
          [
            138.55970955726275,
            37.00051100007126,
            608.0
          ],
          [
            138.55963826392465,
            37.00044168917278,
            608.0
          ],
          [
            138.55957432253595,
            37.000367630517225,
            607.6
          ],
          [
            138.55951408228154,
            37.000291571333115,
            607.4
          ],
          [
            138.55944798475807,
            37.00021902687324,
            604.4
          ],
          [
            138.55937432423147,
            37.000151052065654,
            604.6
          ],
          [
            138.559339652646,
            37.00006619520935,
            603.6
          ],
          [
            138.55933144420104,
            36.99997634296109,
            602.4
          ],
          [
            138.5593301784894,
            36.99988624043904,
            602.1
          ],
          [
            138.5593002128688,
            36.999800429812744,
            602.0
          ],
          [
            138.5592275787843,
            36.99973168728188,
            601.0
          ],
          [
            138.55914703902332,
            36.9996693673374,
            599.8
          ],
          [
            138.55906041108608,
            36.99961199343876,
            600.2
          ],
          [
            138.55897399860666,
            36.99955441597526,
            598.5
          ],
          [
            138.55888934813774,
            36.99949517376145,
            596.8
          ],
          [
            138.55880379702504,
            36.9994368352019,
            596.6
          ],
          [
            138.55871310843798,
            36.999383651289094,
            595.3
          ],
          [
            138.5586248315096,
            36.99932804624978,
            595.0
          ],
          [
            138.55854013674065,
            36.99926884498799,
            595.1
          ],
          [
            138.5584469878078,
            36.999219231395784,
            594.7
          ],
          [
            138.55834059346816,
            36.99919389897864,
            594.8
          ],
          [
            138.5582295964464,
            36.99920254966832,
            593.7
          ],
          [
            138.55811952643964,
            36.99922057071259,
            593.0
          ],
          [
            138.55800948137977,
            36.99923869450187,
            592.1
          ],
          [
            138.55789809851294,
            36.99924646577786,
            590.8
          ],
          [
            138.557795039834,
            36.999214408979014,
            588.0
          ],
          [
            138.5577285625805,
            36.999143984031626,
            586.2
          ],
          [
            138.5576794189912,
            36.999063001875875,
            587.4
          ],
          [
            138.5576332694669,
            36.998980851975304,
            586.6
          ],
          [
            138.55758990769667,
            36.99889799301458,
            586.9
          ],
          [
            138.55748290178317,
            36.99888032003572,
            586.5
          ],
          [
            138.55737098239982,
            36.99887261350874,
            585.1
          ],
          [
            138.55725925383823,
            36.99886320101069,
            583.9
          ],
          [
            138.55714699757786,
            36.99886121954899,
            582.4
          ],
          [
            138.55703644674475,
            36.99884761766608,
            579.0
          ],
          [
            138.5569314482339,
            36.998816112910475,
            575.9
          ],
          [
            138.55686486750218,
            36.99874992479839,
            580.6
          ],
          [
            138.55687158209918,
            36.99866193459679,
            578.2
          ],
          [
            138.5569237336996,
            36.99858224740638,
            577.3
          ],
          [
            138.55697865859818,
            36.998503797548054,
            577.2
          ],
          [
            138.55701521270404,
            36.99842038529784,
            575.1
          ],
          [
            138.55699161118486,
            36.998333897518094,
            575.8
          ],
          [
            138.55693614553954,
            36.99825623899951,
            574.7
          ],
          [
            138.55686872744934,
            36.998184587340084,
            573.1
          ],
          [
            138.55681303294605,
            36.998106331857194,
            573.6
          ],
          [
            138.5567460630971,
            36.99803459016636,
            572.3
          ],
          [
            138.55665949536728,
            36.997978599330544,
            571.5
          ],
          [
            138.55655116491124,
            36.99795892640539,
            571.2
          ],
          [
            138.55643899436564,
            36.99795715424798,
            570.3
          ],
          [
            138.5563282886009,
            36.99794371003708,
            568.7
          ],
          [
            138.55622774559245,
            36.99790361590932,
            568.0
          ],
          [
            138.55612647936135,
            36.99786477003254,
            567.3
          ],
          [
            138.55605289399094,
            36.99779891410924,
            563.0
          ],
          [
            138.55597824603313,
            36.99773268150179,
            566.0
          ],
          [
            138.55587718182096,
            36.99769429898797,
            566.1
          ],
          [
            138.55577267570948,
            36.99766126823355,
            564.2
          ],
          [
            138.55567573918157,
            36.99761854534544,
            562.8
          ],
          [
            138.55562838517528,
            36.997539073269984,
            563.3
          ],
          [
            138.55562554074868,
            36.99744899387998,
            562.5
          ],
          [
            138.55561155211117,
            36.997359621073265,
            562.0
          ],
          [
            138.5555846148869,
            36.99727237372706,
            560.7
          ],
          [
            138.5555358543946,
            36.99719125625257,
            560.4
          ],
          [
            138.55546285981262,
            36.99712435413557,
            558.8
          ],
          [
            138.55537363087126,
            36.997070438294394,
            559.4
          ],
          [
            138.55527550096252,
            36.99702657213651,
            558.2
          ],
          [
            138.55517797090005,
            36.996981865346775,
            557.8
          ],
          [
            138.5550811092072,
            36.99693622189572,
            557.0
          ],
          [
            138.55498784632928,
            36.99688626608975,
            555.6
          ],
          [
            138.55489831753505,
            36.99683183584025,
            555.2
          ],
          [
            138.55481176333535,
            36.99677457605448,
            553.1
          ],
          [
            138.55472975699527,
            36.99671299018876,
            552.4
          ],
          [
            138.5546488790268,
            36.996650458008084,
            551.6
          ],
          [
            138.55456887931646,
            36.99658724552373,
            550.3
          ],
          [
            138.55450417164005,
            36.99651358652912,
            550.6
          ],
          [
            138.55443903929805,
            36.99644017053749,
            549.0
          ],
          [
            138.55436406864018,
            36.996374871997304,
            549.1
          ],
          [
            138.55427069885334,
            36.99632484653868,
            549.1
          ],
          [
            138.55418245922957,
            36.99626907896248,
            548.6
          ],
          [
            138.55409455112414,
            36.99621297574006,
            547.2
          ],
          [
            138.55400116309,
            36.99616324816622,
            545.5
          ],
          [
            138.55390366900582,
            36.99611850582853,
            545.8
          ],
          [
            138.55380614843483,
            36.99607400570825,
            545.2
          ],
          [
            138.55372475663026,
            36.99601234058846,
            544.2
          ],
          [
            138.55377266634537,
            36.99595335589597,
            543.2
          ],
          [
            138.553877571558,
            36.99598475959199,
            542.0
          ],
          [
            138.5539799359908,
            36.99602163024846,
            541.1
          ],
          [
            138.554075653063,
            36.996068640395734,
            539.7
          ],
          [
            138.55418023499269,
            36.996101543444894,
            538.1
          ],
          [
            138.5542848169224,
            36.996134446494054,
            538.8
          ],
          [
            138.55438022098258,
            36.99618002867399,
            539.1
          ],
          [
            138.5544676931272,
            36.99623656871238,
            537.4
          ],
          [
            138.55455516527184,
            36.996293108750784,
            536.9
          ],
          [
            138.55464812023948,
            36.99634359568253,
            535.3
          ],
          [
            138.5547421917549,
            36.996392849931276,
            535.7
          ],
          [
            138.55483767197418,
            36.9964402806217,
            534.8
          ],
          [
            138.5549345366263,
            36.99648591917243,
            534.0
          ],
          [
            138.55503314995715,
            36.99652902891428,
            532.5
          ],
          [
            138.55513270690244,
            36.99657077407129,
            531.9
          ],
          [
            138.55523767780087,
            36.99660278605066,
            530.3
          ],
          [
            138.5553429105549,
            36.996634327267365,
            530.9
          ],
          [
            138.55545224130907,
            36.99665395459888,
            529.7
          ],
          [
            138.55556275037677,
            36.996670156285724,
            528.9
          ],
          [
            138.55567383124742,
            36.99668355887848,
            527.1
          ],
          [
            138.5557849592321,
            36.996696757147916,
            527.7
          ],
          [
            138.55589589305245,
            36.99671087715616,
            526.1
          ],
          [
            138.55600606586702,
            36.99672849103685,
            526.0
          ],
          [
            138.55611017593267,
            36.99676157681013,
            524.7
          ],
          [
            138.5562129550185,
            36.996797952607444,
            525.0
          ],
          [
            138.55631564075244,
            36.99683449842527,
            523.4
          ],
          [
            138.55641605513208,
            36.996874759649906,
            522.4
          ],
          [
            138.5565149530623,
            36.996917501432705,
            522.4
          ],
          [
            138.55661333589458,
            36.99696099358824,
            519.2
          ],
          [
            138.55671124274537,
            36.997005179133325,
            520.4
          ],
          [
            138.55680967823318,
            36.9970485947442,
            520.0
          ],
          [
            138.55690857768732,
            36.99709133461059,
            519.8
          ],
          [
            138.55700752808073,
            36.99713399803959,
            519.0
          ],
          [
            138.55710679149436,
            36.99717619176309,
            518.3
          ],
          [
            138.55720681615253,
            36.997216882982535,
            516.3
          ],
          [
            138.5573146356609,
            36.99724218913976,
            516.3
          ],
          [
            138.55742245516927,
            36.99726749529699,
            514.2
          ],
          [
            138.5575298932859,
            36.99729382146244,
            514.1
          ],
          [
            138.55764032981398,
            36.997307327066416,
            511.9
          ],
          [
            138.5577520596689,
            36.99731659677812,
            512.2
          ],
          [
            138.557863689552,
            36.99732671848822,
            511.6
          ],
          [
            138.55797374242576,
            36.99734303537297,
            511.1
          ],
          [
            138.55806429264746,
            36.997394057373214,
            510.8
          ],
          [
            138.55810664952142,
            36.99747508681115,
            510.2
          ],
          [
            138.5581490113017,
            36.997557172653885,
            507.8
          ],
          [
            138.55825255342535,
            36.997582613931016,
            505.8
          ],
          [
            138.55835442588875,
            36.99754475415043,
            504.7
          ],
          [
            138.55845596064614,
            36.99750675232615,
            505.3
          ],
          [
            138.55856569521757,
            36.99749021244851,
            504.7
          ],
          [
            138.5586684586503,
            36.99752133129503,
            504.2
          ],
          [
            138.55875979373548,
            36.99757363462725,
            501.4
          ],
          [
            138.5588671391996,
            36.99758121998401,
            500.9
          ],
          [
            138.5589744450218,
            36.997554647123835,
            501.2
          ],
          [
            138.55908446754577,
            36.99753711038765,
            499.9
          ],
          [
            138.55919618998354,
            36.99753957923959,
            498.9
          ],
          [
            138.55930422333458,
            36.99756335376629,
            498.0
          ],
          [
            138.55941098764714,
            36.997587898341806,
            497.3
          ],
          [
            138.55952317607495,
            36.99759228917623,
            497.3
          ],
          [
            138.55963486053435,
            36.99760201891597,
            495.7
          ],
          [
            138.55974654499374,
            36.99761174865571,
            493.4
          ],
          [
            138.5598548037253,
            36.997634736586754,
            493.4
          ],
          [
            138.55996210994093,
            36.9976614109282,
            491.9
          ],
          [
            138.5600587864602,
            36.99770529113391,
            492.5
          ],
          [
            138.56015024452628,
            36.99775761824103,
            491.3
          ],
          [
            138.56021782135957,
            36.99782890681522,
            487.4
          ],
          [
            138.5602824178636,
            36.9979025911304,
            486.7
          ],
          [
            138.5603642018851,
            36.99796436797959,
            486.6
          ],
          [
            138.5604599197659,
            36.99801069155335,
            486.1
          ],
          [
            138.56055897996166,
            36.99805316966256,
            484.5
          ],
          [
            138.560660158999,
            36.99809232873057,
            484.4
          ],
          [
            138.560766563442,
            36.998120195575815,
            483.6
          ],
          [
            138.56087493432474,
            36.99814392741062,
            482.4
          ],
          [
            138.5609828234338,
            36.99816904555921,
            482.5
          ],
          [
            138.5610943250588,
            36.99817535912313,
            480.7
          ],
          [
            138.56110504307975,
            36.99811682119042,
            478.5
          ],
          [
            138.561026540243,
            36.99805236382684,
            476.9
          ],
          [
            138.56095770113464,
            36.99798132409182,
            475.2
          ],
          [
            138.56088425963728,
            36.9979133910381,
            473.6
          ],
          [
            138.560806239616,
            36.9978485577854,
            472.7
          ],
          [
            138.56074259656188,
            36.997774655344955,
            471.8
          ],
          [
            138.5606824320446,
            36.99769855859583,
            471.5
          ],
          [
            138.5606187764426,
            36.997624314616154,
            471.6
          ],
          [
            138.5605549858154,
            36.9975501422963,
            471.6
          ],
          [
            138.56049994928162,
            36.99747326100697,
            470.9
          ],
          [
            138.5604851016539,
            36.99738394319047,
            470.8
          ],
          [
            138.5604702540262,
            36.99729462537398,
            470.9
          ],
          [
            138.56043330742662,
            36.997210524118614,
            470.3
          ],
          [
            138.56040434973588,
            36.99716117142992,
            469.6
          ]
        ]
      }
    },
    {
      "type": "Feature",
      "properties": {
        "name": "おおわし",
        "slope_deg": [
          17.61464330000695,
          17.61464330000695,
          17.61464330000695,
          14.97598451475675,
          16.830565983210626,
          17.35402463626132,
          16.567741642975037,
          20.17838007450879,
          20.681521678200784,
          24.346751854704948,
          24.346751854704813,
          22.660536301999226,
          25.056088833535423,
          23.629377730656817,
          25.173524524530244,
          25.98923358383301,
          25.98923358383301,
          25.173524524530112,
          24.702430227771284,
          26.220246235243597,
          24.702430227771284,
          25.290734392148174,
          27.021581591177014,
          24.93842765545725,
          25.173524524530244,
          24.22774531795417,
          23.388482428994987,
          23.869390064732,
          24.346751854704813,
          25.7573092118078,
          23.869390064732,
          25.173524524530244,
          22.78240573048177,
          23.26770481005694,
          25.17352452453018,
          21.305783617828727,
          21.43000730175237,
          18.64953875405141,
          18.39196625070541,
          19.925580658184323,
          19.290046219188735,
          21.677820852504393,
          19.162339354971866,
          19.162339354971866,
          19.162339354971866,
          19.162339354971866
        ],
        "horizontal_dist_map": 446,
        "slope_dist_map": 485,
        "elevation_diff_map": 183.1,
        "avg_slope_deg_map": 20.7,
        "max_slope_deg_map": 27.0
      },
      "geometry": {
        "type": "LineString",
        "coordinates": [
          [
            138.55808558125005,
            37.00070615584579,
            654.9
          ],
          [
            138.55813522401118,
            37.0006253218924,
            650.7
          ],
          [
            138.5581848667723,
            37.000544487939,
            648.4
          ],
          [
            138.55823450953346,
            37.00046365398561,
            646.0
          ],
          [
            138.5582841522946,
            37.000382820032215,
            642.2
          ],
          [
            138.55833379505572,
            37.000301986078824,
            640.0
          ],
          [
            138.55838324449778,
            37.000221080640394,
            636.3
          ],
          [
            138.55842764753643,
            37.00013830915589,
            633.5
          ],
          [
            138.5584720505751,
            37.0000555376714,
            630.3
          ],
          [
            138.55851645361375,
            36.99997276618691,
            625.3
          ],
          [
            138.5585608566524,
            36.99988999470241,
            621.2
          ],
          [
            138.55860509095837,
            36.999807166186955,
            615.4
          ],
          [
            138.55864794830887,
            36.99972387226617,
            612.2
          ],
          [
            138.55869080565938,
            36.99964057834539,
            608.6
          ],
          [
            138.5587336630099,
            36.99955728442462,
            602.5
          ],
          [
            138.55877805084359,
            36.99947451133149,
            597.9
          ],
          [
            138.55882294211966,
            36.9993919095612,
            593.4
          ],
          [
            138.55886783339574,
            36.99930930779091,
            589.1
          ],
          [
            138.55891447882766,
            36.99922736195472,
            583.0
          ],
          [
            138.55896449477,
            36.9991466764585,
            579.1
          ],
          [
            138.55901451071236,
            36.999065990962286,
            575.0
          ],
          [
            138.55906438882542,
            36.9989852536314,
            569.4
          ],
          [
            138.55910973634005,
            36.998902812438494,
            564.6
          ],
          [
            138.5591550838547,
            36.99882037124559,
            560.2
          ],
          [
            138.55919821466046,
            36.99873717576825,
            554.6
          ],
          [
            138.55924061126285,
            36.99865373046191,
            550.8
          ],
          [
            138.55928300786525,
            36.998570285155566,
            545.8
          ],
          [
            138.559316692582,
            36.99848446798333,
            542.2
          ],
          [
            138.55934638697386,
            36.99839756441994,
            537.3
          ],
          [
            138.55936120431883,
            36.998309055283244,
            533.1
          ],
          [
            138.55936120431883,
            36.99821894701646,
            527.7
          ],
          [
            138.55936120431883,
            36.99812883874968,
            522.9
          ],
          [
            138.55935452912755,
            36.9980389602198,
            519.6
          ],
          [
            138.5593449058532,
            36.997949183152706,
            514.3
          ],
          [
            138.5593352825789,
            36.9978594060856,
            510.9
          ],
          [
            138.5593256593046,
            36.99776962901851,
            505.7
          ],
          [
            138.55931603603028,
            36.9976798519514,
            500.8
          ],
          [
            138.55930641275597,
            36.99759007488431,
            498.7
          ],
          [
            138.55931388842134,
            36.99750106236828,
            495.2
          ],
          [
            138.55933589244472,
            36.997412699463986,
            492.2
          ],
          [
            138.5593578964681,
            36.99732433655969,
            487.5
          ],
          [
            138.55941265637438,
            36.99724725286533,
            484.2
          ],
          [
            138.55947951707088,
            36.99717547277022,
            481.2
          ],
          [
            138.55957652042147,
            36.99713002300616,
            476.3
          ],
          [
            138.55967352377206,
            36.997084573242084,
            473.6
          ],
          [
            138.55974124050798,
            36.997052845372345,
            471.8
          ]
        ]
      }
    },
    {
      "type": "Feature",
      "properties": {
        "name": "くまのす",
        "slope_deg": [
          15.907551930525813,
          15.907551930525813,
          15.907551930525813,
          20.806791012711287,
          23.749494492866788,
          25.290734392148174,
          23.869390064732,
          24.22774531795417,
          25.524475356294268,
          25.407718108948472,
          25.173524524530244,
          25.290734392148174,
          24.346751854704948,
          24.58409469543802,
          24.346751854704948,
          23.869390064732137,
          25.641005824305335,
          23.989064009552337,
          25.75730921180767,
          24.820541335489082,
          22.416147479343643,
          22.904057803636878,
          23.26770481005701,
          21.80140948635181,
          22.538450040828117,
          22.17089563383452,
          19.034434354835135,
          20.430362329285547,
          20.931852540892464,
          20.052082146098424,
          20.430362329285547,
          20.931852540892464,
          21.181349500266236,
          22.538450040828117,
          24.1085158999753,
          22.538450040828117,
          22.293629159694053,
          20.30447370996045,
          19.671969989200644,
          19.925580658184323,
          18.64953875405141,
          19.290046219188735,
          17.223436191131434,
          17.223436191131434,
          15.907551930525889,
          14.170977562933123,
          12.40741852740076,
          9.50877195829791,
          8.250387228905515,
          7.266008446995947,
          6.983937460085259,
          6.701525844729468,
          6.277298489597523,
          7.266008446996026,
          10.065169352759877,
          14.57421619803871,
          16.69924423399362,
          18.77803322244557,
          17.74467162505695,
          18.133621430820412,
          18.520849477471074,
          17.35402463626132,
          19.798876354524904,
          18.39196625070541,
          17.6146433000071,
          18.39196625070533,
          15.774985955414085,
          14.30555184662194,
          12.952764513375502,
          11.447596263685636,
          10.619655276155134,
          9.648045316098171,
          9.926245506651705,
          8.250387228905515,
          8.670801453590913,
          7.829076510059608,
          7.829076510059608,
          7.969610394321312,
          8.11004782941916,
          8.11004782941908,
          7.68844776990284,
          7.547725773843127,
          6.983937460085259,
          8.530765609948133,
          9.78720366465616,
          10.203973721731668,
          10.203973721731668,
          10.203973721731668,
          10.203973721731668
        ],
        "horizontal_dist_map": 879,
        "slope_dist_map": 926,
        "elevation_diff_map": 266.5,
        "avg_slope_deg_map": 16.1,
        "max_slope_deg_map": 25.8
      },
      "geometry": {
        "type": "LineString",
        "coordinates": [
          [
            138.5596285790307,
            37.002144919829405,
            663.3
          ],
          [
            138.55972203235467,
            37.00209490604859,
            662.1
          ],
          [
            138.55981548567863,
            37.002044892267776,
            660.9
          ],
          [
            138.5599089390026,
            37.00199487848696,
            657.0
          ],
          [
            138.56000239232657,
            37.00194486470615,
            651.9
          ],
          [
            138.56009584565055,
            37.00189485092533,
            646.9
          ],
          [
            138.56018929897454,
            37.00184483714451,
            643.3
          ],
          [
            138.5602827522985,
            37.001794823363696,
            638.1
          ],
          [
            138.56037620562248,
            37.00174480958288,
            634.2
          ],
          [
            138.56046965894643,
            37.00169479580207,
            628.9
          ],
          [
            138.56056100201252,
            37.001642344014705,
            624.2
          ],
          [
            138.56065210564984,
            37.00158961561235,
            619.1
          ],
          [
            138.56074320928712,
            37.00153688721001,
            615.4
          ],
          [
            138.5608343129244,
            37.00148415880766,
            610.0
          ],
          [
            138.56092541656173,
            37.00143143040532,
            606.1
          ],
          [
            138.56101652019902,
            37.001378702002974,
            600.8
          ],
          [
            138.56110403637055,
            37.00132221076499,
            597.3
          ],
          [
            138.56119136518754,
            37.00126552301381,
            592.3
          ],
          [
            138.56127869400453,
            37.001208835262624,
            586.9
          ],
          [
            138.5613660228215,
            37.001152147511434,
            583.0
          ],
          [
            138.56145335163848,
            37.00109545976025,
            578.0
          ],
          [
            138.56154068045547,
            37.00103877200906,
            573.8
          ],
          [
            138.56162800927243,
            37.00098208425788,
            570.4
          ],
          [
            138.5617153380894,
            37.000925396506695,
            566.1
          ],
          [
            138.5618026669064,
            37.000868708755505,
            560.8
          ],
          [
            138.56188999572336,
            37.00081202100432,
            557.8
          ],
          [
            138.56197732454035,
            37.00075533325313,
            553.8
          ],
          [
            138.56206465335734,
            37.00069864550195,
            549.8
          ],
          [
            138.5621519821743,
            37.000641957750766,
            547.0
          ],
          [
            138.56223858324438,
            37.000584620381886,
            542.9
          ],
          [
            138.56231817203638,
            37.00052102355694,
            538.5
          ],
          [
            138.5623977608284,
            37.000457426732,
            535.2
          ],
          [
            138.56247715178318,
            37.0003936717212,
            532.1
          ],
          [
            138.56255624464404,
            37.000329678361716,
            527.6
          ],
          [
            138.5626353375049,
            37.00026568500223,
            523.0
          ],
          [
            138.56271443036576,
            37.00020169164276,
            518.6
          ],
          [
            138.56279352322662,
            37.000137698283275,
            514.2
          ],
          [
            138.56287261608747,
            37.00007370492379,
            511.0
          ],
          [
            138.56295170894833,
            37.00000971156431,
            506.6
          ],
          [
            138.56303363054388,
            36.999948082275324,
            503.8
          ],
          [
            138.56311659077085,
            36.999887321006234,
            499.9
          ],
          [
            138.56319955099784,
            36.99982655973714,
            496.5
          ],
          [
            138.56328251122483,
            36.99976579846804,
            493.1
          ],
          [
            138.5633654714518,
            36.99970503719894,
            489.8
          ],
          [
            138.56344863368892,
            36.99964445553902,
            487.5
          ],
          [
            138.56353246960765,
            36.99958447285593,
            484.1
          ],
          [
            138.56361630552638,
            36.99952449017284,
            481.7
          ],
          [
            138.5637001414451,
            36.999464507489755,
            479.7
          ],
          [
            138.56378397736384,
            36.999404524806664,
            478.7
          ],
          [
            138.56386781328257,
            36.99934454212357,
            477.4
          ],
          [
            138.5639516492013,
            36.99928455944048,
            475.9
          ],
          [
            138.56403548512003,
            36.99922457675739,
            474.6
          ],
          [
            138.56410563046325,
            36.999154392110086,
            473.8
          ],
          [
            138.56417405755212,
            36.99908292705139,
            472.7
          ],
          [
            138.564242484641,
            36.99901146199269,
            471.5
          ],
          [
            138.5643109117299,
            36.998939996933984,
            469.5
          ],
          [
            138.56437565788616,
            36.99886663987699,
            466.7
          ],
          [
            138.56442802437962,
            36.99878691967697,
            462.3
          ],
          [
            138.56448039087311,
            36.99870719947695,
            459.5
          ],
          [
            138.56453275736658,
            36.99862747927692,
            455.9
          ],
          [
            138.56458512386007,
            36.9985477590769,
            453.9
          ],
          [
            138.56463557573218,
            36.99846726238855,
            449.2
          ],
          [
            138.56468458361414,
            36.99838618007973,
            446.1
          ],
          [
            138.56472948880068,
            36.99830382755026,
            443.4
          ],
          [
            138.56476111270433,
            36.998217363051005,
            439.5
          ],
          [
            138.564792736608,
            36.99813089855176,
            435.9
          ],
          [
            138.564819521889,
            36.9980434097706,
            433.4
          ],
          [
            138.56484514665271,
            36.99795567792994,
            430.1
          ],
          [
            138.5648666442036,
            36.99786723484309,
            428.2
          ],
          [
            138.56488814175447,
            36.997778791756254,
            425.7
          ],
          [
            138.56491002045183,
            36.9976904131628,
            424.2
          ],
          [
            138.56493489497018,
            36.99760254148903,
            422.0
          ],
          [
            138.56495976948852,
            36.99751466981526,
            420.7
          ],
          [
            138.56496636701095,
            36.99742480421768,
            418.9
          ],
          [
            138.56496222450133,
            36.997335168335674,
            417.2
          ],
          [
            138.56494593719796,
            36.997246012101286,
            416.2
          ],
          [
            138.56492267226128,
            36.997158279153986,
            414.6
          ],
          [
            138.56488388110475,
            36.99707371322148,
            413.4
          ],
          [
            138.5648450899482,
            36.996989147288986,
            411.7
          ],
          [
            138.56480629879167,
            36.99690458135648,
            410.6
          ],
          [
            138.56476750763514,
            36.996820015423985,
            408.9
          ],
          [
            138.56472037159793,
            36.9967382792138,
            407.7
          ],
          [
            138.56467177356419,
            36.99665703876196,
            406.3
          ],
          [
            138.56462317553047,
            36.99657579831012,
            405.3
          ],
          [
            138.56458803616073,
            36.99649119439916,
            404.0
          ],
          [
            138.56457050447273,
            36.99640219014672,
            401.7
          ],
          [
            138.56456586225005,
            36.99631324300452,
            399.4
          ],
          [
            138.5645846187062,
            36.99622439953648,
            398.1
          ],
          [
            138.5646020865656,
            36.99614165974813,
            396.8
          ]
        ]
      }
    },
    {
      "type": "Feature",
      "properties": {
        "name": "ファミリー",
        "slope_deg": [
          10.342657140474627,
          10.342657140474627,
          10.342657140474627,
          12.13388017063338,
          12.543973346572155,
          12.407418527400683,
          12.543973346572077,
          12.407418527400683,
          11.996899307923577,
          10.065169352759877,
          10.203973721731668,
          8.390627013252628,
          7.829076510059608,
          7.969610394321392,
          8.670801453590993,
          8.95055865623168,
          10.757967088389957,
          11.996899307923577,
          11.585126224855031,
          11.859779120947948,
          12.13388017063338,
          11.7225209701022,
          10.481218144130967,
          9.926245506651705,
          8.39062701325255,
          8.11004782941916,
          8.670801453590913,
          10.203973721731668,
          10.342657140474627,
          10.757967088389957,
          11.309932474020215,
          9.648045316098171,
          9.369385096487514,
          10.065169352759877,
          9.369385096487514,
          9.648045316098171,
          10.619655276155134,
          9.090276920822289,
          9.22988624372772,
          8.530765609948133,
          6.1357333401868095,
          6.1357333401868095,
          6.1357333401868095,
          6.1357333401868095
        ],
        "horizontal_dist_map": 428,
        "slope_dist_map": 435,
        "elevation_diff_map": 73.8,
        "avg_slope_deg_map": 9.6,
        "max_slope_deg_map": 12.5
      },
      "geometry": {
        "type": "LineString",
        "coordinates": [
          [
            138.5598476402842,
            36.99706775424279,
            470.0
          ],
          [
            138.55994148844783,
            36.997018225960524,
            468.5
          ],
          [
            138.5600353366115,
            36.99696869767825,
            467.1
          ],
          [
            138.56012918477512,
            36.99691916939598,
            464.4
          ],
          [
            138.56022303293878,
            36.996869641113705,
            462.7
          ],
          [
            138.5603168811024,
            36.996820112831436,
            459.9
          ],
          [
            138.56041072926607,
            36.99677058454916,
            458.2
          ],
          [
            138.5605045774297,
            36.99672105626689,
            455.6
          ],
          [
            138.56059842559333,
            36.99667152798462,
            453.8
          ],
          [
            138.56069227375698,
            36.99662199970235,
            451.1
          ],
          [
            138.56078612192061,
            36.99657247142008,
            449.7
          ],
          [
            138.56088185018046,
            36.996525434104164,
            448.5
          ],
          [
            138.56098006285168,
            36.99648168842035,
            446.6
          ],
          [
            138.56107827552287,
            36.99643794273654,
            445.2
          ],
          [
            138.5611764881941,
            36.99639419705274,
            444.2
          ],
          [
            138.56127470086528,
            36.996350451368926,
            442.9
          ],
          [
            138.5613729135365,
            36.996306705685114,
            440.5
          ],
          [
            138.56146587401855,
            36.996256134009386,
            438.9
          ],
          [
            138.56155865837218,
            36.996205333428854,
            436.6
          ],
          [
            138.56165144272578,
            36.99615453284832,
            434.4
          ],
          [
            138.5617442270794,
            36.9961037322678,
            432.3
          ],
          [
            138.561841581317,
            36.99605883445275,
            430.5
          ],
          [
            138.56193948561054,
            36.9960146471264,
            428.0
          ],
          [
            138.56203738990405,
            36.99597045980006,
            426.1
          ],
          [
            138.56213529419756,
            36.995926272473724,
            424.9
          ],
          [
            138.5622331984911,
            36.995882085147386,
            423.5
          ],
          [
            138.5623311027846,
            36.99583789782104,
            422.1
          ],
          [
            138.56242967603524,
            36.995794691127195,
            420.4
          ],
          [
            138.56252884707098,
            36.995752360734,
            418.8
          ],
          [
            138.56262801810672,
            36.99571003034081,
            416.3
          ],
          [
            138.56272718914246,
            36.99566769994762,
            414.8
          ],
          [
            138.56282636017824,
            36.995625369554425,
            412.8
          ],
          [
            138.5629250419878,
            36.99558232223005,
            410.8
          ],
          [
            138.56302295184614,
            36.9955381436581,
            409.5
          ],
          [
            138.56312086170445,
            36.99549396508615,
            408.2
          ],
          [
            138.5632187715628,
            36.99544978651419,
            405.7
          ],
          [
            138.5633172667583,
            36.99540650162985,
            404.2
          ],
          [
            138.5634181703403,
            36.995366893848555,
            402.7
          ],
          [
            138.5635190739223,
            36.995327286067266,
            400.7
          ],
          [
            138.5636199775043,
            36.99528767828597,
            399.3
          ],
          [
            138.5637173574512,
            36.9952432447911,
            397.7
          ],
          [
            138.56380978509736,
            36.99519202898635,
            396.7
          ],
          [
            138.5639022127435,
            36.99514081318161,
            396.4
          ],
          [
            138.56398260455396,
            36.99509626664776,
            396.2
          ]
        ]
      }
    },
    {
      "type": "Feature",
      "properties": {
        "name": "しらかば",
        "slope_deg": [
          3.0052693596899664,
          3.0052693596899664,
          3.0052693596899664,
          1.5752369256830872,
          1.4320961841646465,
          0.8593722436447134,
          4.431564716435877,
          7.266008446996026,
          10.757967088390036,
          10.757967088390036,
          13.631094443421603,
          16.039943306049665,
          15.509334522674907,
          17.874511367250282,
          15.907551930525813,
          14.17097756293297,
          15.37625124882619,
          14.708303899682749,
          15.642246457208639,
          16.567741642975037,
          17.484427323220732,
          17.874511367250282,
          18.77803322244557,
          19.162339354971866,
          18.520849477471074,
          17.484427323220732,
          16.039943306049665,
          15.242997742901547,
          14.305551846621862,
          16.43605922463559,
          16.436059224635738,
          18.906332035086663,
          18.39196625070548,
          21.80140948635181,
          19.544862326628685,
          17.61464330000695,
          17.35402463626132,
          13.088732789694154,
          14.170977562933123,
          13.90135076950909,
          14.9759845147566,
          14.57421619803871,
          16.567741642974887,
          15.37625124882619,
          14.036243467926479,
          14.036243467926479,
          14.036243467926479,
          14.036243467926479
        ],
        "horizontal_dist_map": 460,
        "slope_dist_map": 477,
        "elevation_diff_map": 114.5,
        "avg_slope_deg_map": 13.5,
        "max_slope_deg_map": 21.8
      },
      "geometry": {
        "type": "LineString",
        "coordinates": [
          [
            138.55455067275713,
            37.004627121746935,
            800.7
          ],
          [
            138.55446106963475,
            37.00457276071672,
            800.0
          ],
          [
            138.5543714665124,
            37.0045183996865,
            799.6
          ],
          [
            138.55426510447174,
            37.00449244976845,
            798.0
          ],
          [
            138.554155871695,
            37.004471366561006,
            798.6
          ],
          [
            138.55404663891827,
            37.00445028335356,
            798.9
          ],
          [
            138.55394167306014,
            37.0044196092614,
            798.6
          ],
          [
            138.5540313549261,
            37.004373943989684,
            797.4
          ],
          [
            138.5541280339542,
            37.00432803939682,
            795.5
          ],
          [
            138.55423728825423,
            37.00430998456367,
            793.8
          ],
          [
            138.554348197611,
            37.00429559509333,
            791.0
          ],
          [
            138.55445933241364,
            37.00428239394736,
            789.8
          ],
          [
            138.55456215825882,
            37.004258149350385,
            785.8
          ],
          [
            138.55462128980702,
            37.0041828040054,
            782.3
          ],
          [
            138.55465480190657,
            37.004096797724536,
            779.9
          ],
          [
            138.5546883140061,
            37.00401079144367,
            776.9
          ],
          [
            138.55472182610566,
            37.0039247851628,
            774.4
          ],
          [
            138.55475520488605,
            37.00383874759263,
            772.2
          ],
          [
            138.55478479167812,
            37.00375182006299,
            768.9
          ],
          [
            138.55481437847016,
            37.00366489253334,
            766.4
          ],
          [
            138.55484396526222,
            37.003577965003686,
            763.2
          ],
          [
            138.55487355205426,
            37.003491037474035,
            760.3
          ],
          [
            138.55490313884633,
            37.003404109944384,
            756.3
          ],
          [
            138.55493272563837,
            37.00331718241474,
            753.5
          ],
          [
            138.5549585523328,
            37.003229506366296,
            749.6
          ],
          [
            138.55498308155833,
            37.00314157203204,
            746.4
          ],
          [
            138.55500761078386,
            37.00305363769779,
            742.9
          ],
          [
            138.55503214000936,
            37.002965703363536,
            740.9
          ],
          [
            138.5550566692349,
            37.002877769029276,
            738.1
          ],
          [
            138.55509838577873,
            37.002794108034074,
            735.5
          ],
          [
            138.55514017395336,
            37.00271046484867,
            732.7
          ],
          [
            138.55521994252214,
            37.00264878005371,
            729.1
          ],
          [
            138.55530770849128,
            37.002592994757045,
            726.3
          ],
          [
            138.55540777883317,
            37.00255203459059,
            721.8
          ],
          [
            138.55551311773334,
            37.002520872940764,
            719.4
          ],
          [
            138.55562242841503,
            37.002501003987554,
            713.1
          ],
          [
            138.55573289497428,
            37.002484580329664,
            712.1
          ],
          [
            138.55584336153353,
            37.00246815667178,
            709.1
          ],
          [
            138.55594557812933,
            37.002432868350894,
            706.9
          ],
          [
            138.55603137249216,
            37.002374738341025,
            703.8
          ],
          [
            138.5561169637561,
            37.002316369218065,
            702.0
          ],
          [
            138.55619086598418,
            37.00224864439529,
            699.2
          ],
          [
            138.55626346478468,
            37.002179876331866,
            696.2
          ],
          [
            138.55633606358518,
            37.00211110826845,
            693.4
          ],
          [
            138.55643467201833,
            37.002068238615415,
            690.1
          ],
          [
            138.55653390793543,
            37.0020259937631,
            688.2
          ],
          [
            138.55663314385254,
            37.00198374891078,
            686.2
          ],
          [
            138.55664039994474,
            37.00198065998338,
            686.2
          ]
        ]
      }
    },
    {
      "type": "Feature",
      "properties": {
        "name": "いがぐり",
        "slope_deg": [
          17.35402463626132,
          17.35402463626132,
          17.35402463626132,
          18.39196625070533,
          18.39196625070548,
          18.906332035086518,
          19.417554141579338,
          18.520849477471074,
          18.26288994219404,
          19.798876354524904,
          17.874511367250427,
          16.304198003832376,
          13.901350769509243,
          11.447596263685636,
          11.7225209701022,
          12.952764513375426,
          16.039943306049665,
          18.39196625070548,
          21.554019920478787,
          23.50904022419257,
          23.26770481005687,
          23.989064009552337,
          24.4655351106628,
          22.170895633834377,
          21.554019920478925,
          20.931852540892464,
          18.00416160591338,
          20.30447370996038,
          20.430362329285547,
          18.77803322244557,
          17.223436191131434,
          13.360218444764483,
          12.816647648997467,
          13.495733280795843,
          14.708303899682749,
          16.436059224635738,
          17.744671625056874,
          18.00416160591338,
          18.520849477471074,
          15.774985955414008,
          11.859779120947948,
          8.250387228905435,
          4.858462919034416,
          4.431564716435877,
          4.573921259900927,
          4.289153328819018,
          5.284821092508918,
          6.135733340186728,
          6.135733340186728,
          6.560196400571341,
          6.560196400571341,
          6.560196400571341,
          6.560196400571341
        ],
        "horizontal_dist_map": 513,
        "slope_dist_map": 536,
        "elevation_diff_map": 142.1,
        "avg_slope_deg_map": 14.8,
        "max_slope_deg_map": 24.5
      },
      "geometry": {
        "type": "LineString",
        "coordinates": [
          [
            138.55467776432036,
            37.00460151077631,
            798.3
          ],
          [
            138.55474082831054,
            37.004526936884766,
            794.8
          ],
          [
            138.55480389230075,
            37.00445236299321,
            791.2
          ],
          [
            138.55486695629094,
            37.00437778910167,
            788.8
          ],
          [
            138.55493002028115,
            37.00430321521012,
            785.8
          ],
          [
            138.55499308427133,
            37.004228641318576,
            781.5
          ],
          [
            138.55505614826154,
            37.004154067427024,
            777.9
          ],
          [
            138.55511921225173,
            37.00407949353548,
            775.1
          ],
          [
            138.55518227624194,
            37.00400491964393,
            771.7
          ],
          [
            138.55524534023212,
            37.00393034575239,
            768.1
          ],
          [
            138.5553084042223,
            37.003855771860835,
            764.7
          ],
          [
            138.5553714682125,
            37.00378119796929,
            760.7
          ],
          [
            138.555437123476,
            37.00370808169867,
            758.8
          ],
          [
            138.5555030544828,
            37.00363512053684,
            756.4
          ],
          [
            138.55556898548963,
            37.003562159375015,
            754.8
          ],
          [
            138.55563491649644,
            37.00348919821319,
            752.6
          ],
          [
            138.55570084750326,
            37.00341623705136,
            750.5
          ],
          [
            138.55576499691233,
            37.0033422735833,
            747.2
          ],
          [
            138.55582809817616,
            37.00326772044087,
            743.3
          ],
          [
            138.55589119944,
            37.00319316729843,
            739.3
          ],
          [
            138.55595430070383,
            37.003118614155994,
            734.7
          ],
          [
            138.55601740196764,
            37.003044061013554,
            729.8
          ],
          [
            138.55608050323147,
            37.00296950787112,
            726.1
          ],
          [
            138.5561436044953,
            37.00289495472869,
            721.5
          ],
          [
            138.55620890983224,
            37.00282166044209,
            716.5
          ],
          [
            138.55627610941613,
            37.0027494480542,
            713.5
          ],
          [
            138.556343309,
            37.00267723566631,
            710.3
          ],
          [
            138.5564105085839,
            37.00260502327843,
            706.2
          ],
          [
            138.55647705479186,
            37.00253244881031,
            703.5
          ],
          [
            138.55653750361085,
            37.002456495362374,
            698.7
          ],
          [
            138.55659795242988,
            37.00238054191445,
            695.4
          ],
          [
            138.55665840124888,
            37.00230458846652,
            692.6
          ],
          [
            138.55671885006788,
            37.00222863501859,
            691.1
          ],
          [
            138.5567792988869,
            37.002152681570664,
            689.2
          ],
          [
            138.55683766827707,
            37.00207571439348,
            686.3
          ],
          [
            138.55689390555122,
            37.00199770780186,
            683.0
          ],
          [
            138.55695014282537,
            37.00191970121025,
            680.6
          ],
          [
            138.55700638009955,
            37.00184169461863,
            677.4
          ],
          [
            138.5570626173737,
            37.00176368802701,
            673.5
          ],
          [
            138.55712056299075,
            37.00168653293882,
            670.0
          ],
          [
            138.5571828611924,
            37.00161154734525,
            667.2
          ],
          [
            138.55724515939403,
            37.00153656175168,
            666.1
          ],
          [
            138.55730745759564,
            37.00146157615811,
            665.1
          ],
          [
            138.55736975579728,
            37.001386590564536,
            664.2
          ],
          [
            138.55743205399892,
            37.001311604970965,
            663.8
          ],
          [
            138.55749435220056,
            37.001236619377394,
            663.0
          ],
          [
            138.5575566504022,
            37.00116163378382,
            661.9
          ],
          [
            138.55761894860385,
            37.00108664819025,
            661.2
          ],
          [
            138.55768274728356,
            37.001012485193925,
            660.1
          ],
          [
            138.55774721877302,
            37.000938691047644,
            658.7
          ],
          [
            138.55781169026247,
            37.00086489690136,
            657.6
          ],
          [
            138.55787616175192,
            37.00079110275508,
            656.6
          ],
          [
            138.55790136572745,
            37.00076225425363,
            656.2
          ]
        ]
      }
    },
    {
      "type": "Feature",
      "properties": {
        "name": "まむし",
        "slope_deg": [
          15.642246457208788,
          15.642246457208788,
          15.642246457208788,
          18.77803322244557,
          23.629377730656817,
          28.369046293278608,
          27.81164686964382,
          28.70070495633756,
          26.450345065034167,
          22.416147479343643,
          23.025492008528037,
          20.052082146098567,
          18.00416160591338,
          17.874511367250282,
          13.088732789694,
          11.7225209701022,
          8.670801453590993,
          5.4268124985727555,
          5.4268124985727555,
          4.004172940709484,
          4.573921259900764,
          5.142764557884274,
          4.289153328819018,
          4.0041729407093225,
          4.0041729407093225,
          4.0041729407093225,
          4.0041729407093225
        ],
        "horizontal_dist_map": 254,
        "slope_dist_map": 266,
        "elevation_diff_map": 65.8,
        "avg_slope_deg_map": 13.9,
        "max_slope_deg_map": 28.7
      },
      "geometry": {
        "type": "LineString",
        "coordinates": [
          [
            138.557583847272,
            37.003142397465744,
            724.1
          ],
          [
            138.5575870211375,
            37.00305232523424,
            722.5
          ],
          [
            138.55759019500297,
            37.00296225300275,
            719.8
          ],
          [
            138.55759336886845,
            37.00287218077125,
            717.5
          ],
          [
            138.55759682579628,
            37.00278211920095,
            712.9
          ],
          [
            138.55760419057134,
            37.00269220481499,
            708.9
          ],
          [
            138.5576115553464,
            37.002602290429024,
            702.3
          ],
          [
            138.55761892012143,
            37.002512376043065,
            695.9
          ],
          [
            138.5576215726481,
            37.0024223269156,
            691.8
          ],
          [
            138.55762220980415,
            37.00233222016086,
            687.0
          ],
          [
            138.5576229202602,
            37.002242117064455,
            682.4
          ],
          [
            138.55763621613895,
            37.002152642094934,
            679.4
          ],
          [
            138.55764951201766,
            37.002063167125414,
            674.8
          ],
          [
            138.5576628078964,
            37.00197369215589,
            672.4
          ],
          [
            138.5576786877878,
            37.00188456626906,
            669.4
          ],
          [
            138.55770266928596,
            37.00179653485468,
            666.5
          ],
          [
            138.5577266507841,
            37.00170850344029,
            665.5
          ],
          [
            138.55775314979232,
            37.0016209417808,
            664.1
          ],
          [
            138.55779028639705,
            37.001536466813455,
            663.3
          ],
          [
            138.5578403440951,
            37.00145579739271,
            662.7
          ],
          [
            138.55789101219523,
            37.001375384224524,
            661.7
          ],
          [
            138.5579451285612,
            37.00129641867082,
            661.3
          ],
          [
            138.55799924492712,
            37.001217453117114,
            660.1
          ],
          [
            138.55806615839617,
            37.00114603609281,
            659.1
          ],
          [
            138.55814401448686,
            37.001081073709074,
            658.7
          ],
          [
            138.5582218705775,
            37.001016111325335,
            658.5
          ],
          [
            138.55825758580625,
            37.00098631087717,
            658.3
          ]
        ]
      }
    },
    {
      "type": "Feature",
      "properties": {
        "name": "オリオン",
        "slope_deg": [
          13.088732789694,
          13.088732789694,
          13.088732789694,
          17.484427323220732,
          17.484427323220732,
          18.64953875405141,
          16.567741642974887,
          16.96170588653282,
          19.6719699892005,
          19.544862326628685,
          22.416147479343643,
          23.388482428994987,
          23.26770481005701,
          21.80140948635181,
          18.133621430820412,
          14.9759845147566,
          11.309932474020215,
          9.926245506651705,
          7.406912128495294,
          5.2848210925090795,
          5.142764557884274,
          5.142764557884274,
          8.250387228905435,
          9.926245506651705,
          11.996899307923577,
          13.224551192213497,
          13.766300685466351,
          16.567741642974887,
          17.744671625056874,
          19.798876354525046,
          19.925580658184323,
          21.924785220541203,
          22.04794746356044,
          21.677820852504393,
          23.14670784188283,
          21.554019920478787,
          20.68152167820093,
          20.430362329285547,
          17.35402463626132,
          15.642246457208788,
          15.907551930525813,
          14.57421619803871,
          15.109575122340555,
          14.305551846621862,
          13.495733280795843,
          11.722520970102357,
          9.648045316098093,
          7.406912128495294,
          7.406912128495294,
          7.406912128495294,
          7.406912128495294
        ],
        "horizontal_dist_map": 498,
        "slope_dist_map": 520,
        "elevation_diff_map": 134.9,
        "avg_slope_deg_map": 14.5,
        "max_slope_deg_map": 23.4
      },
      "geometry": {
        "type": "LineString",
        "coordinates": [
          [
            138.55504735051596,
            37.00484518683826,
            798.9
          ],
          [
            138.5551360305021,
            37.00478986044589,
            798.9
          ],
          [
            138.55522471048823,
            37.00473453405352,
            797.1
          ],
          [
            138.5553133904744,
            37.00467920766114,
            794.4
          ],
          [
            138.55540167336937,
            37.004623475146346,
            789.6
          ],
          [
            138.5554898351657,
            37.004567618778644,
            786.3
          ],
          [
            138.55557311310056,
            37.00450753907404,
            784.5
          ],
          [
            138.55564918870797,
            37.00444123113061,
            780.9
          ],
          [
            138.5557252643154,
            37.004374923187186,
            777.7
          ],
          [
            138.55580224125143,
            37.004309294020985,
            774.1
          ],
          [
            138.55587996021285,
            37.00424422366312,
            770.2
          ],
          [
            138.55595767917427,
            37.00417915330526,
            766.7
          ],
          [
            138.55603603289074,
            37.00411459663,
            761.2
          ],
          [
            138.55611785591475,
            37.004052847530446,
            756.8
          ],
          [
            138.55619967893873,
            37.003991098430895,
            753.0
          ],
          [
            138.55628150196273,
            37.003929349331344,
            750.7
          ],
          [
            138.5563677594901,
            37.00387181671134,
            748.1
          ],
          [
            138.55645744054686,
            37.003817539301785,
            746.1
          ],
          [
            138.55654979873276,
            37.003766327975875,
            745.0
          ],
          [
            138.55664405671791,
            37.00371729246715,
            743.7
          ],
          [
            138.55673831470307,
            37.00366825695843,
            742.9
          ],
          [
            138.55683270753303,
            37.003619401585865,
            742.4
          ],
          [
            138.55693097678486,
            37.00357572463855,
            741.4
          ],
          [
            138.55702924603668,
            37.00353204769124,
            740.1
          ],
          [
            138.5571275152885,
            37.00348837074392,
            737.1
          ],
          [
            138.55722578454032,
            37.00344469379661,
            735.4
          ],
          [
            138.55732405379214,
            37.003401016849296,
            732.9
          ],
          [
            138.55742232304397,
            37.00335733990198,
            730.7
          ],
          [
            138.5575183967904,
            37.00331072755314,
            727.3
          ],
          [
            138.5576127090908,
            37.003261760142145,
            723.5
          ],
          [
            138.55770702139114,
            37.003212792731155,
            720.1
          ],
          [
            138.5578013336915,
            37.00316382532016,
            716.3
          ],
          [
            138.55789564599186,
            37.00311485790916,
            712.8
          ],
          [
            138.5579899582922,
            37.00306589049816,
            707.4
          ],
          [
            138.55808427059256,
            37.003016923087166,
            703.9
          ],
          [
            138.55817858289294,
            37.002967955676176,
            700.4
          ],
          [
            138.5582712775499,
            37.00291718254206,
            695.7
          ],
          [
            138.55835923562188,
            37.00286112211103,
            691.6
          ],
          [
            138.55844719369387,
            37.00280506167999,
            688.8
          ],
          [
            138.55853515176585,
            37.00274900124895,
            685.5
          ],
          [
            138.55862310983784,
            37.002692940817916,
            683.2
          ],
          [
            138.55871106790983,
            37.00263688038688,
            680.4
          ],
          [
            138.5587990259818,
            37.002580819955845,
            677.4
          ],
          [
            138.5588878793174,
            37.002525710579064,
            675.1
          ],
          [
            138.55897918480065,
            37.00247320616188,
            672.4
          ],
          [
            138.55907049028386,
            37.0024207017447,
            670.2
          ],
          [
            138.5591617957671,
            37.00236819732752,
            667.8
          ],
          [
            138.55925310125033,
            37.00231569291034,
            666.8
          ],
          [
            138.55934440673357,
            37.00226318849315,
            665.6
          ],
          [
            138.5594357122168,
            37.00221068407597,
            665.0
          ],
          [
            138.5595157927043,
            37.002164634494115,
            664.0
          ]
        ]
      }
    },
    {
      "type": "Feature",
      "properties": {
        "name": "無名_連絡",
        "slope_deg": [
          9.22988624372772,
          9.22988624372772,
          9.22988624372772,
          12.133880170633224,
          10.757967088390036,
          7.688447769903003,
          3.718993973158075,
          -3.4336303624504896,
          -4.7162212343382155,
          -5.852378988915653,
          -4.573921259900764,
          -0.5729386976834533,
          0.5729386976834533,
          2.862405226111748,
          2.862405226111748,
          2.862405226111748,
          2.862405226111748
        ],
        "horizontal_dist_map": 151,
        "slope_dist_map": 153,
        "elevation_diff_map": 7.8,
        "avg_slope_deg_map": 2.9,
        "max_slope_deg_map": 12.1
      },
      "geometry": {
        "type": "LineString",
        "coordinates": [
          [
            138.5589569496595,
            37.002066101863136,
            664.2
          ],
          [
            138.55890243001048,
            37.00198731475674,
            663.8
          ],
          [
            138.55884791036146,
            37.00190852765034,
            662.6
          ],
          [
            138.5587994413553,
            37.00182742525396,
            659.7
          ],
          [
            138.55875815579336,
            37.00174363367689,
            657.7
          ],
          [
            138.55872039529686,
            37.0016587675538,
            655.2
          ],
          [
            138.5586759185525,
            37.00157632843813,
            655.0
          ],
          [
            138.5586142956117,
            37.00150219823418,
            654.3
          ],
          [
            138.55852955088793,
            37.001443040779705,
            655.1
          ],
          [
            138.55844770051422,
            37.00138134879256,
            657.6
          ],
          [
            138.55836851000035,
            37.001318061302534,
            658.3
          ],
          [
            138.55834487338606,
            37.001229969925134,
            658.4
          ],
          [
            138.55833439929722,
            37.0011403338247,
            658.3
          ],
          [
            138.55832557722795,
            37.00105050384713,
            658.0
          ],
          [
            138.55833545258938,
            37.00096096618793,
            657.9
          ],
          [
            138.55834863261558,
            37.00087148019434,
            656.4
          ],
          [
            138.55835123238631,
            37.00085382901028,
            656.4
          ]
        ]
      }
    },
    {
      "type": "Feature",
      "properties": {
        "name": "無名_連結路",
        "slope_deg": [
          3.576334374997351,
          3.576334374997351,
          3.576334374997351,
          5.4268124985727555,
          4.431564716435877,
          3.8616074096749773,
          3.8616074096749773,
          3.8616074096749773,
          3.8616074096749773
        ],
        "horizontal_dist_map": 74,
        "slope_dist_map": 75,
        "elevation_diff_map": 5.9,
        "avg_slope_deg_map": 4.5,
        "max_slope_deg_map": 5.4
      },
      "geometry": {
        "type": "LineString",
        "coordinates": [
          [
            138.5601237104338,
            37.00086686008147,
            615.2
          ],
          [
            138.56016250179852,
            37.00095142648909,
            616.8
          ],
          [
            138.56020129316323,
            37.0010359928967,
            615.2
          ],
          [
            138.5602474967034,
            37.00111812398051,
            613.4
          ],
          [
            138.56031610325738,
            37.00118608560815,
            612.7
          ],
          [
            138.56040642392952,
            37.001239433253836,
            613.0
          ],
          [
            138.56050514934248,
            37.00128243922634,
            612.1
          ],
          [
            138.56060387475543,
            37.00132544519884,
            610.7
          ],
          [
            138.56064800896752,
            37.0013446705903,
            609.3
          ]
        ]
      }
    }
  ]
}