{
  "type": "FeatureCollection",
  "features": [
    {
      "type": "Feature",
      "properties": {
        "name": "パノラマ",
        "slope_deg": [
          2.862405226111748,
          2.862405226111748,
          2.862405226111748,
          7.125016348901798,
          11.309932474020215,
          9.926245506651705,
          11.309932474020215,
          9.926245506651705,
          8.530765609948133,
          12.68038349181982,
          14.036243467926479,
          16.69924423399362,
          16.69924423399362,
          16.69924423399362,
          19.290046219188735,
          18.00416160591338,
          23.025492008528037,
          21.80140948635181,
          18.00416160591338,
          19.290046219188735,
          12.68038349181982,
          14.036243467926479,
          16.69924423399362,
          14.036243467926479,
          12.68038349181982,
          9.926245506651705,
          4.289153328819018,
          5.710593137499643,
          7.125016348901798,
          8.530765609948133,
          14.036243467926479,
          11.309932474020215,
          12.68038349181982,
          12.68038349181982,
          8.530765609948133,
          9.926245506651705,
          9.926245506651705,
          9.926245506651705,
          9.926245506651705,
          11.309932474020215,
          11.309932474020215,
          12.68038349181982,
          15.37625124882619,
          14.036243467926479,
          15.37625124882619,
          14.036243467926479,
          12.68038349181982,
          12.68038349181982,
          14.036243467926479,
          14.036243467926479,
          16.69924423399362,
          16.69924423399362,
          19.290046219188735,
          19.290046219188735,
          16.69924423399362,
          16.69924423399362,
          9.926245506651705,
          11.309932474020215,
          11.309932474020215,
          15.37625124882619,
          16.69924423399362,
          20.556045219583467,
          21.80140948635181,
          21.80140948635181,
          21.80140948635181,
          16.69924423399362,
          18.00416160591338,
          14.036243467926479,
          16.69924423399362,
          16.69924423399362,
          19.290046219188735,
          20.556045219583467,
          19.290046219188735,
          21.80140948635181,
          16.69924423399362,
          18.00416160591338,
          15.37625124882619,
          14.036243467926479,
          14.036243467926479,
          9.926245506651705,
          12.68038349181982,
          9.926245506651705,
          11.309932474020215,
          11.309932474020215,
          9.926245506651705,
          12.68038349181982,
          9.926245506651705,
          11.309932474020215,
          9.926245506651705,
          7.125016348901798,
          8.530765609948133,
          8.530765609948133,
          8.530765609948133
        ],
        "horizontal_dist_map": 927,
        "slope_dist_map": 961,
        "elevation_diff_map": 224.0,
        "avg_slope_deg_map": 13.1,
        "max_slope_deg_map": 23.0
      },
      "geometry": {
        "type": "LineString",
        "coordinates": [
          [
            142.33283429701703,
            44.26551939024324,
            405.0
          ],
          [
            142.33288047943262,
            44.2654357376718,
            405.0
          ],
          [
            142.33292666184823,
            44.26535208510035,
            405.0
          ],
          [
            142.33297284426382,
            44.26526843252891,
            404.0
          ],
          [
            142.3330190266794,
            44.26518477995747,
            403.0
          ],
          [
            142.333065209095,
            44.265101127386025,
            400.0
          ],
          [
            142.3331308091804,
            44.26502493159661,
            397.0
          ],
          [
            142.33320192588033,
            44.26495085429991,
            397.0
          ],
          [
            142.3332730425803,
            44.26487677700322,
            395.0
          ],
          [
            142.33334415928022,
            44.26480269970652,
            393.0
          ],
          [
            142.33341527598017,
            44.26472862240983,
            391.0
          ],
          [
            142.33349853110704,
            44.26466465892617,
            388.0
          ],
          [
            142.33361094534695,
            44.264624990997405,
            385.0
          ],
          [
            142.33372335958686,
            44.264585323068644,
            381.0
          ],
          [
            142.33383577382676,
            44.26454565513988,
            379.0
          ],
          [
            142.33394818806667,
            44.264505987211116,
            376.0
          ],
          [
            142.33407245960106,
            44.264498635768646,
            371.0
          ],
          [
            142.3341974770437,
            44.264493317263195,
            368.0
          ],
          [
            142.33432249448632,
            44.26448799875775,
            362.0
          ],
          [
            142.33444751192891,
            44.26448268025231,
            360.0
          ],
          [
            142.33457252937154,
            44.26447736174686,
            358.0
          ],
          [
            142.33469734305902,
            44.26447577406039,
            354.0
          ],
          [
            142.334821395924,
            44.26448811726659,
            353.0
          ],
          [
            142.33494544878894,
            44.26450046047279,
            350.0
          ],
          [
            142.33506950165392,
            44.26451280367899,
            346.0
          ],
          [
            142.3351935545189,
            44.2645251468852,
            344.0
          ],
          [
            142.33531760738387,
            44.2645374900914,
            344.0
          ],
          [
            142.33544166024885,
            44.2645498332976,
            343.0
          ],
          [
            142.33556550564745,
            44.26456309229096,
            343.0
          ],
          [
            142.33568859974838,
            44.26457966762326,
            340.0
          ],
          [
            142.3358116938493,
            44.26459624295555,
            339.0
          ],
          [
            142.33593478795024,
            44.264612818287844,
            337.0
          ],
          [
            142.33605788205116,
            44.26462939362013,
            333.0
          ],
          [
            142.3361809761521,
            44.26464596895243,
            332.0
          ],
          [
            142.33630407025302,
            44.26466254428472,
            330.0
          ],
          [
            142.33642689125483,
            44.26468010343164,
            328.0
          ],
          [
            142.3365494109526,
            44.264698747998686,
            327.0
          ],
          [
            142.3366719306504,
            44.264717392565736,
            325.0
          ],
          [
            142.33679445034818,
            44.264736037132785,
            323.0
          ],
          [
            142.33691697004596,
            44.264754681699834,
            321.0
          ],
          [
            142.33704065053948,
            44.26476868036648,
            320.0
          ],
          [
            142.3371645445306,
            44.26478182454283,
            317.0
          ],
          [
            142.33728843852174,
            44.26479496871917,
            315.0
          ],
          [
            142.33741233251286,
            44.26480811289552,
            312.0
          ],
          [
            142.33753647212973,
            44.264819475220584,
            309.0
          ],
          [
            142.33766154716147,
            44.26482405173299,
            307.0
          ],
          [
            142.33778662219322,
            44.26482862824539,
            304.0
          ],
          [
            142.33791169722497,
            44.26483320475779,
            302.0
          ],
          [
            142.33803677225671,
            44.264837781270195,
            300.0
          ],
          [
            142.33816184728846,
            44.264842357782605,
            298.0
          ],
          [
            142.3382869223202,
            44.26484693429501,
            294.0
          ],
          [
            142.33841199735195,
            44.26485151080741,
            292.0
          ],
          [
            142.338536895744,
            44.26485782591061,
            288.0
          ],
          [
            142.33866156909195,
            44.26486635602838,
            286.0
          ],
          [
            142.3387862424399,
            44.26487488614615,
            280.0
          ],
          [
            142.33891091578786,
            44.26488341626392,
            278.0
          ],
          [
            142.33903558913582,
            44.26489194638169,
            276.0
          ],
          [
            142.33916026248377,
            44.264900476499456,
            274.0
          ],
          [
            142.33928493583176,
            44.26490900661722,
            273.0
          ],
          [
            142.3394096091797,
            44.264917536735,
            270.0
          ],
          [
            142.33953428252767,
            44.264926066852766,
            268.0
          ],
          [
            142.33965875413531,
            44.26493591703111,
            263.0
          ],
          [
            142.33978303097223,
            44.264947041665366,
            261.0
          ],
          [
            142.33990730780914,
            44.26495816629963,
            255.0
          ],
          [
            142.34003158464606,
            44.26496929093389,
            252.0
          ],
          [
            142.34015586148297,
            44.264980415568154,
            247.0
          ],
          [
            142.34028013831988,
            44.264991540202416,
            245.0
          ],
          [
            142.3404044151568,
            44.26500266483668,
            243.0
          ],
          [
            142.3405286919937,
            44.26501378947094,
            239.0
          ],
          [
            142.3406513170872,
            44.26503163976201,
            237.0
          ],
          [
            142.34077338493222,
            44.265051759086965,
            233.0
          ],
          [
            142.34089545277726,
            44.265071878411916,
            231.0
          ],
          [
            142.34101752062227,
            44.265091997736874,
            225.0
          ],
          [
            142.34113958846729,
            44.26511211706183,
            222.0
          ],
          [
            142.34126165631233,
            44.26513223638678,
            219.0
          ],
          [
            142.34138372415734,
            44.26515235571174,
            215.0
          ],
          [
            142.341505718819,
            44.26517270167969,
            213.0
          ],
          [
            142.34162761536638,
            44.26519335149964,
            209.0
          ],
          [
            142.34174951191378,
            44.2652140013196,
            208.0
          ],
          [
            142.34187140846115,
            44.26523465113956,
            205.0
          ],
          [
            142.34199330500851,
            44.26525530095952,
            203.0
          ],
          [
            142.34211520155588,
            44.26527595077947,
            202.0
          ],
          [
            142.34223709810328,
            44.26529660059943,
            199.0
          ],
          [
            142.34235899465065,
            44.265317250419386,
            198.0
          ],
          [
            142.34248089119802,
            44.265337900239345,
            195.0
          ],
          [
            142.34260278774542,
            44.265358550059304,
            194.0
          ],
          [
            142.3427246842928,
            44.265379199879256,
            192.0
          ],
          [
            142.3428427862757,
            44.26540827880292,
            189.0
          ],
          [
            142.34295841681677,
            44.265442847695056,
            188.0
          ],
          [
            142.34307404735787,
            44.26547741658718,
            186.0
          ],
          [
            142.34318967789895,
            44.26551198547931,
            185.0
          ],
          [
            142.34330530844005,
            44.26554655437144,
            184.0
          ],
          [
            142.34342093898113,
            44.265581123263566,
            182.0
          ]
        ]
      }
    },
    {
      "type": "Feature",
      "properties": {
        "name": "ファミリー",
        "slope_deg": [
          12.68038349181982,
          12.68038349181982,
          12.68038349181982,
          14.036243467926479,
          14.036243467926479,
          16.69924423399362,
          16.69924423399362,
          18.00416160591338,
          16.69924423399362,
          19.290046219188735,
          19.290046219188735,
          20.556045219583467,
          20.556045219583467,
          19.290046219188735,
          19.290046219188735,
          15.37625124882619,
          16.69924423399362,
          14.036243467926479,
          15.37625124882619,
          18.00416160591338,
          15.37625124882619,
          16.69924423399362,
          14.036243467926479,
          14.036243467926479,
          16.69924423399362,
          12.68038349181982,
          14.036243467926479,
          11.309932474020215,
          11.309932474020215,
          11.309932474020215,
          11.309932474020215
        ],
        "horizontal_dist_map": 302,
        "slope_dist_map": 315,
        "elevation_diff_map": 84.0,
        "avg_slope_deg_map": 14.9,
        "max_slope_deg_map": 20.6
      },
      "geometry": {
        "type": "LineString",
        "coordinates": [
          [
            142.33843997372992,
            44.26501872777948,
            285.0
          ],
          [
            142.33852274028325,
            44.26508626859429,
            284.0
          ],
          [
            142.33860550683656,
            44.2651538094091,
            281.0
          ],
          [
            142.3386882733899,
            44.26522135022392,
            279.0
          ],
          [
            142.3387710399432,
            44.26528889103873,
            276.0
          ],
          [
            142.33885380649653,
            44.26535643185354,
            274.0
          ],
          [
            142.33894574227594,
            44.26541611705029,
            271.0
          ],
          [
            142.33905270624493,
            44.26546292703639,
            267.0
          ],
          [
            142.33915967021392,
            44.26550973702249,
            264.0
          ],
          [
            142.33926663418288,
            44.26555654700859,
            261.0
          ],
          [
            142.33937359815187,
            44.265603356994696,
            259.0
          ],
          [
            142.33948056212085,
            44.2656501669808,
            253.0
          ],
          [
            142.33958752608984,
            44.26569697696689,
            250.0
          ],
          [
            142.3396944900588,
            44.265743786952996,
            246.0
          ],
          [
            142.3398014540278,
            44.2657905969391,
            244.0
          ],
          [
            142.3399118875022,
            44.265831893135484,
            239.0
          ],
          [
            142.3400314495965,
            44.265858681993244,
            236.0
          ],
          [
            142.34015101169075,
            44.265885470851,
            235.0
          ],
          [
            142.34027057378503,
            44.26591225970876,
            232.0
          ],
          [
            142.3403901358793,
            44.26593904856652,
            229.0
          ],
          [
            142.34050969797357,
            44.26596583742428,
            225.0
          ],
          [
            142.34062926006783,
            44.26599262628204,
            222.0
          ],
          [
            142.3407488221621,
            44.2660194151398,
            221.0
          ],
          [
            142.34086949376993,
            44.26604348096161,
            217.0
          ],
          [
            142.34099028828254,
            44.26606724514297,
            215.0
          ],
          [
            142.34111108279518,
            44.26609100932433,
            212.0
          ],
          [
            142.3412318773078,
            44.266114773505684,
            209.0
          ],
          [
            142.34135267182043,
            44.26613853768704,
            208.0
          ],
          [
            142.34147346633304,
            44.266162301868405,
            205.0
          ],
          [
            142.34159426084565,
            44.26618606604976,
            204.0
          ],
          [
            142.3417150553583,
            44.26620983023112,
            201.0
          ]
        ]
      }
    },
    {
      "type": "Feature",
      "properties": {
        "name": "スラローム",
        "slope_deg": [
          24.22774531795417,
          24.22774531795417,
          24.22774531795417,
          26.565051177077994,
          26.565051177077994,
          27.699472808055,
          26.565051177077994,
          21.80140948635181,
          20.556045219583467,
          20.556045219583467,
          20.556045219583467,
          23.025492008528037,
          25.407718108948472,
          23.025492008528037,
          18.00416160591338,
          12.68038349181982,
          5.710593137499643,
          5.710593137499643,
          12.68038349181982,
          11.309932474020215,
          14.036243467926479,
          9.926245506651705,
          5.710593137499643,
          7.125016348901798,
          9.926245506651705,
          14.036243467926479,
          11.309932474020215,
          11.309932474020215,
          5.710593137499643,
          5.710593137499643,
          5.710593137499643,
          8.530765609948133,
          11.309932474020215,
          8.530765609948133,
          11.309932474020215,
          8.530765609948133,
          7.125016348901798,
          8.530765609948133,
          5.710593137499643,
          7.125016348901798,
          7.125016348901798,
          7.125016348901798,
          7.125016348901798
        ],
        "horizontal_dist_map": 426,
        "slope_dist_map": 446,
        "elevation_diff_map": 107.0,
        "avg_slope_deg_map": 13.5,
        "max_slope_deg_map": 27.7
      },
      "geometry": {
        "type": "LineString",
        "coordinates": [
          [
            142.3371375469248,
            44.26501920708816,
            309.0
          ],
          [
            142.33721555117538,
            44.265089613989396,
            304.0
          ],
          [
            142.33729355542593,
            44.26516002089063,
            300.0
          ],
          [
            142.3373715596765,
            44.26523042779187,
            296.0
          ],
          [
            142.3374495639271,
            44.26530083469311,
            291.0
          ],
          [
            142.33752756817765,
            44.265371241594345,
            284.0
          ],
          [
            142.33760557242823,
            44.265441648495575,
            280.0
          ],
          [
            142.33768357667878,
            44.26551205539681,
            275.0
          ],
          [
            142.33776158092937,
            44.26558246229805,
            271.0
          ],
          [
            142.33783958517995,
            44.265652869199286,
            268.0
          ],
          [
            142.3379112432937,
            44.26572664484217,
            265.0
          ],
          [
            142.33798196132423,
            44.26580091951265,
            260.0
          ],
          [
            142.33805267935477,
            44.26587519418314,
            256.0
          ],
          [
            142.33812339738532,
            44.26594946885362,
            251.0
          ],
          [
            142.33820087912045,
            44.26601777384469,
            246.0
          ],
          [
            142.3383164340513,
            44.266052475243356,
            243.0
          ],
          [
            142.33843198898214,
            44.26608717664203,
            243.0
          ],
          [
            142.338547543913,
            44.26612187804071,
            242.0
          ],
          [
            142.33866309884382,
            44.266156579439375,
            242.0
          ],
          [
            142.33877865377468,
            44.26619128083805,
            239.0
          ],
          [
            142.3388942087055,
            44.266225982236726,
            234.0
          ],
          [
            142.33900976363637,
            44.2662606836354,
            234.0
          ],
          [
            142.33912512642328,
            44.266295706369874,
            232.0
          ],
          [
            142.33923967540923,
            44.266332090080894,
            232.0
          ],
          [
            142.3393542243952,
            44.266368473791914,
            230.0
          ],
          [
            142.33946877338116,
            44.266404857502934,
            229.0
          ],
          [
            142.33958332236713,
            44.266441241213954,
            225.0
          ],
          [
            142.33969787135308,
            44.26647762492497,
            222.0
          ],
          [
            142.33981242033906,
            44.26651400863599,
            222.0
          ],
          [
            142.339926969325,
            44.26655039234701,
            221.0
          ],
          [
            142.3400418367038,
            44.26658622858013,
            221.0
          ],
          [
            142.34015836004906,
            44.266619217371414,
            218.0
          ],
          [
            142.34027488339433,
            44.266652206162696,
            218.0
          ],
          [
            142.34039140673963,
            44.26668519495398,
            215.0
          ],
          [
            142.3405079300849,
            44.26671818374526,
            213.0
          ],
          [
            142.34062445343017,
            44.266751172536544,
            212.0
          ],
          [
            142.34074277277566,
            44.26678056371392,
            210.0
          ],
          [
            142.34086191187745,
            44.26680831281646,
            209.0
          ],
          [
            142.34098105097925,
            44.266836061918994,
            208.0
          ],
          [
            142.34110019008108,
            44.26686381102152,
            206.0
          ],
          [
            142.34121932918288,
            44.26689156012406,
            206.0
          ],
          [
            142.3413384682847,
            44.26691930922659,
            204.0
          ],
          [
            142.3414576073865,
            44.26694705832912,
            203.0
          ]
        ]
      }
    },
    {
      "type": "Feature",
      "properties": {
        "name": "センター",
        "slope_deg": [
          37.77568430595466,
          37.77568430595466,
          37.77568430595466,
          32.005383208083494,
          32.005383208083494,
          34.99202019855866,
          28.810793742973065,
          30.96375653207352,
          27.699472808055,
          21.80140948635181,
          24.22774531795417,
          20.556045219583467,
          21.80140948635181,
          20.556045219583467,
          15.37625124882619,
          15.37625124882619,
          11.309932474020215,
          12.68038349181982,
          12.68038349181982,
          12.68038349181982,
          15.37625124882619,
          15.37625124882619,
          14.036243467926479,
          12.68038349181982,
          9.926245506651705,
          9.926245506651705,
          8.530765609948133,
          7.125016348901798,
          12.68038349181982,
          9.926245506651705,
          15.37625124882619,
          12.68038349181982,
          5.710593137499643,
          11.309932474020215,
          11.309932474020215,
          11.309932474020215
        ],
        "horizontal_dist_map": 350,
        "slope_dist_map": 379,
        "elevation_diff_map": 122.0,
        "avg_slope_deg_map": 17.8,
        "max_slope_deg_map": 37.8
      },
      "geometry": {
        "type": "LineString",
        "coordinates": [
          [
            142.33369240175938,
            44.26489800037794,
            378.0
          ],
          [
            142.33381050794378,
            44.26492793530827,
            368.0
          ],
          [
            142.33392861412815,
            44.2649578702386,
            362.0
          ],
          [
            142.33404672031256,
            44.26498780516893,
            357.0
          ],
          [
            142.33416482649693,
            44.26501774009926,
            347.0
          ],
          [
            142.33428293268133,
            44.26504767502959,
            343.0
          ],
          [
            142.3344010388657,
            44.26507760995992,
            337.0
          ],
          [
            142.3345191450501,
            44.26510754489025,
            329.0
          ],
          [
            142.33463725123448,
            44.26513747982058,
            325.0
          ],
          [
            142.33475535741889,
            44.26516741475091,
            319.0
          ],
          [
            142.3348744260617,
            44.265195273167585,
            316.0
          ],
          [
            142.33499393142077,
            44.2652221893647,
            313.0
          ],
          [
            142.33511343677984,
            44.265249105561814,
            307.0
          ],
          [
            142.3352329421389,
            44.26527602175892,
            304.0
          ],
          [
            142.33535244749797,
            44.26530293795604,
            300.0
          ],
          [
            142.33547195285703,
            44.265329854153144,
            298.0
          ],
          [
            142.3355910924602,
            44.2653575623678,
            296.0
          ],
          [
            142.3357092761095,
            44.26538734063024,
            293.0
          ],
          [
            142.3358274597588,
            44.26541711889268,
            292.0
          ],
          [
            142.33594564340814,
            44.26544689715512,
            289.0
          ],
          [
            142.33606382705744,
            44.26547667541757,
            287.0
          ],
          [
            142.33618201070675,
            44.265506453680004,
            284.0
          ],
          [
            142.33630067317446,
            44.26553522072251,
            281.0
          ],
          [
            142.33641961639492,
            44.2655633948413,
            278.0
          ],
          [
            142.33653855961535,
            44.26559156896009,
            277.0
          ],
          [
            142.3366575028358,
            44.26561974307887,
            275.0
          ],
          [
            142.33677644605626,
            44.26564791719766,
            274.0
          ],
          [
            142.3368953892767,
            44.26567609131645,
            271.0
          ],
          [
            142.3370149334585,
            44.26570289152744,
            271.0
          ],
          [
            142.33713492472583,
            44.26572866961892,
            270.0
          ],
          [
            142.33725491599319,
            44.26575444771041,
            265.0
          ],
          [
            142.3373749072605,
            44.26578022580189,
            264.0
          ],
          [
            142.33749564093372,
            44.26580404326764,
            260.0
          ],
          [
            142.3376172676833,
            44.265825502200755,
            261.0
          ],
          [
            142.33773889443285,
            44.26584696113386,
            261.0
          ],
          [
            142.33786052118242,
            44.265868420066965,
            256.0
          ]
        ]
      }
    },
    {
      "type": "Feature",
      "properties": {
        "name": "ダイナミック",
        "slope_deg": [
          20.556045219583467,
          20.556045219583467,
          20.556045219583467,
          20.556045219583467,
          29.89890183861456,
          33.02386755579665,
          35.94211187138234,
          38.659808254090095,
          33.02386755579665,
          39.52263127117112,
          39.52263127117112,
          36.86989764584402,
          35.94211187138234,
          26.565051177077994,
          21.80140948635181,
          20.556045219583467,
          19.290046219188735,
          15.37625124882619,
          14.036243467926479,
          12.68038349181982,
          14.036243467926479,
          14.036243467926479,
          14.036243467926479,
          16.69924423399362,
          12.68038349181982,
          11.309932474020215,
          15.37625124882619,
          11.309932474020215,
          12.68038349181982,
          15.37625124882619,
          11.309932474020215,
          11.309932474020215,
          12.68038349181982,
          9.926245506651705,
          8.530765609948133,
          8.530765609948133,
          9.926245506651705,
          9.926245506651705,
          9.926245506651705,
          14.036243467926479,
          9.926245506651705,
          9.926245506651705,
          11.309932474020215,
          11.309932474020215,
          12.68038349181982,
          14.036243467926479,
          14.036243467926479,
          9.926245506651705,
          11.309932474020215,
          9.926245506651705,
          9.926245506651705,
          9.926245506651705,
          7.125016348901798,
          9.926245506651705,
          8.530765609948133,
          8.530765609948133,
          8.530765609948133,
          7.125016348901798,
          5.710593137499643,
          5.710593137499643,
          5.710593137499643,
          5.710593137499643,
          7.125016348901798,
          5.710593137499643,
          5.710593137499643,
          2.862405226111748,
          0.0,
          1.4320961841646465,
          0.0,
          2.862405226111748,
          7.125016348901798,
          8.530765609948133,
          9.926245506651705,
          9.926245506651705,
          8.530765609948133,
          7.125016348901798,
          9.926245506651705,
          8.530765609948133,
          11.309932474020215,
          11.309932474020215,
          11.309932474020215,
          9.926245506651705,
          5.710593137499643,
          2.862405226111748,
          -1.4320961841646465,
          -4.289153328819018,
          -4.289153328819018,
          -4.289153328819018
        ],
        "horizontal_dist_map": 870,
        "slope_dist_map": 913,
        "elevation_diff_map": 205.0,
        "avg_slope_deg_map": 12.6,
        "max_slope_deg_map": 39.5
      },
      "geometry": {
        "type": "LineString",
        "coordinates": [
          [
            142.33276273781053,
            44.265773600207524,
            404.0
          ],
          [
            142.33286560650632,
            44.26582493221746,
            400.0
          ],
          [
            142.3329684752021,
            44.26587626422741,
            397.0
          ],
          [
            142.3330713438979,
            44.26592759623735,
            393.0
          ],
          [
            142.3331742125937,
            44.265978928247286,
            389.0
          ],
          [
            142.3332770812895,
            44.266030260257224,
            385.0
          ],
          [
            142.3333799499853,
            44.26608159226717,
            374.0
          ],
          [
            142.3334828186811,
            44.26613292427711,
            367.0
          ],
          [
            142.33358568737688,
            44.26618425628705,
            360.0
          ],
          [
            142.33368855607267,
            44.266235588296986,
            353.0
          ],
          [
            142.33379418803074,
            44.26628378073991,
            348.0
          ],
          [
            142.33390282550874,
            44.26632855836716,
            334.0
          ],
          [
            142.33401146298678,
            44.2663733359944,
            327.0
          ],
          [
            142.3341201004648,
            44.26641811362164,
            323.0
          ],
          [
            142.3342287379428,
            44.266462891248885,
            319.0
          ],
          [
            142.33433737542083,
            44.26650766887613,
            314.0
          ],
          [
            142.33444601289884,
            44.26655244650337,
            311.0
          ],
          [
            142.33455465037684,
            44.266597224130614,
            308.0
          ],
          [
            142.33466423161263,
            44.26664072801479,
            305.0
          ],
          [
            142.33477658953828,
            44.266680484338345,
            303.0
          ],
          [
            142.33488894746392,
            44.266720240661904,
            301.0
          ],
          [
            142.3350013053896,
            44.26675999698546,
            299.0
          ],
          [
            142.33511366331524,
            44.266799753309016,
            295.0
          ],
          [
            142.33522602124089,
            44.266839509632575,
            293.0
          ],
          [
            142.33533837916653,
            44.26687926595613,
            291.0
          ],
          [
            142.33545073709217,
            44.26691902227969,
            287.0
          ],
          [
            142.33556354506715,
            44.26695810428002,
            286.0
          ],
          [
            142.33567704766,
            44.266996145512216,
            285.0
          ],
          [
            142.33579055025285,
            44.26703418674441,
            280.0
          ],
          [
            142.3359040528457,
            44.2670722279766,
            279.0
          ],
          [
            142.33601755543856,
            44.26711026920879,
            277.0
          ],
          [
            142.33613105803144,
            44.26714831044099,
            274.0
          ],
          [
            142.3362445606243,
            44.267186351673175,
            272.0
          ],
          [
            142.3363658945792,
            44.26720483692666,
            271.0
          ],
          [
            142.3364901761588,
            44.26721596155935,
            268.0
          ],
          [
            142.33661445773842,
            44.267227086192044,
            267.0
          ],
          [
            142.33673873931804,
            44.26723821082474,
            266.0
          ],
          [
            142.33686302089765,
            44.267249335457436,
            265.0
          ],
          [
            142.3369836138529,
            44.267272349272204,
            261.0
          ],
          [
            142.33710270229534,
            44.267300212435956,
            260.0
          ],
          [
            142.3372217907378,
            44.26732807559971,
            259.0
          ],
          [
            142.33734087918023,
            44.26735593876345,
            255.0
          ],
          [
            142.33745477987824,
            44.26739120099587,
            254.0
          ],
          [
            142.3375568126666,
            44.2674433899446,
            253.0
          ],
          [
            142.33765884545497,
            44.26749557889333,
            251.0
          ],
          [
            142.33776087824333,
            44.26754776784207,
            247.0
          ],
          [
            142.3378629110317,
            44.2675999567908,
            245.0
          ],
          [
            142.33796464026346,
            44.267652448055415,
            243.0
          ],
          [
            142.33806570715325,
            44.26770559895492,
            241.0
          ],
          [
            142.338166774043,
            44.26775874985443,
            240.0
          ],
          [
            142.3382678409328,
            44.267811900753934,
            237.0
          ],
          [
            142.3383716335266,
            44.26786218662752,
            236.0
          ],
          [
            142.33847725040383,
            44.26791055497107,
            234.0
          ],
          [
            142.33858286728108,
            44.26795892331461,
            233.0
          ],
          [
            142.33868848415833,
            44.26800729165816,
            232.0
          ],
          [
            142.3387987057589,
            44.26804886881333,
            229.0
          ],
          [
            142.33891680936503,
            44.26807882134292,
            228.0
          ],
          [
            142.33903590793926,
            44.268106326583506,
            227.0
          ],
          [
            142.33915787836423,
            44.268126768030655,
            226.0
          ],
          [
            142.33928040614722,
            44.26813896183129,
            224.0
          ],
          [
            142.33940455901484,
            44.26812710802842,
            224.0
          ],
          [
            142.33952175128434,
            44.26810159208712,
            223.0
          ],
          [
            142.33962720986122,
            44.26805304546229,
            222.0
          ],
          [
            142.33972465701274,
            44.267998050569155,
            220.0
          ],
          [
            142.33980369985971,
            44.26792824234542,
            219.0
          ],
          [
            142.33988111208643,
            44.26785752824387,
            219.0
          ],
          [
            142.33995523571437,
            44.267784987188065,
            218.0
          ],
          [
            142.3400214891137,
            44.26770951588887,
            218.0
          ],
          [
            142.34006121755553,
            44.26762416881794,
            219.0
          ],
          [
            142.34009896941663,
            44.26753843951413,
            218.0
          ],
          [
            142.3401242196437,
            44.26745029263353,
            218.0
          ],
          [
            142.34016877191445,
            44.267367564821576,
            216.0
          ],
          [
            142.3402500927598,
            44.26730804623362,
            214.0
          ],
          [
            142.34037313726245,
            44.2672957801676,
            212.0
          ],
          [
            142.34049045451542,
            44.26732728498987,
            211.0
          ],
          [
            142.34060711207275,
            44.267360030484774,
            209.0
          ],
          [
            142.34072376963007,
            44.26739277597968,
            208.0
          ],
          [
            142.34084009135023,
            44.2674261186861,
            207.0
          ],
          [
            142.34095565452702,
            44.26746081029274,
            204.0
          ],
          [
            142.3410712177038,
            44.267495501899376,
            203.0
          ],
          [
            142.34119328496368,
            44.26751559604342,
            200.0
          ],
          [
            142.34131697535852,
            44.26752551562424,
            199.0
          ],
          [
            142.34144221813833,
            44.26752551562424,
            196.0
          ],
          [
            142.34156233293714,
            44.26750273467898,
            196.0
          ],
          [
            142.34165036562297,
            44.26744876378601,
            196.0
          ],
          [
            142.34169421005683,
            44.26736474385868,
            197.0
          ],
          [
            142.34172901121153,
            44.2672783541574,
            197.0
          ],
          [
            142.34175668785062,
            44.26719058422389,
            199.0
          ]
        ]
      }
    }
  ]
}