{
  "type": "FeatureCollection",
  "features": [
    {
      "type": "Feature",
      "properties": {
        "name": "サンシャイン",
        "slope_deg": [
          11.585126224855031,
          11.585126224855031,
          11.585126224855031,
          12.952764513375543,
          11.859779120947985,
          12.81664764899743,
          10.619655276155134,
          10.342657140474588,
          10.896152141141116,
          10.757967088389998,
          10.481218144130926,
          10.619655276155134,
          10.757967088389998,
          10.065169352759877,
          11.585126224855031,
          10.757967088390036,
          11.034209003250266,
          12.270720357815309,
          13.224551192213537,
          14.036243467926479,
          15.37625124882619,
          16.567741642974926,
          16.69924423399362,
          16.83056598321059,
          17.223436191131473,
          17.74467162505691,
          18.906332035086628,
          21.181349500266236,
          20.052082146098535,
          20.052082146098552,
          19.417554141579444,
          17.614643300007028,
          18.262889942194132,
          16.567741642974926,
          13.901350769509108,
          14.574216198038746,
          12.68038349181982,
          9.926245506651705,
          8.250387228905495,
          8.250387228905495,
          8.250387228905495,
          8.250387228905495
        ],
        "horizontal_dist_map": 409,
        "slope_dist_map": 421,
        "elevation_diff_map": 96.3,
        "avg_slope_deg_map": 12.9,
        "max_slope_deg_map": 21.2
      },
      "geometry": {
        "type": "LineString",
        "coordinates": [
          [
            141.12739319576954,
            43.144961416806986,
            199.1
          ],
          [
            141.127495286819,
            43.14501155567075,
            197.8
          ],
          [
            141.12759737786843,
            43.145061694534505,
            195.5
          ],
          [
            141.12769946891788,
            43.14511183339827,
            194.0
          ],
          [
            141.12780155996734,
            43.14516197226203,
            190.9
          ],
          [
            141.12790365101677,
            43.14521211112579,
            188.6
          ],
          [
            141.12800724139538,
            43.14526048935756,
            187.1
          ],
          [
            141.12811365985434,
            43.145305546631604,
            184.9
          ],
          [
            141.12822007831332,
            43.14535060390564,
            183.4
          ],
          [
            141.12832649677227,
            43.145395661179684,
            181.3
          ],
          [
            141.12843291523123,
            43.14544071845372,
            179.4
          ],
          [
            141.12854216497877,
            43.14548180915081,
            177.3
          ],
          [
            141.12865344202146,
            43.1455200596491,
            176.0
          ],
          [
            141.12876471906418,
            43.14555831014739,
            173.8
          ],
          [
            141.1288759961069,
            43.14559656064569,
            171.8
          ],
          [
            141.1289872731496,
            43.145634811143985,
            170.2
          ],
          [
            141.1290985501923,
            43.14567306164228,
            167.8
          ],
          [
            141.12921108595896,
            43.14570902812973,
            166.2
          ],
          [
            141.12932745537515,
            43.14573803828882,
            164.0
          ],
          [
            141.12944382479134,
            43.14576704844791,
            161.5
          ],
          [
            141.1295601942075,
            43.145796058607,
            158.4
          ],
          [
            141.1296765636237,
            43.145825068766094,
            156.2
          ],
          [
            141.12979293303988,
            43.14585407892518,
            153.0
          ],
          [
            141.12991007274778,
            43.14588109804204,
            149.6
          ],
          [
            141.13002993288967,
            43.145901085408525,
            146.4
          ],
          [
            141.1301497930316,
            43.14592107277501,
            144.1
          ],
          [
            141.1302696531735,
            43.14594106014149,
            140.6
          ],
          [
            141.1303895133154,
            43.145961047507974,
            136.8
          ],
          [
            141.13050951062283,
            43.14598051877342,
            132.7
          ],
          [
            141.13063086081934,
            43.145994899637074,
            128.6
          ],
          [
            141.13075221101587,
            43.14600928050072,
            126.0
          ],
          [
            141.1308735612124,
            43.14602366136437,
            122.2
          ],
          [
            141.13099499965548,
            43.14603758536988,
            118.6
          ],
          [
            141.13111703723925,
            43.146048407584615,
            115.9
          ],
          [
            141.13123907482304,
            43.14605922979935,
            112.8
          ],
          [
            141.1313611124068,
            43.14607005201408,
            110.3
          ],
          [
            141.1314827488771,
            43.14608305870851,
            108.7
          ],
          [
            141.13160435563705,
            43.14609622720643,
            105.5
          ],
          [
            141.13172604026352,
            43.14610887021173,
            103.8
          ],
          [
            141.13184867445761,
            43.14611510493199,
            103.3
          ],
          [
            141.13197130865169,
            43.14612133965224,
            102.9
          ],
          [
            141.13208243880266,
            43.146126989507145,
            102.8
          ]
        ]
      }
    },
    {
      "type": "Feature",
      "properties": {
        "name": "ツインズ",
        "slope_deg": [
          16.961705886532894,
          16.961705886532894,
          16.961705886532894,
          18.133621430820376,
          18.52084947747111,
          18.00416160591338,
          18.39196625070541,
          19.925580658184323,
          18.52084947747111,
          19.544862326628756,
          20.052082146098535,
          20.68152167820089,
          22.416147479343643,
          21.80140948635181,
          19.67196998920057,
          18.262889942194118,
          17.614643300007028,
          17.092662950267496,
          17.874511367250317,
          16.567741642974926,
          16.304198003832337,
          16.304198003832337,
          16.304198003832337,
          16.304198003832337
        ],
        "horizontal_dist_map": 229,
        "slope_dist_map": 241,
        "elevation_diff_map": 74.8,
        "avg_slope_deg_map": 17.2,
        "max_slope_deg_map": 22.4
      },
      "geometry": {
        "type": "LineString",
        "coordinates": [
          [
            141.12621900003336,
            43.143683072415755,
            232.0
          ],
          [
            141.12633661517125,
            43.14370924133238,
            230.2
          ],
          [
            141.12645423030912,
            43.143735410249015,
            226.9
          ],
          [
            141.12657184544702,
            43.14376157916564,
            223.2
          ],
          [
            141.12668946058488,
            43.143787748082275,
            219.8
          ],
          [
            141.12680811893557,
            43.14381122675408,
            217.1
          ],
          [
            141.1269269667237,
            43.14383421690322,
            213.5
          ],
          [
            141.1270458145118,
            43.14385720705237,
            210.2
          ],
          [
            141.12716466229992,
            43.14388019720152,
            206.5
          ],
          [
            141.12728452774994,
            43.14390008589648,
            202.6
          ],
          [
            141.12740466756708,
            43.14391913842266,
            200.1
          ],
          [
            141.12752480738422,
            43.14393819094883,
            196.0
          ],
          [
            141.1276467349955,
            43.143941109542524,
            191.9
          ],
          [
            141.127769498009,
            43.14393648905601,
            187.5
          ],
          [
            141.12789219183213,
            43.14393101291424,
            183.6
          ],
          [
            141.1280148418647,
            43.14392499522876,
            180.0
          ],
          [
            141.1281374918973,
            43.14391897754327,
            177.6
          ],
          [
            141.1282581124838,
            43.143902806758916,
            174.3
          ],
          [
            141.12837797296322,
            43.14388283324127,
            170.9
          ],
          [
            141.12849808164907,
            43.143863690549416,
            167.7
          ],
          [
            141.12861837998182,
            43.14384518266614,
            164.7
          ],
          [
            141.12873867831456,
            43.14382667478286,
            162.4
          ],
          [
            141.12885897664734,
            43.14380816689958,
            159.2
          ],
          [
            141.12897004395023,
            43.14379107920907,
            157.2
          ]
        ]
      }
    },
    {
      "type": "Feature",
      "properties": {
        "name": "ダウンヒル",
        "slope_deg": [
          10.619655276155134,
          10.619655276155134,
          10.619655276155134,
          15.50933452267483,
          19.162339354971866,
          20.17838007450872,
          21.677820852504393,
          21.924785220541203,
          22.17089563383445,
          22.17089563383445,
          22.047947463560366,
          22.293629159694053,
          23.629377730656817,
          26.33541000388136,
          25.98923358383301,
          24.702430227771316,
          23.146707841882932,
          22.904057803636878,
          22.29362915969409,
          22.7824057304817,
          21.554019920478858,
          22.0479474635604,
          22.416147479343643,
          22.660536301999294,
          23.749494492866756,
          22.047947463560366,
          22.416147479343643,
          22.29362915969409,
          22.047947463560366,
          20.931852540892535,
          18.26288994219415,
          15.642246457208712,
          13.088732789694076,
          11.034209003250226,
          10.619655276155134,
          10.342657140474627,
          10.065169352759836,
          9.926245506651705,
          9.22988624372772,
          8.95055865623168,
          8.810732985984933,
          8.530765609948133,
          7.829076510059608,
          7.406912128495215,
          7.406912128495215,
          7.406912128495253,
          7.547725773843085,
          7.406912128495215,
          6.842773412630957,
          7.125016348901798,
          7.266008446995988,
          7.266008446996026,
          7.266008446996026,
          7.266008446996026,
          7.266008446996026
        ],
        "horizontal_dist_map": 532,
        "slope_dist_map": 559,
        "elevation_diff_map": 153.4,
        "avg_slope_deg_map": 15.3,
        "max_slope_deg_map": 26.3
      },
      "geometry": {
        "type": "LineString",
        "coordinates": [
          [
            141.1243851966106,
            43.141166774247985,
            304.4
          ],
          [
            141.1245034342266,
            43.14119138053722,
            303.9
          ],
          [
            141.1246216718426,
            43.14121598682646,
            302.7
          ],
          [
            141.12474091984848,
            43.14123778858143,
            300.5
          ],
          [
            141.12486024519788,
            43.14125939342017,
            296.9
          ],
          [
            141.12497941494328,
            43.14128145745125,
            292.8
          ],
          [
            141.12509830317674,
            43.14130422353403,
            288.8
          ],
          [
            141.1252148433181,
            43.141332845432125,
            285.8
          ],
          [
            141.1253313834595,
            43.14136146733023,
            281.0
          ],
          [
            141.12544993504022,
            43.141385132190926,
            276.7
          ],
          [
            141.12556812200037,
            43.14140946912608,
            272.5
          ],
          [
            141.12568157751724,
            43.1414441054956,
            269.5
          ],
          [
            141.1257950330341,
            43.14147874186512,
            264.8
          ],
          [
            141.12590650477392,
            43.14151653574916,
            260.3
          ],
          [
            141.12601623800344,
            43.14155709676448,
            255.0
          ],
          [
            141.12612597123297,
            43.14159765777979,
            249.7
          ],
          [
            141.12622819859766,
            43.141646876695724,
            245.3
          ],
          [
            141.1263250135501,
            43.141702338746676,
            241.9
          ],
          [
            141.12642006355418,
            43.141759323705706,
            237.9
          ],
          [
            141.12651053665806,
            43.14182025790115,
            232.8
          ],
          [
            141.1265998460083,
            43.14188204385766,
            228.9
          ],
          [
            141.12668300818297,
            43.14194832898379,
            225.1
          ],
          [
            141.1267661703576,
            43.142014614109904,
            222.1
          ],
          [
            141.12684933253226,
            43.14208089923603,
            216.6
          ],
          [
            141.1269324947069,
            43.14214718436215,
            212.4
          ],
          [
            141.12701031565874,
            43.142216852200924,
            208.4
          ],
          [
            141.12708789433583,
            43.14228667347756,
            204.5
          ],
          [
            141.12716547301292,
            43.14235649475419,
            200.4
          ],
          [
            141.1272332562635,
            43.142431457923905,
            195.9
          ],
          [
            141.12729864108456,
            43.14250768009632,
            192.0
          ],
          [
            141.1273703569368,
            43.14258049476284,
            188.3
          ],
          [
            141.12745018484443,
            43.14264894333547,
            185.1
          ],
          [
            141.12753001275206,
            43.14271739190811,
            182.7
          ],
          [
            141.12760985191693,
            43.14278583338021,
            180.8
          ],
          [
            141.12769049797626,
            43.14285376590265,
            179.0
          ],
          [
            141.1277711440356,
            43.14292169842509,
            177.3
          ],
          [
            141.12785370329064,
            43.1429883736255,
            175.2
          ],
          [
            141.12793725239763,
            43.14305439831081,
            173.5
          ],
          [
            141.12802080150465,
            43.14312042299612,
            171.9
          ],
          [
            141.12810435061166,
            43.14318644768143,
            170.3
          ],
          [
            141.12818789971868,
            43.14325247236674,
            168.7
          ],
          [
            141.12828041920687,
            43.14331167971492,
            167.2
          ],
          [
            141.12837362861376,
            43.143370362736626,
            165.7
          ],
          [
            141.12846683802067,
            43.14342904575833,
            164.3
          ],
          [
            141.12856004742756,
            43.14348772878003,
            163.2
          ],
          [
            141.1286533977466,
            43.14354629101539,
            162.0
          ],
          [
            141.12874719281132,
            43.14360447202592,
            160.5
          ],
          [
            141.12884098787606,
            43.14366265303646,
            159.1
          ],
          [
            141.12893478294077,
            43.143720834046995,
            157.9
          ],
          [
            141.12902857800552,
            43.14377901505753,
            156.8
          ],
          [
            141.12912237307023,
            43.14383719606807,
            155.7
          ],
          [
            141.12921616813497,
            43.14389537707861,
            154.1
          ],
          [
            141.1293099631997,
            43.14395355808914,
            152.8
          ],
          [
            141.12940375826443,
            43.144011739099675,
            151.7
          ],
          [
            141.12943055490746,
            43.14402836103789,
            151.0
          ]
        ]
      }
    },
    {
      "type": "Feature",
      "properties": {
        "name": "ダイビング",
        "slope_deg": [
          19.290046219188735,
          19.290046219188735,
          19.290046219188735,
          21.056705590704784,
          24.58409469543795,
          27.361564820270818,
          27.021581591177014,
          29.030274682487143,
          28.920650342151543,
          26.793775628803143,
          25.17352452453018,
          22.17089563383445,
          22.17089563383445,
          22.17089563383445,
          22.17089563383445
        ],
        "horizontal_dist_map": 132,
        "slope_dist_map": 144,
        "elevation_diff_map": 57.0,
        "avg_slope_deg_map": 21.5,
        "max_slope_deg_map": 29.0
      },
      "geometry": {
        "type": "LineString",
        "coordinates": [
          [
            141.12592851294258,
            43.143270368671,
            240.7
          ],
          [
            141.12604476262894,
            43.14324111267637,
            238.5
          ],
          [
            141.1261610123153,
            43.143211856681745,
            235.9
          ],
          [
            141.12627726200165,
            43.14318260068712,
            231.4
          ],
          [
            141.12639351168798,
            43.14315334469249,
            226.7
          ],
          [
            141.12650736993743,
            43.14311957311469,
            223.1
          ],
          [
            141.12662016285148,
            43.143083789938515,
            217.6
          ],
          [
            141.12672769551668,
            43.14304062983713,
            210.7
          ],
          [
            141.12683225972572,
            43.142993306799745,
            206.3
          ],
          [
            141.12693682393473,
            43.14294598376237,
            200.9
          ],
          [
            141.12704765788607,
            43.14290742804132,
            195.5
          ],
          [
            141.12716033211797,
            43.142871445683085,
            190.5
          ],
          [
            141.12727300634987,
            43.14283546332485,
            187.5
          ],
          [
            141.12738568058177,
            43.14279948096662,
            184.6
          ],
          [
            141.12741079392768,
            43.142791461054756,
            183.7
          ]
        ]
      }
    },
    {
      "type": "Feature",
      "properties": {
        "name": "パノラマ",
        "slope_deg": [
          12.407418527400683,
          12.407418527400683,
          12.407418527400683,
          12.81664764899739,
          14.708303899682749,
          14.170977562933048,
          15.109575122340479,
          16.961705886532894,
          16.304198003832298,
          18.52084947747115,
          16.567741642974962,
          15.907551930525889,
          16.436059224635663,
          15.774985955414085,
          15.642246457208712,
          16.304198003832298,
          14.842227057911055,
          12.81664764899739,
          12.81664764899743,
          9.926245506651705,
          9.787203664656122,
          9.787203664656122,
          8.250387228905476,
          8.810732985984894,
          8.810732985984933,
          8.250387228905515,
          9.22988624372772,
          8.95055865623168,
          9.090276920822289,
          9.369385096487477,
          9.50877195829787,
          11.172136252167157,
          10.896152141141153,
          11.172136252167157,
          12.270720357815309,
          11.034209003250226,
          11.996899307923577,
          11.859779120947985,
          10.619655276155134,
          11.309932474020215,
          10.896152141141116,
          10.896152141141116,
          11.447596263685595,
          11.447596263685636,
          11.585126224855072,
          11.309932474020215,
          11.172136252167157,
          11.172136252167157,
          11.172136252167157,
          11.172136252167157
        ],
        "horizontal_dist_map": 489,
        "slope_dist_map": 501,
        "elevation_diff_map": 104.0,
        "avg_slope_deg_map": 11.7,
        "max_slope_deg_map": 18.5
      },
      "geometry": {
        "type": "LineString",
        "coordinates": [
          [
            141.12406874005345,
            43.14126025205012,
            303.9
          ],
          [
            141.12412215047465,
            43.14134132339773,
            302.4
          ],
          [
            141.12417556089585,
            43.141422394745355,
            300.9
          ],
          [
            141.12422897131705,
            43.14150346609297,
            298.2
          ],
          [
            141.12428238173825,
            43.141584537440586,
            295.1
          ],
          [
            141.12433579215946,
            43.14166560878821,
            293.3
          ],
          [
            141.12438920258066,
            43.141746680135824,
            290.4
          ],
          [
            141.12444261300186,
            43.14182775148344,
            288.1
          ],
          [
            141.12449602342306,
            43.141908822831056,
            284.3
          ],
          [
            141.12454943384427,
            43.14198989417868,
            281.1
          ],
          [
            141.12460284426547,
            43.142070965526294,
            278.7
          ],
          [
            141.12466872972269,
            43.1421464464223,
            274.7
          ],
          [
            141.12474300995524,
            43.1422181653584,
            272.4
          ],
          [
            141.1248172901878,
            43.1422898842945,
            269.7
          ],
          [
            141.12489157042037,
            43.142361603230604,
            266.9
          ],
          [
            141.12496407718024,
            43.14243426703565,
            263.4
          ],
          [
            141.1250343926148,
            43.14250809833272,
            261.2
          ],
          [
            141.12510470804935,
            43.142581929629785,
            258.0
          ],
          [
            141.12517502348393,
            43.14265576092686,
            256.3
          ],
          [
            141.1252453389185,
            43.14272959222393,
            254.3
          ],
          [
            141.12531565435307,
            43.142803423520995,
            252.1
          ],
          [
            141.12538596978763,
            43.14287725481807,
            251.0
          ],
          [
            141.12545628522219,
            43.14295108611514,
            249.4
          ],
          [
            141.12552649665798,
            43.143024969549174,
            247.4
          ],
          [
            141.12559502011516,
            43.14309969920563,
            246.3
          ],
          [
            141.1256635435723,
            43.14317442886208,
            244.8
          ],
          [
            141.12573206702945,
            43.143249158518536,
            243.2
          ],
          [
            141.1258005904866,
            43.14332388817499,
            241.6
          ],
          [
            141.12586911394374,
            43.14339861783145,
            239.8
          ],
          [
            141.12593763740088,
            43.143473347487905,
            238.5
          ],
          [
            141.12600616085803,
            43.14354807714436,
            236.8
          ],
          [
            141.1260746843152,
            43.14362280680081,
            235.0
          ],
          [
            141.12614344443898,
            43.14369741789679,
            233.1
          ],
          [
            141.12621376871044,
            43.143771245417696,
            230.6
          ],
          [
            141.12628409298188,
            43.1438450729386,
            229.1
          ],
          [
            141.1263544172533,
            43.143918900459504,
            227.1
          ],
          [
            141.12642474152474,
            43.14399272798041,
            224.4
          ],
          [
            141.12649506579618,
            43.14406655550131,
            222.8
          ],
          [
            141.1265653900676,
            43.14414038302222,
            220.6
          ],
          [
            141.12663571433907,
            43.144214210543126,
            218.7
          ],
          [
            141.1267060386105,
            43.144288038064026,
            216.9
          ],
          [
            141.12677633541733,
            43.14436187982227,
            214.8
          ],
          [
            141.12684662111846,
            43.14443572733757,
            212.9
          ],
          [
            141.1269169068196,
            43.144509574852876,
            211.0
          ],
          [
            141.12698719252072,
            43.144583422368186,
            208.8
          ],
          [
            141.12705747822184,
            43.14465726988349,
            206.7
          ],
          [
            141.127127763923,
            43.14473111739879,
            204.7
          ],
          [
            141.12720494123002,
            43.14480110633143,
            203.0
          ],
          [
            141.12728384789483,
            43.144870127003536,
            200.9
          ],
          [
            141.1273572873986,
            43.14493436547974,
            199.9
          ]
        ]
      }
    },
    {
      "type": "Feature",
      "properties": {
        "name": "ファミリー",
        "slope_deg": [
          9.22988624372772,
          9.22988624372772,
          9.22988624372772,
          9.787203664656122,
          10.342657140474627,
          11.309932474020215,
          10.757967088389998,
          11.172136252167157,
          11.72252097010224,
          11.172136252167116,
          12.133880170633361,
          12.6803834918198,
          12.816647648997447,
          13.360218444764502,
          14.170977562933105,
          12.952764513375522,
          12.13388017063334,
          10.896152141141135,
          8.950558656231658,
          8.670801453590954,
          7.547725773843106,
          6.701525844729468,
          6.135733340186789,
          5.710593137499643,
          5.284821092509019,
          4.573921259900866,
          4.1466888259660175,
          3.4336303624505304,
          3.005269359689946,
          3.005269359689946,
          3.005269359689946,
          3.005269359689946
        ],
        "horizontal_dist_map": 307,
        "slope_dist_map": 311,
        "elevation_diff_map": 47.4,
        "avg_slope_deg_map": 8.7,
        "max_slope_deg_map": 14.2
      },
      "geometry": {
        "type": "LineString",
        "coordinates": [
          [
            141.1294833696623,
            43.144071060660146,
            150.4
          ],
          [
            141.12957965676958,
            43.144127017020445,
            149.0
          ],
          [
            141.1296759438769,
            43.144182973380744,
            147.5
          ],
          [
            141.12977223098417,
            43.14423892974104,
            145.7
          ],
          [
            141.12986851809146,
            43.14429488610134,
            143.9
          ],
          [
            141.12996480519877,
            43.14435084246164,
            142.1
          ],
          [
            141.13006109230605,
            43.14440679882194,
            140.2
          ],
          [
            141.13015737941333,
            43.14446275518224,
            137.7
          ],
          [
            141.13025826660166,
            43.14451411296036,
            136.3
          ],
          [
            141.13036017455252,
            43.144564450308515,
            134.2
          ],
          [
            141.13046208250339,
            43.14461478765668,
            131.9
          ],
          [
            141.13056399045425,
            43.14466512500484,
            129.8
          ],
          [
            141.1306658984051,
            43.144715462353,
            127.7
          ],
          [
            141.13076780635598,
            43.14476579970116,
            125.2
          ],
          [
            141.13086766177028,
            43.144818170842775,
            122.8
          ],
          [
            141.13096328679302,
            43.14487473374534,
            120.3
          ],
          [
            141.13105891181576,
            43.14493129664791,
            117.6
          ],
          [
            141.1311545368385,
            43.144987859550476,
            116.0
          ],
          [
            141.13125016186123,
            43.14504442245304,
            114.2
          ],
          [
            141.13134578688397,
            43.14510098535561,
            112.6
          ],
          [
            141.13144141190668,
            43.145157548258176,
            111.3
          ],
          [
            141.13153703692942,
            43.14521411116074,
            109.9
          ],
          [
            141.13163310252125,
            43.14527027182461,
            108.9
          ],
          [
            141.1317293435028,
            43.145326272358,
            107.9
          ],
          [
            141.13182558448435,
            43.14538227289139,
            107.0
          ],
          [
            141.1319218254659,
            43.14543827342478,
            105.9
          ],
          [
            141.13201806644744,
            43.14549427395817,
            105.2
          ],
          [
            141.13211430742902,
            43.145550274491555,
            104.7
          ],
          [
            141.13221040748002,
            43.14560640273748,
            104.1
          ],
          [
            141.13230536684532,
            43.145663564682984,
            103.5
          ],
          [
            141.13240032621061,
            43.14572072662849,
            103.1
          ],
          [
            141.13246843901103,
            43.14576172795756,
            103.0
          ]
        ]
      }
    },
    {
      "type": "Feature",
      "properties": {
        "name": "フォレスト",
        "slope_deg": [
          5.142764557884234,
          5.142764557884234,
          5.142764557884234,
          7.96961039432135,
          10.619655276155134,
          11.172136252167157,
          11.172136252167157,
          11.585126224855072,
          10.481218144130889,
          10.065169352759836,
          8.950558656231639,
          8.390627013252587,
          11.034209003250266,
          11.309932474020215,
          11.309932474020215,
          11.309932474020215,
          11.309932474020215
        ],
        "horizontal_dist_map": 157,
        "slope_dist_map": 159,
        "elevation_diff_map": 25.2,
        "avg_slope_deg_map": 9.0,
        "max_slope_deg_map": 11.6
      },
      "geometry": {
        "type": "LineString",
        "coordinates": [
          [
            141.12877625902485,
            43.145472126670654,
            174.6
          ],
          [
            141.12881575060229,
            43.14538688550196,
            174.9
          ],
          [
            141.1288552421797,
            43.14530164433327,
            174.7
          ],
          [
            141.12889473375714,
            43.14521640316458,
            173.3
          ],
          [
            141.12893422533458,
            43.14513116199589,
            171.0
          ],
          [
            141.12897322495783,
            43.14504579952496,
            169.3
          ],
          [
            141.12901222335648,
            43.144960436752065,
            167.2
          ],
          [
            141.12905122175513,
            43.14487507397917,
            165.4
          ],
          [
            141.12909022015378,
            43.144789711206286,
            163.1
          ],
          [
            141.12913232277162,
            43.14470523866905,
            161.1
          ],
          [
            141.12918286524206,
            43.14462318653359,
            159.8
          ],
          [
            141.12923340771246,
            43.144541134398146,
            158.3
          ],
          [
            141.1292839501829,
            43.14445908226269,
            156.8
          ],
          [
            141.1293344926533,
            43.144377030127245,
            155.2
          ],
          [
            141.12938552892635,
            43.144295158670154,
            152.0
          ],
          [
            141.12944478979287,
            43.144216296524846,
            150.3
          ],
          [
            141.12948657179345,
            43.1441606946008,
            149.4
          ]
        ]
      }
    },
    {
      "type": "Feature",
      "properties": {
        "name": "ディア",
        "slope_deg": [
          7.829076510059608,
          7.829076510059608,
          7.829076510059608,
          9.22988624372772,
          10.0651693527598,
          12.270720357815309,
          13.360218444764483,
          11.447596263685636,
          8.810732985984973,
          5.568737077976685,
          7.406912128495294,
          11.034209003250266,
          13.766300685466197,
          14.975984514756677,
          11.585126224855031,
          8.530765609948133,
          6.983937460085339,
          6.983937460085339,
          6.983937460085339,
          6.983937460085339
        ],
        "horizontal_dist_map": 188,
        "slope_dist_map": 192,
        "elevation_diff_map": 31.5,
        "avg_slope_deg_map": 9.3,
        "max_slope_deg_map": 15.0
      },
      "geometry": {
        "type": "LineString",
        "coordinates": [
          [
            141.12393291589626,
            43.14116723070225,
            304.1
          ],
          [
            141.12381028443403,
            43.141162051987024,
            303.3
          ],
          [
            141.12369046075142,
            43.141177999010246,
            301.7
          ],
          [
            141.12362518141666,
            43.14123916437376,
            299.8
          ],
          [
            141.12362442052822,
            43.141328466710476,
            298.6
          ],
          [
            141.1236445273857,
            43.141417266947315,
            296.8
          ],
          [
            141.12365886305577,
            43.14150657276256,
            294.6
          ],
          [
            141.12366776058505,
            43.14159634633911,
            291.1
          ],
          [
            141.12367076850228,
            43.141686332034766,
            289.1
          ],
          [
            141.12371622080826,
            43.14176775655418,
            288.7
          ],
          [
            141.123778868951,
            43.14184519118831,
            288.4
          ],
          [
            141.1238425612151,
            43.14192216914324,
            287.2
          ],
          [
            141.12392034342474,
            43.14199186868933,
            283.9
          ],
          [
            141.1239981256344,
            43.14206156823542,
            280.9
          ],
          [
            141.12407408996535,
            43.14213233439733,
            278.6
          ],
          [
            141.12416343166916,
            43.142193095946666,
            276.5
          ],
          [
            141.12426713476714,
            43.14224120561843,
            275.7
          ],
          [
            141.1243796078093,
            43.142273196152225,
            274.9
          ],
          [
            141.12450127777362,
            43.14228600939269,
            273.7
          ],
          [
            141.12461153460384,
            43.14229045549348,
            272.6
          ]
        ]
      }
    },
    {
      "type": "Feature",
      "properties": {
        "name": "オウル",
        "slope_deg": [
          12.543973346572116,
          12.543973346572116,
          12.543973346572116,
          13.088732789694038,
          13.360218444764483,
          14.439965121002693,
          13.224551192213537,
          13.224551192213537,
          13.495733280795804,
          12.270720357815348,
          11.447596263685595,
          9.369385096487477,
          5.284821092509039,
          2.290610042638521,
          1.0025738037600465,
          1.0025738037600465,
          1.0025738037600465,
          1.0025738037600465
        ],
        "horizontal_dist_map": 164,
        "slope_dist_map": 167,
        "elevation_diff_map": 27.2,
        "avg_slope_deg_map": 9.2,
        "max_slope_deg_map": 14.4
      },
      "geometry": {
        "type": "LineString",
        "coordinates": [
          [
            141.12680753079894,
            43.1454343497594,
            202.4
          ],
          [
            141.12690476376676,
            43.14548942397913,
            200.6
          ],
          [
            141.12700199673458,
            43.14554449819885,
            198.4
          ],
          [
            141.12710284284697,
            43.145595824118054,
            196.1
          ],
          [
            141.12720628132394,
            43.14564446070076,
            193.5
          ],
          [
            141.1273097198009,
            43.14569309728346,
            191.3
          ],
          [
            141.12740483261973,
            43.14575000879938,
            188.9
          ],
          [
            141.12749892572688,
            43.14580793381429,
            185.8
          ],
          [
            141.12759860899547,
            43.14586049032196,
            184.1
          ],
          [
            141.12769980574194,
            43.14591159336229,
            181.9
          ],
          [
            141.12781254767992,
            43.14594437410087,
            179.3
          ],
          [
            141.12793190419288,
            43.14596519484939,
            177.1
          ],
          [
            141.12805429377514,
            43.14597361910704,
            176.0
          ],
          [
            141.12817568550162,
            43.14596328443645,
            175.3
          ],
          [
            141.12828375482766,
            43.14592559471999,
            175.6
          ],
          [
            141.1283812322803,
            43.14587079558657,
            175.5
          ],
          [
            141.12847610442526,
            43.14581355582511,
            175.3
          ],
          [
            141.1285146529704,
            43.145790298107784,
            175.2
          ]
        ]
      }
    },
    {
      "type": "Feature",
      "properties": {
        "name": "無名",
        "slope_deg": [
          7.406912128495215,
          7.406912128495215,
          7.406912128495215,
          8.250387228905515,
          3.718993973157994,
          6.135733340186728,
          7.969610394321392,
          7.969610394321392,
          7.969610394321392,
          7.969610394321392
        ],
        "horizontal_dist_map": 81,
        "slope_dist_map": 82,
        "elevation_diff_map": 10.8,
        "avg_slope_deg_map": 7.5,
        "max_slope_deg_map": 8.3
      },
      "geometry": {
        "type": "LineString",
        "coordinates": [
          [
            141.12453005348,
            43.14172768500222,
            289.7
          ],
          [
            141.12465272626514,
            43.141733398402884,
            288.3
          ],
          [
            141.1247753990503,
            43.141739111803545,
            284.7
          ],
          [
            141.1248970169776,
            43.1417267403997,
            284.9
          ],
          [
            141.12500535210205,
            43.14168999374986,
            284.5
          ],
          [
            141.12510352598505,
            43.141635936886274,
            282.5
          ],
          [
            141.1251879635454,
            43.14157052249019,
            282.1
          ],
          [
            141.12527182503464,
            43.141504716893955,
            280.6
          ],
          [
            141.12535455132848,
            43.14143814040572,
            278.9
          ],
          [
            141.12536534343883,
            43.14142945512836,
            278.9
          ]
        ]
      }
    }
  ]
}