{
  "type": "FeatureCollection",
  "features": [
    {
      "type": "Feature",
      "properties": {
        "name": "テクノ",
        "slope_deg": [
          24.10851589997543,
          24.10851589997543,
          24.10851589997543,
          24.93842765545712,
          25.641005824305335,
          25.757309211807936,
          26.220246235243597,
          26.335410003881297,
          26.45034506503404,
          27.8116468696437,
          25.524475356294268,
          25.29073439214831,
          25.407718108948472,
          25.524475356294268,
          27.24846742664491,
          25.407718108948472,
          25.524475356294534,
          22.660536301999365,
          18.906332035086372,
          18.133621430820266,
          16.304198003832376,
          16.172159015782732,
          15.509334522675056,
          14.170977562933274,
          13.901350769508936,
          14.036243467926479,
          14.84222705791098,
          15.90755193052566,
          15.2429977429017,
          15.109575122340402,
          15.109575122340402,
          15.2429977429017,
          15.109575122340402,
          14.97598451475675,
          15.642246457208788,
          14.708303899682749,
          15.2429977429017,
          13.901350769508936,
          12.68038349181982,
          11.44759626368548,
          10.342657140474548,
          9.78720366465624,
          9.648045316098093,
          7.969610394321551,
          6.418786730238786,
          9.787203664655925,
          8.810732985984973,
          10.757967088389877,
          11.44759626368548,
          7.547725773843367,
          8.530765609948133,
          7.688447769903003,
          8.9505586562316,
          8.9505586562316,
          8.9505586562316,
          8.9505586562316,
          8.9505586562316
        ],
        "horizontal_dist_map": 559,
        "slope_dist_map": 589,
        "elevation_diff_map": 168.4,
        "avg_slope_deg_map": 16.0,
        "max_slope_deg_map": 27.8
      },
      "geometry": {
        "type": "LineString",
        "coordinates": [
          [
            132.82558807281927,
            33.53789558998228,
            1201.9
          ],
          [
            132.82565328839243,
            33.537967327177476,
            1197.1
          ],
          [
            132.82572054743548,
            33.53803753597635,
            1193.5
          ],
          [
            132.82579833057682,
            33.53809987336341,
            1189.4
          ],
          [
            132.82587611371815,
            33.538162210750464,
            1184.0
          ],
          [
            132.8259538968595,
            33.538224548137514,
            1178.5
          ],
          [
            132.82603168000082,
            33.53828688552457,
            1174.3
          ],
          [
            132.8261096199812,
            33.53834908244357,
            1170.1
          ],
          [
            132.82618913487036,
            33.53840986884412,
            1164.3
          ],
          [
            132.82626864975953,
            33.53847065524468,
            1158.7
          ],
          [
            132.8263481646487,
            33.53853144164523,
            1154.4
          ],
          [
            132.82642767953786,
            33.53859222804579,
            1149.0
          ],
          [
            132.82650719442702,
            33.538653014446346,
            1145.2
          ],
          [
            132.8265867093162,
            33.5387138008469,
            1139.8
          ],
          [
            132.82666622420535,
            33.53877458724746,
            1135.4
          ],
          [
            132.82674573909452,
            33.53883537364801,
            1129.9
          ],
          [
            132.82682525398369,
            33.53889616004857,
            1124.6
          ],
          [
            132.82690476887285,
            33.538956946449126,
            1120.8
          ],
          [
            132.82698428376202,
            33.539017732849686,
            1116.3
          ],
          [
            132.82706379865115,
            33.53907851925024,
            1113.2
          ],
          [
            132.82714331354032,
            33.53913930565079,
            1110.9
          ],
          [
            132.82722282842948,
            33.53920009205135,
            1107.7
          ],
          [
            132.82730234331865,
            33.539260878451906,
            1104.6
          ],
          [
            132.82738059796415,
            33.53932278044512,
            1101.6
          ],
          [
            132.82745745891023,
            33.539385916168676,
            1099.8
          ],
          [
            132.8275343198563,
            33.53944905189224,
            1097.6
          ],
          [
            132.82761118080236,
            33.539512187615806,
            1094.7
          ],
          [
            132.82768804174844,
            33.53957532333936,
            1091.6
          ],
          [
            132.82776490269453,
            33.53963845906293,
            1089.2
          ],
          [
            132.8278417636406,
            33.539701594786486,
            1086.2
          ],
          [
            132.82791862458666,
            33.53976473051005,
            1083.8
          ],
          [
            132.82799548553274,
            33.53982786623361,
            1080.8
          ],
          [
            132.82807234647882,
            33.53989100195717,
            1078.4
          ],
          [
            132.82814920742487,
            33.53995413768074,
            1075.3
          ],
          [
            132.82822606837095,
            33.540017273404295,
            1073.0
          ],
          [
            132.82830292931703,
            33.54008040912786,
            1070.1
          ],
          [
            132.8283797902631,
            33.54014354485142,
            1067.2
          ],
          [
            132.82845665120917,
            33.54020668057498,
            1064.8
          ],
          [
            132.82853351215525,
            33.54026981629854,
            1062.1
          ],
          [
            132.82861037310133,
            33.540332952022105,
            1060.2
          ],
          [
            132.82868723404738,
            33.54039608774567,
            1058.2
          ],
          [
            132.82876409499346,
            33.54045922346923,
            1056.7
          ],
          [
            132.82883233426458,
            33.54052877445121,
            1054.8
          ],
          [
            132.8288981629449,
            33.54060011911744,
            1053.3
          ],
          [
            132.82896399162527,
            33.540671463783674,
            1051.4
          ],
          [
            132.82903431615543,
            33.54073951883639,
            1051.1
          ],
          [
            132.82910991744336,
            33.54080371288518,
            1050.3
          ],
          [
            132.82918933485868,
            33.540863344389116,
            1046.4
          ],
          [
            132.82928721693028,
            33.54090089963254,
            1045.2
          ],
          [
            132.82938509900188,
            33.54093845487596,
            1043.5
          ],
          [
            132.82948651971245,
            33.54096771602162,
            1042.2
          ],
          [
            132.829590661083,
            33.540990600303296,
            1041.1
          ],
          [
            132.8296948024535,
            33.54101348458498,
            1039.2
          ],
          [
            132.8297992482363,
            33.5410352732601,
            1038.1
          ],
          [
            132.82990475766096,
            33.541053233794344,
            1035.9
          ],
          [
            132.83001026708564,
            33.54107119432859,
            1034.8
          ],
          [
            132.83010888872866,
            33.54108798237764,
            1033.5
          ]
        ]
      }
    },
    {
      "type": "Feature",
      "properties": {
        "name": "ファミリー",
        "slope_deg": [
          8.250387228905435,
          8.250387228905435,
          8.250387228905435,
          8.390627013252708,
          8.390627013252388,
          8.530765609948133,
          7.406912128495294,
          7.125016348901798,
          7.266008446996189,
          6.701525844729548,
          6.418786730238786,
          6.842773412630876,
          6.135733340186728,
          5.852378988915493,
          6.56019640057118,
          5.994092949108534,
          6.277298489597523,
          6.418786730238786,
          5.426812498572917,
          5.284821092508918,
          5.142764557884274,
          4.858462919034416,
          4.431564716435877,
          4.573921259900927,
          4.146688825965976,
          4.289153328819018,
          5.142764557884112,
          5.000644597558433,
          5.142764557884274,
          5.852378988915493,
          5.568737077976766,
          5.4268124985727555,
          6.135733340186728,
          5.710593137499643,
          5.710593137499643,
          5.710593137499643,
          5.710593137499643
        ],
        "horizontal_dist_map": 353,
        "slope_dist_map": 355,
        "elevation_diff_map": 37.9,
        "avg_slope_deg_map": 6.1,
        "max_slope_deg_map": 8.5
      },
      "geometry": {
        "type": "LineString",
        "coordinates": [
          [
            132.8301955298524,
            33.54109182221237,
            1033.3
          ],
          [
            132.83029490600032,
            33.54112651761184,
            1032.2
          ],
          [
            132.8303942821482,
            33.541161213011314,
            1030.8
          ],
          [
            132.83049365829612,
            33.54119590841078,
            1029.5
          ],
          [
            132.83059309217373,
            33.54123048735998,
            1027.5
          ],
          [
            132.8306926431185,
            33.54126483016549,
            1026.3
          ],
          [
            132.83079219406332,
            33.541299172970994,
            1024.9
          ],
          [
            132.83089174500813,
            33.5413335157765,
            1023.5
          ],
          [
            132.8309912959529,
            33.54136785858201,
            1022.3
          ],
          [
            132.83109084689772,
            33.54140220138751,
            1021.3
          ],
          [
            132.8311903978425,
            33.54143654419302,
            1019.8
          ],
          [
            132.83128994878732,
            33.54147088699853,
            1018.8
          ],
          [
            132.83138949973213,
            33.54150522980404,
            1017.8
          ],
          [
            132.8314890506769,
            33.541539572609544,
            1016.5
          ],
          [
            132.83158860162172,
            33.54157391541505,
            1015.5
          ],
          [
            132.8316885007322,
            33.54160752025891,
            1014.7
          ],
          [
            132.83178921508096,
            33.54163939714796,
            1013.2
          ],
          [
            132.83188992942974,
            33.54167127403702,
            1012.3
          ],
          [
            132.8319906437785,
            33.54170315092608,
            1011.1
          ],
          [
            132.83209135812726,
            33.54173502781514,
            1010.2
          ],
          [
            132.83219207247603,
            33.541766904704204,
            1009.4
          ],
          [
            132.8322927868248,
            33.541798781593265,
            1008.6
          ],
          [
            132.83239350117356,
            33.541830658482326,
            1007.5
          ],
          [
            132.83249421552233,
            33.541862535371386,
            1006.8
          ],
          [
            132.8325949298711,
            33.54189441226044,
            1006.3
          ],
          [
            132.83269564421985,
            33.5419262891495,
            1005.4
          ],
          [
            132.83279635856863,
            33.54195816603856,
            1004.6
          ],
          [
            132.8328970729174,
            33.54199004292762,
            1003.8
          ],
          [
            132.83299778726618,
            33.54202191981668,
            1002.7
          ],
          [
            132.83309850161493,
            33.542053796705744,
            1001.9
          ],
          [
            132.8331992159637,
            33.542085673594805,
            1001.0
          ],
          [
            132.83329993031248,
            33.542117550483866,
            999.7
          ],
          [
            132.83340064466122,
            33.54214942737293,
            998.8
          ],
          [
            132.83350135901,
            33.54218130426198,
            998.1
          ],
          [
            132.83360207335878,
            33.54221318115104,
            996.7
          ],
          [
            132.83370278770752,
            33.5422450580401,
            995.7
          ],
          [
            132.83373543794235,
            33.54225539209802,
            995.4
          ]
        ]
      }
    },
    {
      "type": "Feature",
      "properties": {
        "name": "モーグル",
        "slope_deg": [
          15.37625124882619,
          15.37625124882619,
          15.37625124882619,
          16.567741642974738,
          16.961705886532968,
          17.223436191131583,
          18.778033222445426,
          18.26288994219419,
          17.6146433000071,
          18.778033222445426,
          17.6146433000071,
          18.52084947747122,
          18.778033222445426,
          17.6146433000071,
          17.744671625056874,
          16.567741642974738,
          17.35402463626132,
          17.744671625057023,
          19.544862326628827,
          20.68152167820107,
          18.64953875405141,
          18.64953875405141,
          18.64953875405141,
          18.64953875405141
        ],
        "horizontal_dist_map": 221,
        "slope_dist_map": 233,
        "elevation_diff_map": 70.3,
        "avg_slope_deg_map": 16.8,
        "max_slope_deg_map": 20.7
      },
      "geometry": {
        "type": "LineString",
        "coordinates": [
          [
            132.83193814330855,
            33.539792345815286,
            1082.3
          ],
          [
            132.8319953980475,
            33.539868700630656,
            1079.8
          ],
          [
            132.83205265278647,
            33.53994505544603,
            1076.5
          ],
          [
            132.83210990752542,
            33.5400214102614,
            1073.9
          ],
          [
            132.8321671622644,
            33.54009776507678,
            1071.3
          ],
          [
            132.83222441700335,
            33.54017411989215,
            1067.9
          ],
          [
            132.83228167174232,
            33.54025047470753,
            1064.3
          ],
          [
            132.83233892648127,
            33.5403268295229,
            1061.5
          ],
          [
            132.83239618122022,
            33.54040318433827,
            1057.7
          ],
          [
            132.8324534359592,
            33.540479539153644,
            1054.7
          ],
          [
            132.83250973466033,
            33.54055638809207,
            1051.6
          ],
          [
            132.83256555017607,
            33.540633486762324,
            1047.9
          ],
          [
            132.83262136569178,
            33.54071058543257,
            1045.0
          ],
          [
            132.83267718120752,
            33.54078768410282,
            1041.3
          ],
          [
            132.83273299672322,
            33.54086478277306,
            1038.0
          ],
          [
            132.83278881223896,
            33.54094188144332,
            1035.2
          ],
          [
            132.83284462775467,
            33.54101898011356,
            1032.2
          ],
          [
            132.8329004432704,
            33.54109607878381,
            1029.4
          ],
          [
            132.83295730915597,
            33.54117263620506,
            1025.5
          ],
          [
            132.83301436392122,
            33.54124909629779,
            1022.4
          ],
          [
            132.83307141868647,
            33.54132555639051,
            1018.0
          ],
          [
            132.83312847345172,
            33.54140201648324,
            1014.3
          ],
          [
            132.833185528217,
            33.54147847657597,
            1012.0
          ],
          [
            132.83319590030612,
            33.54149237639473,
            1012.0
          ]
        ]
      }
    },
    {
      "type": "Feature",
      "properties": {
        "name": "アイデアル",
        "slope_deg": [
          14.97598451475675,
          14.97598451475675,
          14.97598451475675,
          17.09266295026772,
          16.567741642974738,
          18.00416160591338,
          17.092662950267425,
          16.43605922463559,
          17.48442732322088,
          18.133621430820558,
          19.034434354835135,
          18.778033222445426,
          17.484427323220586,
          16.17215901578243,
          14.708303899682749,
          14.036243467926479,
          12.407418527400683,
          11.44759626368579,
          12.133880170633535,
          13.495733280795996,
          14.305551846622015,
          13.901350769508936,
          12.407418527400683,
          10.342657140474548,
          11.034209003250188,
          11.309932474020215,
          11.172136252167274,
          11.172136252166961,
          9.09027692082245,
          9.648045316098093,
          10.89615214114088,
          10.481218144131045,
          11.44759626368548,
          9.369385096487674,
          8.250387228905753,
          7.688447769903003,
          7.406912128495294,
          7.406912128495294,
          6.983937460085098,
          6.701525844729227,
          6.418786730238786,
          5.994092949108213,
          5.568737077976766,
          5.568737077976766,
          5.000644597558433,
          4.573921259900927,
          4.573921259900927,
          4.431564716435714,
          4.573921259900927,
          5.000644597558433,
          5.142764557884112,
          6.13573334018705,
          6.56019640057118,
          7.829076510059608,
          7.829076510059608,
          8.390627013252388,
          8.390627013252708,
          8.390627013252708,
          8.810732985984973,
          8.670801453591151,
          10.896152141141194,
          12.816647648997312,
          13.901350769508936,
          15.774985955414008,
          15.37625124882619,
          14.57421619803886,
          15.907551930525962,
          16.567741642974738,
          17.223436191131285,
          17.744671625056874,
          18.00416160591338,
          17.09266295026772,
          17.09266295026772,
          18.906332035086663,
          19.034434354835135,
          18.906332035086372,
          18.64953875405141,
          17.744671625056874,
          16.83056598321078,
          18.133621430820558,
          19.29004621918859,
          18.520849477471074,
          18.39196625070533,
          17.744671625056874,
          16.567741642974887,
          15.509334522674907,
          15.37625124882619,
          12.95276451337558,
          10.896152141141194,
          9.648045316098093,
          8.110047829419,
          7.969610394321233,
          8.250387228905435,
          9.648045316098251,
          7.969610394321392,
          6.98393746008542,
          7.406912128495294,
          5.852378988915653,
          6.277298489597523,
          6.277298489597523,
          6.277298489597523,
          6.277298489597523
        ],
        "horizontal_dist_map": 1002,
        "slope_dist_map": 1029,
        "elevation_diff_map": 214.0,
        "avg_slope_deg_map": 11.7,
        "max_slope_deg_map": 19.3
      },
      "geometry": {
        "type": "LineString",
        "coordinates": [
          [
            132.82607146391973,
            33.53758107287058,
            1204.2
          ],
          [
            132.82615682019426,
            33.53763602282427,
            1202.4
          ],
          [
            132.82624217646878,
            33.537690972777966,
            1199.3
          ],
          [
            132.82632753274328,
            33.53774592273166,
            1196.9
          ],
          [
            132.8264128890178,
            33.53780087268535,
            1193.5
          ],
          [
            132.82649824529233,
            33.537855822639045,
            1190.1
          ],
          [
            132.82658360156685,
            33.53791077259274,
            1187.4
          ],
          [
            132.82666895784138,
            33.537965722546424,
            1183.9
          ],
          [
            132.82675601336186,
            33.5380186376515,
            1181.2
          ],
          [
            132.8268469412902,
            33.53806691554457,
            1178.3
          ],
          [
            132.8269378692185,
            33.53811519343765,
            1174.8
          ],
          [
            132.82702879714685,
            33.53816347133072,
            1170.8
          ],
          [
            132.82711972507516,
            33.5382117492238,
            1167.4
          ],
          [
            132.8272106530035,
            33.53826002711687,
            1164.7
          ],
          [
            132.82730158093185,
            33.53830830500995,
            1162.2
          ],
          [
            132.82739407660202,
            33.53835425237061,
            1159.2
          ],
          [
            132.8274905049962,
            33.538394353526044,
            1156.9
          ],
          [
            132.82758693339036,
            33.53843445468148,
            1154.7
          ],
          [
            132.82768336178455,
            33.53847455583691,
            1153.4
          ],
          [
            132.8277797901787,
            33.53851465699235,
            1151.1
          ],
          [
            132.8278762185729,
            33.53855475814778,
            1148.3
          ],
          [
            132.82797202555804,
            33.53859586998013,
            1145.1
          ],
          [
            132.8280670123531,
            33.53863831579233,
            1143.2
          ],
          [
            132.8281619991482,
            33.538680761604546,
            1141.2
          ],
          [
            132.82825698594328,
            33.53872320741675,
            1139.5
          ],
          [
            132.82835197273835,
            33.538765653228964,
            1137.8
          ],
          [
            132.82844648167483,
            33.53880877779616,
            1135.4
          ],
          [
            132.82853681681257,
            33.53885783086739,
            1133.2
          ],
          [
            132.82862715195031,
            33.53890688393863,
            1131.6
          ],
          [
            132.82871748708806,
            33.53895593700986,
            1129.9
          ],
          [
            132.8288078222258,
            33.53900499008109,
            1129.0
          ],
          [
            132.82890996955993,
            33.539031364105206,
            1126.4
          ],
          [
            132.82901435933286,
            33.53905343271701,
            1123.9
          ],
          [
            132.82911925332877,
            33.53907359463893,
            1122.5
          ],
          [
            132.82922500970565,
            33.53909049551734,
            1120.9
          ],
          [
            132.82933106523106,
            33.539103510340944,
            1119.8
          ],
          [
            132.82943853757476,
            33.539098120150406,
            1118.1
          ],
          [
            132.82954600991843,
            33.539092729959876,
            1117.1
          ],
          [
            132.82965348226213,
            33.53908733976934,
            1115.7
          ],
          [
            132.8297609546058,
            33.5390819495788,
            1114.6
          ],
          [
            132.8298684269495,
            33.53907655938827,
            1113.2
          ],
          [
            132.82997589929317,
            33.53907116919773,
            1112.4
          ],
          [
            132.83008333839788,
            33.539065335169006,
            1111.2
          ],
          [
            132.83019077372518,
            33.53905945070077,
            1110.4
          ],
          [
            132.83029820905247,
            33.53905356623253,
            1109.3
          ],
          [
            132.83040564437977,
            33.5390476817643,
            1108.5
          ],
          [
            132.83051310328705,
            33.539042231323116,
            1107.7
          ],
          [
            132.83062073280462,
            33.539039921235286,
            1107.2
          ],
          [
            132.8307283623222,
            33.53903761114745,
            1106.1
          ],
          [
            132.83083599183976,
            33.53903530105961,
            1105.4
          ],
          [
            132.83094355838972,
            33.53903609953111,
            1104.5
          ],
          [
            132.8310510324266,
            33.53904146515156,
            1103.7
          ],
          [
            132.83115057171656,
            33.539068099854624,
            1102.5
          ],
          [
            132.83124257979568,
            33.53911492196214,
            1101.1
          ],
          [
            132.83133239997852,
            33.539164427833,
            1099.9
          ],
          [
            132.8314179806034,
            33.539219134119556,
            1098.2
          ],
          [
            132.8315035612283,
            33.53927384040612,
            1097.0
          ],
          [
            132.83158914185316,
            33.53932854669267,
            1095.2
          ],
          [
            132.83167472247803,
            33.53938325297923,
            1094.0
          ],
          [
            132.83176327814704,
            33.53943434835194,
            1092.3
          ],
          [
            132.8318547336182,
            33.53948192413456,
            1090.8
          ],
          [
            132.83194207110526,
            33.539533974512665,
            1089.1
          ],
          [
            132.83202030821238,
            33.539595913350205,
            1086.3
          ],
          [
            132.83209854531947,
            33.539657852187744,
            1083.2
          ],
          [
            132.832174291974,
            33.5397214490668,
            1080.9
          ],
          [
            132.83222871403717,
            33.53979924298705,
            1077.8
          ],
          [
            132.83228313610036,
            33.539877036907306,
            1075.3
          ],
          [
            132.83233755816354,
            33.53995483082756,
            1072.8
          ],
          [
            132.83239198022673,
            33.540032624747816,
            1069.5
          ],
          [
            132.83244640228992,
            33.540110418668064,
            1065.9
          ],
          [
            132.8325008243531,
            33.54018821258832,
            1062.9
          ],
          [
            132.8325552464163,
            33.540266006508574,
            1060.0
          ],
          [
            132.83260966847948,
            33.54034380042883,
            1056.5
          ],
          [
            132.83266409054266,
            33.540421594349084,
            1053.6
          ],
          [
            132.83271851260585,
            33.54049938826933,
            1050.6
          ],
          [
            132.83277293466904,
            33.54057718218959,
            1046.3
          ],
          [
            132.83282735673222,
            33.54065497610984,
            1042.7
          ],
          [
            132.83288296225768,
            33.54073216826585,
            1039.9
          ],
          [
            132.832940302879,
            33.54080847816424,
            1037.1
          ],
          [
            132.8329976435003,
            33.54088478806263,
            1033.5
          ],
          [
            132.83305498412162,
            33.54096109796101,
            1030.6
          ],
          [
            132.83311232474296,
            33.5410374078594,
            1026.8
          ],
          [
            132.83316966536427,
            33.54111371775779,
            1023.1
          ],
          [
            132.83322700598558,
            33.54119002765618,
            1020.1
          ],
          [
            132.8332843466069,
            33.54126633755456,
            1017.3
          ],
          [
            132.83334114865832,
            33.54134292469933,
            1014.0
          ],
          [
            132.83339655806435,
            33.54142022875369,
            1011.2
          ],
          [
            132.83345196747038,
            33.541497532808044,
            1009.0
          ],
          [
            132.8335073768764,
            33.54157483686241,
            1006.3
          ],
          [
            132.83356278628244,
            33.54165214091677,
            1004.8
          ],
          [
            132.83361819568847,
            33.541729444971125,
            1003.5
          ],
          [
            132.8336736050945,
            33.54180674902548,
            1002.2
          ],
          [
            132.83372931117884,
            33.54188390071613,
            1000.6
          ],
          [
            132.8337864869555,
            33.541960297623696,
            999.2
          ],
          [
            132.83384366273214,
            33.54203669453126,
            997.7
          ],
          [
            132.83390388428725,
            33.542111160150895,
            995.4
          ],
          [
            132.833976197622,
            33.54217795853261,
            995.0
          ],
          [
            132.8340592829476,
            33.542232926317574,
            994.3
          ],
          [
            132.8341553525931,
            33.542273633762555,
            992.5
          ],
          [
            132.83425153765145,
            33.54231413358419,
            991.3
          ],
          [
            132.8343505880978,
            33.542349478682915,
            990.6
          ],
          [
            132.83437932347334,
            33.542359732596175,
            990.2
          ]
        ]
      }
    }
  ]
}