{
  "type": "FeatureCollection",
  "features": [
    {
      "type": "Feature",
      "properties": {
        "name": "コスモ",
        "slope_deg": [
          6.842773412630916,
          6.842773412630916,
          6.842773412630916,
          9.926245506651705,
          14.036243467926479,
          14.975984514756677,
          15.509334522674907,
          16.039943306049665,
          16.172159015782583,
          16.567741642974926,
          15.774985955414046,
          15.642246457208712,
          16.961705886532894,
          17.484427323220693,
          18.00416160591338,
          19.544862326628795,
          17.484427323220693,
          18.77803322244555,
          17.35402463626132,
          16.69924423399362,
          16.039943306049665,
          15.242997742901567,
          15.907551930525852,
          14.30555184662194,
          14.574216198038746,
          12.952764513375522,
          11.996899307923577,
          11.996899307923577,
          10.342657140474609,
          10.203973721731689,
          8.950558656231658,
          7.688447769902882,
          6.5601964005713205,
          6.5601964005713205,
          6.5601964005713205,
          6.5601964005713205
        ],
        "horizontal_dist_map": 342,
        "slope_dist_map": 353,
        "elevation_diff_map": 80.5,
        "avg_slope_deg_map": 12.8,
        "max_slope_deg_map": 19.5
      },
      "geometry": {
        "type": "LineString",
        "coordinates": [
          [
            140.39164614096558,
            40.57237025788362,
            164.1
          ],
          [
            140.39159691990358,
            40.572452116564264,
            164.0
          ],
          [
            140.3915476988416,
            40.5725339752449,
            163.8
          ],
          [
            140.3914984777796,
            40.572615833925546,
            162.6
          ],
          [
            140.39144925671764,
            40.572697692606184,
            159.3
          ],
          [
            140.39140003565564,
            40.57277955128683,
            157.0
          ],
          [
            140.39135081459366,
            40.572861409967466,
            153.8
          ],
          [
            140.39130159353167,
            40.57294326864811,
            151.9
          ],
          [
            140.39125237246967,
            40.573025127328755,
            148.2
          ],
          [
            140.39120345624107,
            40.57310708629386,
            145.5
          ],
          [
            140.39115914357652,
            40.57319055974517,
            142.2
          ],
          [
            140.39111483091196,
            40.57327403319648,
            140.0
          ],
          [
            140.3910705182474,
            40.573357506647795,
            136.9
          ],
          [
            140.39102620558285,
            40.57344098009911,
            134.3
          ],
          [
            140.3909818929183,
            40.57352445355042,
            130.0
          ],
          [
            140.39093758025373,
            40.57360792700173,
            127.4
          ],
          [
            140.39089326758918,
            40.57369140045305,
            123.9
          ],
          [
            140.39084895492462,
            40.57377487390436,
            120.1
          ],
          [
            140.39080464226006,
            40.573858347355674,
            117.4
          ],
          [
            140.3907603295955,
            40.573941820806986,
            113.8
          ],
          [
            140.39071872520643,
            40.5740260824275,
            111.4
          ],
          [
            140.39067884029257,
            40.57411084445407,
            108.1
          ],
          [
            140.3906389553787,
            40.57419560648063,
            105.9
          ],
          [
            140.39059907046487,
            40.574280368507196,
            102.9
          ],
          [
            140.390559185551,
            40.57436513053376,
            100.0
          ],
          [
            140.39051930063715,
            40.574449892560324,
            97.9
          ],
          [
            140.3904794157233,
            40.574534654586884,
            95.5
          ],
          [
            140.39043904379662,
            40.57461928242719,
            93.7
          ],
          [
            140.39039862434248,
            40.5747038971723,
            91.5
          ],
          [
            140.39035820488834,
            40.5747885119174,
            89.4
          ],
          [
            140.3903177854342,
            40.5748731266625,
            88.2
          ],
          [
            140.39027807957584,
            40.574957930435716,
            86.5
          ],
          [
            140.390240999312,
            40.57504342971634,
            85.2
          ],
          [
            140.39020391904813,
            40.57512892899697,
            84.0
          ],
          [
            140.3901668387843,
            40.5752144282776,
            83.6
          ],
          [
            140.39015633936845,
            40.575238637719735,
            83.6
          ]
        ]
      }
    },
    {
      "type": "Feature",
      "properties": {
        "name": "アドベンチャー",
        "slope_deg": [
          14.842227057911092,
          14.842227057911092,
          14.842227057911092,
          15.509334522674907,
          18.133621430820412,
          18.64953875405141,
          16.304198003832298,
          15.10957512234044,
          12.81664764899743,
          12.270720357815309,
          12.68038349181982,
          12.13388017063334,
          11.172136252167157,
          11.034209003250266,
          10.203973721731689,
          10.481218144130926,
          9.648045316098132,
          10.342657140474609,
          9.787203664656122,
          9.09027692082233,
          10.065169352759856,
          9.09027692082233,
          9.22988624372772,
          8.950558656231658,
          7.96961039432135,
          7.125016348901798,
          6.983937460085278,
          8.250387228905495,
          7.547725773843106,
          8.670801453590954,
          9.926245506651705,
          9.50877195829785,
          11.996899307923577,
          11.58512622485505,
          10.342657140474627,
          11.859779120947985,
          9.648045316098171,
          9.648045316098154,
          8.950558656231658,
          8.950558656231658,
          8.950558656231658,
          8.950558656231658
        ],
        "horizontal_dist_map": 404,
        "slope_dist_map": 413,
        "elevation_diff_map": 78.4,
        "avg_slope_deg_map": 10.7,
        "max_slope_deg_map": 18.6
      },
      "geometry": {
        "type": "LineString",
        "coordinates": [
          [
            140.3921059359132,
            40.57251964055493,
            163.2
          ],
          [
            140.39211223311628,
            40.5726095654898,
            160.8
          ],
          [
            140.39211853031935,
            40.57269949042467,
            158.3
          ],
          [
            140.3921248275224,
            40.572789415359544,
            156.5
          ],
          [
            140.39215001548754,
            40.57287461587719,
            152.6
          ],
          [
            140.39221478444261,
            40.57294991752948,
            149.7
          ],
          [
            140.39227955339766,
            40.573025219181766,
            145.2
          ],
          [
            140.39234432235273,
            40.57310052083405,
            143.0
          ],
          [
            140.3924102442896,
            40.57317523693067,
            140.9
          ],
          [
            140.39247641990679,
            40.5732498241927,
            138.9
          ],
          [
            140.392542595524,
            40.57332441145472,
            136.1
          ],
          [
            140.3926087711412,
            40.57339899871675,
            134.3
          ],
          [
            140.39265892379558,
            40.57347931407301,
            131.9
          ],
          [
            140.39269178699985,
            40.573565810283654,
            130.3
          ],
          [
            140.39270666502438,
            40.57365136385452,
            128.2
          ],
          [
            140.39265027276733,
            40.573730041479834,
            126.5
          ],
          [
            140.39256726105828,
            40.57379156783692,
            124.7
          ],
          [
            140.39246748893615,
            40.57383975125139,
            122.9
          ],
          [
            140.39236771681402,
            40.57388793466586,
            121.4
          ],
          [
            140.3922679446919,
            40.57393611808033,
            119.2
          ],
          [
            140.39216817256977,
            40.573984301494804,
            117.8
          ],
          [
            140.39206840044764,
            40.574032484909274,
            116.5
          ],
          [
            140.3919686283255,
            40.574080668323745,
            114.3
          ],
          [
            140.39186885620336,
            40.574128851738216,
            112.8
          ],
          [
            140.3917693374013,
            40.57417733928209,
            111.3
          ],
          [
            140.39166982842536,
            40.57422583862292,
            110.2
          ],
          [
            140.39157031944941,
            40.57427433796376,
            108.7
          ],
          [
            140.39147081047344,
            40.57432283730459,
            107.8
          ],
          [
            140.3913713014975,
            40.57437133664543,
            106.4
          ],
          [
            140.391282256474,
            40.57442852542769,
            104.4
          ],
          [
            140.39121041576175,
            40.57450000095822,
            103.4
          ],
          [
            140.39113857504947,
            40.574571476488735,
            101.7
          ],
          [
            140.39106673433722,
            40.57464295201926,
            99.4
          ],
          [
            140.39099489362494,
            40.574714427549786,
            97.7
          ],
          [
            140.39093303831626,
            40.57479100544885,
            94.9
          ],
          [
            140.39087365576293,
            40.57486884688313,
            93.5
          ],
          [
            140.3908142732096,
            40.5749466883174,
            92.1
          ],
          [
            140.39075489065624,
            40.57502452975167,
            89.3
          ],
          [
            140.3906955081029,
            40.57510237118594,
            88.1
          ],
          [
            140.39065289974747,
            40.575186317857025,
            86.7
          ],
          [
            140.3906108723315,
            40.575270475970285,
            85.8
          ],
          [
            140.39059164119863,
            40.57530898549609,
            84.8
          ]
        ]
      }
    }
  ]
}