{
  "type": "FeatureCollection",
  "features": [
    {
      "type": "Feature",
      "geometry": {
        "type": "LineString",
        "coordinates": [
          [
            140.31916111418838,
            37.62179697520461,
            1062.3
          ],
          [
            140.31938093172582,
            37.62184057635656,
            1056.1
          ],
          [
            140.3196007492633,
            37.62188417750852,
            1049.5
          ],
          [
            140.31982056680073,
            37.62192777866047,
            1043.8
          ],
          [
            140.32004038433817,
            37.62197137981243,
            1038.6
          ],
          [
            140.3202602018756,
            37.62201498096438,
            1031.6
          ],
          [
            140.32048001941308,
            37.62205858211634,
            1024.8
          ],
          [
            140.32069983695052,
            37.62210218326829,
            1017.8
          ],
          [
            140.32091965448797,
            37.62214578442025,
            1011.2
          ],
          [
            140.3211394720254,
            37.6221893855722,
            1004.0
          ],
          [
            140.32135928956288,
            37.62223298672416,
            997.4
          ],
          [
            140.32157910710032,
            37.62227658787611,
            992.1
          ],
          [
            140.32179892463776,
            37.622320189028066,
            989.5
          ],
          [
            140.3220187421752,
            37.62236379018002,
            984.8
          ],
          [
            140.32223855971267,
            37.622407391331976,
            981.4
          ],
          [
            140.32245837725011,
            37.62245099248393,
            977.8
          ],
          [
            140.32267819478756,
            37.622494593635885,
            975.4
          ],
          [
            140.32289801232503,
            37.622538194787836,
            970.5
          ],
          [
            140.32311782986247,
            37.622581795939794,
            964.9
          ],
          [
            140.3233376473999,
            37.622625397091745,
            960.4
          ],
          [
            140.32355746493735,
            37.622668998243704,
            954.8
          ],
          [
            140.32377728247482,
            37.622712599395655,
            953.0
          ],
          [
            140.32399710001226,
            37.62275620054761,
            952.5
          ],
          [
            140.3242169175497,
            37.622799801699564,
            950.9
          ],
          [
            140.32443673508715,
            37.62284340285152,
            950.4
          ],
          [
            140.32455561933116,
            37.62286698372704,
            950.4
          ]
        ]
      },
      "properties": {
        "name": "オレンジライン",
        "horizontal_dist_map": 490,
        "slope_dist_map": 506,
        "elevation_diff_map": 111.9,
        "midstation": null,
        "resort": "adatara-kogen",
        "speed": "低速",
        "type": "リフト",
        "hood": "×",
        "capacity": 4,
        "distance": 510,
        "vertical": "",
        "top": "",
        "bottom": "",
        "footrest": "×",
        "towers": 10,
        "signal": "",
        "oilShield": "×",
        "maker": "",
        "year": "",
        "note": "",
        "searchWord": "あだたら高原　オレンジライン",
        "status": "×",
        "update": null,
        "latest_note": "運休"
      }
    },
    {
      "type": "Feature",
      "geometry": {
        "type": "LineString",
        "coordinates": [
          [
            140.3160625,
            37.6216797,
            1130.9
          ],
          [
            140.3162344599929,
            37.62179701781452,
            1123.2
          ],
          [
            140.3164064199858,
            37.62191433562904,
            1113.1
          ],
          [
            140.3165783799787,
            37.62203165344357,
            1105.5
          ],
          [
            140.3167503399716,
            37.62214897125809,
            1097.3
          ],
          [
            140.31692229996452,
            37.62226628907261,
            1088.3
          ],
          [
            140.31709425995743,
            37.622383606887134,
            1081.9
          ],
          [
            140.31726621995034,
            37.622500924701654,
            1074.5
          ],
          [
            140.31743817994322,
            37.62261824251618,
            1067.8
          ],
          [
            140.31761013993614,
            37.6227355603307,
            1062.6
          ],
          [
            140.31778209992905,
            37.622852878145224,
            1058.9
          ],
          [
            140.31795405992196,
            37.622970195959745,
            1054.5
          ],
          [
            140.31812601991487,
            37.623087513774266,
            1050.4
          ],
          [
            140.31829797990775,
            37.623204831588794,
            1046.4
          ],
          [
            140.31846993990067,
            37.623322149403315,
            1041.4
          ],
          [
            140.31864189989358,
            37.623439467217835,
            1037.6
          ],
          [
            140.3188138598865,
            37.623556785032356,
            1032.9
          ],
          [
            140.31898581987937,
            37.62367410284688,
            1029.6
          ],
          [
            140.31915777987228,
            37.623791420661405,
            1026.3
          ],
          [
            140.3193297398652,
            37.623908738475926,
            1023.8
          ],
          [
            140.3195016998581,
            37.62402605629045,
            1018.3
          ],
          [
            140.31967365985102,
            37.62414337410497,
            1015.4
          ],
          [
            140.3197771642669,
            37.62421398885471,
            1015.0
          ]
        ]
      },
      "properties": {
        "name": "バイオレットライン",
        "horizontal_dist_map": 432,
        "slope_dist_map": 449,
        "elevation_diff_map": 115.9,
        "midstation": null,
        "resort": "adatara-kogen",
        "speed": "低速",
        "type": "リフト",
        "hood": "×",
        "capacity": 2,
        "distance": 450,
        "vertical": "",
        "top": "",
        "bottom": "",
        "footrest": "×",
        "towers": "",
        "signal": "",
        "oilShield": "",
        "maker": "",
        "year": "",
        "note": "",
        "searchWord": "あだたら高原　バイオレットライン",
        "status": "×",
        "update": null,
        "latest_note": "運休"
      }
    },
    {
      "type": "Feature",
      "geometry": {
        "type": "LineString",
        "coordinates": [
          [
            140.32032284883098,
            37.62391744437165,
            1017.5
          ],
          [
            140.3205444385124,
            37.62387993136754,
            1015.6
          ],
          [
            140.3207660281938,
            37.62384241836343,
            1013.0
          ],
          [
            140.3209876178752,
            37.62380490535932,
            1009.4
          ],
          [
            140.32120920755662,
            37.62376739235521,
            1005.0
          ],
          [
            140.32143079723804,
            37.6237298793511,
            1001.1
          ],
          [
            140.32165238691942,
            37.623692366346994,
            996.8
          ],
          [
            140.32187397660084,
            37.623654853342885,
            990.8
          ],
          [
            140.32209556628226,
            37.623617340338775,
            983.4
          ],
          [
            140.32231715596365,
            37.623579827334666,
            976.1
          ],
          [
            140.32253874564506,
            37.62354231433056,
            966.7
          ],
          [
            140.32276033532648,
            37.62350480132645,
            961.1
          ],
          [
            140.32298192500787,
            37.62346728832234,
            956.8
          ],
          [
            140.32320351468928,
            37.62342977531823,
            955.2
          ],
          [
            140.3234251043707,
            37.62339226231412,
            954.2
          ],
          [
            140.32364669405212,
            37.62335474931001,
            953.3
          ],
          [
            140.3238682837335,
            37.6233172363059,
            951.4
          ],
          [
            140.3240433943912,
            37.62328759175396,
            951.4
          ]
        ]
      },
      "properties": {
        "name": "ブルーライン",
        "horizontal_dist_map": 335,
        "slope_dist_map": 344,
        "elevation_diff_map": 66.1,
        "midstation": null,
        "resort": "adatara-kogen",
        "speed": "低速",
        "type": "リフト",
        "hood": "×",
        "capacity": 2,
        "distance": 350,
        "vertical": "",
        "top": "",
        "bottom": "",
        "footrest": "",
        "towers": "",
        "signal": "",
        "oilShield": "",
        "maker": "",
        "year": "",
        "note": "",
        "searchWord": "あだたら高原　ブルーライン",
        "status": "×",
        "update": null,
        "latest_note": "運休"
      }
    }
  ]
}