{"type":"FeatureCollection","features":[{"type":"Feature","properties":{"@id":"way/454570757","name":"パウダースノー"},"geometry":{"coordinates":[[137.8285435304284,36.66429216420599],[137.83051531496264,36.66462954351996],[137.8317985750648,36.664842911614556],[137.8328204301769,36.664963296138],[137.83352326534117,36.665065918979586],[137.8343720152142,36.665159454689174],[137.83516024962137,36.66520394186682]],"type":"LineString"}},{"type":"Feature","properties":{"@id":"way/454570754","name":"メリーランド"},"geometry":{"coordinates":[[137.83503661851978,36.665400927437645],[137.83585749506742,36.66594531882063],[137.83659149380932,36.66644738193328],[137.8372981,36.66701903541056],[137.8378849,36.667638],[137.838259562959,36.6680962062292],[137.83860621605427,36.66862172003357]],"type":"LineString"}},{"type":"Feature","properties":{"@id":"way/454570749","name":"DISCOVERY SPORT"},"geometry":{"coordinates":[[137.8260561346026,36.667310650629254],[137.8263972870409,36.66771996451473],[137.8267537497495,36.66805242283192],[137.82722939948684,36.668256992014],[137.8276053114623,36.66840187660786],[137.827979153941,36.66849561882998],[137.8283891389686,36.668516929789796],[137.8287003523332,36.6684892451776],[137.82917993261316,36.668322042368736],[137.82944627796658,36.66821714077159],[137.82971753775,36.66824137038579],[137.82996755336154,36.6683380203402],[137.830249345404,36.6689353408864],[137.83040764501925,36.66924460130173],[137.83065117752935,36.669417131654086],[137.83126904416937,36.66965596079635],[137.83207313312812,36.669838882182056],[137.8329071,36.66993014265889],[137.83363018895727,36.66999166144609],[137.83429087146806,36.66997744944875],[137.83509495212832,36.669797100317595]],"type":"LineString"}},{"type":"Feature","properties":{"@id":"way/454570747","name":"DEFENDER"},"geometry":{"coordinates":[[137.82972659144565,36.66814355043512],[137.83130031776875,36.66864480516674],[137.83331523223507,36.669206715552285],[137.8351329,36.6696885]],"type":"LineString"}},{"type":"Feature","properties":{"@id":"way/454570748","name":"スノーダイビング"},"geometry":{"coordinates":[[137.82759215218715,36.668615602339344],[137.8280787963579,36.6687594222139],[137.82889261782594,36.66900704240824],[137.82972901782594,36.66925584240824],[137.83037687057103,36.669395840331894]],"type":"LineString"}},{"type":"Feature","properties":{"@id":"way/454570746","name":"アドベンチャー"},"geometry":{"coordinates":[[137.81954320215556,36.66940596027116],[137.8200720064681,36.66922736004237],[137.82048690646812,36.66892486696629],[137.82114191293317,36.66844767011264],[137.8218837388027,36.66792085825287],[137.82245265281597,36.667634379184335],[137.82297317545138,36.66750316151542],[137.82366535066046,36.667149823703326],[137.82420025389453,36.66651507211431],[137.8246859913779,36.66631752403167],[137.82515636766394,36.666383160059375],[137.8254605,36.6665938],[137.82594707976543,36.66722281069768]],"type":"LineString"}},{"type":"Feature","properties":{"@id":"way/454570738","name":"テクニカル"},"geometry":{"coordinates":[[137.8136457710427,36.66194771993675],[137.81394763750595,36.66179871550601],[137.81429659139988,36.66163879992753],[137.81483098154536,36.661477765958146],[137.81553414543754,36.661324369587746]],"type":"LineString"}},{"type":"Feature","properties":{"@id":"way/454570739","name":"スーパー"},"geometry":{"coordinates":[[137.8140031125104,36.66329468458771],[137.81430143115256,36.663192824778264],[137.8146935954855,36.66313661649903],[137.8148879560952,36.66307479276723],[137.8150217,36.6629113],[137.8151868223633,36.66266304903586],[137.8153792,36.6624731],[137.81596149982713,36.66214694762907],[137.81630758726908,36.66190096093462],[137.816412719267,36.661721131748095],[137.81646774180194,36.66158158916763],[137.81659544507016,36.66133637279495],[137.81685404541136,36.66111954540025]],"type":"LineString"}},{"type":"Feature","properties":{"name":"グランプリ"},"geometry":{"coordinates":[[137.8114994388805,36.66041003460168],[137.8120221346664,36.66044357863392],[137.8124323009697,36.66044738830617],[137.81261975018455,36.66042820422879],[137.8129911549844,36.6603716665412],[137.8144228758621,36.6605682175382],[137.81656663161283,36.660949731990016],[137.8183109030394,36.66130914578791]],"type":"LineString"}},{"type":"Feature","properties":{"@id":"way/454570734","name":"パノラマ"},"geometry":{"coordinates":[[137.8111471293955,36.660529468114895],[137.8109797668418,36.660698459508055],[137.81092088398853,36.66082199106146],[137.81097513146284,36.660977552501464],[137.81156110642377,36.66128981412893],[137.81206205426315,36.66155689498407],[137.81248237455267,36.661765011980044],[137.81286523435762,36.661959652283755],[137.8130745496072,36.66216060059781],[137.81332235604657,36.66253651559427],[137.81353959203284,36.66297911152567],[137.81363726671867,36.66335776839764],[137.8137795641855,36.663709784198815],[137.8140694112255,36.66403607022583],[137.81435505682197,36.66429414593779],[137.81458736168162,36.66461568685743],[137.81477575747851,36.6648647733758],[137.81493579794912,36.66514682018975]],"type":"LineString"}},{"type":"Feature","properties":{"@id":"way/454570741","name":"Hakuba47 ルート6"},"geometry":{"coordinates":[[137.82057808246438,36.67615512387905],[137.82143710345514,36.676384924594416],[137.82197362978027,36.67651224346675],[137.82233737767064,36.67657126408503],[137.82250387609736,36.6767014738479],[137.82254036515985,36.67716733006584],[137.8226761244203,36.6776365581392],[137.82258414760312,36.67808080609691],[137.822471690262,36.678532846044234],[137.8224818,36.6789954],[137.82260437557787,36.679373422794136],[137.82266322194906,36.679712253090756]],"type":"LineString"}},{"type":"Feature","properties":{"@id":"way/454570732","name":"Hakuba47 ルート4"},"geometry":{"coordinates":[[137.81711836192648,36.6763657],[137.81762624109817,36.67665395214144],[137.8188133,36.6776451],[137.8204314461655,36.67885133774323],[137.8218847348841,36.68004130782622]],"type":"LineString"}},{"type":"Feature","properties":{"@id":"way/454570740","name":"Hakuba47 ルート5"},"geometry":{"coordinates":[[137.81781836263178,36.67592849632633],[137.81865321370387,36.67604878585624],[137.8193317107265,36.676142885287454],[137.81983380809788,36.67681420979079],[137.82009598643685,36.67703870985876],[137.82054867640355,36.677251892109204],[137.820868,36.6774172],[137.8210434,36.6776498],[137.8211783,36.6780393],[137.8212457,36.6781637],[137.82146462816652,36.67839183973059],[137.8218405239451,36.67862641112334],[137.822432408096,36.67903501203718]],"type":"LineString"}},{"type":"Feature","properties":{"@id":"way/454570723","name":"Hakuba47 ルート2"},"geometry":{"coordinates":[[137.81847564540345,36.67104380734194],[137.81851748180077,36.67160816396957],[137.8185656090681,36.67229720904812],[137.8186767,36.6727776],[137.8187442,36.6729021],[137.81900024543432,36.673559027427025],[137.81899823633537,36.673809509811086],[137.81889028633478,36.67404749780688],[137.81865557273264,36.67426006780242],[137.818326,36.67435765990431],[137.817928,36.67443261477279],[137.81762472713973,36.67446436979374],[137.81741319990456,36.674565227534295],[137.81731049993687,36.674731344890816],[137.81738479093192,36.67497467935923],[137.81781355456485,36.675293360630526],[137.81834795453472,36.675739127661195],[137.81863220865824,36.675937132368084]],"type":"LineString"}},{"type":"Feature","properties":{"@id":"way/454570722","name":"Hakuba47 ルート3"},"geometry":{"coordinates":[[137.81732911238862,36.672145250903256],[137.81672225614227,36.67302146525694],[137.81621252477467,36.67378083033514],[137.81603284984894,36.67410045942876],[137.81599992487617,36.67434471711664],[137.81616186481014,36.675463905801976],[137.81623260579133,36.67581421993995],[137.81629597906456,36.67604302535785]],"type":"LineString"}},{"type":"Feature","properties":{"@id":"way/454570742","name":"Hakuba47 ルート8_上部"},"geometry":{"coordinates":[[137.8138105478879,36.66424116027626],[137.81376984574447,36.66448211312234],[137.81384565239225,36.66491375693175],[137.81407507526447,36.66536433443559],[137.81434114282072,36.66581066561214],[137.81459734840084,36.66594696740797],[137.81481350356026,36.66605172552204],[137.81501624079934,36.666297011272434],[137.8153428085698,36.666675538935195],[137.81568818208544,36.66710977257434],[137.81603159006914,36.66754037753631],[137.8161809208223,36.66790073108187],[137.81625922957113,36.66823734879111],[137.8168893271081,36.66874917749783],[137.8175129579907,36.66933771234938]],"type":"LineString"}},{"type":"Feature","properties":{"@id":"way/454570726","name":"Hakuba47 ルート8_下部"},"geometry":{"coordinates":[[137.8175129579907,36.66933771234938],[137.81770121540868,36.66953156801718],[137.8181928,36.6701186],[137.8184060004949,36.67050920076279],[137.81845520068646,36.67077004714543],[137.818339350481,36.67098186415014],[137.81819290011026,36.67117322778498],[137.8179971,36.671391921412436],[137.8176296000551,36.67180833461345],[137.81745605013708,36.67203494838425],[137.8172876002481,36.672085667913294],[137.81706029993248,36.67216990458401],[137.8169248001103,36.672200963962176],[137.81683540008143,36.672168975331196],[137.8165942,36.6720175],[137.81617384969678,36.67176174710912],[137.8158657,36.6715469],[137.8155696504948,36.67130506544426],[137.81534002530253,36.67114119684185],[137.8152328007692,36.67103459680024],[137.8150690506314,36.67079269211001],[137.81489510043974,36.67061214680138],[137.81476720063267,36.670566606437475],[137.81473220087946,36.67066872857549],[137.81477120101724,36.670727984639484],[137.81489870057763,36.67090556563284],[137.8149472756538,36.67105251117191],[137.81495505050933,36.67134671885415],[137.81501892566686,36.67173091957555],[137.8150165004673,36.67205376264917],[137.81504150021922,36.672292717392295],[137.8150668491487,36.67247167898074],[137.81516622407952,36.6725529787923],[137.8153102620549,36.67267543937007],[137.81561750090702,36.67283062418664],[137.81560740090703,36.67291329571038],[137.81553585097592,36.67295612457852],[137.8152705,36.6728926],[137.814741,36.67266],[137.81455859980707,36.67245536350819],[137.8144476,36.6723489],[137.81419759972562,36.6722840405514],[137.8140496,36.672211],[137.81403035009578,36.672149044747634],[137.81404170035705,36.67201345943405],[137.81400715037017,36.67186969284682],[137.81395220027437,36.671815918847436],[137.81386260013642,36.67180274346379],[137.813839500466,36.671854368054944],[137.81383860098967,36.67199112081796],[137.81383030107114,36.672232986671865],[137.81392870089263,36.67247044739066],[137.81397610043962,36.672699727327576],[137.8139880005211,36.67296306206494],[137.81396220129167,36.673252937551894],[137.81390105042533,36.67352254007294],[137.81391382522582,36.673677793940996],[137.8140184005224,36.67385759067158],[137.81405680083878,36.67414086897158],[137.8140595009621,36.67439142353136],[137.81412500082436,36.67457602443682],[137.81420400063135,36.67474689042107],[137.81433590085194,36.67487467258107],[137.81457649996008,36.67513302269822],[137.8149905,36.675465],[137.8152603,36.6757409],[137.81561105000068,36.67599487947282],[137.81585979945,36.676134328958064],[137.81604109890196,36.676173884563156],[137.81630004953377,36.67612003612068],[137.81646719967054,36.67604982635921],[137.81667659988975,36.676033303524235],[137.81700944917566,36.67622813415814],[137.81751059936863,36.676402513000504],[137.8179719,36.67644623068949],[137.81834905872108,36.67647433486181],[137.8189964664284,36.67643797649542]],"type":"LineString"}},{"type":"Feature","properties":{"@id":"way/454570726","name":"Hakuba47 ルート1_上部_2"},"geometry":{"coordinates":[[137.81914346075374,36.66950496450827],[137.81884607514405,36.66948885249673],[137.81867565584983,36.66949969552874],[137.81858276906382,36.669572726863954],[137.81845963590692,36.66975051786268],[137.81842414819556,36.669928308861415],[137.81852012865235,36.67037648205835],[137.8186591353059,36.6707033132145],[137.8187914,36.6709274],[137.819014,36.6711384],[137.8192973,36.6713007],[137.8197492,36.6714576],[137.8200797,36.6715171],[137.8205636097856,36.67161304501028]],"type":"LineString"}},{"type":"Feature","properties":{"@id":"way/454570729","name":"Hakuba47 ルート1_上部"},"geometry":{"coordinates":[[137.8192499674834,36.669480513450466],[137.8194267910603,36.669600194399806],[137.8196665,36.6702579],[137.81981793676886,36.67075863382399],[137.8201825,36.671167760239946],[137.8205299,36.6714373],[137.8211741,36.6719215],[137.82209949202195,36.672454540770914],[137.822848757586,36.67312884594636],[137.8239631,36.6739502],[137.8242869,36.6742586],[137.82508800511397,36.67551754100724]],"type":"LineString"}},{"type":"Feature","properties":{"@id":"way/154250577","name":"Hakuba47 ルート1_中部"},"geometry":{"coordinates":[[137.82508800511397,36.67551754100724],[137.82547503835258,36.67585114766602],[137.82574256863694,36.67596111666419],[137.8260964970408,36.67625221297081],[137.8263307,36.6765577],[137.8263037,36.6766876],[137.8262295,36.6768228],[137.8261283,36.6769364],[137.82578401715986,36.67730869525404],[137.8254066,36.677737],[137.82530990225504,36.678212456821456],[137.82545996059446,36.67870028233469],[137.82563669923314,36.67929250583424],[137.82594390974387,36.67972247272998],[137.82614702003082,36.679908163729266],[137.82649664174323,36.68007530197279],[137.827199234817,36.68016313019353],[137.82763580879293,36.68027244811111]],"type":"LineString"}},{"type":"Feature","properties":{"@id":"way/154250577","name":"Hakuba47 ルート1_下部"},"geometry":{"coordinates":[[137.82763580879293,36.68027244811111],[137.82777509327084,36.68031722944949],[137.82807444142,36.6804752074057],[137.8282328,36.6806365],[137.8283407,36.6807447],[137.8287392958565,36.681310113511415],[137.82889237662488,36.68197451170264],[137.82887616153664,36.68254307271263],[137.82879164866063,36.68284946694296],[137.8287993,36.6832167],[137.82886262307355,36.68372058259584],[137.82886016035272,36.68426768577415]],"type":"LineString"}},{"type":"Feature","properties":{"@id":"way/154250577","name":"Hakuba47 ルート7_上部"},"geometry":{"coordinates":[[137.8197242752144,36.67626041931172],[137.82013987045323,36.67615780460629],[137.82072513662217,36.67603249434906],[137.82146139021432,36.67596100442295],[137.82193184021315,36.67597434780956],[137.82240229021198,36.67609379407592],[137.82284335106453,36.6762088222244],[137.8231998471941,36.67638315115186],[137.82342152327973,36.67651342875574],[137.82356711523607,36.676576400334525],[137.82381620675645,36.67671350080381],[137.8241518643999,36.67683440186349],[137.8244433186409,36.676947101951775],[137.824645023718,36.67704160116207],[137.82476454575905,36.677216101789135],[137.82477,36.677319],[137.824688,36.677541],[137.82464,36.677801],[137.824646091518,36.67796959881088],[137.82472763727938,36.678192099375536],[137.82489995591797,36.67847409947396],[137.82508718303606,36.6787003994836],[137.82523,36.678952],[137.82515597628205,36.67912129995514],[137.824883,36.679229],[137.824723,36.67931399965987],[137.82456302371807,36.67945679957845],[137.824498023718,36.67971489979484],[137.82445779659747,36.68005220000507],[137.8244855796627,36.68030149957464],[137.82448106780254,36.68044719941228],[137.82438088476388,36.68051969975962],[137.82414397628193,36.680630500146066],[137.823985,36.680818],[137.823972,36.681051799328856],[137.82405606780242,36.68123349915686],[137.8240766576411,36.681358099809216],[137.82386552204338,36.68161559940588],[137.823673,36.681868],[137.8236879525641,36.6820533010762],[137.82366904408215,36.68217980061767],[137.8236799762821,36.68224159915949],[137.82376465764347,36.682264998933526],[137.82386068136142,36.68227919829293],[137.82409361355909,36.68219779856642],[137.824267,36.682140299098066],[137.824414,36.682137],[137.824488,36.682189],[137.82459909151805,36.6823201007685],[137.82476954575907,36.68240549832345],[137.8249839423808,36.68237484828727],[137.8251291356001,36.68232199892102],[137.82535245424106,36.68224019835273],[137.82562413560242,36.68205669894291],[137.82590781696393,36.68200669805701],[137.8261061593181,36.68198629648164],[137.82626611523605,36.68191619772149],[137.82658061355903,36.681893998241506],[137.82677329492296,36.68188409800865],[137.826934545759,36.681815897762995],[137.82711338643847,36.681717898660914],[137.8273738406795,36.681669699153076],[137.82755122712047,36.681585798985864],[137.82765752204338,36.681402299417364],[137.827636545759,36.681174399350574],[137.82770697628206,36.68084239992385],[137.82766713560252,36.680595499613354],[137.827625,36.680336],[137.8277469221326,36.680150042025765],[137.82782837295142,36.67999808408554],[137.82807565779024,36.67991668925047],[137.82835584426522,36.67990081544123],[137.82856784426517,36.679946025721705],[137.8288884610655,36.68007089939202],[137.829123,36.680203210117035],[137.829388,36.680388],[137.82964581352354,36.68072473078376],[137.8298346270486,36.68096773064347],[137.83011717622975,36.6812198142631],[137.83044098975327,36.681472376892934],[137.8307151659815,36.681622688345136],[137.83092608299074,36.68170834417256],[137.831137,36.681794],[137.83138,36.682011],[137.831438,36.682064],[137.831627,36.682237],[137.831896,36.682541],[137.832074,36.682728],[137.832248,36.682936],[137.832399,36.683071],[137.832569,36.683136],[137.8327597,36.6832137],[137.83276566229017,36.683404959094545],[137.83276546575877,36.683529126169034],[137.8326991864239,36.68358559066275],[137.83256585520286,36.6835959860048],[137.83244968439038,36.68355305469059],[137.8321855,36.6834536],[137.8320713,36.6833886],[137.8318773,36.6831592],[137.8317472,36.6830755],[137.8315974,36.6829919],[137.8313421,36.6828924],[137.8310106,36.6827881],[137.8308559,36.682662],[137.8306803,36.6824927],[137.8304151,36.6823745],[137.8302703,36.6823726],[137.83000114615976,36.682457612508074],[137.82969641869585,36.68247130356937],[137.82950453821292,36.682307764081344],[137.82927184113572,36.68225571113007],[137.82905939456785,36.682348903641945],[137.82889235247762,36.68246816339834]],"type":"LineString"}},{"type":"Feature","properties":{"@id":"way/154250577","name":"Hakuba47 ルート7_下部"},"geometry":{"coordinates":[[137.82889235247762,36.68246816339834],[137.82868245176192,36.68263899965241],[137.828490337858,36.68286689291275],[137.82833581372606,36.68309470701846],[137.8280798102575,36.683318628279274],[137.8278216654623,36.6834836878872],[137.82766104132665,36.68355815700877],[137.82747505173427,36.68359216167547],[137.82731543785988,36.683623918662136],[137.82715326892892,36.68367211862901],[137.8269798241338,36.6837847400899],[137.8268444723995,36.68388456156228],[137.82671993785982,36.683955956924],[137.826538,36.6840325],[137.82641423785986,36.68411087844322],[137.8262741,36.6842117],[137.8262299,36.6842895],[137.8262385,36.6843309],[137.8262913,36.6843574],[137.8263625,36.6843515],[137.8264631,36.6843112],[137.8266056,36.6842462],[137.8267787,36.6841861],[137.8268781,36.6841408],[137.8269935,36.6840946],[137.82723212066335,36.68407406609442],[137.82738872413378,36.684072487646105],[137.8275914,36.6840631],[137.82777154132853,36.684122192219924],[137.82793084404912,36.68427376548596]],"type":"LineString"}},{"type":"Feature","properties":{"@id":"way/454570727","name":"Hakuba47 ルート1_上部_3"},"geometry":{"coordinates":[[137.82504141346934,36.675610573502674],[137.8247371,36.6757287],[137.82412883983,36.675986837976076],[137.82328240601578,36.676208343178345],[137.82289244068375,36.676349474495666],[137.8225530091634,36.676604824798055]],"type":"LineString"}},{"type":"Feature","properties":{"@id":"way/454570736","name":"チャンピオンエキスパート"},"geometry":{"coordinates":[[137.82357265063789,36.66116758115112],[137.8242143380168,36.661291175959974],[137.82469258482345,36.66133987600201],[137.82516278865603,36.6614694],[137.8254327,36.6616236],[137.8257326164536,36.6618173352781],[137.8261646,36.6619915],[137.82667153418564,36.662130106245144],[137.82775391622434,36.6623956065201],[137.82857457669613,36.6626706049929],[137.82890400297367,36.66284919590642],[137.82940048726854,36.66307372370669]],"type":"LineString"}},{"type":"Feature","properties":{"@id":"way/454570744","name":"グランプリ_2"},"geometry":{"coordinates":[[137.8110674,36.6591679],[137.8111341,36.6590487],[137.8112352,36.6589459],[137.8113836,36.6588972],[137.811503998248,36.65903700975079],[137.81173172631264,36.659275904591055],[137.81192223686696,36.65948160235896],[137.81220136055236,36.65960605117948],[137.8125216878926,36.65967703689953],[137.8127958074524,36.659809539876775],[137.8128365763794,36.65996557780053],[137.81277977542607,36.660162853686316]],"type":"LineString"}},{"type":"Feature","properties":{"@id":"way/454570750","name":"サニーウェイ"},"geometry":{"coordinates":[[137.82633389161398,36.66680477798616],[137.82672210239255,36.666843845697144],[137.82697040597947,36.666883260658146],[137.8271201860153,36.667014563247875],[137.82724999369657,36.667397377784106],[137.8273798013818,36.667709712953794],[137.82764618482042,36.66811748710731],[137.8279861459058,36.6683813471166],[137.8282586894191,36.66844766706916],[137.8285734,36.6684685],[137.82912811293477,36.66825228122839],[137.82948971940283,36.66796456585872],[137.82952935563938,36.66781065548432],[137.82949576832345,36.667644998425345],[137.82963489353182,36.667315726390854],[137.82982021940134,36.666864988194],[137.82983393018048,36.666620392066505],[137.8297812215584,36.66632727600258],[137.8295582,36.6660934],[137.8295379,36.6659581],[137.8298288805986,36.66534383164607],[137.8304833180805,36.66536288076476],[137.8315749,36.6655848],[137.8322359,36.6656876],[137.8330430993079,36.666106042697706],[137.8337572526704,36.666785707149636],[137.83458076076295,36.66772210677058],[137.83492513373767,36.668848572634474]],"type":"LineString"}},{"type":"Feature","properties":{"@id":"way/454570752","name":"ソフトクリーム"},"geometry":{"coordinates":[[137.83327764420474,36.66519367310768],[137.83381786098607,36.66568674483125],[137.83493773001672,36.66715680840782],[137.83561533451746,36.668632604934054],[137.83594832387533,36.66918939188228]],"type":"LineString"}},{"type":"Feature","properties":{"@id":"way/454570760","name":"パウダースノー_2"},"geometry":{"coordinates":[[137.8285762442524,36.66397877502895],[137.82933128459965,36.66396313330595],[137.82986923765688,36.66399137492733],[137.8310412265274,36.66415188732257],[137.83324860928576,36.66437022547818],[137.8345259,36.6645812],[137.8349845,36.6647651],[137.83552604499135,36.66495500957782]],"type":"LineString"}},{"type":"Feature","properties":{"@id":"way/454570762","name":"とおみゲレンデ_上部"},"geometry":{"coordinates":[[137.82424611491155,36.66411662121052],[137.8253729,36.6639238],[137.8264340913525,36.66371912932638]],"type":"LineString"}},{"type":"Feature","properties":{"@id":"way/454570764","name":"とおみゲレンデ_下部"},"geometry":{"coordinates":[[137.8264340913525,36.66371912932638],[137.82732681949642,36.66354893114419],[137.82943256577454,36.663287243688565],[137.83302141261987,36.66285213030118],[137.8341532,36.6627294],[137.8349829,36.662605],[137.83635844723045,36.6624257186791]],"type":"LineString"}},{"type":"Feature","properties":{"name":"Hakuba47 ルート8_上部_2"},"geometry":{"coordinates":[[137.81433436953262,36.665859797093006],[137.81442950974537,36.66618413503787],[137.81457222006543,36.66653390972155],[137.81473871543722,36.66686460432466],[137.81500035102363,36.66722073538466],[137.8153055121246,36.66744318707926],[137.81565435957253,36.667684845803905],[137.81593978021073,36.667958300814576],[137.8162252008509,36.668212676696]],"type":"LineString"}},{"type":"Feature","properties":{"@id":"","name":"スーパー_2"},"geometry":{"coordinates":[[137.81507392874624,36.66265152467163],[137.81520613825893,36.66230840851492],[137.8153150166808,36.66199648340941],[137.81540523321192,36.66169360023943],[137.8154578391053,36.66151139830624],[137.8156608875498,36.66129148328365],[137.81609620617394,36.66116644035191],[137.816465706182,36.6611620794381]],"type":"LineString"}},{"type":"Feature","properties":{"name":"無名_1"},"geometry":{"coordinates":[[137.81179254622577,36.6608055898823],[137.81197220435035,36.66089293463456],[137.81228796711662,36.66092787250784],[137.8124186275711,36.66101084989292],[137.81242407175682,36.66122484378951],[137.81248940198407,36.66144320429531],[137.81266361592435,36.66165719698999],[137.81288682753473,36.66175327514868],[137.81326247634246,36.661844986006955],[137.81375789723455,36.66202404022478],[137.81408958040168,36.662189330977284],[137.8143291245678,36.66242952448985],[137.8144488966522,36.66276142701928],[137.8144761175795,36.66290554214551],[137.8144815617652,36.66305839122714],[137.8145142268795,36.663145733423164]],"type":"LineString"}},{"type":"Feature","properties":{"name":"チャンピオンダイナミック"},"geometry":{"coordinates":[[137.81837995774544,36.661338699449985],[137.81942914444187,36.66155018698916],[137.82032767868816,36.66161492795651],[137.82106144057622,36.66165258604232],[137.82198149660275,36.6615403683856],[137.8228047046261,36.66138067374692],[137.82341269486574,36.66125550744674]],"type":"LineString"}},{"type":"Feature","properties":{"name":"ウッディ"},"geometry":{"coordinates":[[137.8234436602931,36.66127032172734],[137.82333237653404,36.66162293561139],[137.823136656237,36.66186516701174],[137.82299685602146,36.662152255093616],[137.8228346877711,36.66248868507664],[137.82263896746832,36.66281614218117],[137.82239850659465,36.663177254756306],[137.82219719428457,36.66353610857375],[137.8220126579992,36.66380524783894],[137.82180575367943,36.66400710167129],[137.82176124017667,36.664105294613776],[137.82190590906248,36.66414546441739],[137.82211734827143,36.664056198023815],[137.8224080002903,36.66388829639537],[137.82270846643803,36.66374100651967],[137.82297554745895,36.66359371636159],[137.82298667583348,36.663807956497706],[137.82289764882802,36.66403112267223],[137.8228308785615,36.664388186541345],[137.82290877719242,36.66455332832791],[137.8230757028303,36.66445067266436],[137.82318698658798,36.66428553065754],[137.82333721966182,36.664102535047206],[137.82340398991664,36.664066828536406],[137.82345963179694,36.66407575516537],[137.82352640205187,36.66419180125291],[137.82360430068275,36.66429445726172],[137.82372671281644,36.664388186541345],[137.8238825100783,36.664455135957],[137.82401048640003,36.66440603972485],[137.82406612828026,36.66428106735566],[137.82417184784993,36.664182874637405]],"type":"LineString"}},{"type":"Feature","properties":{"name":"DISCOVERY"},"geometry":{"coordinates":[[137.83036868130682,36.668022264233514],[137.8315946716832,36.6681527122239],[137.83247037909484,36.668353400995144],[137.83379645031692,36.66870460513552],[137.8349223598459,36.66901567028381],[137.83527264280895,36.6690959450075]],"type":"LineString"}}]}