{"type":"FeatureCollection","features":[{"type":"Feature","properties":{"@id":"way/319806471","name":"ベガ"},"geometry":{"coordinates":[[140.315795273992,37.62176095840844],[140.31593518593556,37.622026577493386],[140.31611441392204,37.62234121107087],[140.3163401,37.6227569],[140.3166449112148,37.623159265030566],[140.3170757981183,37.62364511498108],[140.3172560205479,37.62385352834338]],"type":"LineString"}},{"type":"Feature","properties":{"@id":"way/319806445","name":"ジェミニ（右）"},"geometry":{"coordinates":[[140.32004371053628,37.62396137646239],[140.32043722999995,37.623717038246696],[140.32077067634384,37.62360351928787],[140.32120016447658,37.623457670921574],[140.3219070926571,37.623291594540824],[140.32326150726405,37.6231269443259]],"type":"LineString"}},{"type":"Feature","properties":{"@id":"way/319806454","name":"ジェミニ（左）"},"geometry":{"coordinates":[[140.3184101134262,37.62144535702548],[140.3185982036992,37.621691496175885],[140.31881237892782,37.62191180913791],[140.31911680979533,37.622156674320934],[140.31966029958159,37.62250120914814],[140.32005268739772,37.622673476603765],[140.32057223937952,37.622807005706555],[140.32130209816398,37.62292182668422],[140.3220425022382,37.62300626010435],[140.32286142571851,37.62300970955397],[140.32369835316,37.623017340612705],[140.32451028966082,37.62308435346173]],"type":"LineString"}},{"type":"Feature","properties":{"@id":"way/319806447","name":"アルタイル_#下部"},"geometry":{"coordinates":[[140.3180294752298,37.62244111562884],[140.31828325207974,37.62257799938704],[140.31852335419967,37.622745657243165],[140.3187124811207,37.62294318471375],[140.31902118899555,37.62330005176768],[140.31933951595903,37.62365173109555],[140.31965583813178,37.62383222849265],[140.3198921419146,37.62395779877211],[140.31997770919492,37.624030760463825],[140.3199512507289,37.62413541085317],[140.31988958598228,37.62428128066419]],"type":"LineString"}},{"type":"Feature","properties":{"@id":"way/319806449","name":"アルタイル_#上部_2"},"geometry":{"coordinates":[[140.31769398240354,37.621267336677775],[140.31749797121347,37.62147434721588],[140.31748864877972,37.62154971439881],[140.3175138379144,37.62162052570865],[140.31774149176852,37.62187413246991],[140.3178828667032,37.62204117800675],[140.3181687738212,37.62240279361843]],"type":"LineString"}},{"type":"Feature","properties":{"@id":"way/319806470","name":"アルタイル_#上部"},"geometry":{"coordinates":[[140.31657573656662,37.621554426325176],[140.3173191611599,37.622018372142534],[140.3180294752298,37.62244111562884]],"type":"LineString"}},{"type":"Feature","properties":{"@id":"way/319806448","name":"アンドロメダ"},"geometry":{"coordinates":[[140.31600758847074,37.621626260143906],[140.31621298847074,37.62157063114564],[140.31648648588205,37.62155473110106],[140.3167533412079,37.62147443981365],[140.31700398268976,37.62134183946996],[140.31707035329495,37.621251452189085],[140.3171033005451,37.62120500128282],[140.3175271784665,37.62120664978727],[140.3178768301422,37.6212060748355],[140.31811372099565,37.62126224913297],[140.31838767700737,37.621339774644426],[140.3189302115059,37.62144993155198],[140.31991601761138,37.621738395657374],[140.32089255335765,37.62187576825837],[140.3217894331064,37.621906452567266],[140.32280159881475,37.62201830392457],[140.32354311532234,37.622108758440405],[140.32452749716578,37.6222433318764],[140.32475514688042,37.62240611113437],[140.32486260972607,37.62259709600674],[140.3248632397984,37.62281628646891]],"type":"LineString"}},{"type":"Feature","properties":{"@id":"way/319806459","name":"ペガサス"},"geometry":{"coordinates":[[140.31718073365155,37.62393951768413],[140.31807381309838,37.62410004182015],[140.3187577,37.6241642],[140.31931228878324,37.62424997766172],[140.31999442337244,37.624406858295494],[140.3203857,37.6245031],[140.32070257945017,37.6245025972213],[140.32129284768553,37.62446827496917],[140.32180894768746,37.62442593604221],[140.3226289,37.6242559],[140.32311722054982,37.62405750511135],[140.3237262,37.6236685],[140.3242723,37.623359],[140.32466387762193,37.623174653887],[140.32483440707225,37.62301289868618]],"type":"LineString"}},{"type":"Feature","properties":{"name":"無名"},"geometry":{"coordinates":[[140.31904388041488,37.62224735766536],[140.31889065397877,37.622518980032595],[140.3187739100298,37.62272125136363],[140.3187082415564,37.62281949723973]],"type":"LineString"}}]}