{"type":"FeatureCollection","features":[{"type":"Feature","properties":{"@id":"way/319867693","name":"エンジョイ"},"geometry":{"coordinates":[[139.62913888751498,37.112598330389524],[139.62884584695135,37.112438087093444],[139.6283901,37.1121973982826],[139.62807351697305,37.11200248138105],[139.6275041555583,37.111792166826625],[139.6266981800928,37.11156963172876],[139.62619420848242,37.111344605398244],[139.62565738622294,37.111177990809196],[139.62517994240963,37.11109591936432],[139.62429893711382,37.110780052247854],[139.62271716077825,37.11019676604155],[139.62189572933454,37.11001500822808],[139.62119863003628,37.10995997522787],[139.62040754770422,37.1098630362676],[139.6199428823346,37.109854322109705],[139.61964828233323,37.109824279781385],[139.6194948,37.109744],[139.6193934,37.1095284],[139.619263,37.1092511],[139.6191181,37.1090508],[139.61891629151887,37.1088387259684]],"type":"LineString"}},{"type":"Feature","properties":{"@id":"way/319867690","name":"ジャイアント"},"geometry":{"coordinates":[[139.63755848397386,37.11531257240175],[139.63749006821618,37.115361995906866],[139.63738358287424,37.11539300181574],[139.63702088788037,37.11546926939876],[139.6366488293162,37.11554304839894],[139.6363948267043,37.11557473739564],[139.6362624149018,37.115629453978755],[139.6363443459836,37.115878520648145],[139.6364781,37.1162985],[139.6365413,37.1165668],[139.6366266,37.1168867],[139.6366271524218,37.117097365696296],[139.6365935,37.1172603],[139.6364728,37.1174605],[139.6363497,37.1176145],[139.63609848877604,37.11789038167264]],"type":"LineString"}},{"type":"Feature","properties":{"@id":"way/319867689","name":"カラマツ"},"geometry":{"coordinates":[[139.6330899880735,37.11482655754067],[139.63289586953204,37.115142643618725],[139.63246900926993,37.11577014700178],[139.63212349672136,37.1159957508244],[139.63168723911852,37.116210115178035],[139.63111445253355,37.116323584589466],[139.63072356922572,37.11602607311523],[139.6304571952336,37.11564862778742],[139.6298941300368,37.11537724659721],[139.62916212341327,37.11524546967796],[139.62848635770968,37.11522367227934],[139.62786243941412,37.11505920016874]],"type":"LineString"}},{"type":"Feature","properties":{"@id":"way/319867692","name":"スラローム"},"geometry":{"coordinates":[[139.63814464528178,37.115853528898775],[139.63777075903397,37.11621876865394],[139.63746187215798,37.116503905166155],[139.6372403903381,37.11672336901447],[139.6369951361378,37.11698235026966],[139.6368618,37.1172509],[139.63674025232376,37.11760134741576],[139.6366805388985,37.11796923800804]],"type":"LineString"}},{"type":"Feature","properties":{"@id":"way/319867703","name":"ロマンス"},"geometry":{"coordinates":[[139.64327889153304,37.119442096650275],[139.64220399513258,37.11926499223508],[139.6412636936893,37.11905406372487],[139.6401430312297,37.11874781157035],[139.6387632,37.1185367],[139.63825156706113,37.11852381505759],[139.6374156938956,37.118427344015835],[139.63638999023945,37.11828630509697],[139.6354094987894,37.11819497619157],[139.6349894987895,37.1181272925269],[139.63445620731358,37.11793617453148],[139.63389119268643,37.11772764453135],[139.63341341341797,37.11748182955694],[139.633090086582,37.1173622848093],[139.63285886950806,37.117347666352096],[139.6324132243875,37.11731455893929],[139.63198135974608,37.117376953683355]],"type":"LineString"}},{"type":"Feature","properties":{"@id":"way/319867702","name":"マウンテン_#下部"},"geometry":{"coordinates":[[139.6446060095264,37.12099159849943],[139.64454441277664,37.12098698445446],[139.6443039607864,37.120983916609916],[139.64411484529055,37.120943450394535],[139.6439173644352,37.1207997377803],[139.64342439430212,37.12045229744998],[139.64306455837567,37.12022909709467],[139.6426969256443,37.12009658932624],[139.64213143536557,37.119975974074634],[139.64132180540625,37.11980942857829]],"type":"LineString"}},{"type":"Feature","properties":{"@id":"way/319867696","name":"山頂林間"},"geometry":{"coordinates":[[139.6489468497689,37.12418223415503],[139.6489956,37.1240916],[139.64907060005143,37.12396533507969],[139.64909205010156,37.12389036891945],[139.64908800040863,37.12381336960645],[139.64903420076809,37.123674569083924],[139.6489799501775,37.12353566418216],[139.64892364997434,37.12336339745249],[139.6489145,37.1232667],[139.6488843,37.1232027],[139.6488414,37.1231088],[139.6487956,37.1230616],[139.64871509969413,37.122939833987076],[139.64865349969185,37.1228307332056],[139.64860090005138,37.122690437324906],[139.6485353496662,37.122512132144216],[139.64847752475606,37.1224090010388],[139.64839179964048,37.12233896438936],[139.6483055499744,37.122219301002396],[139.64815635017973,37.12207207100538],[139.64799994941166,37.121968202841494],[139.6479504607642,37.12192855451539],[139.64787634743013,37.12189470299193],[139.647855195151,37.121901320610505],[139.64785804226338,37.12193368575338],[139.6479138504307,37.121995962852054],[139.64796613659715,37.12205359566677],[139.64809042219287,37.122228450514214],[139.64804301421617,37.122233747241054],[139.64789851096808,37.12216338457365],[139.6477413559719,37.12204342297309],[139.6476449286513,37.12192651179669],[139.64757572651732,37.12184911566649],[139.64753194602525,37.12174469281022],[139.6474551388083,37.121521620025966],[139.64736311367807,37.12130055200612],[139.64732489627255,37.12126539185103],[139.64729047836045,37.121305457014074],[139.6472542031729,37.12144035383497],[139.64718403246286,37.12157862901458],[139.64717336856106,37.1217993928837],[139.64717731862976,37.121934718355966],[139.64714042682135,37.121960873848806],[139.64710713143842,37.12193867494837],[139.6470406996981,37.12184311698848],[139.64700710424626,37.12172137685782],[139.64688623905872,37.12134889074535],[139.64675189376442,37.12116894316891],[139.64660296305865,37.121041329857995],[139.64650739094165,37.120905532744544],[139.64650662399995,37.12079881032353],[139.64648410211572,37.12056003540382],[139.6464483729405,37.12019505248234],[139.64642131929332,37.11997318743191],[139.64630083858677,37.11970379478614],[139.64620360941146,37.1193751247204],[139.64612860470496,37.11900452262859],[139.6461138674423,37.11894702944111],[139.646083362338,37.118914682309615],[139.64603660036016,37.11890736741582],[139.64600411257481,37.11896805633542],[139.64588,37.1191615],[139.6458048,37.1192364],[139.6457246,37.119329],[139.64558864083426,37.119531399260914],[139.64542985971082,37.11975646279363],[139.64530976787802,37.119914875203534],[139.64523802449975,37.120034262813654],[139.6452141,37.12012],[139.6450707,37.1204413],[139.64490107041811,37.12065280095724],[139.644727598005,37.12083055991473],[139.64457137032676,37.12100255315089],[139.64435172195977,37.12114775369084],[139.6441750673783,37.12125688313178],[139.64414639349587,37.12130922454523],[139.6441419635925,37.12135108827655],[139.6441720948539,37.12138446703595],[139.6442205,37.1214037],[139.6443213,37.1214231],[139.64442436669103,37.12143030897916],[139.64462850350094,37.121430747059165],[139.6446644814562,37.1214377],[139.64469765155283,37.121454122346215],[139.6447124866023,37.12147654357498],[139.64470145155283,37.12149892010636],[139.64467135601876,37.12153036591702],[139.6446431,37.1215504],[139.6445974,37.1215694],[139.6445522,37.1215854],[139.6444971,37.1216031],[139.644451,37.1216188],[139.6443336,37.1216504],[139.6442453,37.1216783],[139.6441706,37.1217001],[139.6441207,37.1217107],[139.6440548165056,37.12171384469912],[139.64396663815512,37.12171335644703],[139.64383197835048,37.12170479169064],[139.6437075,37.1217056],[139.6436477,37.1216984],[139.6435935,37.1216848],[139.6434995247573,37.121647925768464],[139.64340434330114,37.121614736361046],[139.64331378802092,37.12159625889287],[139.6432532310275,37.12160967385973],[139.64322320120814,37.12165331300435],[139.64325078839957,37.12172800456254],[139.6433325259245,37.12179346110164],[139.64344290114215,37.12184638654228],[139.64358724776707,37.12190378940742],[139.6436708656307,37.12192433411402],[139.64379406184494,37.121954875301384],[139.64391585737897,37.12197427529695],[139.6440801,37.12200097529038],[139.6441550216516,37.12201098587538],[139.64420282164951,37.122020951752845],[139.64425240446593,37.12202900704293],[139.64428145155287,37.12204489763313],[139.64428547320452,37.12206735529182],[139.6442877127176,37.12210169060934],[139.64426430378793,37.12213037764506],[139.644244,37.122145],[139.6441971,37.1221532],[139.6441134,37.122158],[139.6440374,37.1221621],[139.6439521,37.1221689],[139.6438855,37.1221702],[139.64361513981135,37.12218760722084],[139.6434662786798,37.122186526965734],[139.643369,37.1221784],[139.6431274,37.1221539],[139.643013,37.1221478],[139.642908,37.1221376],[139.6428448,37.1221321],[139.6426878,37.1220933],[139.6426417,37.1220749],[139.6425991962998,37.12203598693767],[139.64256440618436,37.12198627504595],[139.64254053334912,37.12195089286413],[139.64252905433264,37.12185031191278],[139.6425330024826,37.12176178807204],[139.64251364074948,37.12169136776208],[139.64245769259963,37.1216224844568],[139.64237572901644,37.12154086469241],[139.64228326791755,37.121466174829],[139.6421837481499,37.121403053215175],[139.64202299629977,37.12134124837008],[139.64188158889945,37.12129727355618],[139.641789361733,37.1212619807543],[139.64172592346617,37.12120269157137],[139.641707461733,37.12113851326072],[139.6417001,37.1210083],[139.6416992,37.1209157],[139.6417154,37.120736],[139.6417103,37.120655],[139.6417043,37.1205856],[139.641706,37.1204542],[139.6417009,37.120365],[139.6416950271664,37.12023775230718],[139.6416753000506,37.120082691415774],[139.64171747293315,37.1198715246171]],"type":"LineString"}},{"type":"Feature","properties":{"@id":"way/319867691","name":"ジョイフル"},"geometry":{"coordinates":[[139.62826877555182,37.11226392780072],[139.62758743240113,37.11219591962049],[139.62669087172276,37.11211360475299],[139.62627345050925,37.112168938663785],[139.62597472421305,37.112390155097124],[139.62573398458466,37.112678505928706],[139.62542371998052,37.113041950050665],[139.62519260152172,37.113258862760894],[139.6249404922923,37.113562012591885]],"type":"LineString"}},{"type":"Feature","properties":{"@id":"way/319867694","name":"セントラル"},"geometry":{"coordinates":[[139.62610361970863,37.11117774676324],[139.6259315,37.1109231],[139.6258427,37.1107516],[139.62567213798155,37.11058602481174],[139.62551294278887,37.11047191483628],[139.62540309038346,37.11036609793011],[139.6253236,37.1101988],[139.6252724,37.1100898],[139.6252349,37.1100163],[139.6251596885386,37.10992475407942],[139.6250346082019,37.109848504061546],[139.62484945899018,37.10975394889942],[139.6247158,37.1096432],[139.6245519,37.1094962],[139.62439171314446,37.10922258945049],[139.6242069885385,37.109009137927906],[139.62404352460766,37.108736811525056],[139.62389793280786,37.108488292887415],[139.6237836,37.1082871],[139.6237119,37.1080801],[139.6236026,37.1077969],[139.6235685,37.1077343],[139.6234455,37.1076008],[139.6233226,37.1074919],[139.6231143,37.1073639],[139.62286224617688,37.10724757396334],[139.6224440786274,37.10714545819399],[139.62205993588208,37.10712341068765],[139.6216745007815,37.10706566881826],[139.62128533627117,37.10704502933285],[139.620880729019,37.10707365279802],[139.62026222409037,37.106991365664854],[139.61983736437105,37.10692788991404],[139.6192873118534,37.10684441529079],[139.61879285658372,37.10680735439173],[139.61819182552978,37.10675451630598],[139.61754783339387,37.10674592939439],[139.61721307421783,37.10678858108314],[139.61706289597996,37.10694899960461],[139.61693465570158,37.107153898352706],[139.61686958017785,37.107311414733196],[139.616847371346,37.10746189298343]],"type":"LineString"}},{"type":"Feature","properties":{"@id":"way/319867695","name":"チャレンジ"},"geometry":{"coordinates":[[139.6320847653867,37.11399909851835],[139.63128652208877,37.11392827564],[139.63044982804286,37.11389691708255],[139.629505549008,37.11388201464788],[139.6288409720888,37.113941595146],[139.62823779913975,37.11411542904527],[139.62786029260903,37.11422828317115],[139.627391922747,37.11428386159055],[139.62678809460414,37.11422602004262],[139.62614936310032,37.11417514834517],[139.6255085540138,37.11404099920233]],"type":"LineString"}},{"type":"Feature","properties":{"@id":"way/319867697","name":"パノラマ"},"geometry":{"coordinates":[[139.62430475619658,37.109224619223376],[139.62356324325953,37.109249069955624],[139.62301736790747,37.109227269944185],[139.6222627181703,37.10920944716689],[139.62163800641602,37.1091038658071],[139.6210193,37.1089345],[139.620473,37.1088583],[139.6200222,37.1088528],[139.6191768666007,37.108754871446685],[139.6187494384489,37.10868059389982],[139.6182580929805,37.10855260195017],[139.6177314718807,37.10838916040339],[139.61737802544454,37.10821790164182],[139.61691945850896,37.108042153989636],[139.6167826997227,37.10793605454049],[139.61658570581696,37.10778792234186]],"type":"LineString"}},{"type":"Feature","properties":{"@id":"way/319867698","name":"パラダイス"},"geometry":{"coordinates":[[139.63276209831545,37.11462252837869],[139.63073671236054,37.114718051098706],[139.6291573825843,37.114795672099255],[139.6276494384612,37.114851559516026],[139.62656933448295,37.11478338451059],[139.62566987635705,37.114685497919126],[139.62482551885617,37.11444545583537]],"type":"LineString"}},{"type":"Feature","properties":{"@id":"way/319867699","name":"ファミリー"},"geometry":{"coordinates":[[139.62473148911468,37.11432093833881],[139.62320881141522,37.11343060112414],[139.6218950348408,37.11266685613059],[139.6208242116135,37.11209685331089],[139.61994842559096,37.11159095387203],[139.61928802559106,37.111203553643335],[139.61847866259558,37.11066162707494],[139.61794601846435,37.110278466992014],[139.61748358544716,37.10972733178943],[139.61715551389193,37.10922697441542],[139.61676266246246,37.10875818828954],[139.61661073274357,37.10828224633377],[139.61637679614302,37.10800413405276],[139.61592787941808,37.10777168660657]],"type":"LineString"}},{"type":"Feature","properties":{"@id":"way/319867700","name":"ブランデート"},"geometry":{"coordinates":[[139.63737128761346,37.11522308731254],[139.63750695312785,37.11521485709237],[139.6376994,37.1152963],[139.6377916,37.1153944],[139.6379897,37.1155741],[139.6381536,37.1157429],[139.6382274,37.1158242],[139.6383687,37.1159798],[139.6385550582574,37.116225583187656],[139.63868522343765,37.1164385063678],[139.63873621517945,37.11665525982447],[139.63880746484585,37.11677893386732],[139.6389629,37.1169029],[139.6391110848206,37.11690890203276],[139.6392986427454,37.116885733664],[139.63950317683646,37.1168643737164],[139.6396666353181,37.11686756041558],[139.63963261150218,37.11714195149525],[139.63958805619282,37.11737973231805],[139.639500285841,37.11761060995623],[139.6394243,37.1178063],[139.63927344380545,37.11806767746512],[139.63904116389526,37.11834725388066]],"type":"LineString"}},{"type":"Feature","properties":{"name":"トップヒル"},"geometry":{"coordinates":[[139.64593146225064,37.11904384927905],[139.64495267740466,37.11905402927964],[139.64411432690702,37.119091355937556],[139.64331709272074,37.11913886345302]],"type":"LineString"}},{"type":"Feature","properties":{"name":"チャレンジトラバース②"},"geometry":{"coordinates":[[139.62914600728215,37.11268664944009],[139.6288878642447,37.11314553594916],[139.6286781230283,37.11354866759714],[139.6284952717087,37.11390033387772]],"type":"LineString"}},{"type":"Feature","properties":{"name":"チャレンジトラバース①"},"geometry":{"coordinates":[[139.63302399034728,37.11417969984477],[139.63286548108908,37.11429173681361],[139.63266734451508,37.11431759147369],[139.63246907001894,37.11428588134733],[139.63230349371514,37.11420268180389],[139.63220262418668,37.11405617172187],[139.63203690996068,37.1138177331388],[139.6319072205673,37.113605148708956],[139.63170908399178,37.11337245425729],[139.6312518735728,37.11323864116544],[139.63081588058557,37.11309985560368],[139.62986797959235,37.11282346813605],[139.62920880930506,37.11262845885673]],"type":"LineString"}},{"type":"Feature","properties":{"name":"ファミリー林間"},"geometry":{"coordinates":[[139.62512154160237,37.113158803932706],[139.62486086202438,37.11316088270988],[139.62460278924215,37.113152567599954],[139.6242404446283,37.113052786219754],[139.62406038054286,37.11296628668347],[139.6238597678083,37.11283854029581],[139.62377170957603,37.112758675557686],[139.62370484935343,37.11272952384401],[139.62349143937382,37.112674731816526],[139.62337459610092,37.112592299837104],[139.62323022177958,37.11252833786763],[139.62295751472783,37.11239614962675],[139.62273293244914,37.11221705551324],[139.62250300297575,37.11204222513621],[139.62222494872464,37.111858866014614],[139.62201640801754,37.111696827345725],[139.62176508975375,37.11146656128109],[139.6215060058397,37.11141877045244],[139.62139169563847,37.11140792418527],[139.62125824793915,37.111341837438054],[139.6211363821369,37.111229569923225],[139.6208797166762,37.11103768040053],[139.62066048159443,37.1108671115273],[139.62034499695108,37.110717863444336],[139.6201097202807,37.11055155809524],[139.6200669426833,37.11041510214399],[139.6199279155589,37.110091018292266]],"type":"LineString"}},{"type":"Feature","properties":{"name":"マウンテン_#上部"},"geometry":{"coordinates":[[139.64682558345572,37.12137624112225],[139.64645896660653,37.12128601724736],[139.64615571563155,37.12117774845508],[139.6458388862548,37.121055043637725],[139.6456759454337,37.12102256291709],[139.64527311951156,37.12101173600739],[139.64489292426083,37.12099730012463],[139.6446060095264,37.12099159849943]],"type":"LineString"}}]}