{"type":"FeatureCollection","features":[{"type":"Feature","properties":{"name":"さゆりA"},"geometry":{"coordinates":[[139.55193449035028,37.2613002743867],[139.55108712694675,37.26186775668563],[139.55061177674423,37.26213915975184],[139.5500640905916,37.26247909793979],[139.54949775318596,37.26284618222745],[139.54901607272723,37.26323190672764],[139.5485441670935,37.26357070273973],[139.54795792207761,37.264011660659065],[139.54736585513854,37.26449864936188],[139.54683741940613,37.26500835083931],[139.54628306186953,37.26565799723582],[139.54608998922174,37.26595074995137],[139.54583302744078,37.26639690361756]],"type":"LineString"}},{"type":"Feature","properties":{"name":"さゆりB"},"geometry":{"coordinates":[[139.55105849618866,37.26214761038062],[139.55076031126652,37.26247109861051],[139.55042866723414,37.262745766805736],[139.5499549830949,37.26319074637365],[139.54947511532214,37.26363724603273],[139.5490251406763,37.26406401675446],[139.54844854541835,37.264665510616126],[139.54804009868178,37.26512800325999]],"type":"LineString"}},{"type":"Feature","properties":{"name":"さゆりC"},"geometry":{"coordinates":[[139.550590895421,37.26289749571497],[139.5505754994364,37.26301332358167],[139.55049485330062,37.26315172977971],[139.55029356933034,37.26355221489615],[139.5498818072855,37.264244168385744],[139.54951489131344,37.26475268602259],[139.54910709196326,37.265390883034016]],"type":"LineString"}},{"type":"Feature","properties":{"name":"さゆりD"},"geometry":{"coordinates":[[139.55051245281555,37.26276767288604],[139.550723156697,37.2628304266726],[139.5510069202486,37.26282857407189],[139.55116117510454,37.26286494925334],[139.5513839876756,37.26307865308709],[139.55168678424474,37.26338329367458],[139.55204671224107,37.263747042015595],[139.552098130528,37.2638743535196],[139.55210955681343,37.26415170998021],[139.5519267362414,37.264524548203354],[139.5516830464445,37.26497196699901],[139.5515193406468,37.265238391845145],[139.55127741330512,37.26541072884024],[139.5510354859622,37.26551574328212],[139.55078982082028,37.26558394429843],[139.55048702425114,37.26561122468776],[139.54991570996918,37.26560213122593],[139.5494194268441,37.26550584926004],[139.54872196154503,37.26545169611846],[139.54826800208025,37.265312207819676],[139.54790541680273,37.26518092982495],[139.54773530331414,37.265174160655235],[139.54756709525833,37.26521353591234],[139.54730220933317,37.26535870394697],[139.54678313139055,37.265794257874205],[139.54606357242346,37.26648939398167]],"type":"LineString"}},{"type":"Feature","properties":{"name":"白樺"},"geometry":{"coordinates":[[139.56351475317598,37.25788191238546],[139.56222460933583,37.25834402772931],[139.5610327246376,37.25877770671502],[139.55945040084663,37.25928562562801],[139.55871858588512,37.25951841410297]],"type":"LineString"}},{"type":"Feature","properties":{"name":"笠松"},"geometry":{"coordinates":[[139.55856557996418,37.25957516009676],[139.5559782481908,37.26026471689414],[139.55475564921386,37.26055268640407],[139.5535052860609,37.260760885204604],[139.551569300609,37.261185940055256]],"type":"LineString"}},{"type":"Feature","properties":{"name":"伝上"},"geometry":{"coordinates":[[139.57011747729075,37.25651833318935],[139.5695112283886,37.25671781927572],[139.56886600186675,37.25690969702558],[139.56817823293625,37.25705078329473],[139.5676110008294,37.25712979148989],[139.5670335187699,37.25723978238359],[139.5663482260565,37.25740631992426],[139.5659653443845,37.257609482728824],[139.56546192588866,37.25781264498549],[139.5647812473593,37.25794808618552],[139.56378859218995,37.258145604896555]],"type":"LineString"}},{"type":"Feature","properties":{"name":"高山_2"},"geometry":{"coordinates":[[139.5667595851333,37.25510152949256],[139.5660072759182,37.25471681200945],[139.56545842792679,37.25438775036197],[139.56518820584688,37.25431090432498],[139.56476073876405,37.2543480383399],[139.56436870448493,37.25450689594962],[139.56369868226062,37.25525011817541],[139.5634492059005,37.255454361166954],[139.56321452316928,37.25556267089598],[139.5630256339265,37.25567705545956],[139.56286688002558,37.256095311436965],[139.5628226159523,37.25638866573796],[139.56257509314213,37.256705413633455],[139.56221007238918,37.25697347018955],[139.5619544159121,37.257085851543636],[139.56164451413434,37.25724018695327],[139.56132934374102,37.25731832329468],[139.56105358444904,37.257382056511304],[139.56091308230867,37.2574990002049],[139.5606722050889,37.25775177186148],[139.5605391605036,37.2579701615995],[139.56050826378043,37.258163776925755],[139.56053132161344,37.258429024525995]],"type":"LineString"}},{"type":"Feature","properties":{"name":"横手"},"geometry":{"coordinates":[[139.5702212605318,37.25580570781024],[139.57018748569905,37.25545297397013],[139.57011283121898,37.25518861555574],[139.57001864821623,37.255096324192735],[139.56978944274283,37.25508348221748],[139.5695639097645,37.25507356336611],[139.5691198633312,37.25508264468541],[139.5688630408903,37.255155357173265],[139.56871919517363,37.2552537782777],[139.56868788672455,37.25540467297225],[139.56869027345311,37.25553401751448],[139.56867736237115,37.25571546902472],[139.56860021538301,37.25592857845204],[139.5684005408287,37.25617058334211],[139.5681373334583,37.25642342344061],[139.56778790298574,37.25669432260494],[139.56746116280328,37.256842413736805],[139.5671934173768,37.25695799685606],[139.56679692836462,37.256992092001724],[139.5663774616255,37.256885401155955],[139.56594180804882,37.256744534068716],[139.56560599175026,37.2566975783147],[139.56542515588677,37.25667581008669],[139.56529355220061,37.256683034052685],[139.56516648656964,37.25671554188983],[139.56496227395542,37.256831125203774],[139.56468091435505,37.257037007543545],[139.5644993920307,37.25714175448249],[139.56416357573215,37.257264561053475],[139.56382905552624,37.25742584309326],[139.56357946233192,37.25754864920113]],"type":"LineString"}},{"type":"Feature","properties":{"name":"横手_2"},"geometry":{"coordinates":[[139.57010658341977,37.25586060488561],[139.56978823912374,37.25586497355762],[139.56955222524795,37.25590647592924],[139.56928327920394,37.2559588999453],[139.56879204099096,37.25601787691302],[139.56857798189623,37.25605064187927]],"type":"LineString"}},{"type":"Feature","properties":{"name":"高山_1"},"geometry":{"coordinates":[[139.56867400352678,37.25518250932376],[139.56786681095937,37.255214292404574],[139.56736721318651,37.25517014587701],[139.56682255258357,37.25520265267912],[139.56674418492656,37.255409815627814],[139.5667506059885,37.2556159513976],[139.56674846563448,37.255786311112146],[139.56664572864275,37.2559924458517],[139.56651944775757,37.25620028361307],[139.56630113165022,37.25647796759634],[139.56603995848144,37.25673865458589]],"type":"LineString"}},{"type":"Feature","properties":{"name":"日向迂回"},"geometry":{"coordinates":[[139.5504023439501,37.26216118069445],[139.54911760419452,37.262563124099174],[139.54733668908625,37.26324007656429],[139.54631467750028,37.26364631361011],[139.54526030487295,37.26421748443818],[139.54491475418047,37.26462646829603],[139.54464008568215,37.26502134715422],[139.54436541718184,37.26514827206185],[139.5438869623772,37.265225837177994],[139.54341736775518,37.265169426164206],[139.543291893718,37.26523288852012],[139.543291893718,37.26531045354908],[139.5436285841364,37.26539506985232],[139.544115899217,37.265479686061255],[139.54440828826534,37.26552904547319],[139.54439942798933,37.26564186686271],[139.54413361976492,37.265691226167576],[139.54375262797646,37.26567007218409],[139.54338935673405,37.26564186686271],[139.54328143150184,37.265640269308086],[139.54322987179984,37.26567007218409],[139.54325164679253,37.265753082604824],[139.54344251838017,37.26581814994613],[139.54371718687855,37.26585340651347],[139.54427538415115,37.26590981698641],[139.54457403332708,37.26594438374997],[139.54477810725328,37.26595649704109],[139.54512618018413,37.266009538608614],[139.5454007935234,37.26607236080102],[139.54563990140372,37.26604099500963],[139.5459732628616,37.265972150665235]],"type":"LineString"}},{"type":"Feature","properties":{"name":"日向A"},"geometry":{"coordinates":[[139.54523514345937,37.26434253977335],[139.545909541627,37.264967572510955],[139.5462159860104,37.26525047495856],[139.5464059815274,37.265411436222124]],"type":"LineString"}},{"type":"Feature","properties":{"name":"日向B"},"geometry":{"coordinates":[[139.54462044324083,37.265093503173816],[139.54531167207756,37.26602039396184]],"type":"LineString"}},{"type":"Feature","properties":{"name":"高山_迂回"},"geometry":{"coordinates":[[139.57002324478395,37.254948269257895],[139.56983380874897,37.254751093113384],[139.56952051069152,37.25460611032524],[139.56909063661118,37.25458871237221],[139.5684084143016,37.254669373633135],[139.56797125422003,37.25470996880779],[139.56754866614096,37.25475056396057],[139.5672645120884,37.25476796187617],[139.56701678804194,37.25472736673278],[139.56661175654534,37.25456498790835],[139.5662838864854,37.254425804093174],[139.5659414444214,37.25428082067896],[139.5657665803888,37.254217027888814],[139.5655188563424,37.254246024618]],"type":"LineString"}}]}