{"type":"FeatureCollection","features":[{"type":"Feature","properties":{"name":"トド松ゲレンデ"},"geometry":{"coordinates":[[140.81421009612671,39.976583149281],[140.8138486857572,39.976185588959595],[140.81301802482352,39.975986807931605],[140.81174434950327,39.975917568624936],[140.81053855420566,39.97578446619653],[140.80957767459387,39.975569998638605],[140.80892464961374,39.97551280717545],[140.80741875259395,39.976097681844834],[140.8058421637145,39.97684116076232],[140.80358904555277,39.9777724147263],[140.80225500880823,39.978251375910816]],"type":"LineString"}},{"type":"Feature","properties":{"name":"ぶな森ゲレンデ"},"geometry":{"coordinates":[[140.81393576052523,39.976720033950556],[140.81244471576602,39.97630919337422],[140.81182865469106,39.976115448756886],[140.81004789239057,39.97651079910847],[140.80847076498145,39.97703626021462],[140.80673935994736,39.977673366104824],[140.80493080623404,39.97801491047261],[140.80325082267308,39.97833674913991],[140.8024451162786,39.97854692845172]],"type":"LineString"}}]}