{"type":"FeatureCollection","features":[{"type":"Feature","properties":{"@id":"way/505927628","name":"アスペンコネクター"},"geometry":{"coordinates":[[140.28067841721594,40.67678329633964],[140.2798782,40.677335474207474],[140.27893558737063,40.67820045199817],[140.2782202076113,40.67881451411572],[140.2763219,40.6805699],[140.27560879117618,40.68106535274374]],"type":"LineString"}},{"type":"Feature","properties":{"@id":"way/505927630","name":"アスペン"},"geometry":{"coordinates":[[140.28312785581528,40.67411176114485],[140.28258088014755,40.67415648570587],[140.28193976762242,40.67431358592415],[140.28140540304372,40.674607790902556],[140.2808354593063,40.67499179057275],[140.28022718641137,40.67524013219725],[140.2793110509915,40.67565707760636],[140.27877959123663,40.676092657563984],[140.278188271113,40.67662566526365],[140.27772013774563,40.677205385398935],[140.27714358569204,40.67805915957197],[140.2767762176231,40.678665790599794],[140.27631941485083,40.679175528420565],[140.27571513774564,40.679796185398935],[140.27524229051878,40.68033519390954],[140.2751304558167,40.680741375030316],[140.27529206762378,40.681023875700724]],"type":"LineString"}},{"type":"Feature","properties":{"@id":"way/505927642","name":"パノラマ"},"geometry":{"coordinates":[[140.2864722628015,40.668952860879116],[140.2859019640438,40.66976324189044],[140.28555322615466,40.67037677952889],[140.28531427875367,40.67087040607957],[140.2850110203438,40.67122766004628],[140.28485528318316,40.67150186487421],[140.28449894954946,40.672266754053794],[140.28436904602114,40.67267976376402],[140.28430446193533,40.67298630502577],[140.28420456103282,40.67313903906062],[140.28406627784977,40.6733473830249],[140.2836865,40.6737146],[140.2836305,40.6739525],[140.2836305,40.6744197],[140.2835688,40.6746576],[140.2835857,40.6751461],[140.2835632,40.6752522],[140.2833896,40.675694],[140.2833448,40.6759106],[140.2833336,40.6767134],[140.2832888,40.6768238],[140.28316,40.6770234],[140.2830088,40.6772103],[140.2827904,40.6773717],[140.2822471,40.6778516],[140.2821407,40.6780555],[140.2821239,40.6781659],[140.2821239,40.6784887],[140.2822023,40.678905],[140.2822359,40.6792447],[140.2823872,40.6797332],[140.2825552,40.680005]],"type":"LineString"}},{"type":"Feature","properties":{"@id":"way/505927664","name":"リンク"},"geometry":{"coordinates":[[140.2846589346164,40.683035942168],[140.28445735020432,40.68326533390127],[140.28421286882724,40.683593705396305],[140.2838076722692,40.68377913762184],[140.2834567019254,40.6839638424177],[140.282997504202,40.68430962515771],[140.2826728,40.6847234],[140.28236476882722,40.68501503619614],[140.28197175951658,40.68570805189921],[140.2816031,40.6863627],[140.2813883813787,40.6867377735759],[140.28121478137876,40.6870322422343],[140.28085436275416,40.68732523698856],[140.28040449089383,40.687666397194846],[140.2802458813771,40.68793116570097],[140.28001997834224,40.688401096990695],[140.27964659696343,40.689016803175484],[140.27948975020274,40.68947282320819],[140.2791835908937,40.69013506551642],[140.2789614627542,40.69055693452305],[140.27868522206649,40.69094480366391],[140.27825392206472,40.69124201500391],[140.27746245020273,40.69171759614685]],"type":"LineString"}},{"type":"Feature","properties":{"@id":"way/505927655","name":"メインライン"},"geometry":{"coordinates":[[140.2872031226619,40.66916263754383],[140.28727943359556,40.669565369296805],[140.28719125546814,40.67009391432423],[140.2870355,40.6705501],[140.2869851,40.6706733],[140.2867051,40.6710896],[140.2864363,40.6713572],[140.2862179,40.6717055],[140.2861731,40.6720538],[140.2861955,40.6723851],[140.28609636386315,40.672917400082156],[140.28601226386303,40.6731646547045],[140.28596285607543,40.67345680058016],[140.28595853613692,40.673755972507024],[140.28600048816304,40.674002372454694],[140.2860554,40.6745217],[140.28598761917445,40.67473166752207],[140.28591411993696,40.67492745554328],[140.2857866,40.6751333],[140.2855794,40.6754349],[140.2854674,40.6757662],[140.2854394,40.6758809],[140.28531069595078,40.67678895347977],[140.28522360424842,40.677705741249646]],"type":"LineString"}},{"type":"Feature","properties":{"@id":"way/505927648","name":"スカイライン"},"geometry":{"coordinates":[[140.28522360424842,40.677705741249646],[140.285165,40.6780385],[140.2848753679123,40.67838172392658],[140.28458473956456,40.67847829540238],[140.28416198754,40.67860682418368],[140.28367145981383,40.67886176273643],[140.28338969594932,40.679083615051674],[140.2833168,40.6792277],[140.2827232,40.6801409],[140.2826224,40.6803575],[140.28259404466402,40.68084989824908],[140.28267913704056,40.68125586970642],[140.28258789847504,40.68184639685235],[140.2826392,40.6822517],[140.2829808,40.68291],[140.2830312,40.6833686],[140.2831488,40.6836914],[140.2833,40.6842732],[140.2836573339905,40.68498575154742],[140.28403334466233,40.68580088189085],[140.28430913495836,40.68645815507457],[140.2846721,40.687297],[140.285137,40.6880104],[140.28555918475124,40.6885285],[140.2858818,40.6892122],[140.2859826,40.6894288],[140.28594511217347,40.689816845324245],[140.28567711437987,40.69020489064848],[140.2849944306302,40.6908538662462],[140.2844427184491,40.69133600630489],[140.28415294941388,40.692040593776085],[140.28391917629386,40.69263148703256],[140.28383209133636,40.69349248971607],[140.28379808327782,40.69460086611544],[140.2839396216718,40.69562601198937]],"type":"LineString"}},{"type":"Feature","properties":{"@id":"way/505927648","name":"ダイヤモンド"},"geometry":{"coordinates":[[140.29466132815023,40.67646670166188],[140.29502255970397,40.67665142412032],[140.29515500630035,40.67680270575046],[140.29517004222595,40.6769836687373],[140.29518992622002,40.67742271864717],[140.29521792622,40.67775821864717],[140.29519552622,40.67864591864717],[140.29505928058876,40.679018484189335],[140.29487253496058,40.67933187853718],[140.29469062962514,40.6795407252699],[140.29429783303036,40.67987915202081],[140.2939321767314,40.68024572537137],[140.2936096010211,40.68057795648204],[140.2931334771851,40.68139196188958],[140.29293655436874,40.681526489941234],[140.2925748441548,40.68170428570709]],"type":"LineString"}},{"type":"Feature","properties":{"@id":"way/505927650","name":"ツイスター"},"geometry":{"coordinates":[[140.29402904081064,40.676645417747274],[140.29349958571257,40.678679232421906],[140.29294901632304,40.68041203407165],[140.29269188123052,40.68142084483809],[140.29257370713927,40.68153210140961],[140.29224724834884,40.681938695977315],[140.29185692251795,40.68228326239469],[140.29162801537868,40.682852398809494],[140.29158601537972,40.68303719476914],[140.2916111,40.6833092],[140.2916111,40.6836405],[140.2914431,40.6841756],[140.2913815,40.6842775],[140.2911854,40.6844474],[140.2908046,40.6846555],[140.2906814,40.6848763],[140.2907038,40.6851056],[140.2908774,40.6856492],[140.29109089286283,40.686154179162564]],"type":"LineString"}},{"type":"Feature","properties":{"@id":"way/505927645","name":"ファミリーコネクター"},"geometry":{"coordinates":[[140.29110610434148,40.68626567132741],[140.29089296473066,40.68654654515366],[140.2903734,40.6869445],[140.29007660990277,40.68718558922042],[140.28978400482794,40.68745841273398],[140.28950412463524,40.68771434586705],[140.28933191020062,40.68784053968501],[140.28902384013537,40.687963763554855],[140.2888166664083,40.68814208100007],[140.28856432132775,40.688465029267206],[140.2880772,40.6891188],[140.28775123764018,40.689326366966824],[140.28721715921984,40.689582159828774],[140.28652573237008,40.689759395624776]],"type":"LineString"}},{"type":"Feature","properties":{"@id":"way/505927661","name":"ファミリー"},"geometry":{"coordinates":[[140.28530767904866,40.683083579686304],[140.28537146870238,40.683689112566846],[140.2854506,40.6842308],[140.285473,40.6843412],[140.285641,40.6847744],[140.2857978,40.684991],[140.285921,40.6852076],[140.2861563,40.6858233],[140.2862795,40.6862608],[140.2863075,40.686609],[140.28635424350804,40.68701778765354],[140.28638558374976,40.68761491377363],[140.2863794105772,40.688242979791696],[140.2863650284626,40.68878390188873],[140.28625007966176,40.68962110695565]],"type":"LineString"}},{"type":"Feature","properties":{"@id":"way/505927672","name":"ツイスターコネクター"},"geometry":{"coordinates":[[140.28506165263795,40.68291553074591],[140.28541840487574,40.68306004599103],[140.2858123255174,40.68326795505211],[140.2865909064788,40.68356920269419],[140.2870752862396,40.68368245660914],[140.28758001296,40.68389838364762],[140.28821402591754,40.68426518214249],[140.28899691295766,40.68483476441845],[140.2895445,40.685318],[140.29013837001867,40.68581477734283],[140.2903734,40.6860484],[140.29087018176872,40.68635904928987]],"type":"LineString"}},{"type":"Feature","properties":{"@id":"way/505927652","name":"コルクスクリュー"},"geometry":{"coordinates":[[140.2854308862365,40.67784085637809],[140.2857662509996,40.67827749812385],[140.28577322423538,40.67835833923383],[140.2857770497352,40.67849077807668],[140.28572533888124,40.67859045877573],[140.28568677196932,40.67870795179205],[140.28574385099827,40.67890733985287],[140.2860047681756,40.67996913981547],[140.28615835805635,40.68040271940007],[140.2864643,40.681122],[140.2865371,40.6812536],[140.28688966459924,40.682007272268685],[140.28704561588688,40.6821544057631],[140.2873883,40.6825405],[140.287534,40.6827443],[140.2876516,40.6831605],[140.2879988,40.683891],[140.28814004846944,40.684125801003255]],"type":"LineString"}},{"type":"Feature","properties":{"@id":"way/505927618","name":"ドリームウォーカー"},"geometry":{"coordinates":[[140.2815962029524,40.68002844741588],[140.2818775,40.6805614],[140.2821183,40.6808374],[140.28236988814936,40.68119464238918],[140.28251420142342,40.6816377560245]],"type":"LineString"}},{"type":"Feature","properties":{"@id":"way/505927620","name":"パラダイス"},"geometry":{"coordinates":[[140.28174410646386,40.6765462789266],[140.2816927,40.6769002],[140.28163210646403,40.67720049721558],[140.28163138383846,40.67795288129426],[140.2816367,40.6784165],[140.28153058384032,40.67901776855012],[140.28146023555325,40.679575677038024],[140.28143912585543,40.680249551847396],[140.2814183,40.6807865],[140.28124885475077,40.681105],[140.28091700949977,40.6816234205492],[140.28043618707028,40.68253969677781],[140.2801126773763,40.683175751551296],[140.27976318060837,40.684143348548886],[140.2795869,40.6848593],[140.27939420323014,40.6855291091371],[140.2791333,40.6861503],[140.2787861,40.6865071],[140.2783233678747,40.686816785850624]],"type":"LineString"}},{"type":"Feature","properties":{"@id":"way/505927623","name":"ロウワーウェーブ"},"geometry":{"coordinates":[[140.27790680056208,40.68461910810478],[140.27764235589774,40.68501248207584],[140.27733352640428,40.68532238261682],[140.27707494325944,40.68569522695044],[140.27697004859678,40.685933599988005],[140.27679333735992,40.686519335379536],[140.27663612247184,40.68680542986879],[140.27642809283702,40.68700147683503],[140.27622006320217,40.687143736444675],[140.27593218202256,40.68735500648021],[140.27578881334261,40.687498195362984],[140.2756769705049,40.687647360576314],[140.27561412612408,40.687761343906786],[140.27559068904606,40.6879530191638]],"type":"LineString"}},{"type":"Feature","properties":{"@id":"way/505927625","name":"アッパーウェーブ"},"geometry":{"coordinates":[[140.278366,40.6789389],[140.2783492,40.6791683],[140.27819081330912,40.679788372745946],[140.27806683548943,40.68016984154817],[140.2780924088727,40.68037603455538],[140.27822357338334,40.68088171022282],[140.2782316,40.6813768],[140.27814882883493,40.681664340417605],[140.2779888243985,40.682032334936316],[140.27790982550678,40.682314907471145],[140.277904299445,40.68304059001933],[140.2778987733832,40.683549764715316],[140.277862,40.6839929],[140.27788239334538,40.684454025825076]],"type":"LineString"}},{"type":"Feature","properties":{"@id":"way/505927636","name":"パイプドリーム"},"geometry":{"coordinates":[[140.27693044382792,40.69048759201327],[140.27776408657724,40.69148036931114]],"type":"LineString"}},{"type":"Feature","properties":{"@id":"way/505927639","name":"サンシャイン"},"geometry":{"coordinates":[[140.28354926563875,40.67455814003936],[140.28283292801862,40.675468148781135],[140.28236764443002,40.67596377426172],[140.28202816774407,40.67620953561921],[140.28168869105812,40.67640113937191],[140.28106329507452,40.67664218716874],[140.28058590492566,40.67759003076495],[140.28038430492566,40.677989330764944],[140.28029470492567,40.67842253076494],[140.2801697376841,40.67892688616099],[140.2796922475353,40.68005877635877],[140.27954016391763,40.68043857767974],[140.27957780492565,40.68073293076494],[140.27961140492567,40.68116613076494],[140.27931405899,40.682267123518955],[140.2790856802958,40.68277809018861],[140.27880113275674,40.683311823842736],[140.27853671145272,40.68391161725738],[140.27832061964187,40.684373468380215],[140.27822056884307,40.6851331465159],[140.27814654753533,40.68655500700586],[140.27805450492568,40.686933430764945],[140.2776157688412,40.68768943076494],[140.2773404852213,40.688162984141385],[140.27716329014703,40.68909246237666],[140.27706320492567,40.68971923076494],[140.27681592130588,40.69051800714826],[140.2762950818942,40.69117800334347],[140.27614316711617,40.6915255304385],[140.27635705898896,40.69169266832536],[140.2768026951974,40.69175621901199]],"type":"LineString"}},{"type":"Feature","properties":{"@id":"way/505927667","name":"スレンダーライン"},"geometry":{"coordinates":[[140.27558612427464,40.681146091866694],[140.2753829224061,40.68141746033569],[140.27505853102994,40.68201529087247],[140.27486293964864,40.68246338691402],[140.2748007381822,40.682672124934584],[140.27488724661245,40.682780879964156],[140.27518650876183,40.68302015004572],[140.27561287702466,40.683155240214354],[140.2758234462808,40.683280010448385],[140.275857,40.6834748],[140.275857,40.683581],[140.2758066,40.6838018],[140.2756597414263,40.68402744074111],[140.2754672964259,40.68439040338547],[140.2755208742879,40.68482054435192],[140.2757006092903,40.68500901134462],[140.2758766475047,40.685209151875654],[140.275913,40.6853987],[140.2759242,40.6855133],[140.2757481457094,40.68584780384853],[140.27563897713776,40.68615152712021],[140.27547299070963,40.68661583229755],[140.2753550760674,40.686802968153245],[140.27531398856883,40.68696362362988],[140.2752901414255,40.68717652170123],[140.2753082,40.6874159],[140.27527644035507,40.687612998033615],[140.27531452357118,40.68777831999519],[140.27539614053617,40.687864045930446],[140.27548474178678,40.687928587895044],[140.2755467035725,40.68813446374627],[140.27584639785925,40.689187795886184],[140.2759971,40.6897133],[140.2760363,40.6900445],[140.2760755,40.6908174],[140.27612445285743,40.69099764043153]],"type":"LineString"}},{"type":"Feature","properties":{"name":"スケートアウェイ"},"geometry":{"coordinates":[[140.28652317205297,40.68356964350218],[140.28621180057127,40.6837048571696],[140.28605478418297,40.68382190758504],[140.28585252578296,40.68405398969841],[140.2856635738587,40.68427396243359]],"type":"LineString"}},{"type":"Feature","properties":{"name":"ピストオフ"},"geometry":{"coordinates":[[140.28265612636665,40.6800780465955],[140.28249028161946,40.68029224860899],[140.28237626335897,40.68044946065774],[140.2822622450961,40.68059488147293],[140.28218450537076,40.680787465307475],[140.28217414007435,40.6808169423758]],"type":"LineString"}},{"type":"Feature","properties":{"name":"スカイラインコネクタ"},"geometry":{"coordinates":[[140.28238820043828,40.678970427076365],[140.28257786215806,40.67919645225345],[140.28283074445432,40.679285492264285],[140.28303846919675,40.67926665688759]],"type":"LineString"}}]}