{"type":"FeatureCollection","features":[{"type":"Feature","properties":{"@id":"way/215956469","name":"アルペン"},"geometry":{"coordinates":[[138.50507062689246,35.9324406399532],[138.50485793585887,35.93238759997275],[138.5044868307159,35.932285480010954],[138.5040285461437,35.93214298012011],[138.5035514371786,35.93190269987784],[138.5032457852479,35.931704234026654],[138.50298149605703,35.93145036643532],[138.50282488048325,35.93131982985214],[138.50259707660422,35.93121090927089],[138.50222396198262,35.93106977054801],[138.5014764078157,35.93093885402462],[138.5008725404946,35.93079373549387],[138.4997344,35.9304837],[138.49904179921148,35.93029406905452],[138.49846538805753,35.93014059245599]],"type":"LineString"}},{"type":"Feature","properties":{"@id":"way/215956476","name":"バレー1"},"geometry":{"coordinates":[[138.5024921122711,35.92738257741452],[138.5021864,35.9273347],[138.50187122620065,35.92728480397882],[138.50171426417705,35.927312890345874],[138.50159294576954,35.92733564204131],[138.5014600754562,35.927375325414],[138.501330382879,35.92745232156509],[138.50107687238952,35.92764629102725],[138.5004231,35.9284249],[138.49971318184092,35.9291233396738],[138.49942633963468,35.929530683044106],[138.4993286636818,35.92959268510527],[138.4986388849091,35.92983522305336],[138.49794910613636,35.930077761001456],[138.49730136674845,35.93024628023399],[138.49543417195483,35.93059350724934]],"type":"LineString"}},{"type":"Feature","properties":{"@id":"way/215956477","name":"バレー2"},"geometry":{"coordinates":[[138.5025609,35.9274717],[138.5023763,35.9277107],[138.5020216,35.928185],[138.5015563,35.9286013],[138.50118389805343,35.928967583563505],[138.5007038,35.9292863],[138.50038913919528,35.929506509345],[138.5000330125771,35.929734888302356],[138.49954435413935,35.93001756511079],[138.49903446921346,35.93022883955035]],"type":"LineString"}},{"type":"Feature","properties":{"@id":"way/215956478","name":"バレー3"},"geometry":{"coordinates":[[138.502697967769,35.927523231997256],[138.50302549527748,35.92773331581139],[138.50325626139187,35.92786070426877],[138.50325136611656,35.92801467277311],[138.50314037945492,35.92818066132477],[138.5026656038974,35.92862717027297],[138.50241298612733,35.9288526295962],[138.50235617945708,35.92896709876127],[138.50208105029418,35.92946501628194],[138.5019756511214,35.92986055017077],[138.50188313028323,35.929964683457314],[138.5017220755618,35.930033141920454],[138.5010535141678,35.93013580334102],[138.5004305,35.930196514317615],[138.49989205749858,35.93018071430748],[138.4993753020042,35.930217016266226]],"type":"LineString"}},{"type":"Feature","properties":{"@id":"way/215956480","name":"ホーン"},"geometry":{"coordinates":[[138.4969689,35.9276266],[138.4968908,35.927614],[138.4966423,35.927655],[138.4963715514327,35.92771972730433],[138.49644062423275,35.9280173],[138.49648090499463,35.928289272537164],[138.49658211859762,35.92855744951353],[138.49635609935748,35.92917729076349],[138.49620340435408,35.92959316288275],[138.4960646400607,35.929968155919894],[138.49592233003293,35.93031728077733]],"type":"LineString"}}]}