{"type":"FeatureCollection","features":[{"type":"Feature","properties":{"@id":"way/454070884","name":"【D】アイガー"},"geometry":{"coordinates":[[138.4008135148238,36.05071799720512],[138.4012376272421,36.050950951348234],[138.4021306,36.0512502],[138.4031360575865,36.05131728767999],[138.4035409241367,36.051405583781325],[138.40426281965483,36.05163586388595],[138.4049984,36.05187720809121],[138.40593484757372,36.052198059044876],[138.40652636069038,36.05247108897019],[138.40695352999523,36.05260276806679],[138.4073876,36.052703],[138.40805595413195,36.05280171698989]],"type":"LineString"}},{"type":"Feature","properties":{"@id":"way/454070887","name":"【F】メンヒ"},"geometry":{"coordinates":[[138.4070738952142,36.0498078047085],[138.40741338628575,36.050248309691526],[138.40795225801864,36.05076156935212],[138.40853561160742,36.05142567579971],[138.40886472844466,36.051784918422335],[138.40912147587773,36.052082806915],[138.40941017687072,36.05251771786199],[138.40957334891218,36.05296185808763],[138.41008787971174,36.05404688100032]],"type":"LineString"}},{"type":"Feature","properties":{"@id":"way/454070888","name":"【H】"},"geometry":{"coordinates":[[138.40679916801437,36.05467989345282],[138.40705504417252,36.05447745091121],[138.407562000282,36.05362907218444],[138.4078025,36.0534389],[138.40814785042224,36.05332178998774],[138.40843139262745,36.053295037278104]],"type":"LineString"}},{"type":"Feature","properties":{"@id":"way/454070889","name":"【E】ブライトホーン"},"geometry":{"coordinates":[[138.4086287581953,36.05335406401393],[138.4090306,36.0536445],[138.40943585135187,36.0539203283126],[138.41068349026756,36.0547598041768],[138.4114465,36.0553326],[138.4117678,36.0556464],[138.41220924918943,36.05618493492972],[138.41260700216333,36.056699050000006],[138.4127569043266,36.057012792024885],[138.41279306108254,36.05747568301815]],"type":"LineString"}},{"type":"Feature","properties":{"@id":"way/454070890","name":"【B】ラバーホーン"},"geometry":{"coordinates":[[138.4003207676602,36.05130384721479],[138.40111607187532,36.05173732605873],[138.4013984953734,36.051933627764505],[138.4023917,36.0528626],[138.4035059,36.0535417],[138.4043107,36.0539028],[138.40580745517835,36.054409505536455],[138.4067621313293,36.05471077387466]],"type":"LineString"}},{"type":"Feature","properties":{"@id":"way/454070893","name":"【C】ユングフラウ"},"geometry":{"coordinates":[[138.40688183238993,36.05490219478663],[138.40754304467475,36.055238869714024],[138.40802348794043,36.05552721212991],[138.4085069,36.0559643],[138.40890653829513,36.05638839391207],[138.40901577872074,36.05650469390913],[138.4094104,36.0573223],[138.4094773,36.0574467],[138.4096647,36.0576685],[138.4099237304966,36.057790896033936],[138.4107961404257,36.05796726975941],[138.4114097,36.058073],[138.41229184184678,36.058170525200794]],"type":"LineString"}},{"type":"Feature","properties":{"@id":"way/454070891","name":"【A】ウェンゲン_2"},"geometry":{"coordinates":[[138.397597256265,36.05088007992511],[138.397886,36.0507349],[138.3981135,36.050651],[138.3990203,36.0505482],[138.399268,36.05054174974415],[138.39960586562643,36.050544603110225],[138.3998636,36.0505482],[138.40073179740406,36.0505216416259],[138.40082740902866,36.05052747410413],[138.40087430948,36.05054439814311],[138.40085268448348,36.05067787683588]],"type":"LineString"}},{"type":"Feature","properties":{"@id":"way/454070892","name":"【A】ウェンゲン"},"geometry":{"coordinates":[[138.39506216440176,36.05061090310045],[138.3970528,36.0508999],[138.39741120773468,36.05096402600989],[138.39767236769043,36.0509986679443],[138.39796189766656,36.05101065599961],[138.3991099858343,36.050927531824705],[138.3993530161547,36.05093948383755],[138.39951114635926,36.05096217375507],[138.3999205,36.0511028],[138.4001413,36.0512056],[138.4002524519908,36.05127351603354]],"type":"LineString"}},{"type":"Feature","properties":{"name":"【L】"},"geometry":{"coordinates":[[138.4078922863256,36.050721690456925],[138.40797231176077,36.05096200538675],[138.4079780278633,36.051137619678926],[138.4079494473507,36.05135020487661],[138.4078808541206,36.05154430390385],[138.40781226088797,36.05177075216396],[138.40779511258046,36.05201106389046],[138.40779511258046,36.052242132166995],[138.40785798970808,36.052431607646895],[138.40796087955567,36.052593354647286],[138.40861251525428,36.05325420322359]],"type":"LineString"}},{"type":"Feature","properties":{"name":"迂回・ホテル前"},"geometry":{"coordinates":[[138.4106841905088,36.05457277859624],[138.4114460422427,36.05457648898283],[138.4119395612101,36.05478792077497],[138.4122984951744,36.05508219022204],[138.4126804660383,36.05532025473639],[138.4130660236275,36.05550811398591],[138.41319964374765,36.055622074141255],[138.41334354233982,36.055800136553486],[138.41347569410834,36.05597226316914],[138.41350260769445,36.056033064961596],[138.4134644305176,36.056177888331234],[138.41324417757176,36.05650077226137],[138.41286544429363,36.057158497194166]],"type":"LineString"}}]}