{
  "type": "FeatureCollection",
  "features": [
    {
      "type": "Feature",
      "properties": {
        "name": "ポールバーン"
      },
      "geometry": {
        "coordinates": [
          [138.49071656968522, 37.04561332778256],
          [138.4910354706214, 37.04599785032657],
          [138.4912041216498, 37.04623343823596],
          [138.491329746757, 37.04647378589475],
          [138.49130230915563, 37.04674152116817],
          [138.4912605083706, 37.04691029193779],
          [138.49117628797626, 37.04722309682127],
          [138.49111097020312, 37.04747303031549],
          [138.49100024718643, 37.0477583033251],
          [138.49095132724284, 37.04792206075986]
        ],
        "type": "LineString"
      }
    },
    {
      "type": "Feature",
      "properties": {
        "name": "ラ・メール"
      },
      "geometry": {
        "coordinates": [
          [138.49326776689804, 37.03532710677507],
          [138.49286013077568, 37.03529285399226],
          [138.49250076734359, 37.035294994819466],
          [138.4922754947492, 37.03534209239011],
          [138.4919697676567, 37.03544270983029],
          [138.49168954580887, 37.03550160587362],
          [138.4915476133142, 37.03554594040135],
          [138.49131517314163, 37.03561490517126],
          [138.4911732406478, 37.03563132534468],
          [138.49103336860384, 37.0356526692313],
          [138.49087909413373, 37.03568715159466],
          [138.49078241545885, 37.03570849781751],
          [138.49072893362228, 37.035738054123115],
          [138.49068162279173, 37.035788956568],
          [138.4903079717012, 37.03643224157358],
          [138.49006642948063, 37.03695554674029],
          [138.49003112090116, 37.03714227197099],
          [138.49008408377154, 37.03752629034203],
          [138.49009732449224, 37.03778699895949],
          [138.49007967020134, 37.037934968314644],
          [138.49003553447642, 37.03806884510152],
          [138.48999581232079, 37.03831545961782],
          [138.4900302651128, 37.03850412260272],
          [138.49010088227408, 37.038711982270954],
          [138.4902509437444, 37.03892336439996],
          [138.49050693097473, 37.03916997614982],
          [138.490577548136, 37.03930737377203],
          [138.49060402957247, 37.039409541073766],
          [138.4906790603075, 37.039663197228435],
          [138.4907585042355, 37.03994960261075],
          [138.49085026702778, 37.04030188260168],
          [138.49094202982258, 37.040640209365705],
          [138.49097698708044, 37.0408599465312]
        ],
        "type": "LineString"
      }
    },
    {
      "type": "Feature",
      "properties": {
        "name": "プロムナード"
      },
      "geometry": {
        "coordinates": [
          [138.4909931359336, 37.04099644200146],
          [138.49108030363334, 37.04154078327295],
          [138.49108815876872, 37.04197757832628],
          [138.4910471386936, 37.04229681241701],
          [138.4908266555733, 37.0427224557652],
          [138.49050310180866, 37.04325876604079],
          [138.4900570080535, 37.04395042650549],
          [138.48965462785435, 37.04448684322422],
          [138.4892136616137, 37.04501888168747],
          [138.48894703086398, 37.04530945496627],
          [138.48874193028587, 37.04558365689914],
          [138.48853170219462, 37.045919245976606],
          [138.48828621493755, 37.046424698494576],
          [138.48804009424458, 37.04691170603036],
          [138.4878149587015, 37.04739611188536],
          [138.48769062518812, 37.04762511590701],
          [138.48748149389672, 37.04809811675457],
          [138.48730933980676, 37.04844161935],
          [138.48726127042158, 37.04856146621715],
          [138.4868905967017, 37.04933129616229],
          [138.4866936644441, 37.04979928222021],
          [138.4864817140055, 37.05032459181891]
        ],
        "type": "LineString"
      }
    },
    {
      "type": "Feature",
      "properties": {
        "name": "センターゲレンデ"
      },
      "geometry": {
        "coordinates": [
          [138.48645952984316, 37.05040254395868],
          [138.4856857183509, 37.05220157002877],
          [138.48521470265945, 37.05340313458207],
          [138.48483620790682, 37.054376455049265]
        ],
        "type": "LineString"
      }
    },
    {
      "type": "Feature",
      "properties": {
        "name": "エトワール"
      },
      "geometry": {
        "coordinates": [
          [138.49099352040258, 37.04156217177645],
          [138.49066567108804, 37.04196560777514],
          [138.49035148214034, 37.04218368041069],
          [138.48988019875202, 37.04237994523281],
          [138.48966163254232, 37.04254895064609],
          [138.48915619818308, 37.04297964015829],
          [138.4888283488704, 37.04329584103007],
          [138.48857563169167, 37.043530264964076],
          [138.4883365748995, 37.04370471951455],
          [138.488124838884, 37.043781043254455],
          [138.48792090687033, 37.04385347825034],
          [138.48772966143736, 37.04402793205807],
          [138.48748377445094, 37.04434412856345],
          [138.48710128358493, 37.04483477570527],
          [138.48680075504882, 37.04533632283865],
          [138.48648434374826, 37.04597968057816],
          [138.48632724928615, 37.046355835565706],
          [138.4862126848147, 37.04661898465271],
          [138.4860795113034, 37.04674552246223],
          [138.48587023864502, 37.046912552047104],
          [138.48567999077255, 37.047074519778306],
          [138.48547502140178, 37.047238115229646],
          [138.48531648150856, 37.047405143730586],
          [138.48520233278487, 37.04761772492765],
          [138.48506281767925, 37.047977087025416],
          [138.48504379289164, 37.048220035086274],
          [138.48508256198272, 37.048566986901534],
          [138.48511426996197, 37.04882005581403],
          [138.4852918346411, 37.04938692711579],
          [138.48536793379134, 37.04983738432752],
          [138.48538061698144, 37.050348574104405],
          [138.48552013201964, 37.05079648611519],
          [138.48564062233925, 37.051135588303865],
          [138.48569769670036, 37.051469627784996]
        ],
        "type": "LineString"
      }
    },
    {
      "type": "Feature",
      "properties": {
        "name": "メモワール"
      },
      "geometry": {
        "coordinates": [
          [138.49122943233567, 37.041867527062806],
          [138.49135262347477, 37.04259193924095],
          [138.49144833072694, 37.04315724070128],
          [138.49150575509185, 37.04360540467334],
          [138.49149299412448, 37.04398226774987],
          [138.4913781454195, 37.04430310916514],
          [138.49122734431847, 37.04467004299174],
          [138.49098488594268, 37.04500106682764],
          [138.49075518853442, 37.04535245978134],
          [138.4904999691896, 37.0456427396896],
          [138.49025554977436, 37.04601276140677],
          [138.49010887397293, 37.046206769302685],
          [138.48990600042652, 37.04662037517531],
          [138.4897016662577, 37.047164331110224],
          [138.4895966545846, 37.047442489182885],
          [138.48950624916142, 37.047625053637354],
          [138.48931067874116, 37.0478542491209],
          [138.48883207571788, 37.04882107659098],
          [138.4882845966656, 37.04999311449217]
        ],
        "type": "LineString"
      }
    },
    {
      "type": "Feature",
      "properties": {
        "name": "キューパイ"
      },
      "geometry": {
        "coordinates": [
          [138.49023071638953, 37.04631177893695],
          [138.49026794077514, 37.04681576786146],
          [138.49029654902927, 37.047190255650634],
          [138.49035945107516, 37.04749803112273],
          [138.49042698421192, 37.04782982358769],
          [138.49049535599949, 37.04813104812017]
        ],
        "type": "LineString"
      }
    },
    {
      "type": "Feature",
      "properties": {
        "name": "ソレイユ"
      },
      "geometry": {
        "coordinates": [
          [138.49338627796027, 37.03539574612084],
          [138.49380183413808, 37.035559168482266],
          [138.4941410013135, 37.03565673390348],
          [138.49453211300983, 37.03572015136001],
          [138.49500024566748, 37.03589369453195],
          [138.4955150188626, 37.03610101055139],
          [138.4959158197595, 37.036332310131016],
          [138.49644415857347, 37.03660623111571],
          [138.49671304786546, 37.03679404185074],
          [138.4971167191784, 37.03710012110119],
          [138.49745588635392, 37.037434275367275],
          [138.49763153701048, 37.03765881055358],
          [138.49773542605527, 37.03794662022774],
          [138.49776292609624, 37.03808808559985],
          [138.49784719107862, 37.03853583481454],
          [138.49798469128484, 37.03886022663849],
          [138.49811302480953, 37.03918217805642],
          [138.49825230062459, 37.03958635046959],
          [138.4982736895451, 37.03992293279107],
          [138.498274217791, 37.04022768309798],
          [138.49833227343373, 37.04059109131106],
          [138.49843005135824, 37.04095449778461],
          [138.49853496767957, 37.041282386959196],
          [138.49864802340414, 37.041497014542216],
          [138.49874580132865, 37.041787248603626],
          [138.4988855129535, 37.04210034824564],
          [138.49910551328236, 37.04241496917294],
          [138.4993282952505, 37.04259042893909],
          [138.4994566287752, 37.04270993549498],
          [138.499471906577, 37.04277334706059],
          [138.49944746209542, 37.04287334211486],
          [138.49929162852817, 37.04315381534251],
          [138.49903118895935, 37.04353751492815],
          [138.49885314143995, 37.043802793200754],
          [138.4987344430936, 37.04395753843126],
          [138.49858804846707, 37.04410912529073],
          [138.49828561686292, 37.044221915596154],
          [138.4981383708428, 37.04426305019933],
          [138.49804266092565, 37.04426540074789],
          [138.4979042496496, 37.04426422547267],
          [138.49759621885443, 37.044298742987735],
          [138.49718099310115, 37.04428230254517],
          [138.4969117254841, 37.04426995227004],
          [138.49666219731017, 37.0442664999771],
          [138.4964271783451, 37.044350142912094],
          [138.49620402282358, 37.044575821345134],
          [138.49595452602728, 37.044912008161376],
          [138.49565837834632, 37.04518549856773],
          [138.49543024258162, 37.04539842656541],
          [138.49524667996786, 37.045607450125175],
          [138.49510717238314, 37.045720752375075],
          [138.49497255980026, 37.04577349646814],
          [138.49478654968806, 37.04585358928014],
          [138.49446103198864, 37.04588875195107],
          [138.4941764683942, 37.045988285322636],
          [138.49396803867745, 37.04609693359933],
          [138.4937814772478, 37.04626515615935],
          [138.49362973215347, 37.04643120106364],
          [138.4934670993539, 37.04657697853405],
          [138.49330311672549, 37.04667074472927],
          [138.49312653394048, 37.04684009275073],
          [138.49288396250063, 37.047163535371766],
          [138.49271538312058, 37.04731664374799],
          [138.49259330836674, 37.04741407616987],
          [138.49248867289066, 37.04746975179489],
          [138.49240147658998, 37.04749294993236],
          [138.49222708403659, 37.04745119319496],
          [138.4920468783738, 37.04740943642497],
          [138.4918728236954, 37.04738480308176],
          [138.49169244218518, 37.04739046782879],
          [138.49155660538497, 37.04743597953406],
          [138.49143650475634, 37.0475022291165],
          [138.4912562992135, 37.04770173301941],
          [138.49093836233766, 37.047990810894404],
          [138.490577951249, 37.048287744833985],
          [138.48997005857996, 37.048844492555446],
          [138.48961546055654, 37.049262050866886],
          [138.48922598405852, 37.049619293387394],
          [138.4888888252986, 37.04988374455921],
          [138.48856329270296, 37.05003220797175],
          [138.4882435731896, 37.05009252114991],
          [138.4880628683434, 37.05015356465198],
          [138.48791542132193, 37.050285390414814],
          [138.48775533956712, 37.050471258066906],
          [138.48756199998473, 37.05080753730769],
          [138.48735549362735, 37.05115418875186],
          [138.48716276371624, 37.051620127059564],
          [138.4869581314996, 37.05205840931984],
          [138.48651713842528, 37.05280880707915],
          [138.48632961612827, 37.053010363976085],
          [138.48584277338796, 37.053251734163354],
          [138.48536641244306, 37.053562221021394]
        ],
        "type": "LineString"
      }
    },
    {
      "type": "Feature",
      "properties": {
        "name": "マリオネット"
      },
      "geometry": {
        "coordinates": [
          [138.49503193901404, 37.03604205205866],
          [138.495220938658, 37.03635816048792],
          [138.49548193816491, 37.03669582031051],
          [138.49561693790992, 37.037083768040375],
          [138.49558993796035, 37.037234636066785],
          [138.495427938266, 37.03739987213301],
          [138.4952299386411, 37.03757947614429],
          [138.4949239392185, 37.037672870062806],
          [138.49471693961056, 37.037751895595775],
          [138.49454593993295, 37.03781655278941],
          [138.49448294005316, 37.03792431465571],
          [138.49433478682124, 37.03823866060512],
          [138.49415196397098, 37.03844498272686],
          [138.49408955435985, 37.03864718120762],
          [138.4940445388545, 37.03883711094957],
          [138.49402524649508, 37.03931963302115],
          [138.49392891608534, 37.039618645967295],
          [138.4937488540674, 37.03989583701937],
          [138.49336300688543, 37.04021409216466],
          [138.49309934464486, 37.040439949845776],
          [138.49275684718867, 37.04066200325555],
          [138.49263466224727, 37.040851927957334],
          [138.4925832159571, 37.041190711380196],
          [138.4924867541617, 37.04166808545631],
          [138.49245148201965, 37.0420734398119],
          [138.49247077437906, 37.04236602087714],
          [138.49249006673853, 37.042899850090436],
          [138.49238074337, 37.04326428903134],
          [138.49229071236095, 37.043546599684746]
        ],
        "type": "LineString"
      }
    },
    {
      "type": "Feature",
      "properties": {
        "name": "エトル"
      },
      "geometry": {
        "coordinates": [
          [138.49790631172533, 37.03917966921236],
          [138.49762318752414, 37.03939800447529],
          [138.49729157857956, 37.03970810546842],
          [138.49711148477724, 37.03984547042961],
          [138.49684734719688, 37.040148950276475],
          [138.4966632513088, 37.04043326187501],
          [138.4964945520224, 37.04087662701326],
          [138.49634647489472, 37.04138774332483],
          [138.49615037286196, 37.041975522492834],
          [138.49604631866413, 37.04246427046374],
          [138.49591038019253, 37.04299087150082],
          [138.49587436143207, 37.04341253096321],
          [138.49589837393773, 37.043501973578486],
          [138.49602644064322, 37.04366169227272],
          [138.49611696667716, 37.04388102465255],
          [138.49614898335403, 37.04403435383975],
          [138.49614898335403, 37.04423879227342],
          [138.4961369770897, 37.0444368415334],
          [138.49611019768605, 37.044606614585106]
        ],
        "type": "LineString"
      }
    },
    {
      "type": "Feature",
      "properties": {
        "name": "エトル_2"
      },
      "geometry": {
        "coordinates": [
          [138.49651267753336, 37.040449893345865],
          [138.49592171582276, 37.040234388608],
          [138.4954957488768, 37.04007854951037],
          [138.49520585470458, 37.040007713450976],
          [138.49501653606313, 37.040007713450976],
          [138.4947917201755, 37.04013994070819],
          [138.49466156360785, 37.040239111000005],
          [138.49431250723052, 37.040319391579175],
          [138.49398119960603, 37.04042800639736],
          [138.4938806240769, 37.04051773156439],
          [138.49385104303843, 37.0406405132002],
          [138.4938806240769, 37.0408246852822],
          [138.49392203752916, 37.04102774629031],
          [138.49390428890763, 37.041145804766046],
          [138.4938687916615, 37.0412355290848],
          [138.49379188096304, 37.04127330771374],
          [138.49363214335852, 37.041301641673],
          [138.49341324367856, 37.04143858899407],
          [138.4931943463078, 37.04167470938553],
          [138.49298136283403, 37.041887212699436],
          [138.49280979281406, 37.04199110299193],
          [138.49253173105882, 37.04211860452003]
        ],
        "type": "LineString"
      }
    },
    {
      "type": "Feature",
      "properties": {
        "name": "ソレイユハイヤー"
      },
      "geometry": {
        "coordinates": [
          [138.4989374282951, 37.04238883094624],
          [138.49878895966174, 37.0427147222573],
          [138.49864049102996, 37.04297148412262],
          [138.49849202239818, 37.0431689926595],
          [138.49826931944898, 37.0433368745114],
          [138.49792116052225, 37.04354033199586],
          [138.49743622487142, 37.043778525432174],
          [138.4971315858101, 37.04392243360458],
          [138.4967585583866, 37.04411596485424],
          [138.49649122206665, 37.0442648347109]
        ],
        "type": "LineString"
      }
    },
    {
      "type": "Feature",
      "properties": {
        "name": "マツカゼ"
      },
      "geometry": {
        "coordinates": [
          [138.49017662186384, 37.043987239601876],
          [138.49046046274123, 37.044065011898226],
          [138.49061721069035, 37.04415630970901],
          [138.49070617573983, 37.044267895772535],
          [138.49070617573716, 37.044430202487234],
          [138.49065533856412, 37.04478862857435],
          [138.4906129760442, 37.04498136412121]
        ],
        "type": "LineString"
      }
    }
  ]
}
