{"type":"FeatureCollection","features":[{"type":"Feature","properties":{"name":"中の原_#下部"},"geometry":{"coordinates":[[133.53758489451957,35.39442705990656],[133.53727111653126,35.3947173833114],[133.53656412668715,35.39529644538372],[133.53613548139788,35.395548745826986],[133.53589027234554,35.39568567468593],[133.5356469342717,35.39583480482736]],"type":"LineString"}},{"type":"Feature","properties":{"name":"上の原 U2"},"geometry":{"coordinates":[[133.5417269420542,35.39108219486545],[133.54140355100333,35.39169382386616],[133.54097667481415,35.392674529650066],[133.54029108578573,35.39417192837733],[133.53973056743564,35.39534514076888],[133.53936836945786,35.39611490823526],[133.53917433482673,35.39654724016491]],"type":"LineString"}},{"type":"Feature","properties":{"name":"上の原 U1"},"geometry":{"coordinates":[[133.53964290445634,35.39613868340567],[133.53951503115275,35.39650351584608],[133.53942119458395,35.39692137769002],[133.5394211739594,35.397216057576756],[133.53942115333484,35.397620734510696],[133.53920398069178,35.398117698350724],[133.5388968489163,35.398663549883466],[133.5384238728788,35.39947284017801],[133.5382731650551,35.39971108843318],[133.53791237966453,35.40028809300868]],"type":"LineString"}},{"type":"Feature","properties":{"name":"リーゼン_#下部"},"geometry":{"coordinates":[[133.54549795136842,35.39172564287283],[133.5452177861282,35.39187563332871],[133.54489019170074,35.39210611172993],[133.5446059623128,35.39241850040561],[133.54425632162116,35.392907697971225],[133.54393544250252,35.393261315273705],[133.5435191379883,35.39363701391102],[133.5432398543103,35.39392281173208],[133.5429783972503,35.39418196650732],[133.54294868622026,35.39426431457956],[133.54293680180973,35.39443143246717],[133.5430187410563,35.39469868242534],[133.54307519198846,35.3948997071807],[133.54306924978243,35.3950208061794],[133.54300685668312,35.39524604975844],[133.54292724246795,35.395597623393684],[133.54278172793693,35.396180550987324],[133.54267778898503,35.39631611493988],[133.5424900489075,35.39644757181064],[133.54232211460612,35.39660402188582],[133.54211099719902,35.396991234516875],[133.54177441679877,35.397532888998185],[133.54171416033586,35.39772073647008],[133.54170480683098,35.39779396250299],[133.54174161937877,35.39785213563063],[133.5418842529656,35.397904193306644],[133.54204025518501,35.39796315012881],[133.54219529503905,35.397986983332316],[133.54228377769238,35.39795562207856],[133.54236379428443,35.39788913614714],[133.5424499617806,35.397801322594695],[133.54257613072025,35.397753645021226],[133.54276845272435,35.39776742349162],[133.5429700079394,35.39785646669375],[133.54320387939447,35.39802830078801]],"type":"LineString"}},{"type":"Feature","properties":{"name":"パラダイス_#下部"},"geometry":{"coordinates":[[133.54604975867244,35.39196349685186],[133.54579400288185,35.39272139675296],[133.5456378640867,35.393087339036796],[133.54548206715037,35.3934155976832],[133.54537146883638,35.393760322999725],[133.54530641100524,35.393988371245385],[133.54517106973373,35.39443551243109],[133.54490433262453,35.39499236862754],[133.54444956635086,35.39585119822],[133.5440397020131,35.39663078213249],[133.54363222259678,35.39736135497124],[133.54324187560712,35.39816213694783]],"type":"LineString"}},{"type":"Feature","properties":{"name":"パラダイス_2"},"geometry":{"coordinates":[[133.54449045878732,35.392908040069074],[133.54464513258011,35.39310978381209],[133.54466059995968,35.39326109128773],[133.54463482099374,35.39363515577442],[133.54463997678693,35.393984000866524],[133.5446041053615,35.39458028275274],[133.5445628590174,35.39476100779849]],"type":"LineString"}},{"type":"Feature","properties":{"name":"チャンピオン_#下部"},"geometry":{"coordinates":[[133.54634798158406,35.39689772757261],[133.5462369868132,35.39765056564016],[133.5463230120248,35.398036244431836],[133.54629075256997,35.39837809454505],[133.54611870214808,35.398649820524525],[133.5459358985732,35.399289687762206],[133.5458411730546,35.3998962385495],[133.54590569196296,35.40008907280435],[133.5462712991113,35.400720163506165],[133.54653174890944,35.401258246288435],[133.54662175177356,35.40144312395094],[133.54662764372097,35.401589603240495],[133.54652453464388,35.40194739579664],[133.5463860738824,35.40225235866836],[133.54628087434634,35.40259646382776],[133.54617196839382,35.402939704814884],[133.54601223966245,35.40311724268355],[133.5457579966021,35.4032772403943],[133.5454766220322,35.40355813332627],[133.54532025919178,35.40374542739265],[133.54523361133107,35.403919637506576],[133.545175846091,35.40421155631354],[133.54517006943553,35.40454114085186],[133.54514118681476,35.40472476590554]],"type":"LineString"}},{"type":"Feature","properties":{"name":"テクニクダス"},"geometry":{"coordinates":[[133.54593055460884,35.396805528835],[133.54574722325003,35.39686320911132],[133.54556389189298,35.39696808223569],[133.5452133108746,35.39732727165334],[133.544859088576,35.39776514078706],[133.5444254227839,35.39825910502191],[133.54410727142448,35.39863171855177],[133.54392442581565,35.39867345116001],[133.5436355297523,35.398566138695585],[133.54344537031892,35.3983723797172]],"type":"LineString"}},{"type":"Feature","properties":{"name":"国際・上の原連絡路"},"geometry":{"coordinates":[[133.54158347063913,35.39784768516114],[133.54140125520524,35.39797583102619],[133.5412404768894,35.398112713883435],[133.54114400989806,35.39819426100692],[133.54101896009598,35.39824959650757],[133.54093321166027,35.398214647774566],[133.54091892025406,35.39806320308949],[133.54089748314465,35.39775740045448],[133.540908201656,35.39752440716198],[133.540865327439,35.39733509963989],[133.54085818173593,35.397271026224516],[133.54083317177583,35.397233164636816],[133.54076528759703,35.39721860248271],[133.540715267603,35.397221514854266],[133.54060631816316,35.3972438972569],[133.5405134240243,35.39729923341055],[133.54038837422223,35.39743320499244],[133.54029190723088,35.397587563279345],[133.54020615879512,35.397768132974676],[133.540131131948,35.398024425911984],[133.5400739663247,35.39811471032064],[133.5400060821459,35.39821664420998],[133.53987031379012,35.398312753186744],[133.5397095371505,35.39837100235748],[133.53949873891088,35.398423425350046]],"type":"LineString"}},{"type":"Feature","properties":{"name":"連絡路"},"geometry":{"coordinates":[[133.533579083054,35.39665579489427],[133.53421099705827,35.39639823846521],[133.5347887470055,35.396228986649845],[133.53542066101136,35.39605973447924],[133.5359775031348,35.39587620078831],[133.53626035990544,35.395844312592175],[133.53684412808138,35.395900730172414],[133.53746701474336,35.39604545335051],[133.53813202255714,35.396214703441956],[133.53886022821956,35.39647226045729],[133.53955533362472,35.396737175385724],[133.53990401164555,35.39695619930512],[133.5400845585043,35.397105826390614],[133.54017483193354,35.397159790191054],[133.54029519650857,35.39714261989734],[133.54037357469906,35.397051747444095],[133.540451811671,35.39674513406037],[133.5405892404861,35.39648307668628],[133.54068854125785,35.39637024230065],[133.54077279645855,35.396291748722476],[133.54088413368999,35.39628193703224],[133.54097139800427,35.396306466286575],[133.54110680814836,35.39649779421603],[133.54122717272145,35.396880448711855],[133.54126079537411,35.397148771280015],[133.54121866777302,35.397541234237934],[133.5412848682891,35.39770557753387],[133.54155568857573,35.397811051413115],[133.54162790732045,35.397825768687284]],"type":"LineString"}},{"type":"Feature","properties":{"name":"豪円山"},"geometry":{"coordinates":[[133.53364207023986,35.396767108768],[133.53377023965692,35.39765256041693],[133.5339549464291,35.398753702731995],[133.53406298015892,35.399544318145075],[133.5342658552375,35.400468287237956],[133.53446283115585,35.40122346240969],[133.53454333756883,35.4013914546026],[133.53482384524443,35.40183358145441],[133.53489147063124,35.40194120067858]],"type":"LineString"}},{"type":"Feature","properties":{"name":"帰宅路"},"geometry":{"coordinates":[[133.53384901478495,35.396467526341766],[133.53379570563357,35.396309051865344],[133.5338131471501,35.396136237056766],[133.53380385578146,35.39589624298087],[133.5337850148513,35.395773736297905],[133.53373880203816,35.39561859632937],[133.53360014935197,35.39537523928445],[133.53356340663498,35.395205027782794],[133.53363203558126,35.394976216247244],[133.53381427449324,35.39469489906965],[133.53381427449324,35.39460661286111],[133.5337828318419,35.39455107793694],[133.5335814331723,35.394462100114424],[133.53344788185325,35.3944721813678],[133.53331687080367,35.394561891696625],[133.53310046611585,35.394837396875474],[133.5328929544595,35.395068068386706],[133.53270116338103,35.39519621894178],[133.5324905076078,35.395285924208494]],"type":"LineString"}},{"type":"Feature","properties":{"name":"中の原_#中部"},"geometry":{"coordinates":[[133.5407635380854,35.391805990105226],[133.53758489451957,35.39442705990656]],"type":"LineString"}},{"type":"Feature","properties":{"name":"中の原_#上部"},"geometry":{"coordinates":[[133.54225238674996,35.39040642442585],[133.5407635380854,35.391805990105226]],"type":"LineString"}},{"type":"Feature","properties":{"name":"パラダイス_#上部"},"geometry":{"coordinates":[[133.54648080449766,35.39114059550661],[133.54633763987215,35.39137401574585],[133.54621422207765,35.39158731295842],[133.54604975867244,35.39196349685186]],"type":"LineString"}},{"type":"Feature","properties":{"name":"リーゼン_#上部"},"geometry":{"coordinates":[[133.54626872467554,35.391073783575166],[133.54598975749218,35.39131603396848],[133.5456986612976,35.39157311521524],[133.54549795136842,35.39172564287283]],"type":"LineString"}},{"type":"Feature","properties":{"name":"チャンピオン_#上部"},"geometry":{"coordinates":[[133.54731077924987,35.391310678294815],[133.54734215633476,35.391711416388944],[133.54738399244957,35.39228267788961],[133.54744412670755,35.392949542370005],[133.54746064711708,35.393652239359],[133.54738743391744,35.394040176706454],[133.54724650156885,35.39465433853836],[133.54706346856898,35.39505079703332],[133.54683859945686,35.395451516542124],[133.54656177368713,35.39604922511367],[133.54643103583084,35.39647125420851],[133.54634798158406,35.39689772757261]],"type":"LineString"}}]}