{"type":"FeatureCollection","features":[{"type":"Feature","properties":{"@id":"way/1140721090","name":"第6ゲレンデ"},"geometry":{"coordinates":[[136.86253801353195,35.99192245966851],[136.86335027768345,35.99182097983426],[136.86405659123784,35.991731189748634],[136.86508518766803,35.99162898195329],[136.86603836932952,35.991458603404666],[136.86715690438214,35.991300578019185]],"type":"LineString"}},{"type":"Feature","properties":{"@id":"way/452698880","name":"から松ゲレンデ"},"geometry":{"coordinates":[[136.86291796157215,35.99110729633382],[136.8633698932191,35.991133638504536],[136.86371179590915,35.99109833837899],[136.8640928,35.9910347],[136.86467327782537,35.990918015543016],[136.86530804434918,35.99078931391797],[136.86597262486606,35.99066048352947],[136.8666477022603,35.990503504904964],[136.86727002389765,35.99041254605073]],"type":"LineString"}},{"type":"Feature","properties":{"@id":"way/452698882","name":"神中A"},"geometry":{"coordinates":[[136.8561510951546,35.99162816859784],[136.8561847192446,35.99175204525592],[136.85616581450432,35.99187637288286],[136.85612754912566,35.99199071737296],[136.85606724970026,35.99210026841676],[136.855968,35.9922531],[136.85586820933503,35.99236021299702],[136.8558163,35.9924716],[136.85582459257395,35.99259376710907],[136.8558176,35.9926912],[136.8556679,35.9929719],[136.8556007054437,35.993082556638655],[136.85552968960212,35.99319939697747],[136.85553539356343,35.993290039318644],[136.85566274851752,35.99331232379099],[136.85596216782398,35.993185322715696],[136.8562383212869,35.99301924010289],[136.85676171064625,35.99276701024699],[136.85719399822648,35.992662199634424],[136.85786335529156,35.99251575832412],[136.85830406618305,35.99231764580439],[136.85913342980535,35.99195301153114],[136.85979035077662,35.99181740602557],[136.86072708435256,35.991666005456025],[136.86165049010327,35.99158960061743],[136.86211870024982,35.99159878365062],[136.86248930134602,35.991713267697676]],"type":"LineString"}},{"type":"Feature","properties":{"@id":"way/452698883","name":"ラビット"},"geometry":{"coordinates":[[136.85861275683592,35.9965942016941],[136.8589860928724,35.99645386762857],[136.85920839557724,35.996248337752355],[136.8593605893742,35.996047829771435],[136.8594137709908,35.9957755338251],[136.8595216172959,35.99537056578492],[136.85961451171497,35.99513817253138],[136.85963093439352,35.994901647065056],[136.85964285368166,35.99473307511968],[136.85962283576197,35.99460835206489],[136.8595917552429,35.994496645502494],[136.8595339651218,35.994464175703826],[136.85936854067143,35.99438896407561],[136.8591188756322,35.994282371131234],[136.85900545933097,35.9941640284457],[136.85901354176653,35.99407738550882],[136.85909224588264,35.993995137860175],[136.8592208,35.9939299],[136.8593304,35.9938488],[136.8593803,35.9937401],[136.8593655,35.9936172],[136.85930207702856,35.99342627697497],[136.85919852756578,35.993279722489916],[136.8590551,35.9930271],[136.85894340586356,35.9929252427326],[136.8588423568664,35.99285218631364],[136.8584782784388,35.99280773480054],[136.8580821188662,35.99280229782043],[136.8577581584878,35.9927766883326],[136.85750108004888,35.99269378208804]],"type":"LineString"}},{"type":"Feature","properties":{"@id":"way/452698884","name":"β‐α連絡"},"geometry":{"coordinates":[[136.85482310387906,35.995559292322405],[136.85455759555902,35.995501956321945],[136.85436763166575,35.99547518041885],[136.85416821163557,35.99539696262249],[136.85391102619957,35.995315168715805],[136.85372307903856,35.99526113488204],[136.8535960504186,35.99523681560816],[136.85350989241894,35.995207709759896],[136.85343458308571,35.995176848549576],[136.85339827655596,35.99512724696808],[136.8534065029643,35.99505139492321],[136.85345401082853,35.99490638571158],[136.8535211594207,35.99479174992706],[136.8535482245181,35.994720388269826],[136.85354274361984,35.994629716383514],[136.85355867715185,35.99455433630409],[136.85360281720958,35.994487733580236],[136.85366181261122,35.99441834489115],[136.8537056198806,35.99434193428444],[136.85374553367956,35.99424289248696],[136.853745962981,35.9941161304667],[136.85374205281855,35.9940297445164],[136.85379168709116,35.99391762101724],[136.85386423835135,35.99385102636349],[136.85391353238083,35.993784374757965],[136.85387959660704,35.993728227575176],[136.8538261332334,35.99366856937859],[136.85375725089028,35.993602739622816],[136.85367318041463,35.993549198361855],[136.85361321661563,35.99347170963634],[136.85356627121607,35.993366132990985],[136.85353178174933,35.993242300488276],[136.85355804480577,35.99315533349084],[136.8536625448077,35.99306096562216],[136.85381845934634,35.99294976501078],[136.85391811394481,35.99286958760316],[136.8540026569724,35.99277858908877],[136.85405248427358,35.99267530191888],[136.85413997240389,35.99255627445213],[136.85428170385873,35.99244251342444],[136.85443959169046,35.992295143095376],[136.8545771183967,35.99210559339605],[136.8549186,35.9918704],[136.8551653,35.9916854],[136.8556421674757,35.99137282475353],[136.8558478393727,35.99122589851566]],"type":"LineString"}},{"type":"Feature","properties":{"@id":"way/452698885","name":"パラダイスA"},"geometry":{"coordinates":[[136.85592968771806,35.99119780271119],[136.8560867416542,35.990722275109555],[136.8561835708271,35.99018883762379],[136.8562414686234,35.98966327563881],[136.85624363577978,35.9892417769961],[136.8562343671542,35.98882240382713],[136.85628187082818,35.98844947980623],[136.85638348541409,35.98806613761646],[136.8564851,35.9878403],[136.8565815,35.9877038],[136.8567663,35.9876193],[136.8569591,35.9876193],[136.8573959,35.9876893],[136.8577303,35.9877428],[136.8578499,35.9877419],[136.8583161117489,35.98772842474039],[136.85882660587447,35.9876521763501],[136.85992327596915,35.987390424702845],[136.86049838992068,35.98730813765491],[136.86128232192948,35.98729062006244],[136.8618132,35.9872101],[136.8621086,35.9871773],[136.8626005,35.9870642],[136.86322208237667,35.986993924665725],[136.86380528678194,35.986888020591785],[136.86438124165426,35.98674415363893],[136.86462791248348,35.98663013128808],[136.86478044642894,35.98662430967833],[136.86503030881067,35.98667361761032],[136.8654288833106,35.9870457266206],[136.8659868088116,35.987497243300076],[136.866457138718,35.98770462579967],[136.86679483137658,35.98789075655553],[136.86699070734255,35.98804480876002],[136.86724437082762,35.98809820901482],[136.86807541987275,35.988162160998115],[136.86860625520615,35.98821332801291],[136.86936771215755,35.988315662049715],[136.86967094817862,35.988411603732615],[136.87002158636417,35.98863539460678]],"type":"LineString"}},{"type":"Feature","properties":{"@id":"way/452713630","name":"パラダイスB"},"geometry":{"coordinates":[[136.85622764713887,35.99085714956623],[136.85681985373733,35.990351348136116],[136.85736162511773,35.989933553562395],[136.85772586168528,35.98961325934851],[136.85805963878812,35.98930835604381],[136.85827563306447,35.98894929465348],[136.8585309473723,35.98846779348736],[136.85859722237203,35.98824492393862],[136.85870278195165,35.98783928116526]],"type":"LineString"}},{"type":"Feature","properties":{"@id":"way/452713631","name":"神中B"},"geometry":{"coordinates":[[136.86214891235863,35.9894470017909],[136.86244200655787,35.98969376037016],[136.86301266254716,35.99021601816695],[136.86328554401075,35.99033870951594],[136.86354127988903,35.99036738348342],[136.86410343357667,35.99031999022378],[136.86446018184216,35.99027734545667]],"type":"LineString"}},{"type":"Feature","properties":{"@id":"way/452713632","name":"神中回転バーン"},"geometry":{"coordinates":[[136.86249516721068,35.989451750315546],[136.86297833127352,35.98955574264399],[136.86338324111102,35.989653392032324],[136.86363851456622,35.98970221678254],[136.8638468382115,35.9897747842048],[136.86420113821148,35.98992293295977],[136.8644249443893,35.99003603307923],[136.8646010312736,35.99011589682039],[136.86482688146216,35.990263512129374],[136.86503949495793,35.990378078973265]],"type":"LineString"}},{"type":"Feature","properties":{"@id":"way/452713633","name":"第1ゲレンデ"},"geometry":{"coordinates":[[136.86513261959945,35.98877866418257],[136.86621771863886,35.9886961633599],[136.86703228117986,35.988686629158416],[136.86800343511186,35.98864718009971],[136.86893039494333,35.988736384168476],[136.8697275356738,35.98882817539418],[136.87064959199455,35.98898903964424],[136.87137721067333,35.989149903847846]],"type":"LineString"}},{"type":"Feature","properties":{"@id":"way/452713635","name":"ダウンヒル"},"geometry":{"coordinates":[[136.85605319064865,35.99127141152557],[136.85653892789153,35.99109516527793],[136.85704604766212,35.99085975824764],[136.8575841569329,35.990648744917024],[136.85832866981156,35.99032554850429],[136.8588693872855,35.99010833182769],[136.85931825757027,35.989938834295955],[136.8598487703053,35.989792568239125],[136.86104284242805,35.9895346476387],[136.86213717490574,35.989295048543774],[136.86330598218896,35.98902479704333],[136.8640295934904,35.98885841825163],[136.86443796280852,35.988798622617395],[136.8648407820774,35.98876000135355],[136.86490891606354,35.98877420471431],[136.8649827173209,35.9888250926517],[136.86503286735592,35.98889070017071],[136.86506441776334,35.988968428672095],[136.86512396226482,35.989027370179244],[136.86520900949282,35.989097775735736],[136.86528273634718,35.98916285343371],[136.8653507697737,35.98924583333837],[136.86536779774707,35.98933569163861],[136.86533017673645,35.9894543004994],[136.86526988663627,35.98956832399444],[136.86520384455523,35.98972729114302],[136.8651767904647,35.98987098180001],[136.86520010069287,35.989963461906655],[136.8653118471284,35.990034065706595],[136.8654287743104,35.990083710262105],[136.8657016015182,35.99010435967327],[136.86629025880495,35.990121942880236],[136.86735574599143,35.99008652447835],[136.8682783,35.9900049],[136.8685635,35.9899496],[136.86919826202436,35.98980923715118],[136.8693912598879,35.98983483419727],[136.86968787273338,35.989919117203975],[136.8699261187249,35.989956211904286],[136.8701229187248,35.98996815550596],[136.87041615026303,35.9899367429747],[136.87093078718652,35.98985566967427]],"type":"LineString"}},{"type":"Feature","properties":{"@id":"way/452713637","name":"乙女_#上部"},"geometry":{"coordinates":[[136.85833725108563,35.98967748472815],[136.85886746320662,35.98939279619484],[136.85928221131985,35.9891724163147],[136.85960361131978,35.98903829004623],[136.85999840330396,35.988915362625605],[136.86047345141702,35.98887755558099],[136.86121534480927,35.98883618201364],[136.86169812971715,35.988783001392044],[136.86222315235528,35.98862053872046],[136.86233330101288,35.98853917704122]],"type":"LineString"}},{"type":"Feature","properties":{"@id":"way/452713638","name":"チャレンジツリーラン"},"geometry":{"coordinates":[[136.85464453510795,35.99547945945336],[136.85457403656108,35.99512079164164],[136.85454669297656,35.994884828571024],[136.8545330584742,35.99471378673901],[136.8545089792371,35.9945130447407],[136.85450216198598,35.9943961],[136.85453976755414,35.99428312412515],[136.85470377096374,35.99409414178718],[136.85494717869764,35.99381655217292],[136.85519871804422,35.99358172702613],[136.85532432482856,35.99343305516485],[136.85546619484273,35.99324819784034]],"type":"LineString"}},{"type":"Feature","properties":{"@id":"way/452713639","name":"チャレンジC"},"geometry":{"coordinates":[[136.85633924046132,35.99550392166639],[136.85645202598528,35.99525042134642],[136.85658488958205,35.994962937827744],[136.85670248985372,35.99473696656112],[136.8568815258471,35.99434295131866],[136.85709173409904,35.99384445067836],[136.85723864884676,35.99332282943561],[136.85743454857513,35.99270392728994]],"type":"LineString"}},{"type":"Feature","properties":{"@id":"way/452713640","name":"チャレンジB"},"geometry":{"coordinates":[[136.85530608431148,35.99533296663501],[136.85549524358885,35.99507772645627],[136.85562299713376,35.9947914350588],[136.8557171485669,35.99455137424344],[136.85577957571655,35.99433198041228],[136.8558266514331,35.994056694907584],[136.85589612141706,35.993737270831446],[136.85603064072356,35.99338503959997],[136.85621889004415,35.99311354199279]],"type":"LineString"}},{"type":"Feature","properties":{"@id":"way/452713642","name":"スカイラインA_#上部"},"geometry":{"coordinates":[[136.85505131361927,35.99564466510005],[136.85542845299275,35.99561006104957],[136.85589757524696,35.995592759048016],[136.8566395186789,35.99554547239039],[136.85754174951438,35.995478363978336],[136.85827938670332,35.99536753830006],[136.85895733185683,35.99527603062865],[136.85967318733734,35.99514951197337],[136.86002646842275,35.99508360673646],[136.86020067340039,35.99502736047646],[136.86037786297834,35.994905915923454]],"type":"LineString"}},{"type":"Feature","properties":{"@id":"way/452713643","name":"スカイラインB_#下部"},"geometry":{"coordinates":[[136.8608841119867,35.99536416470919],[136.86109588243266,35.995022780948055],[136.86136878783685,35.994640290292054],[136.8618699027019,35.99425641670895],[136.86233101081092,35.9939495063563],[136.8628637,35.99352373431932],[136.86323765270336,35.993175020057734],[136.86373192905523,35.99287579652982],[136.8642897,35.9925252],[136.864619,35.9923172],[136.8654625,35.9919662],[136.86653520175062,35.99159767373979]],"type":"LineString"}},{"type":"Feature","properties":{"@id":"way/1140721089","name":"クマダナ"},"geometry":{"coordinates":[[136.85889321850334,35.992816195514884],[136.85902944819063,35.99281116369589],[136.85910640559342,35.992833940307555],[136.85923124457338,35.99288698295385],[136.85936486686006,35.993025180860364],[136.8594803370891,35.99316551918301],[136.85953182405495,35.993220796882085],[136.85964615559269,35.99327486398768],[136.8597253481076,35.99330539804102],[136.85982698511378,35.993341985295736],[136.85989824247466,35.99335370961856],[136.85998474533187,35.99333778037352],[136.86001289251578,35.993298849074456],[136.8600132148024,35.99325387444673],[136.8599531888024,35.99318783086551],[136.8599241023182,35.993126480938955],[136.85989492091795,35.99304389867014],[136.85986960695658,35.99295505820738],[136.8598614275968,35.99284800512964],[136.85981593647247,35.99268661257678],[136.85978684941318,35.99260443773681],[136.85974733764732,35.99254264305741],[136.8597625498069,35.9925049993406],[136.8598205372548,35.99249706290807],[136.85991140686286,35.992486879180674],[136.86003958823554,35.99250084646444],[136.86027846804075,35.99254087133653],[136.86048749843533,35.99262114781604],[136.86056932431288,35.992661548149584],[136.860700899215,35.99269792332819],[136.8607925878416,35.99270618621354],[136.86086621882424,35.992701806605766],[136.860927412552,35.99268333896989],[136.86096357412114,35.99262943899739],[136.8609607443252,35.99257056240283],[136.86092450511183,35.99239018058012],[136.86079942510713,35.99216313395207],[136.8606846486349,35.99198118263668],[136.86055761176794,35.99187813148038],[136.86043306235396,35.99176099228622]],"type":"LineString"}},{"type":"Feature","properties":{"@id":"way/1140721093","name":"オトメツリーラン"},"geometry":{"coordinates":[[136.8598124579956,35.98863309014017],[136.8603691,35.9881761],[136.86118784393094,35.987463102482224]],"type":"LineString"}},{"type":"Feature","properties":{"@id":"way/1140721094","name":"ウマノセツリーラン"},"geometry":{"coordinates":[[136.8575510830274,35.98756856404009],[136.85767523142192,35.98722887436787],[136.8578444,35.9867988],[136.85797814838918,35.986440967188074],[136.85806092900938,35.98630583497166],[136.85822016442387,35.98619366748583],[136.85837623378302,35.986129335534514],[136.85881772264395,35.985994893705836],[136.85905274967843,35.98595286461847],[136.85946587624858,35.986001959976775],[136.8599425687048,35.986026507657215],[136.86033261595517,35.98600981424011],[136.86062110128884,35.98598989724829],[136.86107881223845,35.9860459121368],[136.86140850086701,35.986220371406716],[136.86217155393484,35.98671626969839],[136.86253549533544,35.98696484720819]],"type":"LineString"}},{"type":"Feature","properties":{"@id":"way/1140721095","name":"パラダイスツリーラン"},"geometry":{"coordinates":[[136.85638188166132,35.98955955550543],[136.85664374083066,35.989344377752715],[136.8570323717683,35.9889307038825],[136.8573385,35.9884496],[136.85769767750864,35.987840435750144]],"type":"LineString"}},{"type":"Feature","properties":{"name":"乙女_#下部"},"geometry":{"coordinates":[[136.86233330101288,35.98853917704122],[136.86249954634712,35.98830601763301],[136.86275445586085,35.98791143860295],[136.863098029554,35.987561696448964],[136.86374638635795,35.98730611466392],[136.86430875953323,35.9871747043251],[136.8647354558923,35.98708502616029],[136.86512040547575,35.987116645958054],[136.86549168672423,35.98727806651647],[136.86585188494809,35.987506745076445]],"type":"LineString"}},{"type":"Feature","properties":{"name":"神中A_2"},"geometry":{"coordinates":[[136.85607145363406,35.99218992075333],[136.85618837380895,35.99241307888124],[136.8562603246856,35.99256346769846],[136.85638324076558,35.99276236859721],[136.85644020187647,35.99282786024659]],"type":"LineString"}},{"type":"Feature","properties":{"name":"モーグル"},"geometry":{"coordinates":[[136.86320063802316,35.98839081972835],[136.86368230872063,35.98843605706156],[136.8640521631017,35.988439536823975],[136.86446932433068,35.98837690051283],[136.86504560891473,35.9882342287282],[136.8658240231668,35.98804979896582],[136.86645191532654,35.987934965121966]],"type":"LineString"}},{"type":"Feature","properties":{"name":"スカイラインB_#上部"},"geometry":{"coordinates":[[136.85647613125445,35.99572368514319],[136.85738670946904,35.995982898619104],[136.8584209464513,35.996201182990504],[136.85927827340817,35.99627562157188],[136.85978415019423,35.99623924091949],[136.86028440612694,35.99609826573368],[136.86059355305133,35.99587088587013],[136.8608841119867,35.99536416470919]],"type":"LineString"}},{"type":"Feature","properties":{"name":"スカイラインA_#下部"},"geometry":{"coordinates":[[136.86037786297834,35.994905915923454],[136.86063855562895,35.99435448114659],[136.86086237772838,35.99381875816715],[136.8610302443157,35.993524486239195],[136.86121676273143,35.993215122270456],[136.86162710324436,35.99280011991969],[136.8620933992803,35.99233229647004],[136.8624924068145,35.991947051357656]],"type":"LineString"}}]}