{
  "type": "FeatureCollection",
  "features": [
    {
      "type": "Feature",
      "properties": {
        "@id": "way/513107823",
        "name": "ユートピア"
      },
      "geometry": {
        "coordinates": [
          [143.49965048932293, 44.0185238087616],
          [143.499341, 44.0188205],
          [143.49868047048577, 44.01922492865595],
          [143.4984183, 44.0195573],
          [143.4982091, 44.0198505],
          [143.4981286, 44.0200009],
          [143.4978765, 44.0202285],
          [143.497721, 44.0204176],
          [143.4966649363462, 44.02121061996258]
        ],
        "type": "LineString"
      }
    },
    {
      "type": "Feature",
      "properties": {
        "@id": "way/513107824",
        "name": "林間"
      },
      "geometry": {
        "coordinates": [
          [143.5010523, 44.0190482],
          [143.5014116, 44.0192101],
          [143.501637, 44.0194069],
          [143.50199582261342, 44.01963102041075],
          [143.5018945, 44.0196538],
          [143.501755, 44.0196846],
          [143.5014814, 44.0197078],
          [143.50131686376474, 44.01974724189224],
          [143.5014546, 44.0198235],
          [143.501814, 44.0199547],
          [143.5020608, 44.0200125],
          [143.5024577401413, 44.02021491885782],
          [143.50256419337526, 44.020267843860196],
          [143.50256436461572, 44.020349043800564],
          [143.5023401874875, 44.02034729297447],
          [143.50220516136136, 44.02044443737257],
          [143.5023397976998, 44.02045765151131],
          [143.50269808063388, 44.02055312816739],
          [143.50308117037466, 44.02062719881088],
          [143.50297664314527, 44.02071144426156],
          [143.5027825193193, 44.0207929986595],
          [143.50248357783, 44.02087667435449],
          [143.5020754863864, 44.02093002499441],
          [143.5019921670649, 44.02098046764292],
          [143.5021734, 44.0210425],
          [143.5022968, 44.0210772],
          [143.5025704, 44.0210926],
          [143.5026991, 44.0211196],
          [143.5028171, 44.0211659],
          [143.5029244, 44.0212199],
          [143.5028923, 44.0213202],
          [143.5027742, 44.0213665],
          [143.5026294, 44.0213781],
          [143.5024738, 44.0213626],
          [143.5022002, 44.0213202],
          [143.5016423, 44.0211891],
          [143.5011005, 44.0211312],
          [143.5009664, 44.0211003],
          [143.50068253863864, 44.02110072199514],
          [143.50028328798737, 44.021150732499734],
          [143.49965646885164, 44.02128256332571],
          [143.49901442088344, 44.02137235690214],
          [143.49841303040438, 44.02135762137557],
          [143.4974378179342, 44.02132815022251]
        ],
        "type": "LineString"
      }
    },
    {
      "type": "Feature",
      "properties": {
        "@id": "way/513107821",
        "name": "チャンピオン"
      },
      "geometry": {
        "coordinates": [
          [143.49506610801754, 44.01437089769616],
          [143.49501095179173, 44.01565106639729],
          [143.49508574698152, 44.016807296054616],
          [143.4950424236787, 44.01804015218053],
          [143.49513541224434, 44.019129114969],
          [143.49522690396867, 44.02014038812834],
          [143.4953909149796, 44.020900628941384],
          [143.49542905133686, 44.02135408841895]
        ],
        "type": "LineString"
      }
    },
    {
      "type": "Feature",
      "properties": {
        "@id": "way/513107822",
        "name": "ダイナミック"
      },
      "geometry": {
        "coordinates": [
          [143.4950712, 44.0141584],
          [143.4941429, 44.0143455],
          [143.4936869, 44.0145654],
          [143.4933597, 44.0147622],
          [143.4930807, 44.0149821],
          [143.492834, 44.0153139],
          [143.4927267, 44.0156186],
          [143.4926838, 44.0158154],
          [143.492732, 44.0161317],
          [143.4924897214179, 44.01688998671241],
          [143.49236223488697, 44.01777209983544],
          [143.49233684592406, 44.01838062332457],
          [143.4929556882817, 44.01871714846615],
          [143.4934663566856, 44.01923886854014],
          [143.49402485510905, 44.02009079599017],
          [143.49439203344983, 44.021162847216196]
        ],
        "type": "LineString"
      }
    },
    {
      "type": "Feature",
      "properties": {
        "@id": "way/513107827",
        "name": "パノラマ"
      },
      "geometry": {
        "coordinates": [
          [143.49947289564565, 44.01786149833151],
          [143.49978773303954, 44.017965990723795],
          [143.50011988405672, 44.01821574010884],
          [143.50055044964458, 44.01861303976395],
          [143.50082042903858, 44.018867996239294],
          [143.5010523, 44.0190482],
          [143.5010576, 44.0191947],
          [143.5010683, 44.0194146],
          [143.5010522, 44.0195727],
          [143.5009181, 44.0198235],
          [143.5007358, 44.0198814],
          [143.5003871, 44.0202941],
          [143.50021, 44.02046],
          [143.4999204, 44.0206683],
          [143.4997916, 44.0207107],
          [143.4995073, 44.020784],
          [143.4993678, 44.0208149],
          [143.49843827645947, 44.02104669565115],
          [143.49827723058374, 44.02107759562665],
          [143.49789210584117, 44.021114016031845],
          [143.4976834, 44.021132704446934],
          [143.4969592, 44.0213009]
        ],
        "type": "LineString"
      }
    },
    {
      "type": "Feature",
      "properties": {
        "@id": "way/513107828",
        "name": "無名_1"
      },
      "geometry": {
        "coordinates": [
          [143.4984398, 44.0172813],
          [143.4983325, 44.017343],
          [143.4978014, 44.0174742],
          [143.497383, 44.0175514],
          [143.49632431913585, 44.01780148231684],
          [143.4957147, 44.0176825],
          [143.4955698, 44.0176054],
          [143.4953016, 44.0175591],
          [143.4947383, 44.0176054],
          [143.4944647, 44.0175938],
          [143.4939444, 44.0174665],
          [143.49287148935093, 44.017061082717824]
        ],
        "type": "LineString"
      }
    },
    {
      "type": "Feature",
      "properties": {
        "name": "ファミリーゲレンデ"
      },
      "geometry": {
        "coordinates": [
          [143.49661212719178, 44.01911351962826],
          [143.49661680329166, 44.02136215334835]
        ],
        "type": "LineString"
      }
    },
    {
      "type": "Feature",
      "properties": {
        "@id": "",
        "name": "小壁林間"
      },
      "geometry": {
        "coordinates": [
          [143.49535212155115, 44.014092755556845],
          [143.4958791165309, 44.01411318061747],
          [143.49648836577524, 44.013998145309785],
          [143.49687651177896, 44.01392779215789],
          [143.49706585129246, 44.01388694190197],
          [143.49713843143962, 44.01391190595049],
          [143.49698064851128, 44.0140026842204],
          [143.49647608445417, 44.014363016045564],
          [143.4959278269635, 44.01476801719494],
          [143.4957163978405, 44.01488829663555],
          [143.49566906296144, 44.01512885478539],
          [143.49557439320472, 44.015541886313],
          [143.49551443569158, 44.015705282606916]
        ],
        "type": "LineString"
      }
    },
    {
      "type": "Feature",
      "properties": {
        "name": "ウサギ平"
      },
      "geometry": {
        "coordinates": [
          [143.4955114579725, 44.0160913179013],
          [143.49804056114345, 44.01673054006241],
          [143.49839414449957, 44.017058977497896],
          [143.49858644589202, 44.01736482436154],
          [143.4988500253466, 44.017524782591536],
          [143.49938815011083, 44.017895957485905],
          [143.49965667236614, 44.01840975281553]
        ],
        "type": "LineString"
      }
    }
  ]
}
