{"type":"FeatureCollection","features":[{"type":"Feature","properties":{"@id":"way/667078042","piste:difficulty":"easy","name":"F1"},"geometry":{"coordinates":[[142.3362493,43.3410703],[142.3361474,43.341004],[142.336083,43.3408206],[142.3362601,43.3404656],[142.3363084,43.3402744],[142.3363161,43.3401141],[142.3363126,43.340007],[142.336207,43.3398283],[142.3360514,43.3396094],[142.3356921,43.3393052],[142.3356432,43.3392288],[142.3358899,43.3391781],[142.3370326,43.3392912],[142.3378533,43.3393186],[142.3382771,43.3393186],[142.3388135,43.3392678],[142.3389369,43.3392249],[142.3390335,43.3391547],[142.3391408,43.3389635],[142.3392218,43.3387287],[142.3393849,43.3382425],[142.3396285,43.3378955],[142.3404926,43.3374029],[142.3412704,43.337118],[142.3417801,43.3369893],[142.3420483,43.3369737],[142.3429173,43.3370673],[142.3440633,43.3373402],[142.3448613,43.3375322],[142.3458946,43.3378945],[142.3472303,43.3383822],[142.3489323,43.3386495],[142.3510103,43.3390146],[142.3514966,43.3393584],[142.3521059,43.3394467],[142.3523118,43.3395101],[142.3527472,43.3396442]],"type":"LineString"}},{"type":"Feature","properties":{"@id":"way/507322346","name":"F4","piste:difficulty":"easy"},"geometry":{"coordinates":[[142.35142024887884,43.34197919220053],[142.351554,43.3414332],[142.3516399,43.3412342],[142.351715,43.3408245],[142.3518491,43.3405397],[142.3520329,43.3403492],[142.3519885,43.3403798],[142.3522514,43.3401613],[142.3524857,43.3398943],[142.3526108,43.3397516],[142.3527472,43.3396442],[142.3533404,43.3393888],[142.3536783,43.3393303],[142.3538232,43.3393303],[142.3542631,43.3394473],[142.35523666249088,43.3400346820669],[142.356323,43.3405475],[142.3565698,43.3406295],[142.3574941,43.340781],[142.358361,43.3408506],[142.3586833,43.3410196],[142.35884312400316,43.341395045022296],[142.3589295,43.3417294],[142.35902460398472,43.34208494953126]],"type":"LineString"}},{"type":"Feature","properties":{"@id":"way/507322350","name":"F5","piste:difficulty":"easy"},"geometry":{"coordinates":[[142.34590444590341,43.34156130764644],[142.34764126918114,43.34182419488629],[142.3484963,43.3419637],[142.349596,43.3420769],[142.35095436459324,43.34220073580475],[142.35196209570117,43.34209087860184],[142.3530936,43.3418662],[142.3551589,43.341796],[142.3571491,43.3418896],[142.3581791,43.3421432],[142.35903785260447,43.34236422849628]],"type":"LineString"}},{"type":"Feature","properties":{"@id":"way/507322354","name":"F6","piste:difficulty":"easy"},"geometry":{"coordinates":[[142.34583804137293,43.34237918221798],[142.34666732328657,43.34247299452025],[142.3475468,43.3424592],[142.34811672064845,43.3424631],[142.3487753,43.342467],[142.3490381,43.3424982],[142.3494726,43.3425099],[142.3498535,43.3425646],[142.3499876,43.3426114],[142.35039,43.3426894],[142.3511302,43.3428103],[142.3515379,43.3428533],[142.3518759,43.3428611],[142.3524338,43.3429664],[142.3535174,43.3430093],[142.3543918,43.3429898],[142.3545366,43.342982],[142.3549765,43.3429859],[142.3552769,43.3429625],[142.3557222,43.3429586],[142.3559958,43.342982],[142.3573476,43.342904],[142.3584527,43.3429235],[142.3588144,43.3428759],[142.3592239,43.3427606]],"type":"LineString"}},{"type":"Feature","properties":{"@id":"way/507322357","name":"F7","piste:difficulty":"easy"},"geometry":{"coordinates":[[142.34760670753406,43.3426562284822],[142.3482335,43.3428845],[142.350111,43.3436257],[142.3516391,43.3439146],[142.3543491,43.34437],[142.3553556,43.3444395],[142.3557579,43.3443336],[142.355981,43.3441791],[142.3565268,43.3437349],[142.3572135,43.343536],[142.3580718,43.3434619],[142.3583615,43.3434541],[142.3599919,43.3437362],[142.3601123,43.3439024]],"type":"LineString"}},{"type":"Feature","properties":{"@id":"way/667344195","name":"G1","piste:difficulty":"easy"},"geometry":{"coordinates":[[142.33769399648847,43.34170576386516],[142.3387566147665,43.34126776891002],[142.33960741399355,43.340917102916094],[142.34035230369273,43.3405326459617],[142.34072445495713,43.34016368122236],[142.3411363,43.339814],[142.341485,43.3397633],[142.3426657,43.3399304],[142.3437595,43.3402003],[142.3456049,43.34071883175132],[142.34642699087692,43.34100669793715]],"type":"LineString"}},{"type":"Feature","properties":{"@id":"way/507322339","name":"K4","piste:difficulty":"advanced"},"geometry":{"coordinates":[[142.33619616176392,43.34100475923039],[142.3372379,43.3408177],[142.3380924,43.3407451],[142.3385135234113,43.34055053020038],[142.3390275,43.3404355],[142.3399992,43.3402896],[142.34050667449108,43.340104107466864]],"type":"LineString"}},{"type":"Feature","properties":{"@id":"way/507322344","name":"F2","piste:difficulty":"intermediate"},"geometry":{"coordinates":[[142.338789699393,43.339298978182185],[142.3397577,43.3394317],[142.341485,43.3397633],[142.3450416,43.3399584],[142.3498736,43.339437],[142.3514966,43.3393584]],"type":"LineString"}},{"type":"Feature","properties":{"@id":"way/667069893","name":"K2","piste:difficulty":"advanced"},"geometry":{"coordinates":[[142.332024,43.3385198],[142.3323816,43.3385577],[142.3330522,43.3387099],[142.3339105,43.3388426],[142.3352468,43.3390429],[142.3358899,43.3391781]],"type":"LineString"}},{"type":"Feature","properties":{"@id":"way/667069894","name":"K3","piste:difficulty":"intermediate"},"geometry":{"coordinates":[[142.32910220602636,43.338143426459226],[142.33062766140932,43.33883756357666],[142.33147927406276,43.33919001925901],[142.33233088671616,43.339434731037436],[142.3336688,43.3398967]],"type":"LineString"}},{"type":"Feature","properties":{"@id":"way/667069895","piste:difficulty":"intermediate","name":"K1"},"geometry":{"coordinates":[[142.32630836896087,43.33715257846788],[142.32730846074483,43.33743075321898],[142.3276980017215,43.33757520028908],[142.3290567573208,43.33803321241159],[142.32935224425515,43.33798965103993],[142.32952985927824,43.337881791911926],[142.3297033872261,43.33792966681213],[142.3299211171394,43.338009690608416],[142.33007991109878,43.337998626347996],[142.33005146488983,43.33791280874113],[142.3300230186809,43.337826991134264],[142.3301234948737,43.33774117273843],[142.33029160487968,43.337826858923535],[142.3304345958383,43.33804652137597],[142.33051345831353,43.338274232261796],[142.3305970915166,43.3386881418776],[142.33059470615103,43.33895403546005],[142.3308145233006,43.33908162409185],[142.33138795618075,43.33913955804639],[142.33156376404443,43.33904804833151],[142.3314775,43.3387397],[142.3314696,43.3385889],[142.3315867,43.3384416],[142.3318717,43.33829],[142.3322466,43.3381098],[142.3323296,43.3380864],[142.3323628,43.338095],[142.3323586,43.3381437],[142.332244,43.3382248],[142.3321107,43.3383322],[142.332024,43.3385198],[142.3320547,43.3386428],[142.3321731,43.3387624],[142.3324489,43.3389351],[142.3327944,43.3391236],[142.3332502350978,43.33960928536497],[142.3336726120345,43.3398121574257],[142.33405347551025,43.34010560719598],[142.3343689327513,43.34036038974532],[142.33479227992927,43.34074918645618],[142.3352238396633,43.34105880223486],[142.3359001485577,43.34131573190456]],"type":"LineString"}},{"type":"Feature","properties":{"@id":"way/507273150","name":"B2","piste:difficulty":"easy"},"geometry":{"coordinates":[[142.3462435,43.3230346],[142.3463365,43.3231083],[142.3466077,43.3233432],[142.34688021072003,43.323525057620174],[142.34722836750575,43.323662466417765],[142.3476492469236,43.32386123316857],[142.34801484652544,43.32408328248931],[142.34866871277254,43.32436466528763],[142.349183,43.3246977],[142.3495853,43.3248772],[142.3499769,43.3249826],[142.3507923,43.325127],[142.3513341,43.3251738],[142.3522246,43.3251777],[142.353147,43.325129],[142.3536996023496,43.3250863159356]],"type":"LineString"}},{"type":"Feature","properties":{"@id":"way/507273145","name":"C2","piste:difficulty":"intermediate"},"geometry":{"coordinates":[[142.3466077,43.3233432],[142.347889,43.3232272],[142.3494475,43.3234822],[142.3514608,43.3238866],[142.35338639426166,43.324248964222676],[142.35445980790414,43.32421790034718]],"type":"LineString"}},{"type":"Feature","properties":{"@id":"way/667050297","piste:difficulty":"easy","name":"C1"},"geometry":{"coordinates":[[142.3463282865168,43.32252063683487],[142.3474772140468,43.32245846658985],[142.34850759354066,43.32233893329493],[142.34976237991702,43.32219071816684],[142.35032898433997,43.32208712760439],[142.35094624606765,43.32227099496249],[142.35170528033743,43.322739368225186],[142.352363,43.323193],[142.3525984,43.323371],[142.352609,43.323379],[142.352725,43.323497],[142.35334970449637,43.32385263349231]],"type":"LineString"}},{"type":"Feature","properties":{"@id":"way/667342800","name":"D1","piste:difficulty":"easy"},"geometry":{"coordinates":[[142.3250403,43.3284093],[142.3255849,43.3287756],[142.3264861,43.3288771],[142.3275375,43.3288225],[142.3290825,43.3285493],[142.3306918,43.3281435],[142.3320597,43.327722],[142.332514,43.3275614],[142.33314343568884,43.32730674302794]],"type":"LineString"}},{"type":"Feature","properties":{"@id":"way/507273144","name":"A2","piste:difficulty":"intermediate"},"geometry":{"coordinates":[[142.33383,43.3267426],[142.335096,43.3267816],[142.3356271,43.3267113],[142.3362279,43.3265357],[142.3370057,43.3260479],[142.3393124,43.325166],[142.3398113,43.3250333],[142.3402137,43.3250294],[142.341367,43.3251894],[142.34197439704525,43.32535600074169],[142.34264120591106,43.32540374557254],[142.3434806,43.3252362],[142.3449236,43.3252401],[142.3450524,43.3252206],[142.3462325,43.3253338],[142.3468709,43.3254821],[142.34777994409058,43.325994784696206],[142.3487484,43.3263562],[142.3492366,43.3264499],[142.3494941,43.3264694],[142.3503953,43.3264265],[142.3507923,43.3263601],[142.3518062,43.3260089],[142.3524499,43.3255835],[142.3528559411358,43.32523533903295]],"type":"LineString"}},{"type":"Feature","properties":{"@id":"way/507273142","name":"A1","piste:difficulty":"intermediate"},"geometry":{"coordinates":[[142.3247632,43.327315],[142.3251021,43.3272889],[142.32576615449398,43.32718714446395],[142.326199254494,43.32696372751788],[142.3264536,43.326763],[142.3266149,43.3266924],[142.3268722,43.3265988],[142.3271726,43.3266104],[142.3274356,43.3267113],[142.3280327,43.3267698],[142.3287002,43.326863],[142.3291877,43.3268943],[142.3299171,43.326735],[142.3306686,43.3264504],[142.33124328146044,43.32617861770174],[142.3330136844082,43.32532651860847],[142.33494692331476,43.324689124447744]],"type":"LineString"}},{"type":"Feature","properties":{"@id":"way/507273134","name":"A3","piste:difficulty":"expert"},"geometry":{"coordinates":[[142.3330943516299,43.3300069911329],[142.33343529945796,43.32990132293871],[142.333762,43.3297542],[142.3339885,43.3295761],[142.3344081,43.3294099],[142.3348779,43.3294279],[142.3351115,43.329522],[142.3354421,43.3295214],[142.3364961,43.3292985],[142.3367064253309,43.32926164100122],[142.33683950518122,43.329274436711366],[142.33701507199208,43.32934979852299],[142.3372096,43.3293493],[142.3379422,43.3292574],[142.3386847,43.3292408],[142.33880939029933,43.329237237411604],[142.3389246,43.3291854],[142.33898161491214,43.32901108577151],[142.33906700595963,43.3289170321226],[142.33919505970064,43.3288815980938],[142.33973657985032,43.32886106887263],[142.3402781,43.3287233],[142.3412651,43.3282488],[142.3418498,43.3279913],[142.3421756,43.3277925],[142.34231375820426,43.3275957653603],[142.3425088,43.3274611],[142.34297274029936,43.32735615943577],[142.3435281201497,43.32729014431834],[142.343824771272,43.32721920532087],[142.34413564329424,43.327131024843474],[142.3451115597007,43.32696907997709],[142.3461876,43.3268869],[142.3472198,43.3266708],[142.3475146,43.3268011],[142.34775679550873,43.327086786593945],[142.34791237386156,43.327340264571546],[142.3481011343135,43.32752132790584],[142.3485025,43.3277642],[142.3488236,43.3278421],[142.3488972,43.3278599],[142.3494512,43.3277728],[142.3498321,43.3276518],[142.3501432,43.3274606],[142.350508,43.3271874],[142.3506549,43.3267429],[142.3507923,43.3263601]],"type":"LineString"}},{"type":"Feature","properties":{"@id":"way/507273136","name":"A4","piste:difficulty":"advanced"},"geometry":{"coordinates":[[142.33246680010012,43.33109346491249],[142.33258674298594,43.330641392740056],[142.33278832855717,43.33033263988545],[142.3334722,43.3292493],[142.33354095706414,43.32902990562735],[142.33367647850707,43.32884039791854],[142.333898,43.3284434],[142.3339587,43.3282879],[142.33409652845467,43.32789966894677],[142.3342705141772,43.32770666734487],[142.3345164,43.3276108],[142.3348385,43.327445],[142.33558087850702,43.326752395939764]],"type":"LineString"}},{"type":"Feature","properties":{"@id":"way/507273138","name":"H1","piste:difficulty":"intermediate"},"geometry":{"coordinates":[[142.32846529024343,43.33016890148218],[142.33093951496366,43.33145197387336],[142.33146166046808,43.33171475549479],[142.33166719292436,43.3318697130987],[142.33178847258444,43.33206502377756],[142.33183460495243,43.33214346481239],[142.33189925075243,43.33250470090717],[142.3319206507526,43.33288602959018],[142.33203938433243,43.33307387778723],[142.33215811791226,43.33320112787372],[142.3323760776165,43.33332306441614],[142.3328912,43.3335401],[142.3333901,43.3338639],[142.3336575,43.3342199],[142.3340124,43.3346365],[142.3340875,43.3348238],[142.3343503,43.3352569],[142.33437361791226,43.335535500731325],[142.33441313433244,43.33591223518478],[142.3344360014941,43.336284002571176],[142.33440265597096,43.33647628226331],[142.334286,43.3366147],[142.3343986,43.3367981],[142.3345488,43.3369542],[142.3347473,43.3370985],[142.3350128,43.3373716],[142.3353964,43.3376565],[142.3357612,43.3378711],[142.3360026,43.337992],[142.3362601,43.3380622],[142.3370916,43.3382222],[142.3383691,43.3383329],[142.3389275,43.3383269],[142.3393849,43.3382425]],"type":"LineString"}},{"type":"Feature","properties":{"@id":"way/507273140","name":"D2","piste:difficulty":"easy"},"geometry":{"coordinates":[[142.3255849,43.3287756],[142.326911,43.3291982],[142.3276341,43.3296536],[142.3284023,43.3301112],[142.328656,43.3300692],[142.3293722,43.3300087],[142.3298496,43.3298605],[142.3301339,43.3294546],[142.330445,43.3288849],[142.33091060252514,43.32833631081569],[142.3310654110884,43.328195969810544]],"type":"LineString"}},{"type":"Feature","properties":{"@id":"way/507273141","name":"E1","piste:difficulty":"advanced"},"geometry":{"coordinates":[[142.3192778693977,43.32424345943592],[142.3194104,43.3241552],[142.3196197,43.3239991],[142.319861,43.3239094],[142.3199952,43.3238899],[142.3205692,43.3239133],[142.3209715,43.3239913],[142.32151669181425,43.3241904],[142.32167864284668,43.32428077690345],[142.3223001393278,43.32493593327839],[142.322967,43.3257435],[142.3230261,43.3260362],[142.3231816,43.3265123]],"type":"LineString"}},{"type":"Feature","properties":{"@id":"way/507273143","name":"E2","piste:difficulty":"intermediate"},"geometry":{"coordinates":[[142.3192504,43.3243154],[142.3191905,43.324405],[142.3191476,43.3245962],[142.3191529,43.3247094],[142.3192066,43.324885],[142.3199952,43.325564],[142.3206657,43.325767],[142.3213792,43.3257865],[142.3219156,43.3259035],[142.3220444,43.3259465],[142.3231816,43.3265123],[142.323482,43.3266606],[142.3241848,43.3270977],[142.3247632,43.327315]],"type":"LineString"}},{"type":"Feature","properties":{"@id":"way/507322331","name":"プレミアムゾーン","piste:difficulty":"expert"},"geometry":{"coordinates":[[142.3263213,43.336815],[142.3269743,43.3369112],[142.3273197,43.3368639],[142.32737906433616,43.336511755867775],[142.32742998268344,43.33614325556301],[142.32746158526243,43.33587471060018],[142.3275875041273,43.33569763266061],[142.3281189,43.3356863],[142.3290235,43.3357485],[142.3302787,43.3359436],[142.3315018,43.336006],[142.3321563,43.3361855],[142.3326874,43.3364626],[142.3333790387604,43.336974923076504],[142.33418956020662,43.33713273551721],[142.33473509094486,43.33716580378642]],"type":"LineString"}},{"type":"Feature","properties":{"@id":"way/507322340","name":"G3","piste:difficulty":"intermediate"},"geometry":{"coordinates":[[142.3376111831477,43.34186161856104],[142.33938315505497,43.34218064460828],[142.3429602,43.3423305],[142.34514686741622,43.342275334197076],[142.3457903,43.3422726]],"type":"LineString"}},{"type":"Feature","properties":{"@id":"way/507322342","name":"G2","piste:difficulty":"intermediate"},"geometry":{"coordinates":[[142.34095077668584,43.3400562188802],[142.3412914266859,43.34012483780337],[142.341485,43.3402393],[142.34193645112342,43.34054143800338],[142.3422758438202,43.34089960636367],[142.3431615,43.3414607],[142.3441994,43.3417414],[142.34564546207807,43.34200933228943]],"type":"LineString"}},{"type":"Feature","properties":{"@id":"way/667041756","piste:difficulty":"intermediate","name":"F3"},"geometry":{"coordinates":[[142.3484963,43.3419637],[142.3491021,43.3412989],[142.3498277,43.3407398],[142.3504642,43.3404935],[142.3511413,43.340345],[142.3515184,43.3403468],[142.3520329,43.3403492]],"type":"LineString"}},{"type":"Feature","properties":{"@id":"way/667041761","piste:difficulty":"intermediate","name":"F3_2"},"geometry":{"coordinates":[[142.3484963,43.3419637],[142.3498843,43.3414255],[142.3506121,43.3410129],[142.3515184,43.3403468]],"type":"LineString"}},{"type":"Feature","properties":{"@id":"way/667342805","name":"B1","piste:difficulty":"easy"},"geometry":{"coordinates":[[142.33155614716893,43.32665606671975],[142.33203226475078,43.326905574756246],[142.3328322569319,43.32696578418589],[142.33332097935062,43.32685245774683],[142.3336914,43.3265957],[142.3335427897524,43.32629567023695],[142.3335420567133,43.32600998344088],[142.3338226,43.3257752],[142.3341304,43.3255952],[142.33527315088253,43.32498715890801],[142.33584715088463,43.32465407181433],[142.3365730934987,43.324333936726006],[142.3380679975981,43.32397077047207],[142.34038742911804,43.32363889182666],[142.34207591788265,43.32354010174612],[142.3431531808485,43.32329070084687],[142.34564827228493,43.32265169773164]],"type":"LineString"}}]}