{
  "type": "FeatureCollection",
  "features": [
    {
      "type": "Feature",
      "properties": { "@id": "way/504457822", "name": "[S4, S5] ブロンコ" },
      "geometry": {
        "coordinates": [
          [138.7719216061458, 36.94068498813265],
          [138.7723499, 36.940807],
          [138.77264550409504, 36.940875240562505],
          [138.77293359180555, 36.94091146938205],
          [138.7733389143403, 36.940871083231976],
          [138.77375420781684, 36.940801815514895],
          [138.77424459013451, 36.94077077969256],
          [138.77450718808817, 36.94074315085008],
          [138.7748444, 36.9407127],
          [138.77526348118704, 36.94065440336634],
          [138.77601364224998, 36.94061338207122],
          [138.77638952640297, 36.94058660573781],
          [138.77687395406076, 36.94051880810929],
          [138.77764675956666, 36.94038321285224],
          [138.77884482773538, 36.94022598204852]
        ],
        "type": "LineString"
      }
    },
    {
      "type": "Feature",
      "properties": {
        "@id": "way/504457829",
        "name": "[N7] ローマンホリデーA"
      },
      "geometry": {
        "coordinates": [
          [138.78129682653483, 36.95910375272872],
          [138.7810779, 36.9590826],
          [138.7808418, 36.9589712],
          [138.7806541, 36.9588126],
          [138.78035674457098, 36.958579174754256],
          [138.77992641685557, 36.958130114086956],
          [138.7795448, 36.9580327],
          [138.77935103253077, 36.95799460181943],
          [138.7791646, 36.95807958831603],
          [138.77894017469237, 36.95820831899499],
          [138.7788082, 36.9582718],
          [138.7786302204905, 36.95827320577963],
          [138.7784508879598, 36.95807763058501],
          [138.7782885, 36.9577959],
          [138.7777072, 36.9572465],
          [138.7777113, 36.9571012],
          [138.777788, 36.9569859],
          [138.7780604, 36.9565664]
        ],
        "type": "LineString"
      }
    },
    {
      "type": "Feature",
      "properties": {
        "@id": "way/407996286",
        "name": "[C3] エンターテイメント"
      },
      "geometry": {
        "coordinates": [
          [138.77455042415835, 36.94928820041388],
          [138.7748775, 36.9492758],
          [138.77556456532295, 36.94925473853602],
          [138.7762595, 36.9493343],
          [138.7767673, 36.9493662],
          [138.77747950402613, 36.94950853315441],
          [138.7780322, 36.9495579],
          [138.77846734116625, 36.94958386101435],
          [138.779052, 36.949679],
          [138.7800575, 36.9496453],
          [138.7803816, 36.9497129],
          [138.78081555727246, 36.95002661112895],
          [138.78113340649094, 36.95040345558022],
          [138.7814177, 36.9508365],
          [138.7815724, 36.9513435],
          [138.7816763, 36.9515004],
          [138.7819461, 36.9516215],
          [138.78266913377186, 36.95162787815501]
        ],
        "type": "LineString"
      }
    },
    {
      "type": "Feature",
      "properties": { "@id": "way/407996287", "name": "[C4] ジジ" },
      "geometry": {
        "coordinates": [
          [138.7751578561079, 36.94938315799326],
          [138.77552326535576, 36.95002237362978],
          [138.77582442633013, 36.95013413844823],
          [138.7763390437383, 36.950363671802975],
          [138.7777765, 36.9507239],
          [138.77802233526614, 36.950929082346235],
          [138.77808126645888, 36.951152935255],
          [138.7782786164601, 36.95136423186723],
          [138.77863950752402, 36.95157086055691],
          [138.78063996677173, 36.95193589726472],
          [138.781271, 36.9519753],
          [138.7816894, 36.9518467],
          [138.78195778150686, 36.95170551670452]
        ],
        "type": "LineString"
      }
    },
    {
      "type": "Feature",
      "properties": { "@id": "way/408003184", "name": "[C1] メロディ" },
      "geometry": {
        "coordinates": [
          [138.7823841, 36.9483077],
          [138.78245108687406, 36.948608165681385],
          [138.78248834108246, 36.948992339016314],
          [138.78244207845526, 36.94944994154343],
          [138.78250230370662, 36.949705214632075],
          [138.7826463047091, 36.94987122033217],
          [138.78276764609075, 36.950071267958734],
          [138.782978557914, 36.950492],
          [138.78307857132796, 36.95104031454246]
        ],
        "type": "LineString"
      }
    },
    {
      "type": "Feature",
      "properties": { "@id": "way/504457826", "name": "[N9] ファルコン" },
      "geometry": {
        "coordinates": [
          [138.78045788806565, 36.955075649663755],
          [138.7806609, 36.9550075],
          [138.78082113681353, 36.95496899602073],
          [138.7811614631844, 36.95488856807485],
          [138.7814668, 36.9547767],
          [138.7817555, 36.9546536],
          [138.782143, 36.9544931],
          [138.7824783, 36.9543503],
          [138.7827449, 36.9543081],
          [138.7831373, 36.9543242],
          [138.783530764678, 36.954392912347025],
          [138.7840167985085, 36.95443198310618],
          [138.78429587362712, 36.95437524156984],
          [138.7843696, 36.954283],
          [138.7844548, 36.9541894],
          [138.78446162487924, 36.954037772870535],
          [138.78453258955935, 36.9537583309472],
          [138.78462425572664, 36.953493259754055],
          [138.78484515721823, 36.953352044282205],
          [138.7850812, 36.9533527],
          [138.7855429, 36.9533581],
          [138.7858415, 36.9533656],
          [138.7860024, 36.9532835],
          [138.78630508806566, 36.95287870059763],
          [138.78655325996067, 36.95277792602005],
          [138.7868746991328, 36.95252251395372],
          [138.7871468, 36.9523775],
          [138.7873596, 36.9522218],
          [138.7875367, 36.9521724],
          [138.7878004, 36.9521554],
          [138.7881106, 36.9521396],
          [138.7883162, 36.9520753],
          [138.7885845, 36.9519581],
          [138.7889072, 36.9518416],
          [138.789289, 36.9517788],
          [138.7895751, 36.9517602],
          [138.7898782, 36.951728],
          [138.7901169, 36.9516259],
          [138.7907267, 36.9512058],
          [138.79098972786227, 36.95098155694091],
          [138.7919089, 36.9506722],
          [138.79226456467802, 36.95037435648172],
          [138.7926300970169, 36.95007256964558],
          [138.79280932935376, 36.94993834197573],
          [138.79293066467795, 36.94983884191394],
          [138.7930405, 36.9498643],
          [138.7930941, 36.9499361],
          [138.79307720670607, 36.95026702157228],
          [138.79307981556929, 36.95067976561511],
          [138.79308554297174, 36.950877845084506],
          [138.79316927900294, 36.95098241350025],
          [138.79322228283803, 36.95104409896136],
          [138.79331429098744, 36.951043443859774],
          [138.79348918330703, 36.951046685029624],
          [138.79369820440172, 36.95098758564485],
          [138.79391340721295, 36.95095365244289],
          [138.7940856557637, 36.95088489298904],
          [138.7942969086287, 36.95085899271147],
          [138.7944944287772, 36.950926844525796],
          [138.7945444, 36.9510951],
          [138.7945718, 36.9512705],
          [138.79460137122496, 36.95149708504462],
          [138.7947272, 36.9515613],
          [138.7952363, 36.9517224],
          [138.79534, 36.9518009],
          [138.7953973, 36.9519052],
          [138.795374, 36.952001],
          [138.7951827, 36.9521139],
          [138.7948376, 36.9522625],
          [138.7947392, 36.9523425],
          [138.7947965, 36.9525097],
          [138.795067, 36.9526979],
          [138.7953526, 36.9528026],
          [138.7957281, 36.9528798],
          [138.7962538, 36.9527655],
          [138.7965864, 36.9525554],
          [138.7968314, 36.9522982],
          [138.7971228, 36.9516923],
          [138.7972410489214, 36.95147695609825],
          [138.79734692230136, 36.95146176356375],
          [138.7974125, 36.9516209],
          [138.797434, 36.9517738],
          [138.7974983, 36.9519367],
          [138.7977326, 36.9525211],
          [138.7978113, 36.9525712],
          [138.7978935, 36.9525497],
          [138.7979704, 36.9522267],
          [138.7980563, 36.9520453],
          [138.799227, 36.9503456]
        ],
        "type": "LineString"
      }
    },
    {
      "type": "Feature",
      "properties": { "@id": "way/504457828", "name": "[N4] スーパースワン" },
      "geometry": {
        "coordinates": [
          [138.7749624, 36.9549075],
          [138.7751234, 36.9550961],
          [138.7755096, 36.9554176],
          [138.7758261, 36.9557605],
          [138.7762499, 36.9560263],
          [138.7766622, 36.9562406]
        ],
        "type": "LineString"
      }
    },
    {
      "type": "Feature",
      "properties": { "@id": "way/504457830", "name": "[N6] ジョアンナB" },
      "geometry": {
        "coordinates": [
          [138.78018484620688, 36.95541527227372],
          [138.77989831903005, 36.95542165410744],
          [138.7795678, 36.9554883],
          [138.77935867401573, 36.95560930103258],
          [138.77909925126343, 36.95581964615147],
          [138.77868345126345, 36.95608459256901],
          [138.77807763988736, 36.95625771588919],
          [138.77761132275222, 36.95644018028867]
        ],
        "type": "LineString"
      }
    },
    {
      "type": "Feature",
      "properties": { "@id": "way/504457831", "name": "[N5] ジョアンナA" },
      "geometry": {
        "coordinates": [
          [138.78015686671299, 36.95510036409999],
          [138.77972607401713, 36.95521690275857],
          [138.77893664311796, 36.955387514894795],
          [138.77839359030807, 36.95545796997041],
          [138.777999290308, 36.95557314602929],
          [138.77764456671434, 36.95574909332998],
          [138.77742592851124, 36.95603591307137]
        ],
        "type": "LineString"
      }
    },
    {
      "type": "Feature",
      "properties": {
        "@id": "way/504457832",
        "name": "[N3] スーパーブロードウェイ"
      },
      "geometry": {
        "coordinates": [
          [138.775515, 36.9533042],
          [138.7764269, 36.9536214],
          [138.7766522, 36.9537372],
          [138.777312, 36.9541401],
          [138.7774784, 36.954393],
          [138.7775266, 36.9548389],
          [138.7774086, 36.955169],
          [138.77724754106092, 36.95557489497536],
          [138.77703809244665, 36.95593589599034]
        ],
        "type": "LineString"
      }
    },
    {
      "type": "Feature",
      "properties": { "@id": "way/504457833", "name": "[N2] ブロードウェイ" },
      "geometry": {
        "coordinates": [
          [138.7738144, 36.9513579],
          [138.7739003, 36.951448],
          [138.7739807, 36.9516537],
          [138.77420800932032, 36.9518972280488],
          [138.77442550277127, 36.95201488514111],
          [138.774721, 36.9522153],
          [138.7749195, 36.9523568],
          [138.775, 36.9524425],
          [138.7753165, 36.9528841],
          [138.7753969, 36.9530984],
          [138.775515, 36.9533042],
          [138.7757778, 36.9539901],
          [138.776148, 36.9548003],
          [138.776207, 36.9548989],
          [138.7765021396752, 36.95510486743409],
          [138.776779021414, 36.95534731000939],
          [138.7769034055446, 36.955533784939625],
          [138.7768829, 36.9557134],
          [138.7769365896733, 36.956208840810945]
        ],
        "type": "LineString"
      }
    },
    {
      "type": "Feature",
      "properties": { "@id": "way/504457838", "name": "[S1] イライザ" },
      "geometry": {
        "coordinates": [
          [138.7720522, 36.9416517],
          [138.7727576, 36.9420332],
          [138.7732458, 36.9422305],
          [138.7736213, 36.9423205],
          [138.77421327444557, 36.94224197858754],
          [138.77497054421008, 36.94200900017529],
          [138.7756706977198, 36.941838790587084],
          [138.7757756558463, 36.94176473129562],
          [138.77583126280774, 36.94165177816178],
          [138.77591917444408, 36.94136301547015],
          [138.7760085, 36.9409742],
          [138.77599609538, 36.9407228088846],
          [138.775985404678, 36.940382704773306],
          [138.7760979418703, 36.94006842165157],
          [138.77617851397608, 36.93986410848958],
          [138.77632688374217, 36.93965547604817],
          [138.776781, 36.9395379],
          [138.777312, 36.9393664],
          [138.7779343, 36.9392549],
          [138.778637, 36.9392292],
          [138.7789589, 36.9394178],
          [138.7790803976602, 36.93958803590666],
          [138.7792969, 36.9399709]
        ],
        "type": "LineString"
      }
    },
    {
      "type": "Feature",
      "properties": { "@id": "way/504457842", "name": "[C5] グルノーブル" },
      "geometry": {
        "coordinates": [
          [138.76939697875648, 36.9437784324906],
          [138.7699521, 36.9442027],
          [138.77074669378413, 36.94473966600633],
          [138.771318732297, 36.94527986603009],
          [138.7720703661485, 36.94589912613969],
          [138.772822, 36.9464149],
          [138.7731975, 36.9468093],
          [138.77361564248528, 36.947525335500266],
          [138.77387602124347, 36.94798293385535],
          [138.77409351986537, 36.9485937946932]
        ],
        "type": "LineString"
      }
    },
    {
      "type": "Feature",
      "properties": { "@id": "way/592107656", "name": "[N1] スワン" },
      "geometry": {
        "coordinates": [
          [138.77350440332097, 36.95080668931238],
          [138.77350659346686, 36.9509057],
          [138.773506321341, 36.950997903557],
          [138.7735735787147, 36.951134914213206],
          [138.773712377082, 36.9513601035465],
          [138.77377693772584, 36.95192784247961],
          [138.77372646722773, 36.95217548908023],
          [138.773659452478, 36.952376861316125],
          [138.77369282297124, 36.952561836806694],
          [138.7737205, 36.9527267],
          [138.7736126, 36.9527387],
          [138.7735312, 36.9526241],
          [138.7733525, 36.952481],
          [138.7732220008454, 36.9524802543209],
          [138.77328727539364, 36.952624940437566],
          [138.7735569, 36.9530127],
          [138.7738681, 36.9532099],
          [138.7740022, 36.9532485],
          [138.7741256, 36.9532185],
          [138.7741681, 36.9531322],
          [138.7742757, 36.9530458],
          [138.774444, 36.9529921],
          [138.7745543, 36.9529596],
          [138.7747039, 36.9529866],
          [138.7748254, 36.9530854],
          [138.7749522, 36.9532902],
          [138.7749571, 36.9535143],
          [138.7749624, 36.9539172],
          [138.7749141, 36.954363],
          [138.7749624, 36.9549075],
          [138.7748069, 36.9552247],
          [138.7741148, 36.9559577],
          [138.774088, 36.9560649],
          [138.7741256, 36.956172],
          [138.7743137, 36.9563965],
          [138.77476, 36.9564888],
          [138.7750635, 36.9565048],
          [138.7756915, 36.9565203],
          [138.7761973, 36.9564534],
          [138.7766622, 36.9562406]
        ],
        "type": "LineString"
      }
    },
    {
      "type": "Feature",
      "properties": { "@id": "way/1364267710", "name": "[C2] エーデルワイス" },
      "geometry": {
        "coordinates": [
          [138.77369486800714, 36.950115921183404],
          [138.77389341894485, 36.94984897589777],
          [138.77405967743596, 36.949664612728206],
          [138.77427427931258, 36.94937157900368],
          [138.77450818210423, 36.94920826959566],
          [138.7746897183977, 36.94906467788985],
          [138.7747675695652, 36.9489670750428],
          [138.77480972439443, 36.94883569053698],
          [138.77475975842196, 36.948713222343144],
          [138.77464520755336, 36.94858559268416],
          [138.7745585, 36.9484784],
          [138.7743625, 36.9482134],
          [138.7742875, 36.9480714],
          [138.7742335, 36.9479164],
          [138.7741495, 36.9476654],
          [138.7740875, 36.9475364],
          [138.7740295, 36.9473584],
          [138.7740295, 36.9471814],
          [138.7740565, 36.9471014],
          [138.7740835, 36.9469544],
          [138.7741123, 36.9468067],
          [138.7740041, 36.9465772],
          [138.7738146, 36.9461688],
          [138.77366620805273, 36.94580018214008],
          [138.7736833453188, 36.94571978331005],
          [138.7738908451394, 36.946058613148104],
          [138.77402728385664, 36.946201652356606],
          [138.77420312578195, 36.9464068],
          [138.7742747, 36.9465403],
          [138.7744638289941, 36.94670297834548],
          [138.7745447, 36.9469183],
          [138.7746247, 36.9470583],
          [138.7746867, 36.9471773],
          [138.77474695508943, 36.94722767235203],
          [138.7748233591609, 36.947307110317375],
          [138.77491216730564, 36.94735950688531],
          [138.77515010407154, 36.94747854829275],
          [138.77525555101795, 36.94750627590983],
          [138.77557264802613, 36.947711042942636],
          [138.77577006790574, 36.947786798933166],
          [138.77598599796417, 36.9477900690631],
          [138.7761423388033, 36.94786557231882],
          [138.77630678574963, 36.94795888600245],
          [138.77647583269436, 36.94804439107473],
          [138.77668004898212, 36.948107706647974],
          [138.7770572, 36.9480409],
          [138.7772783, 36.9479477],
          [138.7773958, 36.9478632],
          [138.7775179, 36.9477584],
          [138.777631, 36.947654],
          [138.777706, 36.94757],
          [138.777876, 36.947454],
          [138.778031, 36.947344],
          [138.778165, 36.947252],
          [138.778287, 36.947189],
          [138.778424, 36.94715],
          [138.778585, 36.947132],
          [138.778701, 36.947153],
          [138.778921, 36.947248],
          [138.779138, 36.94737],
          [138.779401, 36.94754],
          [138.779615, 36.947644],
          [138.779818, 36.947728],
          [138.779934, 36.947757],
          [138.7802157, 36.9478371],
          [138.7805641, 36.9477352],
          [138.7809896, 36.9475085],
          [138.7813254, 36.9475601],
          [138.7816487, 36.9480265],
          [138.7818569, 36.9485116],
          [138.7819144, 36.9496007],
          [138.7821766, 36.950324],
          [138.7824154, 36.9505536],
          [138.7828751, 36.9509468],
          [138.782912, 36.9511913]
        ],
        "type": "LineString"
      }
    },
    {
      "type": "Feature",
      "properties": { "name": "[N8] ローマンホリデーB" },
      "geometry": {
        "coordinates": [
          [138.78127433883964, 36.959488057373804],
          [138.78146871471245, 36.95984558132638],
          [138.78145404483558, 36.960126910469555],
          [138.7812890087166, 36.96033790664487],
          [138.78122666173948, 36.96062509494388],
          [138.78144670989712, 36.96092986501492],
          [138.78158240626215, 36.961076388653424]
        ],
        "type": "LineString"
      }
    },
    {
      "type": "Feature",
      "properties": { "name": "[S2] バットマン" },
      "geometry": {
        "coordinates": [
          [138.773215993926, 36.94236242044148],
          [138.77330359826544, 36.94266582656212],
          [138.77331819898836, 36.94285642722535],
          [138.77313325649425, 36.943105374312125],
          [138.77298238235568, 36.94334265124728],
          [138.77298238235568, 36.943494352506946],
          [138.77301645070906, 36.94369662038332],
          [138.77319165938792, 36.94416339035695],
          [138.7733674290949, 36.944627908588316],
          [138.77343556580166, 36.94486129107983],
          [138.77348295962645, 36.945336520052564],
          [138.77353777086404, 36.9448146146387],
          [138.7735377708779, 36.94451899648365],
          [138.77358643995626, 36.94425838481705],
          [138.77370811264484, 36.94401722097727],
          [138.77387358750627, 36.94373326903933],
          [138.77406339690805, 36.94341430806594],
          [138.77438149027074, 36.943269390373516],
          [138.77480491124282, 36.94311379887466],
          [138.77506772425897, 36.94289208043999],
          [138.77529160201402, 36.94260034467395],
          [138.77550574595392, 36.94232805695087],
          [138.77567608772307, 36.94206743778996],
          [138.77577342587767, 36.94188461486257]
        ],
        "type": "LineString"
      }
    },
    {
      "type": "Feature",
      "properties": { "name": "[S3] 260万ダラー" },
      "geometry": {
        "coordinates": [
          [138.77195547631197, 36.94148802262767],
          [138.77187414199688, 36.94095713496975],
          [138.77186736413745, 36.94027997697724],
          [138.77207069993068, 36.93982492342798],
          [138.7723485921747, 36.939597395632916],
          [138.77305348957117, 36.939494466169165],
          [138.77395494490736, 36.93938611918924],
          [138.77480217735553, 36.939321110942814],
          [138.77548674100353, 36.93952697115324],
          [138.77613063766478, 36.93984659363379]
        ],
        "type": "LineString"
      }
    }
  ]
}
