{
  "type": "FeatureCollection",
  "features": [
    {
      "type": "Feature",
      "properties": {
        "name": "B3下部"
      },
      "geometry": {
        "coordinates": [
          [140.893474, 39.2406602],
          [140.8940624, 39.2406819],
          [140.8948866316014, 39.24060124740077],
          [140.89536922429767, 39.24076195484067]
        ],
        "type": "LineString"
      }
    },
    {
      "type": "Feature",
      "properties": {
        "name": "ラッシュ"
      },
      "geometry": {
        "coordinates": [
          [
            [140.89931758338105, 39.23820472249017],
            [140.90009639535023, 39.238228999667115],
            [140.90097165462277, 39.2387276250405],
            [140.90241836416493, 39.23922437885403],
            [140.90211455516214, 39.23953064636896],
            [140.90108256902118, 39.23909738949183],
            [140.89996378030918, 39.23856701967131],
            [140.89931758338105, 39.23820472249017]
          ]
        ],
        "type": "Polygon"
      }
    },
    {
      "type": "Feature",
      "properties": {
        "name": "A1"
      },
      "geometry": {
        "coordinates": [
          [140.88732518090765, 39.23147479253256],
          [140.88770869618244, 39.23126030797489],
          [140.888286, 39.231114854802314],
          [140.8888575, 39.2311193],
          [140.8893536, 39.2311161],
          [140.890425, 39.2318168],
          [140.89072235438653, 39.23211058927343],
          [140.89125897977434, 39.232269587962456],
          [140.89183051584155, 39.23233503907119],
          [140.8923803, 39.2322657],
          [140.8935017, 39.2320945],
          [140.8946607, 39.2319266],
          [140.89566578359182, 39.23176880444131],
          [140.89664597595433, 39.23157640211117],
          [140.89806740000233, 39.2316184020985],
          [140.8994997, 39.23161827985555],
          [140.9004546, 39.231778],
          [140.9022889, 39.2321397],
          [140.9033743, 39.2323346],
          [140.904327, 39.2325871],
          [140.9045568, 39.2327748],
          [140.9048242, 39.2332117],
          [140.9049454, 39.2340758],
          [140.9049377, 39.2347627],
          [140.9051935, 39.2355403],
          [140.9052444038175, 39.23658386587454]
        ],
        "type": "LineString"
      }
    },
    {
      "type": "Feature",
      "properties": {
        "name": "A4"
      },
      "geometry": {
        "coordinates": [
          [140.8879781, 39.2316737],
          [140.8895715, 39.2321757],
          [140.8912046, 39.2324465],
          [140.8920627, 39.2329125],
          [140.89234757467938, 39.23322076162466],
          [140.8926453, 39.2335987],
          [140.8933944, 39.2340869],
          [140.89398268926595, 39.23438733058103],
          [140.89455812788765, 39.23461808552284],
          [140.8949462, 39.2347316],
          [140.8960461, 39.2347408],
          [140.896932, 39.2349296],
          [140.8975921, 39.2349987],
          [140.8984423, 39.2346901],
          [140.8989661, 39.2344588],
          [140.8996085, 39.2342874],
          [140.9001778, 39.2341956],
          [140.9005925, 39.2341991]
        ],
        "type": "LineString"
      }
    },
    {
      "type": "Feature",
      "properties": {
        "name": "A5"
      },
      "geometry": {
        "coordinates": [
          [140.9006766421348, 39.234204113364754],
          [140.9012367, 39.2344276],
          [140.9020402, 39.2347408],
          [140.9027834, 39.2348375],
          [140.9032888, 39.2349802],
          [140.9039428, 39.2356848],
          [140.9046681, 39.2364032],
          [140.9052009, 39.2367018]
        ],
        "type": "LineString"
      }
    },
    {
      "type": "Feature",
      "properties": {
        "name": "A2"
      },
      "geometry": {
        "coordinates": [
          [140.9023149415726, 39.232252084186335],
          [140.9026494853933, 39.23267715512033],
          [140.9034318831468, 39.233434581595205],
          [140.9039587, 39.2338001],
          [140.9044746, 39.2343151],
          [140.9048223730341, 39.23467913527113]
        ],
        "type": "LineString"
      }
    },
    {
      "type": "Feature",
      "properties": {
        "name": "A3"
      },
      "geometry": {
        "coordinates": [
          [140.90070935954947, 39.23198766832042],
          [140.9010096, 39.2323338],
          [140.9017336, 39.233122],
          [140.9023255, 39.2337851],
          [140.90274375505678, 39.23438818481296],
          [140.90315743960562, 39.23485687100672]
        ],
        "type": "LineString"
      }
    },
    {
      "type": "Feature",
      "properties": {
        "name": "B1"
      },
      "geometry": {
        "coordinates": [
          [140.890253, 39.2385129],
          [140.8912288, 39.238519],
          [140.89216345827032, 39.238360037834454],
          [140.8930675417298, 39.238039830741194],
          [140.89411308270365, 39.23777949072934],
          [140.8950486, 39.2375753],
          [140.89596280864916, 39.23720048542274],
          [140.8966488, 39.23693],
          [140.8983225, 39.2365727],
          [140.8994705, 39.2364564],
          [140.9001894, 39.2366096],
          [140.90089926616338, 39.2367475336554],
          [140.9016897, 39.2367057],
          [140.902544, 39.2365707],
          [140.903473, 39.2365052],
          [140.9041527, 39.2367638],
          [140.9047801, 39.23696]
        ],
        "type": "LineString"
      }
    },
    {
      "type": "Feature",
      "properties": {
        "name": "C5"
      },
      "geometry": {
        "coordinates": [
          [140.9007664496901, 39.24525638040331],
          [140.900974, 39.2451378],
          [140.9017118, 39.2447689],
          [140.90261161841997, 39.24425835298613],
          [140.90309027532746, 39.243908704882905],
          [140.90389483141158, 39.24340029344316]
        ],
        "type": "LineString"
      }
    },
    {
      "type": "Feature",
      "properties": {
        "name": "C3"
      },
      "geometry": {
        "coordinates": [
          [140.89425459969527, 39.242731047468624],
          [140.8955007, 39.2429605],
          [140.896388, 39.2430835],
          [140.8971259, 39.2430763],
          [140.8982187, 39.2427942],
          [140.8989659, 39.2424542],
          [140.8998812, 39.2422517],
          [140.9008059, 39.2419912],
          [140.9016838, 39.2416296],
          [140.90344599362686, 39.24083111084751]
        ],
        "type": "LineString"
      }
    },
    {
      "type": "Feature",
      "properties": {
        "name": "C2上部"
      },
      "geometry": {
        "coordinates": [
          [140.8934730270711, 39.24216279258131],
          [140.8949497, 39.2418755],
          [140.89553780322433, 39.24173357973314],
          [140.8957249, 39.241673],
          [140.89590660252793, 39.241537480725256],
          [140.89663252809353, 39.240936099894746]
        ],
        "type": "LineString"
      }
    },
    {
      "type": "Feature",
      "properties": {
        "name": "C2下部"
      },
      "geometry": {
        "coordinates": [
          [140.89663252809353, 39.240936099894746],
          [140.89690256404677, 39.24084433911395],
          [140.89747335483574, 39.24079351857478],
          [140.89817985557235, 39.24073201388172],
          [140.89931361664145, 39.240470995816565],
          [140.90037764442772, 39.2405189754071],
          [140.9009808, 39.2404192],
          [140.9016745, 39.2403564],
          [140.9029914, 39.2401683],
          [140.90337996106916, 39.240125953282494]
        ],
        "type": "LineString"
      }
    },
    {
      "type": "Feature",
      "properties": {
        "name": "C1上部"
      },
      "geometry": {
        "coordinates": [
          [140.894289120624, 39.24185038443495],
          [140.8944453, 39.2414487],
          [140.8949497, 39.2409568],
          [140.89538736793037, 39.240837712343186],
          [140.89577361565802, 39.24072869070935]
        ],
        "type": "LineString"
      }
    },
    {
      "type": "Feature",
      "properties": {
        "name": "C1下部"
      },
      "geometry": {
        "coordinates": [
          [140.89577361565802, 39.24072869070935],
          [140.8961964958336, 39.24059940352958],
          [140.8969951, 39.2402913],
          [140.8975772676776, 39.24012404657109],
          [140.89836918872047, 39.23992716168928],
          [140.8990499, 39.2396547],
          [140.8996197, 39.2396909],
          [140.9001147, 39.2400381],
          [140.9009808, 39.2404192]
        ],
        "type": "LineString"
      }
    },
    {
      "type": "Feature",
      "properties": {
        "name": "B3上部"
      },
      "geometry": {
        "coordinates": [
          [140.89091003441092, 39.2400932950709],
          [140.8917087, 39.24020655734664],
          [140.89272143441093, 39.240436592487285],
          [140.893474, 39.2406602]
        ],
        "type": "LineString"
      }
    },
    {
      "type": "Feature",
      "properties": {
        "name": "B2"
      },
      "geometry": {
        "coordinates": [
          [140.8962446663908, 39.23733476559688],
          [140.89680789647255, 39.23754181635573],
          [140.89745805664114, 39.2377594],
          [140.89833678915966, 39.23794253491523],
          [140.8989565, 39.2379982],
          [140.8999746, 39.2380271],
          [140.9011795, 39.2380199],
          [140.9023418108123, 39.23796972567904],
          [140.90347932055883, 39.23792795089184]
        ],
        "type": "LineString"
      }
    },
    {
      "type": "Feature",
      "properties": {
        "name": "C4上部"
      },
      "geometry": {
        "coordinates": [
          [140.8934316092658, 39.242652208801815],
          [140.8939892195624, 39.24280301499115],
          [140.89453797890195, 39.243145755125596],
          [140.89513099302616, 39.24354333158405],
          [140.8960215288746, 39.24387076909258],
          [140.89659684108506, 39.244179230593176],
          [140.89704823989638, 39.24460421977233],
          [140.89755274445133, 39.24498807875301],
          [140.89795103751914, 39.24519371662865],
          [140.8986414121734, 39.24528282618738],
          [140.8996719708947, 39.24524963634778],
          [140.900380047461, 39.245297618394375],
          [140.90118548455553, 39.24544841889613],
          [140.9019201139946, 39.2456197827095],
          [140.90254389836196, 39.245653730853036],
          [140.90311035961537, 39.24549607623621],
          [140.90347324885738, 39.24516705676493],
          [140.90371222469844, 39.24480376263813],
          [140.90389809479797, 39.24427595461137],
          [140.9040941055972, 39.24317319942833],
          [140.90391708645654, 39.242563121064535],
          [140.90365155774276, 39.24167884075905],
          [140.90358946776024, 39.240845441639664]
        ],
        "type": "LineString"
      }
    },
    {
      "type": "Feature",
      "properties": {
        "name": "C4下部"
      },
      "geometry": {
        "coordinates": [
          [140.90358946776024, 39.240845441639664],
          [140.9036425232585, 39.240245284167315],
          [140.90379601763613, 39.23973479137743],
          [140.90406689006994, 39.23938513663691],
          [140.9042655298523, 39.238839671763344],
          [140.90430164617788, 39.23824525008408],
          [140.9045815476905, 39.237350111464394],
          [140.90469892574464, 39.23703541158028]
        ],
        "type": "LineString"
      }
    },
    {
      "type": "Feature",
      "properties": {
        "name": "C2_2"
      },
      "geometry": {
        "coordinates": [
          [140.90137481775747, 39.24029509617034],
          [140.90230451044096, 39.23970653370861],
          [140.9028057360619, 39.23909918216194],
          [140.90342822594732, 39.23859826971281],
          [140.9036788387569, 39.23843547239625]
        ],
        "type": "LineString"
      }
    },
    {
      "type": "Feature",
      "properties": {
        "name": "ガーデン"
      },
      "geometry": {
        "coordinates": [
          [
            [140.90274807112206, 39.23240607808583],
            [140.90283557879008, 39.23235678185597],
            [140.9029787731546, 39.23246769832494],
            [140.9030662808225, 39.23246153630362],
            [140.9035913268301, 39.23256629059415],
            [140.9042913881717, 39.23276963671324],
            [140.90450617971948, 39.233040763954676],
            [140.90468915029777, 39.23347826252126],
            [140.90463346359934, 39.233798682276785],
            [140.90447435875, 39.23395889160554],
            [140.9040527308951, 39.233502910246926],
            [140.90346404294854, 39.23318865109948],
            [140.90301059412587, 39.23281277066255],
            [140.90274807112206, 39.23240607808583]
          ]
        ],
        "type": "Polygon"
      }
    },
    {
      "type": "Feature",
      "properties": {
        "name": "ルーキー1"
      },
      "geometry": {
        "coordinates": [
          [
            [140.90154842726156, 39.23221927161302],
            [140.90174831157253, 39.23223432147367],
            [140.90210783041545, 39.232296979280875],
            [140.9025212770859, 39.232909630443686],
            [140.9030246034656, 39.23335519156586],
            [140.90374364115337, 39.233898215358835],
            [140.902736988392, 39.23385644444704],
            [140.9023505056344, 39.23340392464186],
            [140.90190084477672, 39.232908539480746],
            [140.90154842726156, 39.23221927161302]
          ]
        ],
        "type": "Polygon"
      }
    },
    {
      "type": "Feature",
      "properties": {
        "name": "ルーキー2"
      },
      "geometry": {
        "coordinates": [
          [
            [140.90298192030895, 39.234058502205045],
            [140.90392025621065, 39.23401840257574],
            [140.9041791074938, 39.234379298415945],
            [140.90451561416353, 39.23471011797156],
            [140.90459974083058, 39.235020886436644],
            [140.9038167156976, 39.234980787357415],
            [140.90298192030895, 39.234058502205045]
          ]
        ],
        "type": "Polygon"
      }
    },
    {
      "type": "Feature",
      "properties": {
        "name": "アルタ"
      },
      "geometry": {
        "coordinates": [
          [
            [140.90221392013092, 39.23421107645257],
            [140.90068805948061, 39.23357467573658],
            [140.90039462479086, 39.233188286977054],
            [140.89960968699438, 39.23272234476093],
            [140.89872204705807, 39.231818862622845],
            [140.90026257944112, 39.23205183745634],
            [140.90155369207866, 39.23348376126418],
            [140.90200117997955, 39.233790598278716],
            [140.90221392013092, 39.23421107645257]
          ]
        ],
        "type": "Polygon"
      }
    },
    {
      "type": "Feature",
      "properties": {
        "name": "シューター"
      },
      "geometry": {
        "coordinates": [
          [
            [140.89860303673873, 39.23181063112881],
            [140.90067774452928, 39.23397317812396],
            [140.90046002827933, 39.233933498962955],
            [140.89940986754607, 39.23324902990066],
            [140.89848777519546, 39.233407747959376],
            [140.89720709137288, 39.23350694656335],
            [140.89628499902233, 39.23351686641584],
            [140.8948762468184, 39.233010952140575],
            [140.89367240402646, 39.232336394099036],
            [140.89391573395244, 39.23228679398687],
            [140.8956318502723, 39.23199911264649],
            [140.8970149888002, 39.23181063112881],
            [140.89860303673873, 39.23181063112881]
          ]
        ],
        "type": "Polygon"
      }
    },
    {
      "type": "Feature",
      "properties": {
        "name": "ハート"
      },
      "geometry": {
        "coordinates": [
          [
            [140.88862346154497, 39.2314458259132],
            [140.88896798614354, 39.2312538680458],
            [140.88931251074098, 39.2312538680458],
            [140.88962681388278, 39.23147391726445],
            [140.88985045265713, 39.23166119265221],
            [140.89012849005246, 39.23186719500114],
            [140.89018893296463, 39.23206383304293],
            [140.8899229841515, 39.232054469338834],
            [140.88954219380628, 39.23193742293623],
            [140.8892097577911, 39.23181569447047],
            [140.88887127748353, 39.231684602040104],
            [140.88844213280964, 39.23157691878964],
            [140.88862346154497, 39.2314458259132]
          ]
        ],
        "type": "Polygon"
      }
    },
    {
      "type": "Feature",
      "properties": {
        "name": "サミット"
      },
      "geometry": {
        "coordinates": [
          [
            [140.88782957502025, 39.232103616649596],
            [140.8907063578023, 39.23275517147377],
            [140.89193445805518, 39.23313307049952],
            [140.8924055102077, 39.23371946151099],
            [140.89380184337068, 39.234540400693504],
            [140.89425607223046, 39.23476192231982],
            [140.88811557096818, 39.23381067744987],
            [140.88752675564746, 39.23325034904576],
            [140.8873248761538, 39.23263789200374],
            [140.8871902898253, 39.232585767753505],
            [140.88782957502025, 39.232103616649596]
          ]
        ],
        "type": "Polygon"
      }
    },
    {
      "type": "Feature",
      "properties": {
        "name": "ビーチ"
      },
      "geometry": {
        "coordinates": [
          [
            [140.88813706986127, 39.23385246518984],
            [140.8942798214337, 39.23482231394621],
            [140.89423562897554, 39.235244479217016],
            [140.89690190623213, 39.23510756235726],
            [140.89601805708628, 39.23562100418445],
            [140.89363166438972, 39.23562100418445],
            [140.8893302652064, 39.235598184627236],
            [140.88881468653847, 39.2348679548854],
            [140.88813706986127, 39.23385246518984]
          ]
        ],
        "type": "Polygon"
      }
    },
    {
      "type": "Feature",
      "properties": {
        "name": "ストリーム"
      },
      "geometry": {
        "coordinates": [
          [
            [140.88936808620463, 39.23566162669556],
            [140.89597864397325, 39.235690231236276],
            [140.89383667553443, 39.23626231960185],
            [140.8923963864117, 39.23657696621484],
            [140.89173163758545, 39.237463689986356],
            [140.89037751960655, 39.238302730117056],
            [140.89022979764513, 39.238054832941145],
            [140.88989742323264, 39.23754950136956],
            [140.88954042849247, 39.23660557038241],
            [140.88936808620463, 39.23566162669556]
          ]
        ],
        "type": "Polygon"
      }
    },
    {
      "type": "Feature",
      "properties": {
        "name": "ラビット"
      },
      "geometry": {
        "coordinates": [
          [
            [140.89130281849856, 39.24098780310487],
            [140.89224803882377, 39.240535643404854],
            [140.89303340571155, 39.240729426490276],
            [140.8938257227486, 39.24082631783227],
            [140.8947917935235, 39.240772489325906],
            [140.89438173470546, 39.24116543647506],
            [140.8940689779797, 39.24164450605008],
            [140.89383267289793, 39.241849051613286],
            [140.89324191019597, 39.242048213825456],
            [140.89268589823905, 39.241628357690416],
            [140.8924009421121, 39.24138613185431],
            [140.891650325971, 39.24124617876777],
            [140.89130281849856, 39.24098780310487]
          ]
        ],
        "type": "Polygon"
      }
    },
    {
      "type": "Feature",
      "properties": {
        "name": "エクストリーム"
      },
      "geometry": {
        "coordinates": [
          [
            [140.89636486534732, 39.24381441012571],
            [140.89748429989226, 39.243796717096075],
            [140.89884361326898, 39.24335438990806],
            [140.9010824823589, 39.24293859980813],
            [140.90286443938783, 39.242319333387826],
            [140.9031007245311, 39.24145324600511],
            [140.90330992864762, 39.24184160984274],
            [140.90332135144882, 39.24240780035436],
            [140.90035142306482, 39.24369055882573],
            [140.89732438067188, 39.24449558836804],
            [140.89636486534732, 39.24381441012571]
          ]
        ],
        "type": "Polygon"
      }
    },
    {
      "type": "Feature",
      "properties": {
        "name": "カスケード"
      },
      "geometry": {
        "coordinates": [
          [
            [140.89754501056683, 39.244740736847575],
            [140.8994306871582, 39.24423376834605],
            [140.9009646314256, 39.24365869634033],
            [140.90248880534756, 39.242977683921225],
            [140.9034658399122, 39.242425302324335],
            [140.9036221654419, 39.242886881765685],
            [140.9030164040118, 39.24303065179086],
            [140.90087669831422, 39.24423376834605],
            [140.8989421699954, 39.2450888019396],
            [140.8979651354308, 39.245050968860994],
            [140.89754501056683, 39.244740736847575]
          ]
        ],
        "type": "Polygon"
      }
    },
    {
      "type": "Feature",
      "properties": {
        "name": "A6上部"
      },
      "geometry": {
        "coordinates": [
          [140.88710761037953, 39.231690507751296],
          [140.88714812661556, 39.23193634602745],
          [140.88712111579082, 39.23211418594667],
          [140.88706034143883, 39.232281564281124],
          [140.88718189014503, 39.232642472458025],
          [140.88735070778984, 39.23285692426313],
          [140.88746550378931, 39.23319167699111],
          [140.88764782684757, 39.23344274048827],
          [140.8878706661419, 39.233641498453665],
          [140.8880935054342, 39.23393440390245],
          [140.88848609450758, 39.23454185469376],
          [140.8886076432138, 39.234855677886884],
          [140.88870893380198, 39.23504397112856],
          [140.88915461238855, 39.235645460044424],
          [140.88932343003336, 39.23601158120715],
          [140.88937405465867, 39.23654939746356],
          [140.88943482901072, 39.23696781610292],
          [140.88967117371652, 39.23734962093414],
          [140.88989401300864, 39.237752344326566],
          [140.8899817981855, 39.23829627874528],
          [140.88998216630375, 39.23870114282863]
        ],
        "type": "LineString"
      }
    },
    {
      "type": "Feature",
      "properties": {
        "name": "A6中部"
      },
      "geometry": {
        "coordinates": [
          [140.88998216630375, 39.23870114282863],
          [140.89011020020962, 39.23898770119169],
          [140.8903047066754, 39.23921448279981],
          [140.89046745875555, 39.23944668389623],
          [140.8906285017418, 39.23959895063251],
          [140.8907058860358, 39.2397641758657],
          [140.89077699592616, 39.23994397935357],
          [140.8908313740755, 39.2400930053187]
        ],
        "type": "LineString"
      }
    },
    {
      "type": "Feature",
      "properties": {
        "name": "A6下部"
      },
      "geometry": {
        "coordinates": [
          [140.8908313740755, 39.2400930053187],
          [140.8906602234017, 39.24037090200625],
          [140.8906378771989, 39.24057611456607],
          [140.89078791596944, 39.24076154708527],
          [140.8909251854833, 39.240954396385376],
          [140.89108160888122, 39.24112993823624],
          [140.8915178382518, 39.24131041496955],
          [140.89188176207824, 39.24140436652351],
          [140.89231591681755, 39.24154034881383],
          [140.89265829828872, 39.24171913819819],
          [140.89295199120045, 39.24192929159199],
          [140.89318822245616, 39.24212955482869],
          [140.893306338084, 39.24224452029708],
          [140.8933095303977, 39.242462707146075],
          [140.89333506891109, 39.24253749668296]
        ],
        "type": "LineString"
      }
    },
    {
      "type": "Feature",
      "properties": {
        "name": "B1_2"
      },
      "geometry": {
        "coordinates": [
          [140.90064034677215, 39.23679023574519],
          [140.9016696825243, 39.23734072274823],
          [140.902968606213, 39.237739348570784],
          [140.90339341144534, 39.237796294932394]
        ],
        "type": "LineString"
      }
    }
  ]
}
