{"type":"FeatureCollection","features":[{"type":"Feature","properties":{"@id":"way/108289979","name":"Hotel Road"},"geometry":{"coordinates":[[140.12892751171157,37.69720221991996],[140.12849135101703,37.69671315788307],[140.1283447,37.6961502],[140.1283244,37.6958924],[140.1284559,37.6954721],[140.1286818,37.6953761],[140.1292655,37.6953922],[140.1299102,37.6954083],[140.1303445,37.69547],[140.131013,37.6959238],[140.131281,37.696058],[140.1316611,37.6961654]],"type":"LineString"}},{"type":"Feature","properties":{"@id":"way/254086264","name":"The Rock"},"geometry":{"coordinates":[[140.12528055876328,37.72356504536069],[140.12473338211197,37.723456765178426],[140.1242716685903,37.72318870540857],[140.12400520577364,37.722741630510164],[140.12393142514674,37.72172903071846],[140.12382401624438,37.721044120902604],[140.1235652,37.7206054],[140.12330072093638,37.72006544759302],[140.12315251624435,37.71953678489833],[140.1230854549908,37.718787530255106],[140.12305483602057,37.71824178034801],[140.12293388301924,37.71751738824098],[140.12270703268692,37.71681890537678],[140.12240388874383,37.71586260174219],[140.12188793489187,37.71489087587982],[140.12180453453774,37.713995513783644],[140.12201412563317,37.71352682056641]],"type":"LineString"}},{"type":"Feature","properties":{"@id":"way/254090103","name":"Main Street"},"geometry":{"coordinates":[[140.1264202,37.7170801],[140.1262609,37.7161827],[140.1260403,37.7153399],[140.1259487,37.7148782],[140.1257112,37.7138233],[140.1254567,37.7128864],[140.1251988,37.7116156],[140.1249884,37.7108747],[140.1248595,37.7101875],[140.1248271,37.7086646],[140.1244916,37.7080421],[140.1243189,37.7075637],[140.1243843867651,37.70705738452758],[140.1246535446079,37.70648572567569],[140.12493019199403,37.70582659589418],[140.1249715,37.705244],[140.12509546307191,37.70477352097788],[140.12525211045823,37.704240327425076],[140.1255347919958,37.70395494101022],[140.12586946160465,37.70369795910753],[140.12700066291336,37.70283857467829],[140.12793836422452,37.70235107896245],[140.12884405947733,37.70188046736433],[140.1293016699184,37.70110597582667],[140.13012087262808,37.700401107217445],[140.1307907137308,37.69966247351012],[140.13063544625604,37.69938707034485],[140.13030947980525,37.699331143059084],[140.1298709206225,37.6993037024774],[140.12957105435754,37.699174965465915],[140.12939921232584,37.698894283043984],[140.1288185310584,37.697974146596344],[140.12891607346825,37.697518278416695],[140.12922698959696,37.69724812526992],[140.13010791879054,37.696842856644714],[140.13156038527916,37.69617584932324]],"type":"LineString"}},{"type":"Feature","properties":{"@id":"way/254090104","name":"Forest"},"geometry":{"coordinates":[[140.1288048740222,37.70210555557854],[140.12899129929167,37.70226807026722],[140.12906902557762,37.70233431965332],[140.12910381462893,37.70242887893903],[140.1291376117028,37.70260667336691],[140.12909899273126,37.703071261618526],[140.1290395620569,37.70327304997811],[140.1291744,37.7034863],[140.1294623,37.7035679],[140.1297358,37.7035755],[140.1298193,37.7035388],[140.129947,37.7034825],[140.13021801241112,37.703188964375755],[140.1303716562064,37.70305237866769],[140.1306884,37.7027972],[140.1308251,37.7026966],[140.13094147810318,37.702613802740025],[140.13101451387445,37.70248982919274],[140.13108039343948,37.702309235949315],[140.1311227,37.7020075],[140.131221,37.7019733],[140.13132142774901,37.701942802423915],[140.13141469929178,37.702002896978044],[140.1314535131654,37.70213753792128],[140.1314279211886,37.70231181282301],[140.13136656790905,37.70291866193589],[140.13142861755492,37.70369168125062],[140.13133942774752,37.70415442368476],[140.1312978,37.7042722],[140.13138610001386,37.70440616645204],[140.13160791989688,37.70443977694922],[140.13180514237712,37.704327109141936],[140.13204071462968,37.704146056587916],[140.1323242,37.7035528],[140.1327416,37.7028886],[140.1329181,37.7024752],[140.1329656,37.7022389],[140.1329045,37.7015516],[140.1332099,37.7006495],[140.1332981,37.7002415],[140.1333524,37.6999461],[140.1332438,37.6992373],[140.1331488,37.6989044],[140.133047,37.6984695],[140.1328841,37.6977929],[140.1328298,37.6969982],[140.1328434,37.6963699]],"type":"LineString"}},{"type":"Feature","properties":{"@id":"way/254090107","name":"Fall Line"},"geometry":{"coordinates":[[140.1308752712594,37.69958553731737],[140.13158699200451,37.69802339104906],[140.1323197357651,37.69629297517738]],"type":"LineString"}},{"type":"Feature","properties":{"@id":"way/254090109","name":"Alpen"},"geometry":{"coordinates":[[140.12678266595717,37.705445379263594],[140.1277467,37.7049935],[140.1285071805443,37.7047252666937],[140.1296566,37.7041696],[140.1299325,37.7041829],[140.1302084,37.7041962],[140.1307555,37.704348],[140.131149,37.7044847]],"type":"LineString"}},{"type":"Feature","properties":{"@id":"way/254090116","name":"View"},"geometry":{"coordinates":[[140.12547958592586,37.72352676252159],[140.12584440813694,37.72336775244325],[140.12617151903436,37.723165876123346],[140.1264011171042,37.7228997245272],[140.12655104531012,37.7226366122636],[140.1266197128259,37.72236064481197],[140.12665023062564,37.7216640358836],[140.1267869,37.7211979],[140.1269837,37.7207362],[140.12716593062567,37.720413648220934],[140.12730931437284,37.72016484363126]],"type":"LineString"}},{"type":"Feature","properties":{"@id":"way/254090119","name":"Tree"},"geometry":{"coordinates":[[140.12743942767324,37.72026700233656],[140.1275515443518,37.71941719810064],[140.12702597708142,37.71866722596471],[140.12598546960425,37.71767703830979],[140.12516716893745,37.71686262384845],[140.12486006893747,37.71635392384845],[140.12411146893746,37.71547322384845],[140.12352596893746,37.71493422384845],[140.12307998968046,37.71448677544111],[140.12296936893748,37.71415212384845],[140.12278696893748,37.71371182384845],[140.1226203741679,37.713240979416895],[140.12275005514795,37.712901972824284],[140.12313903774688,37.71225325768606],[140.12360220996317,37.71116091230491],[140.12409315803137,37.71047874023209],[140.12460262333136,37.709928410885134]],"type":"LineString"}},{"type":"Feature","properties":{"@id":"way/254090120","name":"Freeride"},"geometry":{"coordinates":[[140.1271539,37.7074349],[140.12899227387635,37.706073978149114],[140.13072041067525,37.704982387699424],[140.131234,37.7046286],[140.1313745,37.7045493]],"type":"LineString"}},{"type":"Feature","properties":{"@id":"way/254090121","name":"Powder"},"geometry":{"coordinates":[[140.12957648844713,37.721636262525166],[140.12984430619662,37.72106129365116],[140.1301857107102,37.72061936932022],[140.13053394789213,37.7198768],[140.13048551155288,37.719238729600264],[140.13012493718426,37.71866718224623],[140.129743318172,37.71803273797049],[140.12933016197306,37.71755629022427],[140.12886581239323,37.717111439536275],[140.12856005084373,37.716799619748826],[140.128485561973,37.71650443149996],[140.12839969831467,37.71607565193309]],"type":"LineString"}},{"type":"Feature","properties":{"@id":"way/254090122","name":"SNOW SURF PARK"},"geometry":{"coordinates":[[140.12632356033245,37.71726627207435],[140.12698446484433,37.716916674740375],[140.12790365276834,37.71644002361865],[140.1283305391952,37.71605508305352],[140.1283213251235,37.715566649030194],[140.12830994019842,37.71491477377241],[140.12801140024573,37.71358339964485],[140.12758203014766,37.7122606498009],[140.1268405,37.7106328],[140.1262704,37.7096449],[140.12542484564082,37.70874428134626]],"type":"LineString"}},{"type":"Feature","properties":{"@id":"way/254090131","name":"SNOW SURF PARK_2"},"geometry":{"coordinates":[[140.1269868120858,37.710614280167874],[140.12704092483435,37.70972199974027],[140.12709413725156,37.7091637583969],[140.1271539,37.7074349]],"type":"LineString"}},{"type":"Feature","properties":{"name":"FREE RIDE PARK"},"geometry":{"coordinates":[[140.12678974906066,37.70728914625994],[140.12658628731356,37.70535079921487],[140.12652694430466,37.70489471018993],[140.12614545352898,37.70385508501151],[140.12611154323696,37.703788011918164]],"type":"LineString"}},{"type":"Feature","properties":{"name":"Road to Powder"},"geometry":{"coordinates":[[140.1268613136582,37.72249521976616],[140.129473584096,37.721921255739176]],"type":"LineString"}}]}