{"type":"FeatureCollection","features":[{"type":"Feature","properties":{"@id":"way/454576791","name":"ウスバ下部"},"geometry":{"coordinates":[[137.83150262984844,36.69809900186417],[137.83217566757034,36.69847565649739],[137.83270825699168,36.698838240003795],[137.832909818457,36.69910368491084],[137.83244812184864,36.69963805222594],[137.8321978,36.6999704],[137.8322585,36.7002354],[137.83237655,36.70037465],[137.8325766929714,36.70043930431087],[137.83315512177305,36.7004545964398],[137.83333213769978,36.700561438150785],[137.83357082580616,36.70083695160924],[137.83368839758077,36.70102746670996],[137.83382550201574,36.701171],[137.8341763880258,36.70149524580032]],"type":"LineString"}},{"type":"Feature","properties":{"@id":"way/454576792","name":"白樺ゲレンデ北"},"geometry":{"coordinates":[[137.83214585373508,36.702183324387846],[137.8327865086528,36.702368454297066],[137.83351124482945,36.70265505772556],[137.83508159371019,36.70345964814639]],"type":"LineString"}},{"type":"Feature","properties":{"@id":"way/539965621","name":"白樺ゲレンデ南_上部"},"geometry":{"coordinates":[[137.83246136743287,36.70136300597504],[137.8330472,36.7015187],[137.83356177752287,36.70162783968253],[137.8341358175809,36.70178857920547]],"type":"LineString"}},{"type":"Feature","properties":{"@id":"way/454576789","name":"名木山ゲレンデ壁"},"geometry":{"coordinates":[[137.83307658335252,36.69871624540586],[137.8335313553676,36.699099001357744],[137.83457795416317,36.6995736600973],[137.83525108316047,36.699763202459444],[137.8357289383359,36.69987446140048]],"type":"LineString"}},{"type":"Feature","properties":{"@id":"way/454576790","name":"名木山ゲレンデ南"},"geometry":{"coordinates":[[137.83288076885145,36.6964298300485],[137.83333957638078,36.6965483538517],[137.8343111,36.6968527],[137.8343981,36.6968946],[137.8347571,36.6970408],[137.835491,36.6973462],[137.8359409,36.6975151],[137.8361807,36.6976211],[137.8366405425631,36.69764682229338],[137.83710584541592,36.697597778076656],[137.83742656436002,36.69756124474979],[137.83766310346232,36.69754085582252],[137.83787695173115,36.69754978901865],[137.83801028737113,36.69758368904876],[137.83810975172963,36.697687011260136],[137.83820870346074,36.697791877841254],[137.83833205488875,36.69799226610953],[137.83850248579228,36.69813363763858],[137.83865416274975,36.69818494573587],[137.83878771384462,36.69819749857389]],"type":"LineString"}},{"type":"Feature","properties":{"@id":"way/454576781","name":"咲花ウェーブ"},"geometry":{"coordinates":[[137.82368568755166,36.70610674653891],[137.8242623,36.7063057],[137.8254514782047,36.706742773222075],[137.8264611,36.7070546],[137.82726531361595,36.70734133828765],[137.82797902170824,36.70771514639832]],"type":"LineString"}},{"type":"Feature","properties":{"@id":"way/454576776","name":"咲花ゲレンデ南"},"geometry":{"coordinates":[[137.82682450204265,36.708400609436964],[137.82727836911187,36.708139419441686],[137.82761390927828,36.70801245218986],[137.8279585,36.7080306],[137.82945093321322,36.708061897105004],[137.8306633,36.7081875],[137.83212468012812,36.70830870604404],[137.83312962931183,36.70835147620944]],"type":"LineString"}},{"type":"Feature","properties":{"@id":"way/454576775","name":"咲花ゲレンデ北"},"geometry":{"coordinates":[[137.82616518668365,36.70947540912231],[137.82691926306975,36.709439853444344],[137.82802957190154,36.70945566943788],[137.82861683945836,36.709457872339435],[137.82967613086024,36.70951321589844],[137.8308168,36.709611],[137.83120138886878,36.709654584320106]],"type":"LineString"}},{"type":"Feature","properties":{"@id":"way/454576765","name":"北尾根新"},"geometry":{"coordinates":[[137.82374204216813,36.71100752477077],[137.82411403394084,36.711040263954864],[137.82438460917672,36.71096062133489],[137.82468117064903,36.71089699010298],[137.82504165320466,36.71095273112954],[137.8252441522942,36.710912393407966],[137.82555723576033,36.71081885229287],[137.82580114952523,36.71049496425196],[137.8262006,36.709851323592005],[137.82641697705688,36.70953669057901]],"type":"LineString"}},{"type":"Feature","properties":{"@id":"way/154251310","name":"北尾根林道"},"geometry":{"coordinates":[[137.81948823721152,36.70974299076449],[137.81943221359876,36.70957042047925],[137.81934544249623,36.709455365737696],[137.8190101291886,36.70935469030131],[137.8186870511738,36.70926321614003],[137.81860238088979,36.709221587331896],[137.8186099530727,36.70915530887947],[137.81890694942496,36.70915421680648],[137.81911694257948,36.70918653697327],[137.81923731290163,36.7091575060205],[137.81925650141082,36.70905260844119],[137.81916360403392,36.70897961821149],[137.81887597255843,36.70896825223376],[137.81849629476844,36.70893525615823],[137.81793725662362,36.708807769387704],[137.81765192483635,36.70875615656508],[137.81737171763083,36.70860594453768],[137.81697785212043,36.70833838850989],[137.8166323065002,36.70817585250087],[137.81637241580347,36.70795490131195],[137.81634678334893,36.70783056428698],[137.8164591277694,36.707721086132686],[137.81655177163225,36.707793642912314],[137.8166717625745,36.70791985057368],[137.8167858128727,36.70801138784517],[137.8170236529205,36.70809524649687],[137.81722001811542,36.70816524642792],[137.81744530583896,36.70822301930794],[137.81767178974755,36.70827097217978],[137.81798275756492,36.70830432120368],[137.818469,36.708327434692286],[137.8188499768728,36.70829813278418],[137.81909993563238,36.70824167026667],[137.81958761310364,36.70815193936833],[137.82017508533428,36.70805704321979],[137.8205911,36.7079849],[137.82103877163223,36.70790331166524],[137.821299,36.70786701945912],[137.8215026,36.7078871],[137.8216818,36.7079043],[137.8218873,36.707891],[137.82212976067046,36.70792692826052],[137.8223614690638,36.70795292824709],[137.8224973438839,36.70799781818313],[137.8226689229396,36.70817041615964],[137.82285841137931,36.708376606981254],[137.82302145761668,36.708500415866595],[137.823156,36.708572],[137.823217,36.708684],[137.823208,36.70878],[137.823147,36.708858],[137.823043,36.708884],[137.822931,36.708867],[137.822844,36.708901],[137.822774,36.709032],[137.82269730096743,36.70929967393073],[137.822705,36.709526],[137.82268631121727,36.709636687845936],[137.822688,36.709685],[137.8226350331729,36.70983543265858],[137.82257575512617,36.709929758865066],[137.82254527804676,36.71005850346846],[137.82263876779447,36.71024144690556],[137.8226909794978,36.71035803537932],[137.8227560916826,36.710468779712116],[137.82280926237672,36.710524056181086],[137.82293142190588,36.71055677236891],[137.82305123704003,36.71057069439283],[137.82314256875935,36.71057329728501],[137.8232573443901,36.71062476500679],[137.82324690048367,36.710703714977285],[137.82317404584126,36.71075535313733],[137.82306378046516,36.710783232500496],[137.82296658926649,36.710794473637236],[137.8227006887803,36.71072445304756],[137.8225804439065,36.71071858827434],[137.82253844390658,36.71078581473808],[137.82254719903264,36.71082189999072],[137.8226040995164,36.710888538167154],[137.82279216586218,36.7109088146105],[137.82310709951633,36.71092876457704],[137.8234789668271,36.710948196876366],[137.8236425892641,36.7109492821833],[137.82377614535753,36.71090938228025],[137.8238964439065,36.71082239705315],[137.82397195415876,36.71072468822223],[137.82401179855134,36.71064710294108],[137.82396255609353,36.710563879417315],[137.82387853558896,36.71051012058175],[137.82379494632258,36.71043975884015],[137.82364092582037,36.71031153211847],[137.82353942340197,36.710221467941835],[137.82341973462397,36.71015043255706],[137.82334197949785,36.710071276575334],[137.82334880096502,36.70998375886222],[137.82346298433973,36.70982547438237],[137.82358602298558,36.70968103406129],[137.8237002275798,36.70958409197066],[137.82386862911116,36.70944417392576],[137.824116412985,36.70925683151602],[137.82427297822113,36.7091402808583],[137.82438976083827,36.70896628092277],[137.82456922790965,36.708774648671955],[137.82467617726397,36.70868116201908],[137.82468905064727,36.70850010807843],[137.824632,36.708363],[137.824536,36.708173],[137.824389,36.70799],[137.8241627022452,36.707770177662034],[137.82401724798277,36.707546416236916],[137.8239371605403,36.707275571752525],[137.8238157896878,36.70707403743331],[137.8237106,36.7069473],[137.823551,36.7068492],[137.8233752,36.7067754],[137.8230397,36.7066633],[137.82295574763245,36.70652592759769],[137.82296241356863,36.70639729303599],[137.82301462434657,36.706314782392674],[137.82310873038585,36.70631064336227],[137.8232201344824,36.70634714879262],[137.82327932780385,36.706401788331796],[137.82328797683195,36.70646829387809],[137.8233245560367,36.70657958312388],[137.8234496086136,36.706621805239166],[137.82368638189666,36.706692017113035],[137.82386666161247,36.70674567262765],[137.82413073185438,36.70692248283415],[137.82444443187117,36.70710917525937],[137.82486985259447,36.707301465598526],[137.82507357754312,36.70753294129072],[137.82530872394142,36.707775612673],[137.8255024047687,36.70798681681103],[137.82559134743923,36.70815883597486],[137.82577621531894,36.708446895977325],[137.82585119289945,36.70863990693671],[137.82591918793753,36.70891128713431],[137.82597837002618,36.70928051593051]],"type":"LineString"}},{"type":"Feature","properties":{"@id":"way/454576767","name":"北尾根急斜面_上部"},"geometry":{"coordinates":[[137.81959423619867,36.709854178349836],[137.81994506896413,36.70977965280031],[137.82022997686056,36.70976728979375],[137.82074044479117,36.70985174860908],[137.8213187313485,36.70993281255255],[137.8217242246272,36.71003518799509],[137.82205613619863,36.71019249360373],[137.82230583041294,36.71039780818403],[137.8225018161669,36.71047374762817],[137.82274125263274,36.71052369583186],[137.82284800949765,36.710430712502],[137.8229268513221,36.710333999367464],[137.82307625014067,36.710189477150095],[137.82332189765742,36.710032617964046]],"type":"LineString"}},{"type":"Feature","properties":{"@id":"way/454576772","name":"HAPPO PARKS"},"geometry":{"coordinates":[[137.81881161874173,36.710156611467475],[137.8190686,36.7107857],[137.8193451,36.7112291],[137.8199185,36.7118023],[137.8210044,36.7127918],[137.8215450650077,36.71317859655855],[137.82205745251383,36.71348605337532]],"type":"LineString"}},{"type":"Feature","properties":{"@id":"way/454576778","name":"オリンピックII"},"geometry":{"coordinates":[[137.82123437241083,36.70293196762352],[137.82162837497236,36.70343002649954],[137.82223589441278,36.704036932624454],[137.8226316125151,36.704457590456606],[137.82297838335265,36.7050592],[137.8231597444693,36.7055206859479],[137.82345741810107,36.70591524188193],[137.82363222589214,36.706076735105285]],"type":"LineString"}},{"type":"Feature","properties":{"@id":"way/454576786","name":"セントラル_2"},"geometry":{"coordinates":[[137.82392595968642,36.70078004005059],[137.82409564018198,36.700971300148524],[137.8243565117792,36.70116123897368],[137.82460850287896,36.701286026374426],[137.82478655667367,36.701348083149355],[137.82511705667577,36.701375352969315],[137.82542620445122,36.701348487816986],[137.8257540119109,36.70132959616563],[137.8259372880891,36.701247335147706],[137.82618318206787,36.7010474874535],[137.826426806153,36.70075889981523],[137.82678877323335,36.700539197281785],[137.82710665824584,36.70027129826645],[137.82734724332428,36.70006374021504],[137.82760125379676,36.69993651352424],[137.82776607761855,36.69981049785307],[137.82813648952754,36.699742015562386],[137.82854313128374,36.69979445126236],[137.8288559998683,36.69986424764121],[137.82909428952956,36.70000419066258],[137.82912455078596,36.700106997679775],[137.8290515172788,36.70017767979323],[137.82873848573524,36.700113415540066],[137.8285619326585,36.70014554485661],[137.82840953674932,36.70024193649437],[137.82835732735913,36.700405803142374]],"type":"LineString"}},{"type":"Feature","properties":{"@id":"way/454576785","name":"セントラル"},"geometry":{"coordinates":[[137.82176688619532,36.70115250471321],[137.82215430264887,36.700548311122404],[137.82243570229713,36.70016367712226],[137.82265646819963,36.69997441615837],[137.823010862059,36.700173248282994],[137.8235693260305,36.7003765987492],[137.82399815920903,36.70040876323254],[137.82468509534064,36.70044561882366],[137.82518643497556,36.700475265360275],[137.82562714054504,36.700480765393856],[137.82610598575295,36.700469818847964],[137.82690464365294,36.700439476809734],[137.82747066191817,36.70044511862025],[137.82822722337602,36.700642899477586],[137.82897499246707,36.70092613579419],[137.82959219924854,36.70123514962394],[137.83009969910967,36.701461702404394],[137.83068958450258,36.70165093211345],[137.83184666298845,36.70185461017905]],"type":"LineString"}},{"type":"Feature","properties":{"@id":"way/154251354","name":"パノラマ林道"},"geometry":{"coordinates":[[137.81531991262725,36.69790462304349],[137.81512901586962,36.698020964577566],[137.814912,36.69813268305946],[137.81462268737104,36.69822486874622],[137.81444015597268,36.698237622893274],[137.81435759351496,36.69830209571351],[137.81436424982863,36.69837994004293],[137.81449098412855,36.698408502918355],[137.81473510904382,36.69845625146957],[137.81494246860157,36.69848340717262],[137.81512,36.698497],[137.815494,36.6985395],[137.8157414,36.6985523],[137.81620439317396,36.69855533143695],[137.81630459061353,36.69858826706141],[137.8163319,36.6986619],[137.816131,36.6987655],[137.815924721844,36.69884624276449],[137.8156981,36.6988998],[137.8153495,36.6989386],[137.815143,36.6989887],[137.8150359,36.6990565],[137.8150253,36.6990886],[137.8150431,36.6991619],[137.8151520257384,36.6991621452481],[137.815237,36.699138],[137.815293,36.69913],[137.815385,36.699117],[137.81565,36.699103],[137.81589580050942,36.69910798858038],[137.8160174710582,36.699106095037415],[137.8161001254066,36.69911352089393],[137.81616250827847,36.69915775094299],[137.8161263214846,36.69921250474318],[137.81599047105814,36.69926838400265],[137.81581316709,36.69931414440881],[137.81571142700975,36.69935764627426],[137.8156577495419,36.699411893402235],[137.81564392354954,36.69946726224525],[137.81566260101735,36.69950461982799],[137.8157303782298,36.69950597744968],[137.81584246017377,36.69948324256733],[137.81599467528036,36.69945608033349],[137.81619318565686,36.699462722718806],[137.8163963341814,36.69952135762247],[137.81672925300074,36.69974538013401],[137.816970854613,36.7000307748535],[137.817243,36.700232],[137.817638,36.700483],[137.81798184733026,36.700760393054786],[137.8181952264693,36.701066866668356],[137.81835494402495,36.70121997058718],[137.81858254452615,36.701369351530566],[137.81856815393746,36.70141535145892],[137.8185164471965,36.7014298543788],[137.81831001017994,36.70135598816366],[137.81809315013444,36.70128760709089],[137.8179973460637,36.70122610412671],[137.81789678117542,36.70107515909794],[137.8178280101821,36.70096330058388],[137.81776583715032,36.70086320814418],[137.81767605979832,36.700791534842175],[137.81764282888304,36.70079818368031],[137.81766470737583,36.700893202329304],[137.81769556742364,36.701046473701155],[137.81776339439176,36.70120536356926],[137.81785382950568,36.70141405679156],[137.8179875903189,36.701629848094086],[137.81817049108668,36.70179069338298],[137.81837482696807,36.70201379151107],[137.8186282824442,36.702232085946754],[137.8188282264693,36.70239869323371],[137.81909065649202,36.702493039829534],[137.81939971755588,36.702575490715816],[137.81969980407288,36.70265859503349],[137.82004893993496,36.70281349815372],[137.820373,36.702928]],"type":"LineString"}},{"type":"Feature","properties":{"@id":"way/454576782","name":"オリンピックII_迂回"},"geometry":{"coordinates":[[137.82117783590996,36.70278168783145],[137.8210982215076,36.70311657679083],[137.82086512194047,36.70332776274044],[137.82067842573252,36.70341585889028],[137.82050869596787,36.70340241795208],[137.82035611310582,36.703360232590306],[137.82010511048148,36.70324502188483],[137.81988189206814,36.703208559139576],[137.8196674072224,36.703197896418985],[137.8194635473097,36.70315366797185],[137.81933807039593,36.703133163600306],[137.81909453356928,36.703131359203695],[137.81914415127483,36.70317883286396],[137.81933034079336,36.703225516431985],[137.8194289,36.7032722],[137.8196823,36.7034759],[137.8199006368266,36.70369642389686],[137.82010722563572,36.70391703247926],[137.82030182563742,36.704075412950644],[137.82052385991602,36.704221881899635],[137.8207032631734,36.704309653792265],[137.8209087519843,36.70434134300978],[137.8210866,36.7043268],[137.8213825,36.7042824],[137.8214123447585,36.70435730214875],[137.82130874674183,36.70445352253225],[137.82117818555352,36.70452542357989],[137.8210175599144,36.70455851714099],[137.82092929055312,36.70458934717492],[137.82092443227367,36.70462493648007],[137.82099730431852,36.704648465405896],[137.82108472145194,36.70466951917088],[137.82122080237156,36.70470172008715],[137.82130471338232,36.704771736442225],[137.8213467,36.7048368],[137.82132573858297,36.704886702121144],[137.82126306535483,36.70491616782473],[137.82107819212183,36.70487144141038],[137.82090973070729,36.70480916716748],[137.8208088078781,36.7047584514847],[137.82069722126047,36.70474015718283],[137.820689,36.70480515715094],[137.820772,36.704881],[137.82093430238623,36.705020857755855],[137.82104913880283,36.70513942886864],[137.82113851988078,36.70519812785256],[137.8212410288602,36.705244650237674],[137.82130965735405,36.705270697245],[137.8213319551669,36.70531160195814],[137.82127229531008,36.70532842432591],[137.82118483704335,36.7052969591841],[137.82111472798397,36.7052634092122],[137.8209913386357,36.70521128708649],[137.82094075198816,36.705178000250825],[137.820867,36.705167],[137.820837,36.705211],[137.820889,36.705271],[137.8209862338632,36.70534221538912],[137.82108810079376,36.70538742979342],[137.82122310079393,36.70547891626869],[137.82135208744262,36.705559673419096],[137.82143184340555,36.70557281664631],[137.82163008463488,36.70553849916296],[137.8218753870679,36.70543710647789],[137.82207916766964,36.70532147208666],[137.82219928390953,36.70523518327029],[137.82228241650168,36.705210911941684],[137.82235874271802,36.70521307532133],[137.82234685388914,36.70527585044135],[137.82226625437318,36.705383118719126],[137.82218175437248,36.7055183778009],[137.8220998970913,36.70561973742529],[137.8221078407803,36.705676887113036],[137.82217447670251,36.70567821164849],[137.8222411126247,36.705615974852634],[137.82231146456385,36.70553359971683],[137.82242674271802,36.70545546204184],[137.82247830096964,36.70546780588634],[137.82252461359428,36.7055081],[137.82249362621775,36.705615768415555],[137.82242156893713,36.705725130969476],[137.82223483981062,36.70590288705167],[137.8221320762163,36.70598610536899],[137.82202931262478,36.70605661142816],[137.82196845679715,36.70609499555452],[137.8219551699053,36.70612490488306],[137.82196870631097,36.70617659183813],[137.82200866990533,36.70618166744186],[137.82216568964643,36.70616408219503],[137.82238476646262,36.70607550889131],[137.82259229055768,36.70602229402851],[137.8231542582272,36.70589516922608]],"type":"LineString"}},{"type":"Feature","properties":{"@id":"way/454576782","name":"パノラマ"},"geometry":{"coordinates":[[137.81620402964586,36.697981635324275],[137.81651147503155,36.69824374572317],[137.81707061586576,36.69875562625794],[137.8177129068911,36.699389965789344],[137.8184272704801,36.70008144076667],[137.81903607503148,36.70068928407463],[137.82012013016055,36.70186825177387],[137.8208465637355,36.70253265676981]],"type":"LineString"}},{"type":"Feature","properties":{"@id":"way/454576793","name":"ウスバ迂回路"},"geometry":{"coordinates":[[137.81888220011896,36.698575716187115],[137.8189416715561,36.69822942720141],[137.819076,36.6980707],[137.8191636,36.697964],[137.8193586,36.6978099],[137.8195351,36.6977114],[137.81978548574486,36.697680081093395],[137.81992273640333,36.69767547479979],[137.82019039418793,36.697655384254276],[137.8205542,36.6975925],[137.8208329266448,36.6975833],[137.8209471,36.697565],[137.8213176532881,36.69756110943211],[137.8215331328135,36.6976125],[137.82162018672193,36.69769975850039],[137.82155196015754,36.697789201237946],[137.82142031992112,36.69791135625019],[137.8213922,36.6980073],[137.82147927421812,36.69803621122048],[137.8215609,36.6980127],[137.82172651328216,36.69795287697964],[137.82188395390705,36.697860289913294],[137.8220093085939,36.69778123145005],[137.82207799961003,36.697741277377276],[137.82217913218304,36.69773021031709],[137.8222093476594,36.697793062899315],[137.82219993398735,36.69796361459287],[137.82218433027583,36.69811878701951],[137.82214965703304,36.69822808984201],[137.8222489,36.6982398],[137.822377,36.6981641],[137.82246754531315,36.69804406853555],[137.82257443593804,36.69791748427138],[137.82270832656437,36.69779949435037],[137.8228315019549,36.697707886796394],[137.8228892960957,36.697699281762226],[137.82299766992395,36.69771746259204],[137.8230379382843,36.69781864598256],[137.8229972566439,36.69793044716269],[137.82295385078243,36.69803351122222],[137.82299138437583,36.698129515734486],[137.8230987,36.69811],[137.8232539,36.6980614],[137.8235169,36.6979099],[137.8236046,36.6977964],[137.82373227500207,36.69758600704664],[137.8237575601577,36.6973992942849],[137.82385159687402,36.6971798],[137.82404655078253,36.69708237852404],[137.8242981695327,36.696969423962265],[137.82460687578183,36.69692060242747],[137.82503240234482,36.69684568331775],[137.825796,36.696714],[137.8263281138375,36.69673348376054],[137.8269510148834,36.69680071623661],[137.8275572,36.6968553],[137.8278945,36.6968121],[137.8281643,36.69660557482012],[137.82830731814036,36.69649644951457],[137.82836276303777,36.69632794779425],[137.82829979002054,36.69606618632166],[137.82823441723176,36.695818977785734],[137.8281952446703,36.695595214303054],[137.82822555396683,36.69552960118478],[137.8283057902477,36.6955415741272],[137.8284257360537,36.69568347167215],[137.82848303605363,36.69585192652658],[137.82852022675698,36.69598064152024],[137.82860783605364,36.69608003395755],[137.8287630087288,36.696141794903525],[137.82890858497697,36.696234464675726],[137.82899750909004,36.696257784850324],[137.82906822015542,36.69623878904083],[137.82905001264515,36.696180268839555],[137.8289393031572,36.69610260908555],[137.82881870908778,36.69602268054063],[137.82875243320058,36.69591104024436],[137.82879084624366,36.69579347686144],[137.82882523122296,36.69568812057997],[137.8288319422883,36.69555421315038],[137.828817490512,36.69539234452038],[137.82881468102178,36.695301516244456],[137.8288732996009,36.6952421024931],[137.8289251237104,36.69528801623474],[137.8289808383355,36.69543420407703],[137.8290500126451,36.69558756803301],[137.82907291165628,36.69570489382707],[137.8290775666968,36.69575266083264],[137.82912519065974,36.69579833607541],[137.829213581422,36.69580950772097],[137.8293873703543,36.69577022450974],[137.8295317166003,36.695752733020406],[137.82962851758919,36.69577345106728],[137.82968002213536,36.69585228046391],[137.82970562015532,36.69594642780303],[137.8297173729241,36.696068506984666],[137.82978801106532,36.69615608258463],[137.8299073741106,36.69621416067416],[137.83005165019893,36.69628676646056],[137.83013069123706,36.696392619752274],[137.83017502630273,36.696501951506896],[137.8302250733165,36.6966622790201],[137.83029811016397,36.69683395511567],[137.83042482210897,36.696962559202795],[137.83063745387665,36.69707133063949],[137.83099822901366,36.69727340758801]],"type":"LineString"}},{"type":"Feature","properties":{"@id":"way/822608906","name":"おむすび"},"geometry":{"coordinates":[[137.81299632752987,36.701024565944905],[137.8147295793346,36.70067707649207],[137.81633072832776,36.70061245302666],[137.8174240210497,36.70081382469956]],"type":"LineString"}},{"type":"Feature","properties":{"@id":"way/454576761","name":"裏黒_下部"},"geometry":{"coordinates":[[137.80851158150008,36.70179016161537],[137.80887638671794,36.70212886311728],[137.8093628311943,36.702700915867936],[137.809816,36.703555],[137.8101147,36.704027],[137.8103279,36.7044989],[137.81041319203817,36.70478043619427]],"type":"LineString"}},{"type":"Feature","properties":{"@id":"way/454576784","name":"兎平ゲレンデ_1"},"geometry":{"coordinates":[[137.8101044467979,36.69784211172779],[137.81127219846718,36.69770018863212],[137.81282427588792,36.69758874416431],[137.81342940098267,36.69754079547456],[137.81410711351896,36.69740560656097],[137.8146932726071,36.69735198660669]],"type":"LineString"}},{"type":"Feature","properties":{"@id":"way/822608907","name":"兎平ゲレンデ_うさぎ新コース"},"geometry":{"coordinates":[[137.80918657242705,36.69860975336223],[137.80991133294546,36.69869409424987],[137.81023472665106,36.69880375371651],[137.81042137560485,36.69883984831395],[137.81065922219827,36.69881094763373],[137.81091816561116,36.6988329925057],[137.81123683960675,36.698916611846464],[137.81173909737632,36.6989365322562],[137.81214620826665,36.698795098614944],[137.81257794789536,36.69868657666662],[137.8129968821082,36.69868465414919],[137.8133858137664,36.69864852352102],[137.81387872563457,36.69856507839003],[137.81453168952095,36.69850568901951]],"type":"LineString"}},{"type":"Feature","properties":{"@id":"way/454576787","name":"リーゼンスラローム"},"geometry":{"coordinates":[[137.80636743569113,36.69812044334662],[137.8073055,36.69799626743253],[137.8086239,36.6978586],[137.80929730010507,36.69774004746466],[137.81070051257967,36.69744406498355],[137.8121531580924,36.69707847734821],[137.8128216069713,36.696972999989455],[137.81338,36.6969403],[137.8139307216463,36.69692361916378],[137.8148969213312,36.69691598299419],[137.815261,36.6969013],[137.8155564,36.6968653],[137.81607333933235,36.696873395979004],[137.81660361964612,36.69691139194248],[137.81774393277118,36.69710919822762],[137.81852440820975,36.69728710680487],[137.81924173038385,36.69741678710382],[137.82007072632143,36.69748677385496],[137.82099443713645,36.69740090795908],[137.82194267338318,36.69721671924336],[137.82352031526915,36.696750018452626],[137.82473641189526,36.69654947960284],[137.82592820588013,36.696524315794946],[137.8263972149436,36.696530657989896],[137.8269634345712,36.69665391702603],[137.82816878174643,36.69716349663179],[137.82952777474492,36.69758757270469],[137.83046754337266,36.69786073154357],[137.83109883307017,36.69796239383206],[137.83144166256903,36.697820511254974],[137.83174690318614,36.69763342050949],[137.83191431791204,36.69746642228049],[137.8319202446695,36.6972127957293],[137.83199508437085,36.6969390768153],[137.83228572207383,36.69664279630635],[137.83267659678933,36.69646707267652]],"type":"LineString"}},{"type":"Feature","properties":{"@id":"way/154251357","name":"スカイライン_林間コース"},"geometry":{"coordinates":[[137.81059599879305,36.70137842249425],[137.8108007148587,36.70144425853318],[137.81112308254262,36.70150801570039],[137.8112856135579,36.70154839688099],[137.8114481445732,36.70152926896079],[137.81189932841664,36.701476139710074],[137.81217555778093,36.70142301052707],[137.81232404952476,36.701376258582066],[137.812472954479,36.701290503986975],[137.81259969834898,36.70109701622446],[137.81269919009426,36.701063010842994],[137.812818,36.701072],[137.81285444364548,36.701123642708126],[137.8128436397219,36.701223348298264],[137.8128177838323,36.70130426961028],[137.812745,36.701446763964164],[137.81258331825384,36.70178842469654],[137.81239910016,36.702027663558376],[137.81224285460425,36.702144468531664],[137.8120241453973,36.70224589292781],[137.81179878190616,36.70229099038155],[137.81146856381108,36.70236446833217],[137.81115746365106,36.702427087784066],[137.810787,36.702478],[137.81064571809515,36.702530380478215],[137.81054814539587,36.702578380475444],[137.81044192730212,36.70270456563405],[137.810379,36.702791],[137.81041592730207,36.70304698947339],[137.810449,36.703181],[137.81043614539587,36.70340671743477],[137.81039997366528,36.703609010287266],[137.81037781575762,36.703734362705994],[137.81037123680628,36.703909657657015],[137.81040921047168,36.704162715373734],[137.81043663151863,36.70435790182482],[137.81046982885405,36.70451712370436],[137.81049850268556,36.704681668682355],[137.8104949278618,36.70480312360882],[137.81041176209098,36.704891421342225],[137.81031754681626,36.704944474678626],[137.8102625026875,36.70503835373281],[137.8102856711448,36.705128592204844],[137.81039501612332,36.705196847617614],[137.81048334766496,36.70513005583908],[137.81057425940554,36.7050174044325],[137.81066384497746,36.704866752843095],[137.81074067920673,36.70470262911413],[137.81083409363458,36.704481702323065],[137.81092643054942,36.704292],[137.8109772647786,36.70415973571532],[137.81103034228983,36.703903297565915],[137.8110701711459,36.70373738841693],[137.81110223422917,36.70365170498221],[137.811161,36.7035843],[137.8112489,36.7035736],[137.8113529,36.7035839],[137.811445371146,36.703648816515],[137.81147308825953,36.703773164442886],[137.811404,36.703841],[137.81133668557402,36.70393454535277],[137.8112852909471,36.70405622144236],[137.8112523198012,36.70429794283272],[137.81124448557193,36.70448492604095],[137.81122623691672,36.704717583183246],[137.81117665134474,36.70499420666236],[137.81114048557197,36.705192032236866],[137.8111086684584,36.705369876751284],[137.811074,36.705481],[137.81104463960233,36.705632202086356],[137.8110093855719,36.705798189047925],[137.81102790537517,36.7059912808042],[137.81108997114595,36.70643014038402],[137.81110288825948,36.70663998263371],[137.81109186825492,36.70679769346468],[137.81110086825493,36.70691838685269],[137.81112491853395,36.707051579998385],[137.8112158,36.707051694809756],[137.81128511464846,36.706985577008155],[137.81130785172044,36.70686344714558],[137.81130427413981,36.7067308851475],[137.8113198,36.706575],[137.81137219977663,36.7064115559026],[137.811438,36.706141],[137.81152439044322,36.70597192357196],[137.8116607808839,36.70573991691049],[137.8118078639993,36.705506844316695],[137.81192183199838,36.7053588038129],[137.8120694319984,36.70523919490678],[137.812197950888,36.70519790637357],[137.8123318753295,36.705196014024196],[137.81250147155362,36.70525562037942],[137.812599,36.7052984],[137.8127656,36.7053527],[137.8130614,36.70550701371709],[137.81327884367644,36.705593276834456],[137.81353629602944,36.70569841462227],[137.81381445955742,36.705727501958314],[137.81405615558683,36.70572788934222],[137.81434455161624,36.7056258641619],[137.81454901264993,36.705499741178144],[137.81486250397063,36.70536128323114],[137.81521452308542,36.70521841264967],[137.81555687940894,36.705075237975734],[137.81573985955743,36.70496233799279],[137.8158437873502,36.704838373297136],[137.81588481985295,36.70469642680927],[137.81603850397056,36.70464272684477],[137.81616602382215,36.704670714134544],[137.8162042317647,36.70477555070287],[137.8161655674986,36.70486923801253],[137.81596200794124,36.705078713933844],[137.81573182611402,36.705309750004695],[137.81542758694297,36.70554466646729],[137.81514276082734,36.70573379141468],[137.8148871085992,36.70595531216387],[137.81464994331378,36.70620049114838],[137.81434503471334,36.70631764930243],[137.81393776942798,36.706449190993766],[137.8137263477703,36.70651574915513],[137.8133922391726,36.70658487454958],[137.81300709220147,36.70667480989603],[137.81304604819314,36.70691046196799],[137.81329057205954,36.70727247846932],[137.8137038871223,36.70798436832823]],"type":"LineString"}},{"type":"Feature","properties":{"@id":"way/454576763","name":"黒菱ゲレンデ_黒菱第3リフトエリア"},"geometry":{"coordinates":[[137.8055942810984,36.69909839699867],[137.8058061,36.6991822],[137.80672940016154,36.699640426051396],[137.8078225189035,36.70015994181072],[137.80838013101658,36.70049616217391],[137.80910127463687,36.70089551004095]],"type":"LineString"}},{"type":"Feature","properties":{"name":"黒菱ゲレンデ_黒菱第2リフトエリア"},"geometry":{"coordinates":[[137.80835248035999,36.698351357463636],[137.80971261914704,36.70041035239345],[137.8102960963783,36.70121255170666]],"type":"LineString"}},{"type":"Feature","properties":{"@id":"way/454576761","name":"リーゼングラート"},"geometry":{"coordinates":[[137.79901895856293,36.69709013625365],[137.79914607976957,36.697212647930414],[137.79923741024035,36.697311755945414],[137.79936360809478,36.697354630132224],[137.7999008,36.6973218],[137.8007959665535,36.697350733097494],[137.80166218261544,36.69745372503855],[137.80279999206073,36.69752787099877],[137.80360970618545,36.69769268223592],[137.80410485070038,36.69778495889351],[137.80489838270665,36.69792867681072],[137.80580296545693,36.69793883425729]],"type":"LineString"}},{"type":"Feature","properties":{"@id":"way/454576768","name":"スカイライン_本コース"},"geometry":{"coordinates":[[137.81033199533292,36.70137590968057],[137.8105715,36.7019998],[137.8108594436326,36.70250323586158],[137.81137757792783,36.70331674001476],[137.81192934952472,36.70430861824344],[137.81228727926282,36.70488300245226],[137.81245244247492,36.705286001176596],[137.8130267945492,36.706089132299766],[137.81330505409218,36.70654966658273],[137.81359929195662,36.7069684506008],[137.81399747572868,36.70727056693485],[137.81454949736622,36.707490966554424],[137.81520059195716,36.70761736642966],[137.81596855687016,36.707710666246236]],"type":"LineString"}},{"type":"Feature","properties":{"@id":"way/454576764","name":"スカイライン_尾根筋コース"},"geometry":{"coordinates":[[137.8108477103516,36.70152149762574],[137.8111035,36.7017598],[137.8113126,36.7019653],[137.81178657929954,36.702363994996425],[137.81211492070054,36.70274515338974],[137.81250602404327,36.70299730201118],[137.812788518787,36.703105900930964],[137.81307101352954,36.703305246105515],[137.813377258599,36.70355890471307],[137.81380267921907,36.70385730205419],[137.81408404474385,36.704180447708],[137.81455435159032,36.70450289514289],[137.8149212,36.7047395],[137.815335,36.704917],[137.815951,36.705039],[137.8165805,36.7053343],[137.8173427,36.7056534],[137.8174978,36.7057291],[137.817626,36.7058156],[137.8177345632439,36.70596340061565],[137.81771663690537,36.706152002116525],[137.81767317901753,36.70630100207946],[137.81758254211414,36.706469803045316],[137.81739285788592,36.70666570167339],[137.8171912211317,36.70684780110845],[137.81697234226138,36.707032201107246],[137.81650648482312,36.70733949918741],[137.81619515773676,36.70750499845072]],"type":"LineString"}},{"type":"Feature","properties":{"@id":"way/454576762","name":"裏黒_上部"},"geometry":{"coordinates":[[137.80541778688573,36.69927752377151],[137.8055633,36.6994147],[137.8057589,36.6997879],[137.8061838,36.7002205],[137.8068044,36.7006856],[137.80741222084774,36.701065989684295],[137.80798034192398,36.70138269248372],[137.80851158150008,36.70179016161537]],"type":"LineString"}},{"type":"Feature","properties":{"@id":"way/454576769","name":"グランピングエリア"},"geometry":{"coordinates":[[137.81370778993863,36.70805487615396],[137.81360575840986,36.708574678138106],[137.8137585,36.7087728],[137.8147231,36.7090973],[137.8162407,36.709492],[137.81725590337751,36.709573789759425],[137.81758059005475,36.709637537167666],[137.81829746940676,36.70980823376939],[137.8188300699004,36.70995376993729]],"type":"LineString"}},{"type":"Feature","properties":{"@id":"way/454576777","name":"オリンピックI"},"geometry":{"coordinates":[[137.8230135731413,36.70075287892891],[137.82429138285536,36.70254092753599],[137.82467332761928,36.70309346167441],[137.82509987507288,36.703691286090866],[137.8254133819844,36.703898999143036],[137.82583045345467,36.704058097479674],[137.82632946095822,36.704100685834796],[137.82681300945288,36.70418732484568],[137.827794289488,36.704546996015594],[137.8288506,36.7049875],[137.8303040069093,36.705639296523685],[137.83116706657546,36.705915438735715]],"type":"LineString"}},{"type":"Feature","properties":{"name":"展望"},"geometry":{"coordinates":[[137.806623280667,36.69756332862215],[137.8068749095865,36.69760546406995],[137.80712920503527,36.69765972888332],[137.80777053333657,36.69771849652528],[137.80826527231147,36.69775155330446],[137.8087371067026,36.697795628987606]],"type":"LineString"}},{"type":"Feature","properties":{"name":"無名_1","@id":""},"geometry":{"coordinates":[[137.82126611548273,36.70273200724206],[137.82155891188154,36.70263013510724],[137.8216970233903,36.702457395090875],[137.8218682816618,36.70216506494883],[137.82206163777374,36.701793006795924],[137.82244834999898,36.7012969264573],[137.82264546933322,36.701025753076294]],"type":"LineString"}},{"type":"Feature","properties":{"name":"北尾根急斜面_下部"},"geometry":{"coordinates":[[137.82332189765742,36.710032617964046],[137.8234219073691,36.70996229492053],[137.82364504092084,36.70980044191184],[137.8239220233978,36.709753504609],[137.82429776440898,36.70978814387772],[137.8246440960931,36.70973926270979],[137.82499633453295,36.709666967297295],[137.82539837634573,36.70962119590523],[137.82601150883536,36.709464981965716]],"type":"LineString"}},{"type":"Feature","properties":{"name":"無名_2"},"geometry":{"coordinates":[[137.82744557520607,36.707288158424035],[137.8280912516073,36.7072487192881],[137.82870618151424,36.707155051259534],[137.82896445207496,36.70701701395642],[137.82923826907648,36.70691152641987],[137.82959782988672,36.70681981737174],[137.82984380185223,36.706775448074694],[137.83008977384657,36.70665219988858],[137.8305854230374,36.70645383930844],[137.83106705496635,36.706172554294184],[137.83158130815326,36.70581956833078],[137.8320113793158,36.70551631220832],[137.83213573681235,36.705291203191834],[137.83240172467055,36.70507563682697],[137.83270315759205,36.70493111322463],[137.83423735566186,36.70408751313951]],"type":"LineString"}},{"type":"Feature","properties":{"@id":"","name":"名木山ゲレンデ北"},"geometry":{"coordinates":[[137.83601417814674,36.69944931670271],[137.83721331560577,36.69951600657629],[137.8383500655694,36.69958269917964],[137.8387382256721,36.699593814143554],[137.83879367711455,36.699593814143554]],"type":"LineString"}},{"type":"Feature","properties":{"name":"白樺ゲレンデ南_下部"},"geometry":{"coordinates":[[137.8341358175809,36.70178857920547],[137.836319505188,36.70238613492356]],"type":"LineString"}},{"type":"Feature","properties":{"name":"国際 下部"},"geometry":{"coordinates":[[137.8314749325309,36.70600977790609],[137.83220265344102,36.70613608593533],[137.8325777673125,36.70614210061237],[137.83298289029324,36.706136085949396],[137.8333204927779,36.706124056622755],[137.8339581863592,36.706220291186895],[137.83437831389517,36.70640674531337],[137.83445333666884,36.706436818516934]],"type":"LineString"}},{"type":"Feature","properties":{"name":"無名_3"},"geometry":{"coordinates":[[137.83204069431815,36.701495625596095],[137.8321246824836,36.701019766362066],[137.83229265883324,36.70064715754566],[137.83262861153008,36.70045860780871],[137.8331582265705,36.700394947294924],[137.83362856034893,36.700345565105664],[137.83422767599478,36.700305161473324],[137.83489488499805,36.70022855405725],[137.83523643690762,36.70018366106268],[137.83548280222033,36.700075917767734],[137.8356731754169,36.699914302542396]],"type":"LineString"}}]}