{
  "type": "FeatureCollection",
  "features": [
    {
      "type": "Feature",
      "properties": {
        "@id": "way/454962224",
        "name": "稗田山林間"
      },
      "geometry": {
        "coordinates": [
          [137.87016399862935, 36.78291788125261],
          [137.87032547249237, 36.782703195525855],
          [137.87054746169795, 36.78245383674371],
          [137.87074861732646, 36.782232874620625],
          [137.87097472023433, 36.78197303368434],
          [137.8709946052951, 36.782009199475326],
          [137.8709354243722, 36.782306500505996],
          [137.87086976949962, 36.78252254828315],
          [137.87081313073094, 36.78267360599625],
          [137.87076123714246, 36.78294451934236],
          [137.870757830605, 36.78305831273944],
          [137.8707784670073, 36.78317210613653],
          [137.87081745428898, 36.78357984317645],
          [137.87094132406688, 36.78386469877907],
          [137.8709942428521, 36.78408415046213],
          [137.8711192904594, 36.7842458343478],
          [137.8712317867846, 36.78443203435975],
          [137.8713593099471, 36.78458453673305],
          [137.87162693678457, 36.784712962294954],
          [137.87212828141708, 36.784755671684465],
          [137.87243004498055, 36.78479628214285],
          [137.8726897334005, 36.78485855532735],
          [137.87286343678457, 36.784962262294954],
          [137.87297433678458, 36.78508536229496],
          [137.87306373678456, 36.78523436229496],
          [137.87327542266553, 36.78540165534481],
          [137.87344503340051, 36.78557857618427],
          [137.87352706898946, 36.78575794841592],
          [137.87359483678458, 36.78584436229495],
          [137.87366832704134, 36.785912716313234],
          [137.87374782803298, 36.7859112692311],
          [137.87388024413542, 36.78589829587651],
          [137.87402160796375, 36.78587560572344],
          [137.87415871333124, 36.78585282650713],
          [137.87425270474057, 36.78582894067195],
          [137.8742987057247, 36.78581146059446],
          [137.87425359619536, 36.785784680710286],
          [137.87418449145162, 36.785793132508914],
          [137.87404712068215, 36.78579167210304],
          [137.873925042152, 36.78576965822177],
          [137.8738256850919, 36.78573009289638],
          [137.87375058509193, 36.785647627583266],
          [137.87371308509185, 36.78544056229495],
          [137.87359701729804, 36.785143811006634],
          [137.87356263678456, 36.785015262294955],
          [137.87355262039006, 36.78480104472613],
          [137.87362675428767, 36.78450980416738],
          [137.87366929186135, 36.78427472038034],
          [137.87365940090365, 36.78419686903715],
          [137.87360127379904, 36.78413092023233],
          [137.8735036538787, 36.784094421135194],
          [137.87336148217813, 36.78406982313771],
          [137.8732223308704, 36.78404280611513],
          [137.8730981900821, 36.78396701574309],
          [137.87299089008195, 36.78389831560506],
          [137.87289136968917, 36.78380220125267],
          [137.87287646606813, 36.783738787981264],
          [137.87297170766277, 36.783755462083896],
          [137.87306090846906, 36.78381809787632],
          [137.8731486982532, 36.7838671697359],
          [137.87324696024064, 36.78387235335522],
          [137.87319641822484, 36.78379269797394],
          [137.87310771893752, 36.78368029917368],
          [137.8730090021972, 36.783597490318854],
          [137.87290424466977, 36.7834885882725],
          [137.8729005315236, 36.78341974691973],
          [137.87289681837746, 36.78331271719663],
          [137.87290813678456, 36.783249462294954],
          [137.87301751837757, 36.783122345431],
          [137.87314423873326, 36.78299870015555],
          [137.87328712766856, 36.782877617551264],
          [137.87338024558753, 36.782726812205894],
          [137.87359585747112, 36.782561145250455],
          [137.87373834093498, 36.78239846237125],
          [137.8737558046306, 36.78219718842998],
          [137.87394994713833, 36.78203319115104],
          [137.87416343678456, 36.781977662294956],
          [137.87428143678457, 36.78194336229495],
          [137.87462364250564, 36.781790654033685],
          [137.87492219318645, 36.781682185171405],
          [137.8751655942778, 36.78155443193106],
          [137.8752147430523, 36.781296859788796],
          [137.8752393174396, 36.78103248574721],
          [137.8753970045342, 36.78094970694825],
          [137.87559637349466, 36.78105750379336],
          [137.8756851011193, 36.781422937782956],
          [137.87572398650389, 36.781746064614026],
          [137.87562290378543, 36.781903240165725],
          [137.8754122525045, 36.78214817108345],
          [137.87567147508372, 36.78204228130978],
          [137.87602383093468, 36.78191006485608],
          [137.8761961369639, 36.78166758302973],
          [137.87635770753056, 36.7814788197268],
          [137.8767655417185, 36.78155335743241],
          [137.87712954848664, 36.78151820189353],
          [137.87732666411694, 36.78128740815437],
          [137.87751287678103, 36.7810447637401],
          [137.87762976345516, 36.7808258095295],
          [137.87773000938898, 36.78076182221886],
          [137.87780643151441, 36.78075780459211],
          [137.87775847290766, 36.78087578365226],
          [137.87773789700603, 36.78102063893641],
          [137.87766464613486, 36.781168028514784],
          [137.8775922849885, 36.78127102661459],
          [137.87759524352717, 36.78131502956248],
          [137.87768861462558, 36.78129886882489],
          [137.87778635119145, 36.781204923300365],
          [137.87783692117358, 36.78108026276675],
          [137.87794218609156, 36.78094842214453],
          [137.87802374745925, 36.78085796845876],
          [137.8780628264426, 36.78088497755289],
          [137.8779887724032, 36.78108384240454],
          [137.87792451817677, 36.781230977893756],
          [137.87787877745805, 36.78131885657406],
          [137.87784399519512, 36.781382558539875],
          [137.87786404147633, 36.781411683685874],
          [137.877955746243, 36.78139489874057],
          [137.87808838535386, 36.78122022786907],
          [137.87822617633063, 36.78103067152074],
          [137.87827007043074, 36.780991340380226],
          [137.87831185723965, 36.78098491660948],
          [137.8783008108698, 36.78104620950975],
          [137.87824016510626, 36.78121343734618],
          [137.87820266572638, 36.78133034616985],
          [137.87821532898585, 36.781416608443436],
          [137.87825638019274, 36.78147827811847],
          [137.87835695067344, 36.78155716214528]
        ],
        "type": "LineString"
      }
    },
    {
      "type": "Feature",
      "properties": {
        "@id": "way/454962188",
        "name": "はくのりファミリー"
      },
      "geometry": {
        "coordinates": [
          [137.86808019417873, 36.761408097893145],
          [137.8683139910221, 36.76149864773311],
          [137.8692683, 36.7617594],
          [137.8700515, 36.7619785],
          [137.87059626797742, 36.76211575979701],
          [137.8715123396889, 36.76239050984765],
          [137.8724630551052, 36.76264080730849],
          [137.87327160606813, 36.76285486346888],
          [137.8740909, 36.7630959],
          [137.87588497440493, 36.763551703971416]
        ],
        "type": "LineString"
      }
    },
    {
      "type": "Feature",
      "properties": {
        "@id": "way/454962189",
        "name": "スネーク（乗鞍）"
      },
      "geometry": {
        "coordinates": [
          [137.86954803654984, 36.765196734985416],
          [137.8697665331586, 36.76501564219144],
          [137.8701486462217, 36.76494486927466],
          [137.8705793758663, 36.764926952459795],
          [137.87118848740928, 36.76490747914081],
          [137.87147005455637, 36.764894097127346],
          [137.8716829702314, 36.7648406627778],
          [137.87186743693624, 36.76473708944928],
          [137.87222076064114, 36.76446469497202],
          [137.87240179372336, 36.76434853875463],
          [137.87266413603095, 36.764310547075006],
          [137.87338826836339, 36.76436701899705],
          [137.87411805054478, 36.764418842396374]
        ],
        "type": "LineString"
      }
    },
    {
      "type": "Feature",
      "properties": {
        "@id": "way/454962190",
        "name": "エキスパート"
      },
      "geometry": {
        "coordinates": [
          [137.86897688871912, 36.76511009055752],
          [137.86907558260623, 36.76465276120466],
          [137.86942087591046, 36.76443306778086],
          [137.86968169678553, 36.76423806152048],
          [137.87005642578418, 36.76415061325999],
          [137.8703063, 36.7641123],
          [137.87087799678548, 36.76408572609002],
          [137.87128311290803, 36.764121168197356],
          [137.8716796, 36.7641552],
          [137.87234057738678, 36.76431494135711]
        ],
        "type": "LineString"
      }
    },
    {
      "type": "Feature",
      "properties": {
        "@id": "way/454962191",
        "name": "カモシカ（乗鞍）"
      },
      "geometry": {
        "coordinates": [
          [137.8688590891606, 36.76543262685081],
          [137.86916157241262, 36.76534925205251],
          [137.86945455060444, 36.765326792778225],
          [137.8706684, 36.7655798],
          [137.87106843734935, 36.76560027931514],
          [137.87169021710847, 36.76540521338486],
          [137.8722491848193, 36.76524240606977],
          [137.87320104746988, 36.76513805062449],
          [137.8744074, 36.7646215],
          [137.87555626660523, 36.76420771221968]
        ],
        "type": "LineString"
      }
    },
    {
      "type": "Feature",
      "properties": {
        "@id": "way/454962192",
        "name": "ハイウェイ"
      },
      "geometry": {
        "coordinates": [
          [137.8655428933699, 36.76742994500154],
          [137.86592334597142, 36.76714849648929],
          [137.8671485783556, 36.7664171805046],
          [137.86790049051987, 36.765945890297424],
          [137.86843252969962, 36.76561069032819],
          [137.86859274454838, 36.7655906],
          [137.8687506, 36.765625],
          [137.8689759, 36.7657324],
          [137.8699264702991, 36.766030109945646],
          [137.870922920292, 36.76621854026227],
          [137.87145577428325, 36.76624984842856]
        ],
        "type": "LineString"
      }
    },
    {
      "type": "Feature",
      "properties": {
        "@id": "way/454962193",
        "name": "ラビット（乗鞍）"
      },
      "geometry": {
        "coordinates": [
          [137.8661831418345, 36.77014459073093],
          [137.8669709189731, 36.76957102176499],
          [137.86780845007758, 36.769056923666184],
          [137.86904096080758, 36.7684993884813],
          [137.86933868376792, 36.76817055324754],
          [137.86940234240666, 36.7678208946686],
          [137.8694412337686, 36.767466351850295],
          [137.8695740057593, 36.76733742412303],
          [137.87092396570412, 36.7667635893295],
          [137.87351302685892, 36.765629674099465],
          [137.87593283732875, 36.76461892541154]
        ],
        "type": "LineString"
      }
    },
    {
      "type": "Feature",
      "properties": {
        "@id": "way/454962194",
        "name": "若栗中央ゲレンデ"
      },
      "geometry": {
        "coordinates": [
          [137.8691246969484, 36.76854926356013],
          [137.870309, 36.7681067],
          [137.87125791164635, 36.76771067156902],
          [137.87323291220846, 36.766640570147594],
          [137.8750197045785, 36.76573910071457],
          [137.8762783431333, 36.76509100224459]
        ],
        "type": "LineString"
      }
    },
    {
      "type": "Feature",
      "properties": {
        "@id": "way/454962200",
        "name": "若栗林間"
      },
      "geometry": {
        "coordinates": [
          [137.87092597497426, 36.770614439176896],
          [137.87130659496657, 36.770303877449635],
          [137.87178282730684, 36.769906982546814],
          [137.87279789496657, 36.76902221803773],
          [137.87442964361517, 36.76759574788097],
          [137.8749116, 36.7671527],
          [137.8757272437428, 36.76645331230988],
          [137.8760704, 36.766117],
          [137.8765049, 36.7657217],
          [137.87671646250044, 36.765481448565296]
        ],
        "type": "LineString"
      }
    },
    {
      "type": "Feature",
      "properties": {
        "@id": "way/454962201",
        "name": "スカイビューゲレンデ"
      },
      "geometry": {
        "coordinates": [
          [137.87505489210892, 36.7774612934954],
          [137.8748327627325, 36.77696393527478],
          [137.87464768149857, 36.776524396624076],
          [137.8744335145886, 36.776114685528064],
          [137.8740629439665, 36.775680901228384],
          [137.873725069032, 36.775330751539045],
          [137.87356951903186, 36.77514228886326],
          [137.87337047334154, 36.77474360499015],
          [137.8731943785145, 36.77446276315061],
          [137.8729937419767, 36.774176047753414]
        ],
        "type": "LineString"
      }
    },
    {
      "type": "Feature",
      "properties": {
        "@id": "way/454962202",
        "name": "里見若栗アクセスライン"
      },
      "geometry": {
        "coordinates": [
          [137.87501974464536, 36.77159851219479],
          [137.87461336206422, 36.77165984007232],
          [137.87431862232276, 36.77167086414054],
          [137.87389347812947, 36.7716535480975],
          [137.8736765, 36.7715712],
          [137.87365482983137, 36.771452589294555],
          [137.87365360860176, 36.771326183058434],
          [137.87374927335432, 36.77082429134532],
          [137.8737234936467, 36.770661816784475],
          [137.87366048853218, 36.77058283530637],
          [137.8739304590212, 36.77039645382659],
          [137.87423020983726, 36.77017727129169],
          [137.87453344713384, 36.769760273525115],
          [137.87470740102614, 36.76953388279502],
          [137.87494836065093, 36.76939695002745],
          [137.8756291, 36.7691391],
          [137.87623092827462, 36.76885820164287],
          [137.87658353687462, 36.76870098027817],
          [137.87713073687462, 36.76831343977763],
          [137.87749553687462, 36.76815236398897],
          [137.87772981638483, 36.76812816204653],
          [137.8779169683089, 36.7681246076916],
          [137.87831844831766, 36.768250472017904],
          [137.8786285298535, 36.76836020301279],
          [137.87888313393788, 36.76854491878497],
          [137.8790556347804, 36.76875564513745],
          [137.87922813562292, 36.76896637148994]
        ],
        "type": "LineString"
      }
    },
    {
      "type": "Feature",
      "properties": {
        "@id": "way/454962203",
        "name": "里見尾根"
      },
      "geometry": {
        "coordinates": [
          [137.87344004105594, 36.77335454062195],
          [137.87346436356825, 36.77352942413371],
          [137.87333921182426, 36.773738770072335],
          [137.8730963357326, 36.774009798683906],
          [137.8730263, 36.7740613],
          [137.87311245, 36.774093996004254],
          [137.87327528196462, 36.774048427945964],
          [137.8737946539598, 36.77375355814918],
          [137.87408731391918, 36.77359342201716],
          [137.874267230062, 36.77335945183718],
          [137.87426431391918, 36.77317527462274],
          [137.87421230062864, 36.77296057781334],
          [137.8741712572735, 36.772880616109155],
          [137.8743787601259, 36.77262306445799],
          [137.87456607404508, 36.77233616095967],
          [137.87502387986535, 36.771794764528096],
          [137.87535495989692, 36.77142351529551],
          [137.8756974999159, 36.771112111069804],
          [137.87608574436706, 36.77078875949852],
          [137.87644538530526, 36.77042769925975],
          [137.87661147560854, 36.770172720266636],
          [137.87700677061542, 36.76977493897299],
          [137.87734603780706, 36.76952812088306],
          [137.87745991733715, 36.76929881957403],
          [137.87767057218244, 36.76906543795455],
          [137.8779016820269, 36.768917077949986],
          [137.8782041, 36.768834],
          [137.8783328, 36.768834],
          [137.8787298, 36.7688855],
          [137.8788531, 36.7689328],
          [137.87917996077036, 36.76908860770599]
        ],
        "type": "LineString"
      }
    },
    {
      "type": "Feature",
      "properties": {
        "@id": "way/454962205",
        "name": "里見中央ゲレンデ"
      },
      "geometry": {
        "coordinates": [
          [137.87851062078454, 36.771283732192146],
          [137.8790329, 36.7708687],
          [137.88008005772593, 36.770166948482164],
          [137.8812125785821, 36.769606117552925],
          [137.88213005080752, 36.76916339179624],
          [137.88318260449566, 36.76871525615404],
          [137.8836167, 36.7685718]
        ],
        "type": "LineString"
      }
    },
    {
      "type": "Feature",
      "properties": {
        "@id": "way/454962215",
        "name": "わらび平ゲレンデ"
      },
      "geometry": {
        "coordinates": [
          [137.88126736619586, 36.775897876573765],
          [137.8812746759491, 36.77566571396361],
          [137.88127125338693, 36.77547321245984],
          [137.8813302, 36.7752956],
          [137.8818759676478, 36.77464344201833],
          [137.88224933004471, 36.77424388812805],
          [137.88250190975444, 36.7738231045797],
          [137.88291929095283, 36.77333193682062],
          [137.88327183983475, 36.77269782762719],
          [137.88360818194428, 36.77217127193203],
          [137.8839306210348, 36.77148608552884],
          [137.8843986, 36.7705947],
          [137.88462416016375, 36.77015155080538]
        ],
        "type": "LineString"
      }
    },
    {
      "type": "Feature",
      "properties": {
        "@id": "way/454962216",
        "name": "稗田山2"
      },
      "geometry": {
        "coordinates": [
          [137.8735303403881, 36.7792215438456],
          [137.87399812354118, 36.77932287555382],
          [137.87437072267812, 36.779401197651325],
          [137.87495926220325, 36.77955108791505],
          [137.87530694729992, 36.779726056963355],
          [137.87559506263514, 36.779829457990644],
          [137.8761415084234, 36.77990505210966],
          [137.87721671664335, 36.78011002128163],
          [137.8783738332867, 36.780464089491105],
          [137.87921572954477, 36.780872675964204]
        ],
        "type": "LineString"
      }
    },
    {
      "type": "Feature",
      "properties": {
        "@id": "way/454962217",
        "name": "稗田山尾根"
      },
      "geometry": {
        "coordinates": [
          [137.87105131698536, 36.7819000942171],
          [137.871126326823, 36.78178254542868],
          [137.87122346236933, 36.78158453991084],
          [137.87136952473682, 36.78124989772571],
          [137.87155153437175, 36.78107622859335],
          [137.87184748892707, 36.780818057493995],
          [137.87201480364405, 36.7806407588967],
          [137.8722443238252, 36.78046075814579],
          [137.87241054127665, 36.780321318397085],
          [137.8725394408204, 36.780095696814726],
          [137.8726599, 36.779924156757026],
          [137.8729013, 36.7796493],
          [137.8730837, 36.7794989],
          [137.8733144, 36.7792454],
          [137.87361807864414, 36.778885675642684],
          [137.87372762890732, 36.778667918102656],
          [137.87400159180123, 36.778229023690244],
          [137.87426659316893, 36.778012161845126],
          [137.87467508072854, 36.777798680212264],
          [137.8749897027335, 36.77765542416171],
          [137.87532971471686, 36.777386057020315]
        ],
        "type": "LineString"
      }
    },
    {
      "type": "Feature",
      "properties": {
        "@id": "way/454962218",
        "name": "ジャイアント"
      },
      "geometry": {
        "coordinates": [
          [137.8820152178601, 36.785367493896864],
          [137.8818933996847, 36.785092651235885],
          [137.88178717993696, 36.784815335172446],
          [137.8817059009438, 36.784493268488625],
          [137.8816397899696, 36.78421721023315],
          [137.88151271974772, 36.78390046668765],
          [137.88126647867782, 36.78355852024387],
          [137.88103704012622, 36.78321736356804],
          [137.88098171034466, 36.78297172175631],
          [137.8809721, 36.7826976],
          [137.88088457962158, 36.78230001513756],
          [137.88074625987386, 36.7819919393282],
          [137.88048000924314, 36.78160204775473],
          [137.8801426394954, 36.78104533991839]
        ],
        "type": "LineString"
      }
    },
    {
      "type": "Feature",
      "properties": {
        "@id": "way/454962219",
        "name": "カモシカ（コルチナ）"
      },
      "geometry": {
        "coordinates": [
          [137.89033229158184, 36.77935148523583],
          [137.89017150362113, 36.77901193275512],
          [137.88991594735245, 36.77872656524874],
          [137.8895672, 36.7784194],
          [137.88883847979795, 36.777898787363114],
          [137.88812296625548, 36.77739395284415]
        ],
        "type": "LineString"
      }
    },
    {
      "type": "Feature",
      "properties": {
        "@id": "way/454962220",
        "name": "板平尾根"
      },
      "geometry": {
        "coordinates": [
          [137.8797435, 36.7865543],
          [137.8804622, 36.7864702],
          [137.880633, 36.7863604],
          [137.8811529, 36.7859096],
          [137.88179170062853, 36.78554650508732],
          [137.88253924315524, 36.785303626783666],
          [137.883246478367, 36.785149522648105],
          [137.88413509649854, 36.78502770009701],
          [137.8849431, 36.7849543],
          [137.88576449634246, 36.784618821619134],
          [137.88663627682868, 36.784464928543414],
          [137.88715814572942, 36.78439374346783]
        ],
        "type": "LineString"
      }
    },
    {
      "type": "Feature",
      "properties": {
        "@id": "way/454962221",
        "name": "稗田山1"
      },
      "geometry": {
        "coordinates": [
          [137.87182925533088, 36.784680922766604],
          [137.8719472419803, 36.784205004328534],
          [137.87182602548103, 36.783863864292776],
          [137.87195991936034, 36.78364546367909],
          [137.87214193462245, 36.78354713613986],
          [137.87246823718468, 36.783473571543794],
          [137.87287521870894, 36.78337403579696],
          [137.8734975121303, 36.78330006789848],
          [137.87424348038073, 36.78296608802531],
          [137.87486003741333, 36.78263435521787],
          [137.8754548, 36.7824871],
          [137.876104396769, 36.78242348163307],
          [137.87661213083817, 36.78238341803478],
          [137.87710955866956, 36.78234748164664]
        ],
        "type": "LineString"
      }
    },
    {
      "type": "Feature",
      "properties": {
        "@id": "way/454962222",
        "name": "板平"
      },
      "geometry": {
        "coordinates": [
          [137.8746155307906, 36.78586763195578],
          [137.8749172769766, 36.785339922511234],
          [137.87524191553607, 36.784928328810835],
          [137.87565375804772, 36.7847016186785],
          [137.875981661861, 36.78436490217666],
          [137.8763995, 36.783728],
          [137.87712120790786, 36.78304849254046],
          [137.87748045339364, 36.782632603663906]
        ],
        "type": "LineString"
      }
    },
    {
      "type": "Feature",
      "properties": {
        "@id": "way/454962223",
        "name": "板平林間"
      },
      "geometry": {
        "coordinates": [
          [137.8797636, 36.7866815],
          [137.8795447309426, 36.78680725175926],
          [137.87928403452872, 36.78696650183246],
          [137.8789725, 36.7870363],
          [137.87864910358607, 36.78710706716966],
          [137.8781279, 36.7873165],
          [137.8777848, 36.7873783],
          [137.8774180575478, 36.78733395159459],
          [137.87707362301919, 36.7873208679889],
          [137.87672286905496, 36.78734613559514],
          [137.87642963273325, 36.78730985158745],
          [137.87608062660274, 36.78727356757975],
          [137.8753975, 36.7874209],
          [137.87524252301912, 36.78735300159887],
          [137.8750981, 36.7872289],
          [137.87484202301914, 36.787086317923446],
          [137.8745971, 36.7869884],
          [137.8745167, 36.786911],
          [137.8745033, 36.7868237],
          [137.87455193094254, 36.786657030872554],
          [137.87455152660513, 36.78650239769344],
          [137.87462641150952, 36.78635223106876],
          [137.87470359065912, 36.78617129995172],
          [137.87473894245227, 36.78601270112955],
          [137.8746218424522, 36.78588196757164],
          [137.87448452518782, 36.78581531928204],
          [137.87433047698087, 36.78578440291466]
        ],
        "type": "LineString"
      }
    },
    {
      "type": "Feature",
      "properties": {
        "@id": "way/454962225",
        "name": "一本松"
      },
      "geometry": {
        "coordinates": [
          [137.88190074083056, 36.77639223628136],
          [137.88245925501082, 36.776277429944564],
          [137.88315505071498, 36.77618167894394],
          [137.88383894196005, 36.77609731550592],
          [137.88442732009983, 36.77597738447998],
          [137.88522928279227, 36.775873629507245],
          [137.8860165413953, 36.77591779010933],
          [137.88646794781397, 36.7759469123267],
          [137.8869326, 36.7760008],
          [137.88734397842026, 36.77609909533673],
          [137.88761598949165, 36.776248721533904]
        ],
        "type": "LineString"
      }
    },
    {
      "type": "Feature",
      "properties": {
        "@id": "way/454962226",
        "name": "池の田ゲレンデ"
      },
      "geometry": {
        "coordinates": [
          [137.87749702906424, 36.78253478806807],
          [137.87851342353423, 36.78171282501914],
          [137.87980255989893, 36.78094126399243],
          [137.88199639413529, 36.779901447080704],
          [137.8850417956392, 36.77832572316409],
          [137.8876143215536, 36.776896974600575]
        ],
        "type": "LineString"
      }
    },
    {
      "type": "Feature",
      "properties": {
        "@id": "way/546853563",
        "name": "ラビット（コルチナ）"
      },
      "geometry": {
        "coordinates": [
          [137.88732799044055, 36.78415880712326],
          [137.88743862447478, 36.783976971993894],
          [137.88750262925282, 36.78369242255471],
          [137.88761549626992, 36.783380087775924],
          [137.88784364388167, 36.78311083935786],
          [137.88812383537356, 36.7828092049363],
          [137.88826569015254, 36.782606055315064],
          [137.88847502805828, 36.78221554212878],
          [137.8885844561199, 36.781855805023525],
          [137.8885346488055, 36.78171165941946],
          [137.88809288747535, 36.781512115057836],
          [137.8877001229905, 36.78129206417562],
          [137.88742263910197, 36.781102790218156],
          [137.8871579877626, 36.78078071347797],
          [137.88709315611825, 36.78055712412474],
          [137.8872891182117, 36.77948029360198],
          [137.8874639529876, 36.778603323545006],
          [137.88767433634138, 36.77813406196397],
          [137.8878102695101, 36.77767474884238],
          [137.88801537103512, 36.77712925575746]
        ],
        "type": "LineString"
      }
    },
    {
      "type": "Feature",
      "properties": {
        "@id": "way/546853564",
        "name": "稗田山3"
      },
      "geometry": {
        "coordinates": [
          [137.87547024494356, 36.77732099864988],
          [137.87623986516743, 36.777290998557646],
          [137.8769268247175, 36.77735436566845],
          [137.8776880915718, 36.777564533259245],
          [137.87848931460644, 36.77784829973497],
          [137.8792204842695, 36.778198933428584],
          [137.88009440898892, 36.778785532476206],
          [137.88100305449342, 36.77937538246477],
          [137.88173025056307, 36.779921633032856]
        ],
        "type": "LineString"
      }
    },
    {
      "type": "Feature",
      "properties": {
        "@id": "way/546853567",
        "name": "里見中央ゲレンデ_2"
      },
      "geometry": {
        "coordinates": [
          [137.87901042219187, 36.7716408062134],
          [137.87935198890474, 36.7714343978652],
          [137.88024133117875, 36.77088843898571],
          [137.88137943637676, 36.77039532518357],
          [137.8819979067413, 36.77004833506666],
          [137.88262546671442, 36.76974125536245],
          [137.88318974817412, 36.76935831036033],
          [137.8833809051965, 36.769210131109624],
          [137.8836227570223, 36.76893237674399]
        ],
        "type": "LineString"
      }
    },
    {
      "type": "Feature",
      "properties": {
        "name": "若栗林間_2"
      },
      "geometry": {
        "coordinates": [
          [137.87123745289404, 36.77079678888015],
          [137.87167851814354, 36.770821438369666],
          [137.87196572342089, 36.7707310568708],
          [137.87211958339077, 36.77053796876656],
          [137.87209394006283, 36.77025449811633],
          [137.87201701007677, 36.76998745958741],
          [137.87195033742205, 36.76983956091962],
          [137.87192469409615, 36.76971402537973],
          [137.87196572342089, 36.76966061737201],
          [137.87202726741106, 36.76963596750902],
          [137.87235269174295, 36.76962032919748],
          [137.8727732423278, 36.76960389594848],
          [137.87325001377684, 36.769544402959696],
          [137.8734243884091, 36.76945812827698],
          [137.87355773371883, 36.769343095214126],
          [137.8736244063715, 36.769223953646716],
          [137.87360389170914, 36.76905962014622],
          [137.8735679910605, 36.76884598606168],
          [137.8735531294252, 36.768618346112035],
          [137.87360441609917, 36.76842936104333]
        ],
        "type": "LineString"
      }
    },
    {
      "type": "Feature",
      "properties": {
        "name": "里見若栗アクセスライン_2"
      },
      "geometry": {
        "coordinates": [
          [137.87358664788587, 36.76932514147808],
          [137.87396366030032, 36.769357394596184],
          [137.87421256169807, 36.769363258797924],
          [137.87435165365713, 36.76935153039403],
          [137.87447244404132, 36.769184400441205],
          [137.8744980662364, 36.76897500431443],
          [137.8745883951396, 36.76878263641996],
          [137.87469855233832, 36.76859203289173],
          [137.874683128387, 36.76847025833008],
          [137.87462804978674, 36.76839083992742],
          [137.8744716265653, 36.76827788916847],
          [137.8741918272798, 36.76808904924758]
        ],
        "type": "LineString"
      }
    },
    {
      "type": "Feature",
      "properties": {
        "name": "ハイウェイ迂回"
      },
      "geometry": {
        "coordinates": [
          [137.86845367837282, 36.76563385084478],
          [137.8688050178534, 36.765924845859885],
          [137.86888243163867, 36.766277854723654],
          [137.868888386545, 36.766506832577335],
          [137.86872164916429, 36.76665471374436],
          [137.8686245473847, 36.76668883266657],
          [137.8686085059408, 36.76677397254224],
          [137.86863050229104, 36.7668475166295],
          [137.86873355897706, 36.76689323115468],
          [137.86897771014043, 36.76711743684369],
          [137.86907518012123, 36.76732559008468],
          [137.8690946146612, 36.76756486196702],
          [137.8690946146612, 36.76773817167778],
          [137.8691636618695, 36.76778610833708],
          [137.86931096258252, 36.767834044966364],
          [137.8693431846151, 36.76784141982962]
        ],
        "type": "LineString"
      }
    },
    {
      "type": "Feature",
      "properties": {
        "name": "わらび平迂回"
      },
      "geometry": {
        "coordinates": [
          [137.8818078783437, 36.776186750179676],
          [137.8812121723912, 36.77596847968411],
          [137.88090798211772, 36.77576543680493],
          [137.88067983941255, 36.77550655635325],
          [137.88057844271583, 36.77527305554969],
          [137.88059219667292, 36.77500450908326],
          [137.88056684748398, 36.774720245326876],
          [137.88050347451002, 36.77450197065562],
          [137.88047178802242, 36.774380142661826],
          [137.88049713721279, 36.774324304767106],
          [137.88064289505235, 36.77441567584712],
          [137.88090272424375, 36.77455273226272],
          [137.88114987884057, 36.774725321474534],
          [137.88130831127455, 36.77482684435937],
          [137.88153645397966, 36.77493851937666],
          [137.88174558479312, 36.77496390003988],
          [137.88203076317347, 36.77501466134113],
          [137.8821575091212, 36.77505527035761],
          [137.8820371004707, 36.77498420456453],
          [137.8819737274983, 36.77482684435937],
          [137.88187866804788, 36.774659331517654],
          [137.8817962831809, 36.77431840920316],
          [137.88170756100806, 36.774125514328716],
          [137.8816590497284, 36.774018217797746],
          [137.8818016389193, 36.77403852256962],
          [137.88217237081386, 36.77414004636873]
        ],
        "type": "LineString"
      }
    },
    {
      "type": "Feature",
      "properties": {
        "name": "一本松_2"
      },
      "geometry": {
        "coordinates": [
          [137.8853365375876, 36.77575700777825],
          [137.88535651271752, 36.77515434722143],
          [137.88515010303865, 36.77482368189406],
          [137.88471065017131, 36.7743276812287],
          [137.88423706330775, 36.773734452053844],
          [137.8840373120055, 36.77305710738655],
          [137.88403065362888, 36.772667764875465]
        ],
        "type": "LineString"
      }
    },
    {
      "type": "Feature",
      "properties": {
        "name": "スネーク（コルチナ）"
      },
      "geometry": {
        "coordinates": [
          [137.88735981035882, 36.78419398583176],
          [137.88793643939493, 36.78414577414239],
          [137.88842902896914, 36.7841241910036],
          [137.88892106732771, 36.784101800541066],
          [137.88938713009833, 36.78397641379327],
          [137.8897393848414, 36.783900286057715],
          [137.89013637033167, 36.78389580795138],
          [137.8902537885756, 36.78387341741541],
          [137.89026497126525, 36.783810723880336],
          [137.89022583185147, 36.78373459594705],
          [137.89017550974546, 36.78367638041776],
          [137.88999099529082, 36.78363159911328],
          [137.8897188023829, 36.78361036414988],
          [137.88954057020868, 36.78359812871794],
          [137.88926558342877, 36.78357569708396],
          [137.88907716655888, 36.78354918697907],
          [137.88899823516937, 36.78351451990616],
          [137.88888111116972, 36.78340032237686],
          [137.8887894489086, 36.78324533974234],
          [137.88869778663963, 36.78308423904437],
          [137.88862394759775, 36.782982276400105],
          [137.88865518944965, 36.78286772251566],
          [137.88873655096296, 36.782768426012865],
          [137.88879079197352, 36.78266602636029],
          [137.88884503298414, 36.782427093304705],
          [137.88891864578193, 36.78225642637986],
          [137.88897035228243, 36.78207499139968],
          [137.88893093210612, 36.78183099758289],
          [137.88890063620008, 36.781503207455245],
          [137.88889113339036, 36.78118951147631],
          [137.8889174303465, 36.780888848285],
          [137.88902309183132, 36.78070260705357],
          [137.8892036073721, 36.78049811899853],
          [137.88962185131726, 36.78023837793742],
          [137.8898765366297, 36.7798035263259],
          [137.89009826048823, 36.77961868431569],
          [137.8904415879207, 36.77936453630862],
          [137.89083506410168, 36.77919072128555],
          [137.8910780940355, 36.77899682318149],
          [137.8913336611564, 36.77872259166723],
          [137.8914310682153, 36.77840006767416],
          [137.89146246009517, 36.77810616098111],
          [137.89154173507092, 36.777937256104835],
          [137.89152378095994, 36.77773862331889],
          [137.89151967616846, 36.777664784650426],
          [137.89137989804655, 36.77758643741454],
          [137.8912180610222, 36.77755731044528],
          [137.8909497842548, 36.777565613484796],
          [137.89064719077038, 36.77760698257605],
          [137.89046577883374, 36.77764003206009],
          [137.89025529747897, 36.77770613103823],
          [137.8901867716513, 36.77778886926359],
          [137.8900628485453, 36.777904885887274],
          [137.89002906148994, 36.77789525484714],
          [137.89005067171448, 36.77774696394937],
          [137.89012505313252, 36.777591815220205],
          [137.89020635921025, 36.77749490385143],
          [137.89024611732927, 36.77737026037495],
          [137.89021230093545, 36.7771381545875],
          [137.89018887153276, 36.77698092574971],
          [137.89021818398516, 36.77681067594271],
          [137.89019985648696, 36.77676652487156],
          [137.8901192070489, 36.77680279766195],
          [137.89008255205226, 36.776897529078624],
          [137.89000231739615, 36.77704816652064],
          [137.8898903207056, 36.77724405865127],
          [137.8895971527581, 36.77741688169128],
          [137.8894978752877, 36.77758415813881],
          [137.88924392306848, 36.77781887542905]
        ],
        "type": "LineString"
      }
    },
    {
      "type": "Feature",
      "properties": {
        "name": "池の田林間"
      },
      "geometry": {
        "coordinates": [
          [137.87873760687114, 36.78192876280191],
          [137.87888915607346, 36.78193713375495],
          [137.87919748031487, 36.78184923870079],
          [137.87945354620916, 36.78177808548848],
          [137.87969916043448, 36.78173623062642],
          [137.87983503213343, 36.781656706325535],
          [137.8798977421472, 36.781535326971294],
          [137.87987683878225, 36.781418132920095],
          [137.8798559354443, 36.78131768074141],
          [137.87991341962368, 36.78125908357654],
          [137.88024838596692, 36.7811876829641],
          [137.8805828393808, 36.78117094089342],
          [137.880943421967, 36.78115838433706],
          [137.8814241987488, 36.7811332712201],
          [137.88173252298793, 36.78111234361542],
          [137.88208726032258, 36.781066302087225],
          [137.88220222868352, 36.78104955999004],
          [137.88229629370653, 36.78102863236248],
          [137.88239035872726, 36.78102444683648],
          [137.8825053270882, 36.781032817888274],
          [137.88263858587038, 36.78105269900149],
          [137.88262160190743, 36.780991485583456],
          [137.88250367055775, 36.780904103670295],
          [137.88227382442165, 36.78084967831118],
          [137.88209524000496, 36.780865403211365],
          [137.88205067948002, 36.78083819053106],
          [137.88211190402808, 36.78077616538145],
          [137.88221333574268, 36.78075171065238],
          [137.8825459586701, 36.780684318257904],
          [137.88284629402568, 36.7806559892493],
          [137.88302510423844, 36.780680113028644],
          [137.8832767798383, 36.78073804591159],
          [137.88350284353209, 36.7808243510305],
          [137.8836421250173, 36.780859858424336],
          [137.88370222043687, 36.780856587953984],
          [137.88371936190288, 36.78084184975947],
          [137.8836529588204, 36.780741274924964],
          [137.8835626924305, 36.78066745815574],
          [137.8833722001467, 36.78052865750658],
          [137.88324593170287, 36.78040765218166],
          [137.8832185924444, 36.78033185911461],
          [137.88324852512403, 36.78027709033621],
          [137.88345592780996, 36.780362107552264],
          [137.88367178669844, 36.780446664775646],
          [137.8838250564291, 36.78049849990279],
          [137.88397328121712, 36.78055882079732],
          [137.88413330152048, 36.780613828067715],
          [137.88424433397404, 36.78063750911229],
          [137.8843881444388, 36.78063214799893],
          [137.88453195490354, 36.78064207722848],
          [137.88489089358856, 36.78066527061575],
          [137.88519146879997, 36.78068262084602],
          [137.88554311204967, 36.780703533691465],
          [137.8857335245437, 36.78071106853456],
          [137.88593123246986, 36.78066017182989],
          [137.88612334248404, 36.78060120594829],
          [137.88634098651823, 36.78057145586067],
          [137.8865974805036, 36.780604258820986],
          [137.88675308537296, 36.78059436603732],
          [137.88683453552468, 36.78053975274771],
          [137.88687950850738, 36.78033613846186]
        ],
        "type": "LineString"
      }
    },
    {
      "type": "Feature",
      "properties": {
        "name": "里見尾根_2"
      },
      "geometry": {
        "coordinates": [
          [137.8769848264742, 36.769971602242904],
          [137.87730530729056, 36.77019914884181],
          [137.87756751886718, 36.77040919125707],
          [137.87790620881879, 36.77064548828602]
        ],
        "type": "LineString"
      }
    }
  ]
}
