{"type":"FeatureCollection","features":[{"type":"Feature","properties":{"@id":"way/453410402","name":"ジャイアント"},"geometry":{"coordinates":[[137.56528672244605,36.182643415483675],[137.5653531,36.18275527413854],[137.56534191845228,36.182834187089036],[137.56529007032262,36.18288886333887],[137.56521976296833,36.18289884222708],[137.56512168890217,36.182879686217085],[137.56498321664415,36.18281220087161],[137.5648816628411,36.182751100857445],[137.56481651097073,36.18272334739031],[137.56476483142058,36.18274068402312],[137.56477116658186,36.182830387961786],[137.56482,36.183138],[137.56483495922612,36.18332631181544],[137.56483168877628,36.18339032551672],[137.564789581294,36.18342602452121],[137.56474215722886,36.18343110343045],[137.56466308877629,36.18339999902141],[137.56441576097,36.18327968866079],[137.56422089719405,36.18322379030863],[137.56399438902935,36.18318279099145],[137.56376200187037,36.18311545741544],[137.56352170361498,36.18299704131501],[137.56305097561923,36.182810259483304],[137.5626890340675,36.182721125402956],[137.56221897419198,36.18269371634628],[137.56178757444366,36.18264888872022],[137.56108415187043,36.18261100418213],[137.5605468745709,36.182598774876396],[137.5598659150903,36.1826383],[137.5596700741906,36.18266755690328],[137.55951516658317,36.18270548789944],[137.55941071284178,36.182760576719076],[137.55923505922613,36.18301573951331],[137.5590962,36.1831575],[137.5589638740648,36.183237000947116],[137.55850587780557,36.18334804802982],[137.5574948259352,36.18352987459262],[137.5569245889021,36.18371600522414],[137.5565869630942,36.183892331656025],[137.556225551153,36.184138021508964],[137.55580379539018,36.18437123997337],[137.55538836235488,36.1845619165262]],"type":"LineString"}},{"type":"Feature","properties":{"@id":"way/453410403","name":"ファミリーゲレンデ"},"geometry":{"coordinates":[[137.55776759951877,36.18496891977098],[137.5569003768482,36.18495755881282],[137.55479051448057,36.18488190748865],[137.55290129637987,36.18479340384341],[137.55241230724027,36.18476329088226]],"type":"LineString"}},{"type":"Feature","properties":{"@id":"way/453410404","name":"湯の平"},"geometry":{"coordinates":[[137.56532428711708,36.18243507738969],[137.56554655300909,36.18267953499173],[137.5657758308866,36.18298402863081],[137.5659224,36.1832366],[137.56612638616608,36.183593739078994],[137.56617679123582,36.18373443042855],[137.56605739260874,36.18391591737718],[137.5659025578144,36.18421382195462],[137.56589935575263,36.184422718879716],[137.5658570771887,36.1846300363578],[137.56581296325055,36.184826411411144],[137.5657229,36.1849857],[137.56551767972593,36.185186480982495],[137.56523434561794,36.18540580521314],[137.5648676765058,36.18571651018915],[137.56445459538082,36.18619821872569],[137.5643264,36.1862794],[137.5641681,36.186335],[137.56403190807885,36.18637481001002],[137.56371191890355,36.1863627],[137.56311570876653,36.186269258576786],[137.5625970469896,36.186178034902184],[137.56235867602905,36.18614614850341],[137.5620832900704,36.18612755408567],[137.56196872671438,36.18616458844286],[137.5618783525349,36.18623942121995],[137.56172364931464,36.18645888863004],[137.5614255094505,36.18677076009985],[137.5610998,36.1871123],[137.56089676082237,36.18722801826364],[137.56076724054824,36.18725844029215],[137.56067049612636,36.18725080269289],[137.56056083929943,36.18718452433283],[137.56047142739703,36.187086816868856],[137.56042672144585,36.1869985928407],[137.56042179005675,36.186825120779005],[137.56043428025595,36.18667695840212],[137.56043229409514,36.18658270719983],[137.5604264333971,36.1865109341873],[137.5603613392993,36.186492592764125],[137.56024537482108,36.18654005887579],[137.56001509924033,36.18664978666916],[137.55981464972598,36.18671278247808],[137.5594836165785,36.18677295763398],[137.55904742398184,36.18681268330603],[137.55868526928361,36.18693661014058],[137.55812491108088,36.18702729085594],[137.55736886310603,36.18713126710908],[137.55681597105504,36.1871256094937],[137.55666882500302,36.18709280189742],[137.5565656250048,36.18701937726648],[137.5565318,36.186938243288836],[137.55655043157,36.18686884332341],[137.55663874472995,36.18681675468617],[137.55677373815425,36.18676176796862],[137.55705507828824,36.18666650280544],[137.5573112828911,36.186571237588],[137.55751674999033,36.18648872626327],[137.55765937235103,36.1864467457142],[137.5578262032826,36.18641083645713],[137.55789884637997,36.186285651064765],[137.55793917237028,36.1861025033769],[137.5580809322372,36.18594076462023],[137.55822628289297,36.185813803923395],[137.55837539403498,36.18571401080208],[137.5584754601429,36.18564205150701],[137.55855665572625,36.18554478161053],[137.5585619381843,36.18535839141771],[137.55854605977777,36.185105170126626],[137.558542090177,36.18498059410864],[137.55850706520698,36.18488386832966],[137.55848239202436,36.184826132887714],[137.55835100985144,36.18478891000126],[137.55820250444629,36.18477308358056],[137.55800914128318,36.184768397430844]],"type":"LineString"}},{"type":"Feature","properties":{"name":"湯の平_2"},"geometry":{"coordinates":[[137.55821385014514,36.185779676448064],[137.5582069489517,36.18553738105213],[137.55819659716076,36.18529508490663],[137.55813793701975,36.18514747884167],[137.55803786971683,36.18503886288045],[137.5578722410794,36.184938601859585]],"type":"LineString"}}]}