{"type":"FeatureCollection","features":[{"type":"Feature","properties":{"name":"みずなら"},"geometry":{"coordinates":[[133.06225164933693,35.065916234845105],[133.06531861390306,35.0689221256535],[133.06573861249313,35.06902605073171],[133.06626605225864,35.06910599302269],[133.06680325942915,35.069193929453036],[133.06740883842008,35.06925788316069],[133.0681609284568,35.06935381362865],[133.06853208977356,35.06951369749105],[133.06933301682687,35.06901805649753],[133.06987022399534,35.06881020615306],[133.07055394221163,35.068994073792894],[133.0717064957738,35.06951369749105]],"type":"LineString"}},{"type":"Feature","properties":{"name":"かえで"},"geometry":{"coordinates":[[133.06467274194995,35.06641101878479],[133.06555931719114,35.067519468208516],[133.06570732163954,35.06779644278345],[133.06601893355162,35.06810941634129],[133.06625950834382,35.06839670077734],[133.06652374622809,35.068754997925865],[133.06677716523654,35.06906743502722],[133.0670808416122,35.069164271453374],[133.06742001263018,35.06923205688376],[133.06771185745885,35.06927079139004],[133.06790116221276,35.0692837028878],[133.0679327130045,35.06925142413883],[133.06795243224934,35.06922237325449],[133.0679051060617,35.069112625373776],[133.06783017292963,35.069028700424425],[133.06780256597813,35.06891895228118],[133.06780863504383,35.068834661799386],[133.06786197459928,35.06878858001129],[133.06796569040148,35.068791005369135],[133.06807236951101,35.068795856085174],[133.0681820119304,35.06878130393726],[133.06825905795426,35.06874734891608],[133.0683272140525,35.068655185215746],[133.0684250032363,35.068560596046694],[133.06851390249443,35.068490260439305],[133.06855649502427,35.068481755182724],[133.0685939118269,35.06845630529702],[133.06862538188744,35.06829052413637],[133.06866686820734,35.0682141083866],[133.0687154074805,35.06816526064068],[133.0687835637719,35.06810220173416],[133.0690443349293,35.06808279870499],[133.069476977987,35.068172537675494],[133.07014719162078,35.068361799657666],[133.07172658572216,35.068922057668786],[133.072147375481,35.069118511610085]],"type":"LineString"}},{"type":"Feature","properties":{"name":"ぶな"},"geometry":{"coordinates":[[133.06251593080486,35.06563005524126],[133.06283510505307,35.06553380799723],[133.0631710779432,35.06547880952179],[133.06349025218896,35.06548797593685],[133.06379822733862,35.065570473627645],[133.0641509988754,35.06569880320279],[133.06441977718845,35.06592796265707],[133.0646728612283,35.06626609190114],[133.06484644722144,35.06654108125815],[133.0649584381856,35.06666024302497],[133.06532240881853,35.06671065756642],[133.0656359835163,35.066838985349065],[133.066109535066,35.067079705107304],[133.06655189937214,35.06727677894273],[133.06714197565884,35.06754561237605],[133.0674051544238,35.06775185124741],[133.06777472460482,35.06787559432051],[133.06794831059796,35.06788476046641],[133.06822268845906,35.067907675827215],[133.06858665909198,35.06798558800551],[133.06878824282552,35.068049750919826]],"type":"LineString"}},{"type":"Feature","properties":{"name":"もみじ"},"geometry":{"coordinates":[[133.06983587758987,35.068135303391855],[133.0699881400326,35.06805807272863],[133.07009536710552,35.06797206576789],[133.07032630422367,35.0679134597337],[133.0705214574968,35.0679134597337],[133.07075735705683,35.06794856465194],[133.07089067658984,35.06803101942829],[133.07097431370522,35.06810825011628],[133.07150516651416,35.0682791517921],[133.07189761759992,35.068421325979884],[133.07217211890742,35.06860211502163],[133.07236083855622,35.06884433660568]],"type":"LineString"}}]}