{"type":"FeatureCollection","features":[{"type":"Feature","properties":{"@id":"way/452715369","name":"キングスロープ"},"geometry":{"coordinates":[[136.9188734994449,36.00628542618744],[136.9152111,36.0057243],[136.91179626568555,36.00532106772425]],"type":"LineString"}},{"type":"Feature","properties":{"@id":"way/452715371","name":"スペードスロープ"},"geometry":{"coordinates":[[136.9176801182645,36.00587556821386],[136.9173846186665,36.00570920755852],[136.917049532134,36.005462551424166],[136.91657159733012,36.00518256936609],[136.91581867842322,36.00481759753995],[136.91504226823673,36.00446524511115],[136.9145596582041,36.00434320721196],[136.91404331107043,36.004293611148896],[136.91328448401862,36.004361380807616],[136.91233143502976,36.0043831602921],[136.91166388801219,36.00445787152697],[136.91107055652014,36.00453207158809],[136.91061993888158,36.0046440923677],[136.9103090164068,36.00470498560016],[136.9098347,36.0048146]],"type":"LineString"}},{"type":"Feature","properties":{"@id":"way/452715367","name":"クイーンスロープ"},"geometry":{"coordinates":[[136.91937235944653,36.00686012019432],[136.9182836523919,36.00671762279763],[136.91291427756133,36.006134757898245],[136.9115591299165,36.005934372759185]],"type":"LineString"}},{"type":"Feature","properties":{"@id":"way/452715368","name":"ハートスロープ"},"geometry":{"coordinates":[[136.91151435379115,36.00592012717225],[136.91011792148865,36.00564186002042],[136.90946109255654,36.00551545071317],[136.9085258014635,36.0053376207909]],"type":"LineString"}},{"type":"Feature","properties":{"name":"ダイヤスロープ","@id":""},"geometry":{"coordinates":[[136.91166544689787,36.00531526266967],[136.91104363728067,36.00520470860556],[136.91068831749942,36.00509415438643],[136.91038082922637,36.00506098809039],[136.90977951882695,36.00511073752892],[136.90947886362653,36.005088626671494],[136.90874089177362,36.00497254456593]],"type":"LineString"}},{"type":"Feature","properties":{"name":"バンク・ウェーブ"},"geometry":{"coordinates":[[136.91525822590484,36.00443760628427],[136.91448348641734,36.00407999378163],[136.91372697609404,36.0037518736671],[136.91311629908728,36.00348642718181],[136.91274260121565,36.0033500168349],[136.91242669886105,36.00327465134973],[136.91197552704205,36.00328571166732],[136.91128281879503,36.00341106182704],[136.9101066835687,36.00361033848692],[136.9093719123302,36.003808476639904],[136.9088033393454,36.00414106456286],[136.9082766407107,36.00451339566959]],"type":"LineString"}},{"type":"Feature","properties":{"name":"クローバースロープ"},"geometry":{"coordinates":[[136.9117865224094,36.00337673509179],[136.91131221141217,36.003534732850596],[136.9108817442862,36.00376366781704],[136.91067049653083,36.00396358231434],[136.91063462427104,36.004118354480426],[136.9106186810444,36.004302146032515],[136.9105947662029,36.004482712754935]],"type":"LineString"}},{"type":"Feature","properties":{"name":"林間"},"geometry":{"coordinates":[[136.918594,36.006088],[136.9186776765513,36.00558855653681],[136.918688,36.005279],[136.9186785059298,36.00502932994313],[136.918625,36.004839],[136.91848099999999,36.00460539576168],[136.918337,36.004443],[136.91796800592985,36.004281829661764],[136.917555,36.00418],[136.9172195,36.004163329610435],[136.91686199407016,36.00418819777868],[136.91639299407015,36.00424269778678],[136.915946,36.004315],[136.915465,36.004445]],"type":"LineString"}}]}