{"type":"FeatureCollection","features":[{"type":"Feature","properties":{"@id":"way/441166253","name":"プラチナベル"},"geometry":{"coordinates":[[142.6071210010104,43.07906984125613],[142.607534,43.0790528],[142.60787356363463,43.07902713813727],[142.6082319782812,43.0789372150111],[142.60865774646388,43.078817774471084],[142.60905957979833,43.0787212401725],[142.6094849868698,43.078629625388515],[142.6098260888896,43.078528543009476],[142.61020273030348,43.078435981288564],[142.61050806969652,43.07840834109577],[142.61080540808018,43.07840821963621],[142.61134039595942,43.078429],[142.61201238686732,43.0785349],[142.6128251868673,43.07868383826255],[142.61356166618475,43.078777811239725],[142.6141174,43.0788635],[142.61438813962698,43.07894397573884],[142.61478151986321,43.07899698179288],[142.6152151278611,43.07898938508501],[142.6155909,43.078918001641554],[142.61598576051546,43.07881697774535],[142.61626454206979,43.0787545]],"type":"LineString"}},{"type":"Feature","properties":{"@id":"way/441167463","name":"シルバーベル"},"geometry":{"coordinates":[[142.59852008541,43.07707974599295],[142.59865161887092,43.07708750278073],[142.598736899353,43.077092331418605],[142.5987938496765,43.07712800397648],[142.59891194308565,43.077226392070415],[142.59907261833382,43.07735693774858],[142.59922327566738,43.077467973475294],[142.59939734950362,43.077541],[142.5999857,43.077739645716626],[142.6002291624144,43.07778744438342],[142.60054170504122,43.07780002376475],[142.6011282743303,43.07781364708252],[142.60134009929772,43.07784027726774],[142.60169415341062,43.077902155139775],[142.6021190388368,43.07801834864034],[142.6028427650384,43.078228814089584],[142.603547,43.0783848],[142.60424224465066,43.07851610390846],[142.6051927493842,43.07879215212339],[142.60584895061726,43.07891310173577],[142.60645697868432,43.079028712752745],[142.6067754835813,43.0790567236674],[142.607034336053,43.07905071369562],[142.6072642229474,43.07903063179936],[142.6075666327405,43.078971520908155],[142.6077980514866,43.078900475494855],[142.60803831533624,43.07880726968451],[142.60824911840473,43.078696115147984],[142.60841145687897,43.078594147010406],[142.6086213400542,43.078498157969975],[142.60887200692298,43.07843922142235],[142.6090821261185,43.078385669758944],[142.60937038779582,43.07830844070278],[142.60955660127541,43.078223065647414],[142.60977927680253,43.07816181161744],[142.61000381561766,43.078114451030544],[142.6102986497962,43.078081770746195],[142.61055729282768,43.078079857611904],[142.6110015899269,43.07807044262994],[142.6113144674451,43.0780631707933],[142.6115994813972,43.07808277131397],[142.6118383,43.0781305],[142.61209189534938,43.07824568491555],[142.61226375038402,43.0783584419644],[142.61241565697506,43.078422513237825],[142.6125633,43.0784461],[142.61293044108447,43.07855172767611],[142.6131348829388,43.07860718545783],[142.61322743720558,43.078625170911444],[142.61329381433802,43.07862354218483],[142.6133367418544,43.078603228366745],[142.61335165115577,43.078540070582726],[142.6133376569751,43.07846359272287],[142.61323625968544,43.07840112871072],[142.6130907651078,43.07831895803714],[142.61271395503653,43.07808110026767],[142.612614,43.0780141],[142.6125920410845,43.07795091470187],[142.61258926821685,43.07790018625046],[142.61262413643385,43.077859857566224],[142.61268675503658,43.077851929358836],[142.61277469573525,43.07787440827137],[142.61287969069858,43.07793270073002],[142.61305093139725,43.07801042854017],[142.61322430388083,43.07807881368562],[142.61349679070045,43.078141099722295],[142.61377649534933,43.07825702781131],[142.61401612479517,43.07835830063643],[142.61436181704832,43.078446799331175],[142.6147203,43.07848547094697],[142.61504218604784,43.07854759965059],[142.61525394031273,43.07859988474721],[142.61559185968727,43.07864511308931],[142.61598261860274,43.07865698472402],[142.61642225038403,43.078701685071266],[142.616668943023,43.07876414214808],[142.6169433488443,43.078815699603325],[142.61724820542253,43.07880582834594],[142.61752602014442,43.07884422874423],[142.61813180527486,43.07899516272278],[142.6186183631515,43.07909383781016],[142.61921971047693,43.07914018156374],[142.6194063499636,43.0791834221027],[142.6195532,43.0791976],[142.61966486849644,43.07918573131395],[142.61977267904626,43.07911853181997],[142.61979705084863,43.07897311098309],[142.61977350000063,43.07885416045849],[142.61966987897335,43.078507701231345],[142.61951291575178,43.07825775235223],[142.6192640499278,43.078058685095144],[142.61908036505133,43.07787364068703],[142.6187903115666,43.077646341452926],[142.6181578,43.077201],[142.6176542,43.0767878],[142.6172313,43.0763545],[142.6166374,43.0759332],[142.6161628321383,43.075351755155346],[142.61535104736714,43.07445449182601],[142.6151547999233,43.07426163397724],[142.61503306825048,43.0739853236528],[142.61492445766663,43.07376919504091],[142.6148005971022,43.07356290456882],[142.6147637891929,43.07338840991439],[142.61482075236393,43.07319203732068],[142.6149346787061,43.07310452582658],[142.61510159453044,43.07307576146284],[142.61530102882716,43.07307871780621],[142.61543952626397,43.07302762221559],[142.61551630002432,43.07292861114807],[142.61549135529043,43.072780555674285],[142.615361947368,43.07272152731095],[142.61514230521516,43.0726766],[142.61487721553624,43.07263953775869],[142.6146991785163,43.07262791189849],[142.61449109399734,43.07259830108721],[142.61441443032612,43.0725390794766],[142.61442650303596,43.07245243181577],[142.61451158531963,43.07237452322432],[142.61458599196024,43.07224414266998],[142.61457811045477,43.07207240963741],[142.61460638944226,43.07176881864859]],"type":"LineString"}},{"type":"Feature","properties":{"@id":"way/912892845","name":"パノラマリッジ"},"geometry":{"coordinates":[[142.597377,43.078355],[142.5975058,43.0783953],[142.59819206160293,43.0785648],[142.59898716160285,43.078763113717216],[142.59982122345042,43.07888794911499],[142.6004433,43.0789562],[142.60185903274026,43.07912816774378],[142.60254101282968,43.0791863],[142.603067,43.07924],[142.60350992878443,43.07931168637957],[142.60399351991066,43.0793239724564],[142.60463681493536,43.07926559971209],[142.605233,43.079175],[142.60670153246423,43.07909945011487]],"type":"LineString"}},{"type":"Feature","properties":{"@id":"way/912892848","name":"ナチュラルテレイン"},"geometry":{"coordinates":[[142.61268716197895,43.076254960152525],[142.612750467872,43.075760344397196],[142.61284046425752,43.07525598147096],[142.61299562129128,43.07490855841577],[142.6132975760435,43.074410039789534],[142.6139985937218,43.073892577525115],[142.61448922765737,43.073492495642085],[142.61471011010065,43.07331685052812]],"type":"LineString"}},{"type":"Feature","properties":{"@id":"way/912892847","name":"シルキーウェイ"},"geometry":{"coordinates":[[142.61104011306517,43.078330857992015],[142.61124177931384,43.078007253843765],[142.6119078022818,43.0772892566276],[142.61274625475153,43.076615177254354],[142.6138039403017,43.07562796565756],[142.61453296178487,43.075007634651826],[142.6154512454279,43.074240553083705],[142.6157886679216,43.07384302381594],[142.61588265176414,43.07358176723227],[142.6158270325164,43.07331931403476],[142.6156127380067,43.07298603266543]],"type":"LineString"}},{"type":"Feature","properties":{"@id":"way/912892842","name":"ビギナーチョイス"},"geometry":{"coordinates":[[142.6156591435555,43.070918052433996],[142.61738058616478,43.06977844665665],[142.61864728355147,43.06910082250981],[142.619776973368,43.068507324955824],[142.6205895671009,43.06795243459757],[142.62121156480646,43.067466338770274],[142.62139077694852,43.06725526062683],[142.62156112475537,43.0669794234106],[142.62175233274274,43.06658448620725],[142.62185489739574,43.06629316324254],[142.62200750659053,43.066087239752235],[142.6222310304492,43.065926648207544],[142.62242903239354,43.06558512364549]],"type":"LineString"}},{"type":"Feature","properties":{"@id":"way/441164002","name":"エキシビジョン"},"geometry":{"coordinates":[[142.60712049493674,43.06918177208182],[142.60739229493674,43.06890318155516],[142.60773424575106,43.0685986378855],[142.60815293727723,43.06832548794488],[142.60907250170288,43.067922237327906],[142.6110438082274,43.06701156853582],[142.61319615430165,43.066062000463894],[142.6141637122948,43.06569110072063],[142.61478716168114,43.06550336860085],[142.61527216905583,43.065393437979935],[142.6157783851428,43.06537601724713],[142.61616745799074,43.065467519031195],[142.6169493751998,43.06568509867267],[142.61755684682038,43.065851019220055],[142.61821756536673,43.06600137962686],[142.61876506624128,43.066015326949966],[142.61915631135082,43.06599200489434],[142.61956829081404,43.065908091514224],[142.6205234736372,43.06564909989771],[142.62200150678854,43.06530222066205]],"type":"LineString"}},{"type":"Feature","properties":{"@id":"way/441164388","name":"ハイウェイコースター"},"geometry":{"coordinates":[[142.60619880768832,43.0695206146076],[142.606369959624,43.06947109179129],[142.60660009230986,43.069398370274186],[142.60695580961925,43.06932322781074],[142.60732610577233,43.0692526497311],[142.60790030866036,43.06911464692729],[142.60875900869507,43.068914190569195],[142.61091306743506,43.0683731818438],[142.61250100811105,43.068029526189015],[142.6141159,43.0677476],[142.61548574882727,43.067503094952734],[142.61652964039433,43.06729109577963],[142.6173659673351,43.0670618621036],[142.61800895747032,43.0668267431474],[142.61950438594465,43.066391815985895],[142.61997390450327,43.066260279041714],[142.62032258756,43.06609931594937],[142.62095550806978,43.065777389568126],[142.62214848589537,43.06529069530717],[142.62282214568796,43.06496696446544]],"type":"LineString"}},{"type":"Feature","properties":{"@id":"way/441162834","name":"無名"},"geometry":{"coordinates":[[142.6288318697626,43.06947331188583],[142.6295497516994,43.06921124602428],[142.6300141360957,43.06900004625419],[142.6305971881656,43.06874427710257],[142.63091637603574,43.06857910787719]],"type":"LineString"}},{"type":"Feature","properties":{"@id":"way/922436137","name":"ジェミニ"},"geometry":{"coordinates":[[142.62850696709208,43.06991635935242],[142.62832104023005,43.06980214380039],[142.62819745023927,43.06970563759765],[142.62809203423168,43.06955797281947],[142.62791169445796,43.06942694809146],[142.62778827150228,43.069348819444414],[142.62767523801972,43.06927890763429],[142.62758024856592,43.06915817943597],[142.62746658554545,43.06895564491592],[142.6273377826097,43.068728504870485],[142.6272158672196,43.06852288660201],[142.6269231218086,43.0681533340483],[142.62674064749172,43.067864338284366],[142.62642430767175,43.0672110808533],[142.6261297015192,43.066756292943815],[142.62581879511544,43.0664602810982],[142.62523621789188,43.06618808560859],[142.6244598660869,43.06591701515739],[142.62392109923402,43.065712239191726],[142.62346617762813,43.06549113384419],[142.62307016496456,43.065216093462226]],"type":"LineString"}},{"type":"Feature","properties":{"@id":"way/912892853","name":"ロードトゥゴンドラ"},"geometry":{"coordinates":[[142.62926560859103,43.067073565594654],[142.6292672828506,43.06675466269881],[142.62924527614757,43.06657416230559],[142.62919533955443,43.06652391263561],[142.62911311074137,43.066509836583016],[142.62885131985007,43.066585464985366],[142.62825293511148,43.066784372117816],[142.62800374570358,43.06687766809499],[142.62772011125904,43.06696152752305],[142.6274251,43.0670037],[142.62718636622262,43.06700934550192],[142.62696485496352,43.0670228547572],[142.62672687016257,43.06701214210267],[142.6264340403483,43.066951345274816]],"type":"LineString"}},{"type":"Feature","properties":{"@id":"way/922436139","name":"バードウォッチャー_2"},"geometry":{"coordinates":[[142.62931021182615,43.068152570572614],[142.62975337784113,43.06816464098533],[142.62988188029976,43.068137191120194],[142.629958280839,43.06810974125506],[142.63002165589847,43.06806008812118],[142.63007417638755,43.06799774740746],[142.63013012350666,43.067891119655066],[142.63017937062386,43.067723061973986]],"type":"LineString"}},{"type":"Feature","properties":{"@id":"way/922436140","name":"バードウォッチャー"},"geometry":{"coordinates":[[142.62940853984492,43.0677592005604],[142.6296963399072,43.06770642977502],[142.62993048675628,43.06767185709542],[142.63004737060928,43.06766393260463],[142.63012517802105,43.06765442215821],[142.6301869492361,43.0676195457943],[142.63023352405793,43.06756563794953],[142.6302876915428,43.06749039227164],[142.63034428270583,43.06739774716179],[142.6305067963233,43.067156205374694],[142.63057602761344,43.0670698220724],[142.6307183537977,43.06696272877155]],"type":"LineString"}},{"type":"Feature","properties":{"@id":"way/327228176","name":"ハローニポ"},"geometry":{"coordinates":[[142.63265976090153,43.06880485336017],[142.63228791823292,43.06877322616167],[142.63188356334368,43.06872259790382],[142.63145144633324,43.06860849705502],[142.63117686583593,43.06853244548572],[142.63106179472155,43.068475755087015],[142.63096263181708,43.06838630977771],[142.63095440918872,43.068261091535945],[142.630981417801,43.067559156429716],[142.6309555148915,43.06666433363392],[142.63099411468949,43.06636937358303],[142.63103517530084,43.06586932386248],[142.6310654744988,43.06544111209706],[142.63105977349704,43.06524209649497],[142.63104850431995,43.06498583661613],[142.63105971656745,43.064641809646716],[142.6311159485961,43.06408965786514]],"type":"LineString"}},{"type":"Feature","properties":{"@id":"way/912882840","name":"ホタルストリート"},"geometry":{"coordinates":[[142.63248441065264,43.0658560445867],[142.63260098045828,43.06579716089442],[142.63265713446128,43.06575729279835],[142.63274992055847,43.065670077085244],[142.632784,43.065627],[142.63279072764294,43.065587441551386],[142.6327733586105,43.065529405309505],[142.6327514939852,43.065486229882765],[142.632711,43.0654405],[142.632515,43.065306],[142.632418,43.065182],[142.632274,43.064748],[142.63213751611994,43.06454348804573],[142.63203673250388,43.064328120538065],[142.63196943469447,43.06411151818095],[142.6318667917444,43.06386900830922]],"type":"LineString"}},{"type":"Feature","properties":{"@id":"way/912882837","name":"フェアリーウッズ"},"geometry":{"coordinates":[[142.63281123468735,43.068756961075785],[142.6331870886581,43.068581146331226],[142.63351731970425,43.068391590662735],[142.6337874668134,43.06827134079043],[142.6340292290372,43.06822127039521],[142.634346173522,43.068210096398246],[142.63469754682217,43.068216060401326],[142.6349667,43.0681989224039],[142.6350832208601,43.06811633522361],[142.63511322556985,43.068033757620114],[142.63506788169568,43.06796494136438],[142.6348953410329,43.067737144011716],[142.63477320024614,43.06766889761252],[142.63455620022458,43.0674983328004],[142.6342720003701,43.06738299726788],[142.63387470022445,43.06732499512765],[142.633511,43.0672179],[142.63345088047586,43.06719476574186],[142.63341700597374,43.067163962126436],[142.63340150298683,43.06709289435233],[142.63343849004374,43.06701223983633],[142.63345164140463,43.06693258706573],[142.63344115782076,43.06688413269427],[142.63338105678048,43.0668029784766],[142.63316222696034,43.066610593464844],[142.6329796915859,43.06645907430496],[142.6327186799667,43.06630509392835],[142.6326064542726,43.066226195896846],[142.63254123458984,43.06613203518247],[142.63241560827564,43.06582232295833],[142.63226345697962,43.065729235454086],[142.6321896490358,43.06567048916777],[142.6321367326549,43.06562414390965],[142.63209948494438,43.065558720158435],[142.63206677264213,43.06540879454165],[142.63199818758955,43.06513064472725],[142.6319638950632,43.06499729334297],[142.63191681804483,43.064937330852885],[142.63181105281575,43.06487598524955],[142.63166321974649,43.06476648171217],[142.63153945013653,43.06459666380082],[142.63149875323444,43.06446477814947],[142.63147383805588,43.06426987149153],[142.63149995029363,43.06397429913485]],"type":"LineString"}},{"type":"Feature","properties":{"@id":"way/327229202","name":"グランプリZ"},"geometry":{"coordinates":[[142.63413991145853,43.07162493689663],[142.63476749913508,43.071462287619795],[142.6350812929722,43.07138096288862],[142.63528138194732,43.0713162505166],[142.63538458996393,43.071155144538764],[142.63540269961902,43.070636174674185],[142.6354251699893,43.069898281846235],[142.63533245666315,43.06882122300045],[142.63527172502688,43.06847608703417],[142.63516922004513,43.06810806370686]],"type":"LineString"}},{"type":"Feature","properties":{"@id":"way/327229203","name":"フリーウェイ"},"geometry":{"coordinates":[[142.63143322652905,43.072168548708895],[142.63130690134193,43.07178232564862],[142.63117402784474,43.07128246773262],[142.63109565142855,43.0707687713549],[142.63104999000487,43.07014354638155],[142.63100109749885,43.06949561706786],[142.63097401499252,43.068656497953874]],"type":"LineString"}},{"type":"Feature","properties":{"@id":"way/327228181","name":"サンシャイン"},"geometry":{"coordinates":[[142.63046906865395,43.07340756070587],[142.6306886743739,43.073353308993546],[142.63089916865394,43.07325246721966],[142.63119243879493,43.07319623936198],[142.63151190795546,43.073142164806164],[142.63173570697307,43.073081434545614],[142.63203147166467,43.072953395450945],[142.63289214576815,43.072416025496864],[142.6336169,43.0719921],[142.63383674576804,43.07185278084625],[142.63395180995104,43.07176005281744],[142.634009745011,43.07169002050398],[142.6339544883212,43.07162861130533],[142.63382117812932,43.07163739786881],[142.63365933933432,43.071674938715354],[142.6326969,43.0719983],[142.6318851,43.0722257],[142.631619,43.0722603],[142.631412,43.0722742],[142.63115698129363,43.07222876417316],[142.63075723678068,43.072099535848665],[142.63003416645722,43.07175608120381],[142.6289566,43.0711954],[142.62879321483828,43.071093105888096],[142.62866537032343,43.07094537707137],[142.6286442277425,43.07083194196822],[142.6286637941998,43.06999407969306],[142.62866313914182,43.069471091938325],[142.6286531771788,43.06917857581565],[142.6287077431802,43.068856699161785],[142.62882557630974,43.068504811764875],[142.62895192517678,43.06808692598043],[142.62905720767387,43.067801180423984],[142.6292203148281,43.067350080525216],[142.629412,43.0669446],[142.6295912,43.0666365],[142.62983923153473,43.06626785393118],[142.6302392304283,43.0658336043843],[142.6305702076923,43.06553244714139],[142.63081630262565,43.06539136694149],[142.63099999268147,43.06531487459725]],"type":"LineString"}},{"type":"Feature","properties":{"@id":"way/912882831","name":"ヴィーナス"},"geometry":{"coordinates":[[142.62850678675719,43.071004409309765],[142.6282920421383,43.07069810650453],[142.62812130165514,43.070465737844614],[142.62782001294883,43.070048208021554],[142.62770095217616,43.06989759936316],[142.6274956542982,43.06965330116005],[142.62715474700747,43.06922011157047],[142.62682508639648,43.06891790285001],[142.6265728180613,43.068672231471126],[142.62608033580062,43.06801788136958],[142.62538,43.0669403],[142.6248686,43.0662785],[142.62473616732245,43.06612796173491]],"type":"LineString"}},{"type":"Feature","properties":{"@id":"way/912892839","name":"クネクネフォレスト"},"geometry":{"coordinates":[[142.606083,43.069503],[142.60593271735033,43.069706706026665],[142.6057911997487,43.0699075475127],[142.605731,43.069987],[142.60565723543522,43.07009365334347],[142.60561366593146,43.07021737909746],[142.60559774603652,43.070401187958616],[142.60561077871512,43.0705162583352],[142.60563044472133,43.070675397561],[142.60557191663537,43.07090556705806],[142.60549898692602,43.07106509915909],[142.60545500979035,43.0712563562505],[142.605353,43.071479],[142.60536503414377,43.07156619399841],[142.60539361343535,43.07162531712086],[142.60545637757835,43.071653502203425],[142.60554064720958,43.071647240014],[142.60562350000106,43.071619469866405],[142.605796,43.07146],[142.6059369027417,43.071297253556565],[142.60618662561188,43.07106991223539],[142.60640059030993,43.07087243214437],[142.60668,43.070663],[142.60699930683904,43.07049373487079],[142.608198,43.070045],[142.60832736580295,43.07002612319968],[142.60838260923205,43.070034955218766],[142.60843784412617,43.070068629600726],[142.608438,43.070109],[142.6081607530435,43.07045744867651],[142.608066,43.070635],[142.608025,43.070983],[142.60800566936678,43.071333127628854],[142.6080094462444,43.07145255995158],[142.60805546686143,43.07160133994948],[142.60814,43.071767],[142.60826277695233,43.071922190423976],[142.608432,43.0721],[142.60856318339677,43.07220351785539],[142.608795,43.072324],[142.60898610571996,43.07243781630358],[142.6091838900066,43.07250717092785],[142.60937315500792,43.07254540924985],[142.60961938680762,43.07253390934836],[142.61159503357356,43.072229916410954],[142.61291474464238,43.07199863151108],[142.614055550712,43.07183580327205],[142.61428880198082,43.07177346090735],[142.61462635945225,43.07165570356771],[142.6152635448642,43.07129550476289],[142.61572669697074,43.07106264770247],[142.61591201751494,43.07101773926138],[142.61598970952457,43.07104995119995],[142.616059,43.071134]],"type":"LineString"}},{"type":"Feature","properties":{"@id":"way/912892841","name":"ナスター"},"geometry":{"coordinates":[[142.60756923368425,43.06928025639594],[142.60864644429864,43.069691570733944],[142.60985126631587,43.07014601514899],[142.61117248546776,43.07057360152528],[142.6128466481725,43.070877827595815],[142.61476065932823,43.07128379182302]],"type":"LineString"}},{"type":"Feature","properties":{"@id":"way/912892837","name":"アスペンバーン"},"geometry":{"coordinates":[[142.6045367942084,43.07156080054787],[142.60522028938135,43.07177961779273],[142.60565846151874,43.071938699039144],[142.60613915529711,43.07205585898009],[142.60744360911292,43.07227911110747],[142.60822317459127,43.07244923169493],[142.6087928422827,43.07254779899607],[142.60919053881366,43.07256093971408]],"type":"LineString"}},{"type":"Feature","properties":{"@id":"way/912892836","name":"グローリー"},"geometry":{"coordinates":[[142.6017942180445,43.0739104612095],[142.60251799014216,43.073938969933735],[142.60300653211252,43.07393257583967],[142.60330220580659,43.07389833299055],[142.60364851807117,43.0738489935636],[142.60422510325617,43.073723469885024],[142.60454942601962,43.0735764672495],[142.60530932383017,43.073209671684275],[142.6059421426878,43.07304500289854],[142.60707375089538,43.07286732097456],[142.6085587531744,43.07264300287433]],"type":"LineString"}},{"type":"Feature","properties":{"@id":"way/441167464","name":"ドラゴンリッジ"},"geometry":{"coordinates":[[142.59842875945805,43.07685735633308],[142.5984367428238,43.076805327675125],[142.59844795709952,43.07670952055366],[142.59845197797281,43.076587906564946],[142.59845801289538,43.07635230680957],[142.59848538626437,43.0761612400339],[142.5985142838097,43.07599466664236],[142.59856607486904,43.075879093325014],[142.598640728551,43.075765746658284],[142.59881759777429,43.075604979955074],[142.598983,43.0754624],[142.5990798348867,43.07529632086846],[142.59920797358774,43.075142125893976],[142.5994048235877,43.07499231892032],[142.59984670049639,43.07474592812109],[142.6005228656098,43.07445145049147],[142.60110842537017,43.07414984619161],[142.6015798,43.0739247],[142.60176473800868,43.07380521095179],[142.6021495,43.0734911],[142.6032903,43.0724621],[142.6043988,43.0715496],[142.6050133,43.071039130982044],[142.60547717820688,43.07050346346819],[142.60558419954378,43.070374158952845],[142.60565384074903,43.07020248905921],[142.6057283265609,43.07008541806489],[142.6057967047621,43.070029068721155],[142.6060344569729,43.069946702740125],[142.60650996138997,43.06973716814859],[142.60701121132553,43.06940770699696]],"type":"LineString"}},{"type":"Feature","properties":{"@id":"way/912892852","name":"無名_連絡ルート"},"geometry":{"coordinates":[[142.59729022728376,43.07817802802287],[142.59721644860883,43.07789639710596],[142.59705982256028,43.07755813909598],[142.59705701103616,43.0773205645336],[142.59726630387252,43.07701473609331],[142.59757250745298,43.0765303185562],[142.5978630608282,43.07619003719615],[142.5981945386635,43.07591613313242],[142.5983946908526,43.07580203286626],[142.5986074992977,43.07562343992472],[142.59874236007443,43.07558583404521]],"type":"LineString"}},{"type":"Feature","properties":{"@id":"way/327228180","name":"ムーンシャイン"},"geometry":{"coordinates":[[142.6303384542868,43.07340438686477],[142.63018330122304,43.07333264844851],[142.63007875306363,43.073185760424394],[142.62994855428906,43.07304408674907],[142.62971938143133,43.072900149366866],[142.62949332469353,43.07283115197583],[142.62929111541035,43.07276282465875],[142.6291648518382,43.07264694522465],[142.6290424,43.072455],[142.62868014816186,43.07113606717867]],"type":"LineString"}},{"type":"Feature","properties":{"@id":"way/912882839","name":"パインロード"},"geometry":{"coordinates":[[142.63108833820692,43.06824323573203],[142.63145906252623,43.06803573325831],[142.63209656563205,43.067648],[142.63248229534415,43.06749735441335],[142.63288549254688,43.06728290462259],[142.6331195024681,43.067198590805404],[142.63329987462419,43.067170255893494]],"type":"LineString"}},{"type":"Feature","properties":{"@id":"way/912892838","name":"ショートストーリー"},"geometry":{"coordinates":[[142.60352540124453,43.07248450076242],[142.60448550510483,43.07227061690739],[142.60543538717224,43.07204179907899]],"type":"LineString"}},{"type":"Feature","properties":{"@id":"way/912892849","name":"ノーグラビティ"},"geometry":{"coordinates":[[142.6012784399772,43.07897668937786],[142.6017913021501,43.078717652165835],[142.6023123458675,43.07847953037671],[142.6026267817029,43.07827218708145],[142.6027983173232,43.07823425092998],[142.60336256707978,43.078360654173586],[142.60354691140256,43.07832562221087],[142.60414033295064,43.07781251157857],[142.6065135,43.075609],[142.6077271,43.074701],[142.6084082,43.0744643]],"type":"LineString"}},{"type":"Feature","properties":{"@id":"way/912892850","name":"ノーススター"},"geometry":{"coordinates":[[142.60936427413583,43.07860077708067],[142.60926645697054,43.07836229538881],[142.60923740009872,43.078156053979264],[142.60928113282793,43.07788214523861],[142.609363422436,43.077579183680704],[142.60940650678722,43.07732790761854],[142.60939996186494,43.07707663132865],[142.60922919714875,43.07673374518676],[142.60897240835968,43.07628085978582],[142.60866756780382,43.07545561947772],[142.60854584986907,43.07496163751404],[142.60853605604956,43.07469657278497],[142.60853885322777,43.07432995715569],[142.60858921723343,43.07380929550891],[142.60853325148523,43.07289878876698]],"type":"LineString"}},{"type":"Feature","properties":{"@id":"way/921870263","name":"森の迷路"},"geometry":{"coordinates":[[142.61649258675044,43.07018184487176],[142.61720490712477,43.06897589280755],[142.61747967183487,43.06866461503623],[142.6177742694853,43.06841413761474],[142.61833994657545,43.06809575493544],[142.61890562366378,43.067765531578864],[142.6193507760944,43.067464858652414],[142.6198231254354,43.06719888657773],[142.6201722187576,43.06690589497389],[142.62046457376832,43.06660698154535],[142.62084664695766,43.066174956830224]],"type":"LineString"},"id":31}]}