{"type":"FeatureCollection","features":[{"type":"Feature","properties":{"@id":"way/253992685","name":"フレンドリーゲレンデ"},"geometry":{"coordinates":[[140.0354534670769,37.61970650155409],[140.03557353959172,37.6201071316862],[140.0360059263633,37.6211358282517],[140.03620079909317,37.621525928616975],[140.03641038908998,37.621941271364804],[140.0372385804605,37.62369339966609],[140.03756009495154,37.62467209990693],[140.03799940469338,37.62643537348628]],"type":"LineString"}},{"type":"Feature","properties":{"@id":"way/253992663","name":"フォレスト1"},"geometry":{"coordinates":[[140.03049277797146,37.62164166889092],[140.030407609354,37.62132404234109],[140.03043835292482,37.62097896364593],[140.03055093547766,37.620662269063544],[140.03066351803048,37.62050573643738],[140.03085084332514,37.620296882711294],[140.03100067458615,37.620201353691854],[140.03113927212422,37.6202126],[140.0314884,37.6202126],[140.0323082065349,37.620396311620695],[140.0329939277902,37.620433990904914],[140.03398943878346,37.620341670863596],[140.0351328928131,37.620490607025125]],"type":"LineString"},"id":1},{"type":"Feature","properties":{"@id":"way/253992665","name":"フォレスト2"},"geometry":{"coordinates":[[140.03094212690064,37.62171729991369],[140.03096864049718,37.62142329312252],[140.03104008898575,37.62126275327651],[140.0312826854789,37.62101269784701],[140.03167418547892,37.62062966159643],[140.03198463723228,37.62050118747593]],"type":"LineString"},"id":2},{"type":"Feature","properties":{"@id":"way/253992676","name":"フォレスト3"},"geometry":{"coordinates":[[140.03133990122063,37.6220346614285],[140.0314628432024,37.62245401677797],[140.03168569629028,37.62302822718621],[140.03182902592036,37.62340211076064],[140.03189906358205,37.62354230538032],[140.0321038,37.6236825],[140.03266069382414,37.62392655956929],[140.033315661728,37.62415294369543],[140.03424508518592,37.624489370775514],[140.0347822,37.6247526],[140.0350908234328,37.624866787576075],[140.0352883,37.6250514],[140.0357466,37.6254976],[140.0359450105079,37.62567457544947]],"type":"LineString"}},{"type":"Feature","properties":{"@id":"way/253992673","name":"デビル1"},"geometry":{"coordinates":[[140.0297341617764,37.624411586433496],[140.0306504,37.6246572],[140.0328561,37.6249446],[140.0337442,37.6250429],[140.034594,37.6252622],[140.0354629,37.6255345],[140.03598176297464,37.62578273395252],[140.03655739168175,37.626188325398616],[140.0373585937426,37.626819671260755]],"type":"LineString"}},{"type":"Feature","properties":{"@id":"way/253992670","name":"デビル3"},"geometry":{"coordinates":[[140.02978272140973,37.62475326688531],[140.02965377753043,37.62488444109876],[140.02945846754554,37.62503725914098],[140.02939561449523,37.62510028469509],[140.0293991275539,37.62518804598166],[140.02942311464122,37.625543311417516],[140.02933757573362,37.625706040166],[140.02915934139986,37.62581108471575],[140.0290704919414,37.62590564127284],[140.0291670333323,37.62598970982379],[140.02991056942176,37.62598765104502],[140.0310494,37.6259239],[140.0317447160606,37.62590884000375],[140.0330383374796,37.62606693136411],[140.0337376570983,37.62619860237721],[140.0348498,37.6265509],[140.035375,37.6267589],[140.0370206213824,37.62727743964418]],"type":"LineString"}},{"type":"Feature","properties":{"@id":"way/253675321","name":"フローズン3"},"geometry":{"coordinates":[[140.0406617180472,37.61257294388952],[140.04127877963015,37.61265720131365],[140.04187897060655,37.61282498462724],[140.04245646765165,37.61295437172042],[140.0430424,37.6129568],[140.04367352356323,37.61288581023927],[140.0442456,37.612748],[140.0447585,37.6125323],[140.04514721182133,37.612246851577936],[140.04536184712464,37.61184458214086],[140.04533954574273,37.61119925513394],[140.04539376347554,37.61081154670592],[140.04538742026904,37.61017251794417],[140.04518343606517,37.60962186432623],[140.0450368411993,37.60930610634897],[140.04481372721875,37.60886911283229],[140.04426228546868,37.60832095125882],[140.04374910328008,37.60793949044661]],"type":"LineString"}},{"type":"Feature","properties":{"@id":"way/253675319","name":"フローズン4"},"geometry":{"coordinates":[[140.04182303155847,37.608911398233055],[140.04173118794142,37.608231699733516],[140.0416754,37.60758491031028]],"type":"LineString"}},{"type":"Feature","properties":{"@id":"way/253675318","name":"フローズン2"},"geometry":{"coordinates":[[140.0403395694001,37.612427808174374],[140.04074934521665,37.61157595823873],[140.04080220143356,37.611347642399394],[140.04082463059999,37.61076581216203],[140.04135622349673,37.60971779828135],[140.04155202573628,37.609262698685534],[140.0416962099726,37.60910746845923],[140.04205533160518,37.60893093267919],[140.04279902700483,37.60863363754341],[140.04297232550468,37.60845334417943],[140.0431972420095,37.60821171380906],[140.04346087801778,37.60794388373447],[140.04359735553058,37.607824266634694],[140.04356177302887,37.607704649534924],[140.04326693000738,37.60742452314204]],"type":"LineString"}},{"type":"Feature","properties":{"@id":"way/253675320","name":"フローズン1"},"geometry":{"coordinates":[[140.0402502838807,37.61242718782563],[140.04007623448555,37.61228665117538],[140.03991958370386,37.612261887141614],[140.0397419913276,37.612248193622875],[140.03953991437714,37.612231832602404],[140.03935209669146,37.612248487595664],[140.0391434006681,37.61219898686321],[140.0389765486621,37.612099985481805],[140.0388168307885,37.61194057384142],[140.03849048719127,37.61176781849509]],"type":"LineString"}},{"type":"Feature","properties":{"@id":"way/253675314","name":"ピーク3"},"geometry":{"coordinates":[[140.03850000576472,37.61170430437548],[140.03855521840381,37.61115733855827],[140.03875767472337,37.61020673998918],[140.03889404944493,37.60972016671525]],"type":"LineString"}},{"type":"Feature","properties":{"@id":"way/253675315","name":"ピーク2"},"geometry":{"coordinates":[[140.03500408427232,37.61270139459782],[140.03563790349466,37.61215852286267],[140.03595530174735,37.611527253904406],[140.03647061223313,37.61029160259617]],"type":"LineString"}},{"type":"Feature","properties":{"@id":"way/253675317","name":"ピーク1"},"geometry":{"coordinates":[[140.03573104199924,37.61289987274196],[140.035485231056,37.61267869092631],[140.0354216163081,37.612457509110655],[140.03524256916174,37.61196280913681],[140.0351222006145,37.61144007281506],[140.0350524421215,37.61087724483571],[140.03490142391104,37.6100387722773],[140.03483695094897,37.609735978283254]],"type":"LineString"}},{"type":"Feature","properties":{"@id":"way/253675312","name":"ブラックバレー5"},"geometry":{"coordinates":[[140.03952231651007,37.606121165729114],[140.03981632273315,37.60601649947084],[140.0400025,37.6060506485508],[140.0407129,37.6062621],[140.0421662531115,37.60668722198899]],"type":"LineString"}},{"type":"Feature","properties":{"@id":"way/253675310","name":"ブラックバレー2"},"geometry":{"coordinates":[[140.03722075056348,37.60772465291249],[140.03640343433372,37.606478404768644],[140.0360719627329,37.605998691096346],[140.03597257603153,37.6057065180024],[140.03598185942715,37.605300422692906],[140.03609867603151,37.60474323200479],[140.03626774244862,37.60418033208607],[140.03639961810575,37.60366359301614],[140.03641277951988,37.603330909008825]],"type":"LineString"}},{"type":"Feature","properties":{"@id":"way/253675311","name":"ブラックバレー3"},"geometry":{"coordinates":[[140.03496570806894,37.60931021260069],[140.035705043632,37.60886595023051],[140.03616325403362,37.608616485941525],[140.03660898322684,37.60834065462456],[140.03720376645558,37.607928397372554],[140.0378098416134,37.607565342744266],[140.03821660605223,37.6072287448512],[140.03846162786726,37.60704880743607],[140.0386983288756,37.606822726968836],[140.0389019,37.6064798],[140.03919193555802,37.6063149765294]],"type":"LineString"}},{"type":"Feature","properties":{"@id":"way/253675309","name":"ブラックバレー1"},"geometry":{"coordinates":[[140.03470360464613,37.60923048668924],[140.03454203765264,37.608779774153454],[140.03438812591736,37.608184851363674],[140.03418604474356,37.607639948684],[140.0339867953557,37.607126],[140.0337646447436,37.606591643913475],[140.03368606943843,37.60627394404516],[140.03379536943828,37.605993188393356],[140.03394978826478,37.605582897746906],[140.03408665061215,37.60505095541189],[140.0343138362093,37.604689439153745],[140.03464011390716,37.60407703943658]],"type":"LineString"}},{"type":"Feature","properties":{"@id":"way/253675306","name":"ホワイトバレー1"},"geometry":{"coordinates":[[140.0300519,37.6055235],[140.03051562776605,37.60559300825386],[140.0307708860392,37.60561036204908],[140.031579683607,37.605475323448914],[140.03227327435243,37.60536636220649],[140.03261503353036,37.605290766481104],[140.03283609984186,37.605206478309285],[140.03327274643314,37.60498140115702],[140.0338224858847,37.604559609518176],[140.0341857,37.6040422],[140.03540802113304,37.60293110947639],[140.03612466004773,37.60199573421734],[140.03704338404106,37.60134797357027]],"type":"LineString"}},{"type":"Feature","properties":{"@id":"way/253675307","name":"ホワイトバレー2"},"geometry":{"coordinates":[[140.03109398122263,37.60353019442563],[140.03178781367376,37.60362098794548],[140.03225715952428,37.60371324868735],[140.03277875282458,37.60379870331847],[140.03321572613783,37.60384570325754],[140.03365353476647,37.603854960881364],[140.03426392461776,37.60381864274857]],"type":"LineString"}},{"type":"Feature","properties":{"@id":"way/253675308","name":"ホワイトバレー3"},"geometry":{"coordinates":[[140.0337510941157,37.60122293633588],[140.03383253647146,37.60121169165651],[140.03389974940472,37.60124804690404],[140.03389884068116,37.60138634770333],[140.0337819802276,37.60198124977465],[140.0337175490913,37.60257699946064],[140.03362385238614,37.603093874885175],[140.0334945,37.6036164],[140.0335632123441,37.603710876611956],[140.03371736898185,37.60375103235691]],"type":"LineString"}},{"type":"Feature","properties":{"@id":"way/253675336","name":"ダット"},"geometry":{"coordinates":[[140.03394863553268,37.60100869309452],[140.0342623,37.6008806],[140.03482943967327,37.60059841234319],[140.0354169154902,37.600452025758734],[140.0357927710827,37.60036582754897],[140.0359972220317,37.60029343962263],[140.03623072461085,37.60014854737439],[140.0363364,37.6000635],[140.03664768123903,37.599668016466566],[140.03679552831602,37.599341418389166],[140.03710025421708,37.598959578269955],[140.03757606849987,37.598343210693585],[140.03771379948154,37.59798847487547],[140.03776728072174,37.59733680534758],[140.0378851271925,37.59675586887654],[140.03784019078876,37.596558382241795],[140.03763547039506,37.59615142791008],[140.03743807323667,37.59581560118089],[140.03737140843165,37.5954199262264],[140.03740191264737,37.59498766975534],[140.0374178910486,37.59441729863343],[140.0373734936291,37.59390927068529],[140.03733490653886,37.59347720537321],[140.03729355163404,37.59272499022151],[140.03726677254633,37.59223361860457],[140.0374480289559,37.591504517278764],[140.03755665628026,37.59088591283447],[140.03760332624745,37.58995189620856],[140.03768776333635,37.58902938964974],[140.0376445708241,37.58862895523779],[140.0375227464266,37.58827999077093],[140.03729810623136,37.58808815184845],[140.03533164129817,37.58707561511377]],"type":"LineString"}},{"type":"Feature","properties":{"@id":"way/253675335","name":"ズナイ2"},"geometry":{"coordinates":[[140.03508900491195,37.59303019584689],[140.0351403909239,37.591803271063206],[140.0351820258955,37.5905876],[140.03511673417432,37.58896716314897],[140.0350532,37.5880836],[140.035037,37.5869169623707]],"type":"LineString"}},{"type":"Feature","properties":{"@id":"way/253675332","name":"バトウ2"},"geometry":{"coordinates":[[140.02508904945648,37.58971464005901],[140.0253395,37.5895429],[140.0266924975699,37.588851464977026],[140.0272882566228,37.58865503179112],[140.0279199,37.5882169],[140.0285912448948,37.58759045801594],[140.0287271616615,37.587225792330415],[140.02898293183847,37.58694818695804],[140.02941456991948,37.58681640570913],[140.02988615913586,37.586819172952744],[140.0309791543279,37.58697904346533],[140.03124241534215,37.58699724579108],[140.03149568857253,37.58689672905622],[140.03219699682006,37.58650970157525]],"type":"LineString"}},{"type":"Feature","properties":{"@id":"way/253675333","name":"バトウ1"},"geometry":{"coordinates":[[140.02525052891883,37.58945161835076],[140.0252906010908,37.58893138142216],[140.0253907,37.5884767],[140.0269848,37.5876031],[140.028167,37.5870114],[140.0287491684655,37.586831203174874]],"type":"LineString"}},{"type":"Feature","properties":{"@id":"way/253675334","name":"ズナイ1"},"geometry":{"coordinates":[[140.03007373924578,37.60541968956482],[140.03032827408262,37.60488511635461],[140.0305473560344,37.60439826587905],[140.03078827723022,37.60400945995259],[140.03090215697742,37.60372289735742],[140.03100875697834,37.603381544458756],[140.0311456671036,37.603130501404785],[140.03125345823645,37.60295443488393],[140.03155989716726,37.60268891972349],[140.03180809811047,37.602573358457605],[140.03224385508958,37.60236012932424],[140.0325558563485,37.60222764498459],[140.03321779559423,37.601633175440945],[140.03365503672643,37.60120884335864],[140.0337194022561,37.60105115608969],[140.03349936147328,37.600424907565916],[140.03311082088618,37.59947343163979],[140.03279997765978,37.59887826422525],[140.03268061813256,37.59850925008533],[140.03265613114033,37.598190347959786],[140.03270483113806,37.597395928192626],[140.0328579553172,37.59665476107005],[140.03293380769065,37.59646810373093],[140.03331536044425,37.59625638969452],[140.03421359670935,37.59585292767127],[140.03447637876803,37.59569790170035],[140.03457049854595,37.59553452341082],[140.03496465531714,37.59471690057735],[140.03511661576138,37.59411209126036],[140.0350920159074,37.59357694289107],[140.03508014377357,37.59310606840961]],"type":"LineString"}},{"type":"Feature","properties":{"@id":"way/253675313","name":"ピーク4"},"geometry":{"coordinates":[[140.0349824,37.6100508],[140.0359871,37.6100893],[140.0363663,37.6100437],[140.0372673,37.6099353],[140.0384341,37.6095951],[140.0387713,37.6094406],[140.0392606,37.6092164],[140.0404517,37.6083947],[140.0412053,37.6078106],[140.0416754,37.6074265],[140.0422424,37.6069633]],"type":"LineString"},"id":25},{"type":"Feature","properties":{"name":"ブラックバレー4"},"geometry":{"coordinates":[[140.03909480595195,37.606190667044146],[140.03817396206648,37.60498318519495],[140.0375515986144,37.60424862414837],[140.03737378048385,37.60394674764238],[140.03738648177858,37.60381593410952],[140.03743093631158,37.603690151649346],[140.03745633889827,37.60356940025491],[140.03747539084185,37.60338324152137],[140.0374303059828,37.60315932852842],[140.0373734345065,37.602994120206674]],"type":"LineString"}},{"type":"Feature","properties":{"name":"ブラックバレー2迂回路"},"geometry":{"coordinates":[[140.03695117195178,37.60800506589618],[140.03650803138754,37.60811539829761],[140.03594222685672,37.60831319818547],[140.03567212213267,37.60848036773382],[140.03544844165742,37.608587356047124],[140.03541889895172,37.608570639133546],[140.03544844165742,37.608497084667704],[140.03554129015498,37.608336601944444],[140.03562991826823,37.60812931124792],[140.03566368136006,37.607905302910524],[140.0357607502446,37.60773813206768],[140.03587892106162,37.60751077912076],[140.03610260153687,37.60719315251693],[140.03627563737712,37.606885554934635],[140.03630940046713,37.60680865534009],[140.03627141699087,37.60676853378101],[140.03619122965011,37.60676519031682],[140.03586203951664,37.606875524557424],[140.03562991826698,37.60696579790495],[140.03537669508796,37.60707278839686],[140.03522476118093,37.607132970481615],[140.03517833693036,37.607129627033814],[140.03516567577157,37.60708950564786],[140.03514035345677,37.60701260626605],[140.0353133892969,37.606811998804204],[140.03551525955322,37.60654167959778],[140.03557856534894,37.606347757832154],[140.03570095655215,37.60611371364867],[140.03576426234605,37.60590641675708],[140.0358022458242,37.60574927195492]],"type":"LineString"}},{"type":"Feature","properties":{"name":"ピーク3尾根"},"geometry":{"coordinates":[[140.0382892500387,37.61176970133465],[140.03786541840725,37.61191849694826],[140.03757644229643,37.612097814341965],[140.03727783364866,37.612383958225465],[140.03702738768328,37.61261668777074],[140.03678657425684,37.6128188948184],[140.03644943546152,37.61287612312792],[140.03591482965373,37.61292953617715],[140.03574626025608,37.612952427472706]],"type":"LineString"}},{"type":"Feature","properties":{"name":"パノラマライン"},"geometry":{"coordinates":[[140.03712617311623,37.60156897718764],[140.03748773895506,37.60158713302718],[140.03766852187562,37.60158108108145],[140.03773472407022,37.60149837110531],[140.0376990767346,37.6013450548094],[140.0376456057313,37.60113727037785],[140.03758958848744,37.600919398699446],[140.03767538568854,37.60070301625559],[140.03779251265047,37.600475056580436],[140.037924917042,37.600259200314824],[140.03804968271868,37.60007360377213],[140.03825592802173,37.59981538172565],[140.03848508946686,37.59954505455988],[140.03885174790418,37.59932717805245],[140.03910382549577,37.599232361297496],[140.03928206217807,37.59910123154437],[140.03947048381116,37.598788536583],[140.0394745699508,37.59823534724799],[140.03942905774096,37.59762833968078],[140.03927735037144,37.59669077370697],[140.03911805763357,37.59616188512484],[140.038867740476,37.595897439424405],[140.03855674036862,37.59573516546129],[140.03826849636783,37.59553683013689],[140.03823056952632,37.595302433162104],[140.0382381548946,37.59511010688827],[140.03826849636783,37.59487570856997],[140.0381140619142,37.594456209600295],[140.03787891549325,37.59428191195336],[140.0377120373871,37.59411362418261],[140.03756791538586,37.59408958304192],[140.03745413485956,37.59409559332778],[140.0372265738069,37.594179737280825],[140.03712037864733,37.59428191195336],[140.03692315906784,37.59451631214205],[140.03663491506705,37.59490096726272],[140.03639976864605,37.59513536550146],[140.03616462222345,37.595399813910134],[140.0360205002239,37.59553203776247],[140.03586120748605,37.59554405810073],[140.03578535380132,37.59543587498405],[140.03577776843304,37.59515339610432],[140.03582328064454,37.59472066042258],[140.03587800614184,37.593969295044715],[140.03586283540528,37.59347644914277],[140.03574146951058,37.59304971407967],[140.03565044508917,37.59266504938988],[140.03565044507877,37.59232245572636],[140.03569595729238,37.59176712272732],[140.03566561581914,37.59141851442865],[140.03553666455622,37.59135239887803],[140.03521807908055,37.59125022018334],[140.03476295697357,37.59126224121327],[140.0344337334168,37.59147258844317],[140.0341879248203,37.59171280922996],[140.03394211622214,37.5919270595475],[140.03379463106455,37.591920567122784],[140.033655339525,37.59183616554883],[140.0334996607478,37.59168683945228],[140.03326204576518,37.59153751303866],[140.03299984992918,37.59125833679907],[140.03290152649026,37.591089532053275],[140.0326721051315,37.59090124938473],[140.03247545825542,37.590738936357354],[140.0322296496572,37.59074542888514],[140.03206577725837,37.59086229429042],[140.03200842192007,37.59099214452527],[140.0319510665799,37.591284306726266],[140.03190190486134,37.591615422500055],[140.03182816228167,37.59177773361586],[140.0316806771242,37.591823180664804],[140.0314840302463,37.59179071848965],[140.0313693195679,37.59163489985232],[140.0311890599295,37.59139467881407],[140.03086475529983,37.59089597590598],[140.03082102840233,37.59076954414256],[140.03120228265186,37.59050520506615],[140.03144056655873,37.5901401638463],[140.0314564521521,37.589838059413395],[140.03142468096524,37.58909538080354],[140.03144056655873,37.58864221733313],[140.03132936741514,37.58803799505401],[140.03161530811184,37.587413355792236],[140.03199656236131,37.58696018208107]],"type":"LineString"}},{"type":"Feature","properties":{"name":"デビル2"},"geometry":{"coordinates":[[140.03011161914242,37.624670375593325],[140.03030506563437,37.6251660689374],[140.03089678431803,37.62585102157328]],"type":"LineString"}},{"type":"Feature","properties":{"name":"エキサイト2"},"geometry":{"coordinates":[[140.03834967878885,37.61744164402596],[140.0381086672684,37.617205990823635],[140.03779085753843,37.61703584923315],[140.0373759864869,37.61692449212616],[140.03691011633265,37.61691319559125],[140.03660587459842,37.61699980231664],[140.03624934131722,37.61719184295616],[140.03598312980108,37.61738388309969],[140.03584051648903,37.617587219182255],[140.03567413428982,37.617779258304594],[140.03543049408,37.618254992269854],[140.0352878807679,37.61853740003596],[140.0352023127798,37.61874449838241],[140.03514906349488,37.61900871491429]],"type":"LineString"}},{"type":"Feature","properties":{"name":"ブラックバレー2迂回路"},"geometry":{"coordinates":[[140.0384401150585,37.61767158988607],[140.03849449517048,37.61826079134744],[140.0385266495279,37.61882960378037],[140.03851593140877,37.6194238807784],[140.03845162269153,37.62055723874178],[140.03840591767124,37.621430074055894],[140.03834160895394,37.62185454326304],[140.03817547810473,37.62234692450724],[140.03799862913627,37.62280110086667],[140.0378110633407,37.623449495256025],[140.03775211368298,37.623958844177565]],"type":"LineString"}},{"type":"Feature","properties":{"name":"ピーク3尾根"},"geometry":{"coordinates":[[140.02786243380422,37.614175147078384],[140.02844566577647,37.614245147136316],[140.02907308199025,37.61449714679756],[140.02972700874778,37.61509214261076],[140.03047814083453,37.615659134190665],[140.03108788335243,37.61617012289844],[140.03159158369158,37.61659011098803],[140.03223279858048,37.61691196771585],[140.03260394620082,37.617394948995155],[140.03285137794637,37.617912925431526],[140.03315183078138,37.61847989550208],[140.03346582774225,37.61920924425006],[140.03381749101584,37.619629932264985],[140.0341276860255,37.620014903525075],[140.03423172071479,37.62013309919449]],"type":"LineString"}},{"type":"Feature","properties":{"name":"パノラマライン"},"geometry":{"coordinates":[[140.02766062427133,37.61459776720788],[140.02815380435072,37.61508196987839],[140.028522111327,37.615630401483116],[140.02892499082856,37.61618612610877],[140.02907086099316,37.61635119202937],[140.02950152528746,37.61666481626928],[140.03016722443363,37.6170146435675],[140.03058399633153,37.61725673742785],[140.0310077144277,37.6174603157458],[140.0317141011501,37.6178583745922],[140.03249902155738,37.61851862122593],[140.03304777122213,37.61909083023295],[140.03396466939762,37.62010318922637]],"type":"LineString"}}]}