
{"type":"FeatureCollection","features":[{"type":"Feature","properties":{"@id":"way/453398313","name":"マウント"},"geometry":{"coordinates":[[137.4875321805381,36.16811380803583],[137.4882093,36.1684506],[137.4888557,36.16888],[137.48932716964524,36.169351945438116],[137.4896708241121,36.169846655184436],[137.48989777196928,36.17025218057578]],"type":"LineString"}},{"type":"Feature","properties":{"@id":"way/453398319","name":"パノラマ"},"geometry":{"coordinates":[[137.49549001356047,36.16470443589936],[137.49510072816446,36.16485803480645],[137.4947642171717,36.164995380559816],[137.49443598233177,36.16514163503432],[137.49413271931667,36.16527346521756],[137.4939067004154,36.165318435927645],[137.49371477489734,36.16530443558389],[137.4934649162937,36.16523698330945],[137.4931728807269,36.16515757983071],[137.49289125070032,36.16512060258533],[137.49269297128006,36.16514250459206],[137.4924614771621,36.16527619820363],[137.49229192904164,36.16542748379817],[137.49216267950266,36.16557063574487],[137.4921011213856,36.16567185216931],[137.49207734318944,36.165754768309746],[137.49218342511838,36.16596853346099],[137.49237549650263,36.16644700002596],[137.49255182813937,36.16729509436714]],"type":"LineString"}},{"type":"Feature","properties":{"@id":"way/453398323","name":"ポール練習"},"geometry":{"coordinates":[[137.48812839946268,36.171767412279436],[137.4879370947478,36.17224402368326],[137.48787324285075,36.17252511540468],[137.48802151950923,36.17298654497188],[137.48841359969293,36.173824475656936],[137.4888852982374,36.17489446015554],[137.489140489804,36.17540596125607]],"type":"LineString"}},{"type":"Feature","properties":{"@id":"way/453398324","name":"朴の木山"},"geometry":{"coordinates":[[137.4881397977768,36.17200699297848],[137.4882911990412,36.17230256302901],[137.48834569936773,36.172454627365305],[137.48843730023026,36.172692262654635],[137.48851189731622,36.173050949577444],[137.48858664494173,36.17332671801225],[137.48873921968067,36.173594079786135],[137.4896377972396,36.17528613832606]],"type":"LineString"}},{"type":"Feature","properties":{"@id":"way/453398325","name":"じゃぼるて"},"geometry":{"coordinates":[[137.48826233700382,36.17145837972396],[137.48859631114973,36.17136847274449],[137.48904974076595,36.17130121807586],[137.48927284261327,36.171304096257906],[137.489440860226,36.1714473492516],[137.48968416675834,36.17175774020193],[137.4899618519172,36.17217279419331],[137.49018660182182,36.17250651412488],[137.49037319780197,36.17326430801189],[137.49042689595876,36.17368827684787],[137.49042599404288,36.1741286680367],[137.49042044542895,36.17456180199151],[137.49039047946235,36.17503294422641],[137.49033464513968,36.17531686950198]],"type":"LineString"}},{"type":"Feature","properties":{"@id":"way/453398322","name":"デコルテ"},"geometry":{"coordinates":[[137.488769383599,36.17145087774578],[137.489364,36.172388286953925],[137.4896652276734,36.173028850816934],[137.48984012211,36.17348230228665],[137.48992751654498,36.17389140001157],[137.4900777,36.174723],[137.49012153908802,36.175270181084564]],"type":"LineString"}},{"type":"Feature","properties":{"@id":"way/453398316","name":"蛇掘"},"geometry":{"coordinates":[[137.49279336024412,36.168242852925594],[137.49215352363487,36.16826987611583],[137.49167576684778,36.168325900274155],[137.49112231478261,36.16842677963899],[137.49086094290308,36.16853888729435],[137.49057168284054,36.1688710186283],[137.4903450113873,36.16932104567376],[137.4901316,36.170122],[137.4901316,36.1709537],[137.4902528,36.1716548],[137.49031060170137,36.17219829145733]],"type":"LineString"}},{"type":"Feature","properties":{"@id":"way/453398314","name":"ダウンヒル"},"geometry":{"coordinates":[[137.49279462126955,36.1684497136209],[137.4925990044257,36.168719771156105],[137.492366153644,36.16891940277097],[137.4922733467933,36.1690328974153],[137.49199669686277,36.169491176413864],[137.49171539399404,36.17016452323698],[137.49157184249623,36.17063311490781],[137.49136101062467,36.17125217448771],[137.4911793302534,36.1718457388403]],"type":"LineString"}},{"type":"Feature","properties":{"@id":"way/453398326","name":"エアターン"},"geometry":{"coordinates":[[137.49322199797922,36.16800545844143],[137.4935988098592,36.167737086056505],[137.49383314305186,36.16762986403042],[137.49426345000668,36.167579623412166],[137.49453705635034,36.167625285816584],[137.49472715860077,36.16769791514316],[137.4948850110593,36.16796300516141],[137.49496770983004,36.16826854190773],[137.49501560491714,36.16867224859069],[137.4950509553247,36.168976251027196],[137.4949901809204,36.169313454155585],[137.49472899667998,36.16966413947121],[137.4945152869054,36.16998640739507],[137.4943016909951,36.170187050570405],[137.49400459098936,36.1702730962561],[137.4936317760244,36.17037221585224],[137.4933521533302,36.170454274035265],[137.49305855122927,36.17059267360861],[137.4926244504097,36.17103484725662],[137.49231646766245,36.171299671011596],[137.49186304944925,36.17168703606014],[137.49155533443493,36.171971340798684],[137.49133054369835,36.17218605366603],[137.4911800581938,36.172535248625714],[137.49116320589184,36.17279170928469],[137.49122654743658,36.17306352343172],[137.491465092636,36.17337046713835],[137.4917308320679,36.17371509514706],[137.4919433523613,36.174041381931126],[137.4920622504097,36.17432594725663],[137.49205895695428,36.17459671478477],[137.4919814504097,36.175032447256626],[137.4919325902528,36.17517575434391],[137.49186140264993,36.17537366026431]],"type":"LineString"}},{"type":"Feature","properties":{"name":"白樺"},"geometry":{"coordinates":[[137.49454451493727,36.165165340087654],[137.4940277291273,36.16576135371706],[137.49358476986305,36.16630893724458],[137.49310489732596,36.166878867057235],[137.49270346569034,36.167392917696716]],"type":"LineString"}},{"type":"Feature","properties":{"@id":"way/453398315","name":"パウダー"},"geometry":{"coordinates":[[137.4950279254004,36.165061475770834],[137.494925483626,36.1657005524548],[137.49481536179653,36.166562604313604],[137.4947692761863,36.16752520746906]],"type":"LineString"}},{"type":"Feature","properties":{"@id":"way/453398320","name":"スラローム"},"geometry":{"coordinates":[[137.49269925162093,36.16886456986313],[137.49279388503325,36.16890387990428],[137.4929262713797,36.16894258123638],[137.49302124419398,36.16898748848523],[137.49307160856443,36.16904130705679],[137.49311621700664,36.16933907434469],[137.49308544922206,36.16956476694822],[137.49298250682634,36.17007351776845],[137.49292682718698,36.1703925370387],[137.49287432652088,36.17065151010884],[137.4928062387923,36.17103661298042],[137.49274031964265,36.171385292487855],[137.4926351426039,36.171821096428474],[137.49243686709676,36.17311557194876]],"type":"LineString"}},{"type":"Feature","properties":{"@id":"way/453398317","name":"アルペン"},"geometry":{"coordinates":[[137.49540033952567,36.16890522967385],[137.49517731747503,36.169228441626814],[137.49491697687066,36.16958177999315],[137.49473198786092,36.16986797646018],[137.49453728511293,36.17016430739394],[137.49435232667247,36.170410698536415],[137.49424037921779,36.17060854539307],[137.4941711652161,36.17084918275583],[137.49418449608652,36.1711234078803],[137.49425165108784,36.17153096682479],[137.4943095,36.17193852601775],[137.49429395304224,36.17217951915837],[137.49424583478395,36.172341633256416],[137.49412872347892,36.17265527465922],[137.49397438782614,36.17297267268931],[137.4937890191944,36.17336122890129],[137.49359223719526,36.17373636633688],[137.49345100183442,36.17409112280886],[137.49333364840564,36.17447288708013],[137.49324659314235,36.174834273370976],[137.49314317833554,36.17523094867199]],"type":"LineString"}},{"type":"Feature","properties":{"@id":"way/453398318","name":"かもしか"},"geometry":{"coordinates":[[137.49580427882307,36.16464359282859],[137.49583526058845,36.16491930212101],[137.49589521374395,36.1653018765635],[137.49601930259414,36.165698949017724],[137.49610607899854,36.166004122871485],[137.4961469017722,36.1662043450692],[137.49614667770146,36.166371430047434],[137.49607098457219,36.16670490963181],[137.49596450630992,36.167183364056356],[137.49566568885012,36.16838486346013],[137.49561153941028,36.168561639270024],[137.49553517139148,36.16872031207362],[137.49543147068542,36.16886458080494]],"type":"LineString"}},{"type":"Feature","properties":{"@id":"way/453398312","name":"チャレンジ"},"geometry":{"coordinates":[[137.48723098588655,36.16859880522996],[137.48732610464225,36.16874664401303],[137.48742450353424,36.16889322906818],[137.4876774,36.1691953],[137.48841389712706,36.16988698923969],[137.48898719922698,36.17035581604086],[137.48939739557886,36.17064913181995],[137.4897175,36.1708205]],"type":"LineString"}},{"type":"Feature","properties":{"@id":"way/453398327","name":"初心者ゲレンデ"},"geometry":{"coordinates":[[137.49267591411498,36.173693842303756],[137.4925660907389,36.17408891490402],[137.4924595,36.17442],[137.49225073958104,36.17528656635116]],"type":"LineString"}},{"type":"Feature","properties":{"name":"無名_迂回路"},"geometry":{"coordinates":[[137.4930907134535,36.170535869972895],[137.49282546065666,36.170684112995175],[137.49261631902925,36.170885887769245],[137.49239187435552,36.17098883388218],[137.492152126637,36.171009423088464],[137.49175305408716,36.17098646329009],[137.49106207709292,36.17100371854832],[137.49062692304847,36.17097648034648],[137.49035656923752,36.17087353421732],[137.49018313471657,36.1708570628243]],"type":"LineString"}},{"type":"Feature","properties":{"@id":"","name":"チャンピオン"},"geometry":{"coordinates":[[137.48694760077353,36.16891550547845],[137.48712448703293,36.16937245406301],[137.48746941525695,36.17037915954323],[137.48784972071763,36.17157862149274],[137.48795585247365,36.171828507088335]],"type":"LineString"}},{"type":"Feature","properties":{"@id":"","name":"無名_オフピステ_1"},"geometry":{"coordinates":[[137.49351070048482,36.16802520981361],[137.49425322813465,36.16822502122038],[137.49489075187438,36.16855198424197]],"type":"LineString"}},{"type":"Feature","properties":{"@id":"","name":"無名_オフピステ_2"},"geometry":{"coordinates":[[137.49388517555803,36.17046892925201],[137.4936753838639,36.170976999835275],[137.4936032679695,36.17143743595669],[137.49357048801676,36.1718131921652],[137.4935442640562,36.17219953117795],[137.4934721481602,36.17240063840288]],"type":"LineString"}},{"type":"Feature","properties":{"@id":"","name":"無名_オフピステ_3"},"geometry":{"coordinates":[[137.4888018504762,36.1673746334872],[137.48950886365844,36.16799490741991],[137.48997529190797,36.168522065713816],[137.490236491727,36.16882329743244]],"type":"LineString"}},{"type":"Feature","properties":{"@id":"","name":"無名_オフピステ_4"},"geometry":{"coordinates":[[137.48952517663196,36.16700179347299],[137.48966991625485,36.16723294793479],[137.48997334108168,36.16748825193693],[137.49066566002165,36.167997331834044]],"type":"LineString"}}]}