{"type":"FeatureCollection","features":[{"type":"Feature","properties":{"name":"やまばと林間_2"},"geometry":{"coordinates":[[138.16230977847408,36.87308976393827],[138.16251908298437,36.87327176003889],[138.1632425485774,36.87365395043865],[138.16384771162086,36.87395242161138],[138.1643391222117,36.87417081441336],[138.164616678193,36.874349168071944],[138.1646712793708,36.874443804537876],[138.16472133044925,36.87458575901738]],"type":"LineString"}},{"type":"Feature","properties":{"@id":"way/455397210","name":"やまばと林間"},"geometry":{"coordinates":[[138.16074055633544,36.87478563396802],[138.1620937506535,36.87460932201311],[138.1627008865687,36.87460957934124],[138.1633171226779,36.87468991344025],[138.1641138659303,36.87473063484442],[138.1653603,36.8745614],[138.1660139,36.8744458],[138.166604523313,36.874239853659745],[138.1672317,36.8737193],[138.1677249637379,36.873258341302616],[138.16823292280293,36.87293521080707],[138.16872647927946,36.872738817533666],[138.16991796731037,36.87249189882614],[138.1709028740429,36.87233858428999],[138.17176081922614,36.87225844085852]],"type":"LineString"}},{"type":"Feature","properties":{"@id":"way/455512653","name":"クワッド"},"geometry":{"coordinates":[[138.14111536763644,36.877040811462564],[138.14137546763638,36.87700405052306],[138.14171169443006,36.87700717641445],[138.1420791831072,36.877122834582956],[138.14236504745884,36.877249986358066],[138.1428384831072,36.87736463458296],[138.1432257812661,36.877397038250685],[138.14412602458353,36.877179326114394],[138.14562973333682,36.87679087189742],[138.14599143238675,36.87675058399507],[138.1464360831072,36.876781134582956],[138.14695770710176,36.87691393638599],[138.14729667380763,36.87697408548448],[138.14796389028402,36.876965464840445],[138.14829600239503,36.876940423791616],[138.14848944610696,36.87673925433141],[138.1486751303562,36.876631190074534],[138.14910531676503,36.8764662020393],[138.14949647272852,36.87636418337564]],"type":"LineString"}},{"type":"Feature","properties":{"@id":"way/455512649","name":"ガッシュタイナー"},"geometry":{"coordinates":[[138.14211776928556,36.8770858225667],[138.14238879013323,36.8767391540457],[138.14281449689736,36.87642211660247],[138.14319874704066,36.87624878552219],[138.1436285452099,36.87610190304068],[138.14390246408178,36.87597158804885],[138.14428204718223,36.875749647382904],[138.14474358858902,36.87553966285547],[138.14519696225278,36.875405937099494],[138.14593172647957,36.87528550126334],[138.14656758112642,36.875198692552566],[138.147268450987,36.87514263815286],[138.14784986408347,36.875101991311915],[138.14826602450736,36.87502960106911],[138.14878882633806,36.87492489125639],[138.1494761490129,36.87477036402525],[138.15034903774728,36.87447265504888],[138.1513794,36.87397807296942],[138.15208719619702,36.873634436326334],[138.15260642102086,36.873316035961345],[138.15330242101922,36.87300113544498],[138.15383110227367,36.872710728456966],[138.1543355,36.8724782],[138.1548592,36.8721914],[138.15517853466508,36.871975584191205]],"type":"LineString"}},{"type":"Feature","properties":{"@id":"way/455512651","name":"ヤッホー"},"geometry":{"coordinates":[[138.14071875419216,36.87763629249146],[138.14088043577027,36.87721566674129],[138.14099522452307,36.87687006295882],[138.1411468356598,36.87659329186113],[138.14146987911238,36.87649406080986],[138.14174823142912,36.87640706302083],[138.1419808720596,36.876223379413204],[138.14240679343754,36.87594929683151],[138.14258470495042,36.87582160144833],[138.1428736055211,36.87553035592903],[138.14317764211324,36.87524821028091],[138.14337768964307,36.875076854186176],[138.1435870293864,36.87494216472513],[138.14376851071128,36.874839760934165],[138.1440402780109,36.87475463425707],[138.144381,36.8746728],[138.14494281276026,36.87458900530443],[138.14548666172092,36.87452352668042],[138.14637706005632,36.874183802710604],[138.1475129,36.8737618],[138.1477835,36.8736746],[138.1484127,36.8735228],[138.1487713,36.8733878],[138.1488451,36.8733485],[138.1490524,36.8731994],[138.149288,36.8730617],[138.1495164,36.8728705],[138.1495797,36.8728311],[138.1500472,36.8726174],[138.1502159,36.8725246],[138.1504514,36.8724346],[138.1508205,36.8723559],[138.151194785575,36.8722716514979],[138.1513959335626,36.87219264849644],[138.1516465,36.871996],[138.1520331,36.8716979],[138.1522968,36.8713886],[138.1524303,36.8711889],[138.1526975,36.8708571],[138.1527607,36.8708065],[138.15298516179993,36.870544386294505],[138.15322385298478,36.870272933580935],[138.15348436179988,36.870124465145196],[138.15385956770905,36.86996344948565],[138.15426627352267,36.86991534242051],[138.15447257646218,36.86991280830971],[138.15466751172278,36.86998482708766],[138.15486303235448,36.870163274480774],[138.1549611,36.8703622],[138.15497938824697,36.87049889541982],[138.1549700647377,36.870794993217686],[138.1549662706151,36.87111934588858],[138.154950858862,36.87132050759887]],"type":"LineString"}},{"type":"Feature","properties":{"@id":"way/455397209","name":"アルペンブリック スノーパーク"},"geometry":{"coordinates":[[138.1522262054927,36.8758288168783],[138.1533700195452,36.87592702360008],[138.1539936643164,36.875965756597616],[138.1544493306612,36.87582735494981],[138.15520842846985,36.87563813625643],[138.159870200286,36.87489761555037],[138.1605895585054,36.87478265084528]],"type":"LineString"}},{"type":"Feature","properties":{"@id":"way/455397212","name":"カラマツ"},"geometry":{"coordinates":[[138.16610010429503,36.87258737047613],[138.16624755622775,36.87218299139254],[138.1665310655185,36.87194635891874],[138.16698618053329,36.871678179224816],[138.16779871585538,36.87158013382534],[138.1686935825095,36.871600734367014],[138.16957487937316,36.87171640138305],[138.17033973401624,36.871784310658036],[138.17116474535698,36.87185198457195],[138.17172137527191,36.87191464012689]],"type":"LineString"}},{"type":"Feature","properties":{"@id":"way/455397213","name":"ワイドロングラン"},"geometry":{"coordinates":[[138.15787444088716,36.87399444735689],[138.15862323888257,36.873799011120624],[138.1601055,36.8733739],[138.1623599023839,36.87258706011088],[138.16421037801683,36.87198829940978],[138.1651591,36.8716539],[138.1663769,36.8711585],[138.1667263226231,36.8710298683502],[138.16731564120977,36.8707581368498],[138.16765226250516,36.8706854775233],[138.1679164407705,36.870583841282155],[138.16797608687554,36.870491972524846],[138.16795121611233,36.87027453676172],[138.16773244085542,36.869520916577116]],"type":"LineString"}},{"type":"Feature","properties":{"@id":"way/455397214","name":"ドリーム_3"},"geometry":{"coordinates":[[138.16405365552515,36.869107595267515],[138.16491784265338,36.86884332179919],[138.16545263356502,36.86874725273242],[138.1659103317454,36.86878014056497],[138.16636802992582,36.868813028397525],[138.1667297603026,36.86895729913623],[138.1672877267239,36.869247346965906]],"type":"LineString"}},{"type":"Feature","properties":{"@id":"way/455397215","name":"ドリーム_2"},"geometry":{"coordinates":[[138.1612425,36.8701733],[138.1612356,36.8701018],[138.1612528,36.8700164],[138.1613457,36.8698183],[138.161528,36.8695844],[138.1616622,36.8693807],[138.161848,36.869133],[138.1619477,36.8690229],[138.1620062,36.8689761],[138.1620819,36.8689239],[138.1624569,36.8687257],[138.1629591,36.8685331],[138.163138,36.8684945],[138.16344960141427,36.86843985569876],[138.16380593451146,36.86843985570284],[138.1642123795838,36.8684867782191],[138.16468987675665,36.86858652213294],[138.16520732107998,36.86871136528193]],"type":"LineString"}},{"type":"Feature","properties":{"@id":"way/455397216","name":"ドリーム"},"geometry":{"coordinates":[[138.15650767813747,36.87159127714043],[138.15746455627195,36.87122587961239],[138.1589239,36.8707622],[138.16033578745447,36.87043266394058],[138.16113921907512,36.87024134361666],[138.1619856,36.8699697],[138.163396,36.8693147],[138.1638411479099,36.8691566364377],[138.16401922325696,36.869140776086],[138.1644693,36.8694357],[138.164772,36.8695458],[138.1649303,36.8695733],[138.16547561115257,36.86961842207837],[138.16568084607422,36.86970721339849]],"type":"LineString"}},{"type":"Feature","properties":{"@id":"way/455397217","name":"ハッピーゲレンデ"},"geometry":{"coordinates":[[138.1553731750413,36.87328529755959],[138.15525742501333,36.873119100098066],[138.1551836,36.8730168],[138.15509592499745,36.87287000144675],[138.15508959999522,36.87275520315397],[138.1550385250037,36.872518398508475],[138.1550563,36.8723976],[138.1550632,36.8723288],[138.15514877499152,36.872194],[138.1552903,36.8720124],[138.1553625,36.8719546],[138.1555001,36.8718803],[138.1555758,36.8718445],[138.1556583,36.871817],[138.1562844,36.8716931],[138.156453,36.8716739],[138.1568142,36.8716628],[138.15703678074496,36.87167446634847],[138.1573594044464,36.871697032784496],[138.1576122696315,36.871743825243854],[138.15786083703733,36.871873236759306],[138.15802856963134,36.8719441627547],[138.1582612,36.8720112],[138.1585549,36.8719793],[138.1587751,36.8719821],[138.1589574,36.8719683],[138.1596248,36.8718197],[138.1598346,36.8717509],[138.16296042696192,36.870743326653276],[138.16605033594874,36.8697740785697],[138.16771938045406,36.869309598291075]],"type":"LineString"}},{"type":"Feature","properties":{"@id":"way/455512650","name":"アルペンダイナミック"},"geometry":{"coordinates":[[138.152244920576,36.87152011785794],[138.15259284244527,36.871459756054996],[138.1535196375504,36.87146789711928],[138.1548916643172,36.871389273550285]],"type":"LineString"}},{"type":"Feature","properties":{"@id":"way/455512652","name":"やまばと"},"geometry":{"coordinates":[[138.14990592176937,36.8765915234156],[138.15045671946768,36.876615287934314],[138.1509743,36.8766671],[138.1516456,36.876639],[138.1521057343343,36.876606887936376],[138.152939540265,36.87644347355556],[138.15364732088437,36.87633012160704],[138.1540393,36.8762931],[138.1543697,36.8762003],[138.1545209,36.8761357],[138.1545841,36.8760935],[138.15464779284713,36.87595887774909]],"type":"LineString"}},{"type":"Feature","properties":{"@id":"way/1353445129","name":"無名_4"},"geometry":{"coordinates":[[138.14342934311205,36.8757467941437],[138.14374785896166,36.876096246619205],[138.14385782963376,36.87623481028293],[138.1448769,36.876535],[138.1457463950682,36.87671609210573]],"type":"LineString"}},{"type":"Feature","properties":{"@id":"","name":"レイクビュー"},"geometry":{"coordinates":[[138.1493884940038,36.8762944499217],[138.15218323519986,36.87550480528343],[138.15570240964502,36.874475833937964],[138.15782328577865,36.87400574707637]],"type":"LineString"}},{"type":"Feature","properties":{"name":"頂（イタダキ）"},"geometry":{"coordinates":[[138.1408241914658,36.8776952921215],[138.1410563604673,36.8777476736073],[138.14132424777745,36.87792386561516],[138.1414909332147,36.878057199837244],[138.14178263272902,36.87787624619345],[138.14191955290903,36.87772862579861],[138.14205647308836,36.877542909410494],[138.14230054819274,36.87729528685931]],"type":"LineString"}},{"type":"Feature","properties":{"name":"無名_1"},"geometry":{"coordinates":[[138.1698538885389,36.87258369647898],[138.17021528514852,36.87272571388047],[138.17049742811497,36.87274853808151],[138.1706432548164,36.87274346603819],[138.17078591146173,36.87266992135599],[138.17100873713855,36.87248042985999],[138.17114505340362,36.8724119569974]],"type":"LineString"}},{"type":"Feature","properties":{"name":"ハッピーゲレンデ_2"},"geometry":{"coordinates":[[138.15542653064364,36.87333896330023],[138.1557089240569,36.87355759016321],[138.15601923642902,36.873647915887815],[138.15634350827906,36.873633742771545],[138.15649569752443,36.87360770254223],[138.15651140801242,36.87343247481168],[138.15663392839605,36.873299969055054],[138.15678549989735,36.87311099399541],[138.15703794740796,36.87286980312679],[138.1578010626328,36.87250139279699],[138.15847489109808,36.87213603960922]],"type":"LineString"}},{"type":"Feature","properties":{"name":"カナメゲレンデ"},"geometry":{"coordinates":[[138.13678455769707,36.879608488301685],[138.13667312258013,36.87928597747202],[138.13675320107393,36.878849238121404],[138.13691335806152,36.878785182806126],[138.1370371158152,36.878779359564945],[138.13740838883308,36.87880847562654],[138.137845180647,36.878802652398605],[138.1381800543487,36.878767713121405],[138.1384057301155,36.87866871840241],[138.1385586072417,36.87839502648795],[138.13901723861852,36.878162096427786],[138.13937395191,36.878010691507],[138.13968698602383,36.87807474747184],[138.13991994164383,36.87810386380136],[138.140152897262,36.878004868234754],[138.1404659313758,36.87769623417536],[138.14067704740614,36.87756812155774]],"type":"LineString"}},{"type":"Feature","properties":{"name":"無名_2"},"geometry":{"coordinates":[[138.16634898124425,36.86982772970728],[138.16676736890867,36.87034933758298],[138.16691359864507,36.870556564501186],[138.16702222644784,36.870633438859684],[138.16727290599135,36.87070697078235],[138.16770323921122,36.870556564501186],[138.1682396820728,36.87052651317839],[138.1692615092721,36.8706013002821],[138.16936851073814,36.87066929495144],[138.1694138892356,36.87080899560884],[138.16939820655665,36.8712004371224],[138.16921783199336,36.871502388256744]],"type":"LineString"}},{"type":"Feature","properties":{"name":"無名_3"},"geometry":{"coordinates":[[138.1485258762715,36.87510833585252],[138.14876654638806,36.87560516768045],[138.14891017210215,36.87617341512214]],"type":"LineString"}},{"type":"Feature","properties":{"name":"クワッドツリーラン"},"geometry":{"coordinates":[[138.1447118336369,36.87645937744277],[138.14870854677787,36.875561398507855]],"type":"LineString"}},{"type":"Feature","properties":{"name":"サイドツリー"},"geometry":{"coordinates":[[138.15264255084338,36.871013008320745],[138.1548966539047,36.87090030472983]],"type":"LineString"}},{"type":"Feature","properties":{"name":"カヤバ"},"geometry":{"coordinates":[[138.1605618577039,36.87526678437776],[138.16257047186434,36.87515371470337],[138.16443029979007,36.87503469381343],[138.1658586513978,36.87487401645559],[138.16677368673697,36.87463002253793],[138.16692991228365,36.874189641299154]],"type":"LineString"}}]}