{"type":"FeatureCollection","features":[{"type":"Feature","properties":{"@id":"way/455172552","name":"第2ゲレンデ_#下部"},"geometry":{"coordinates":[[137.88409200819487,36.928976706554955],[137.88415671687943,36.9291602688679],[137.88438043506096,36.92949127752079],[137.8848777,36.9303793],[137.8850002344929,36.93062351673476],[137.88515496057994,36.930897380020376],[137.88533770173873,36.931334666205785],[137.88607824163603,36.93257594487473],[137.88683424937034,36.93368663476101]],"type":"LineString"}},{"type":"Feature","properties":{"@id":"way/455172554","name":"第2ゲレンデ_#上部"},"geometry":{"coordinates":[[137.88351521801317,36.92751423978786],[137.8837382311505,36.927472335637134],[137.88398252460465,36.92743464349686],[137.8842962098404,36.92738263150272],[137.88478170984288,36.927363387628354],[137.885117326229,36.92737243387963],[137.885503030337,36.927416252894],[137.8857508,36.9274837],[137.88614633607187,36.92770950400826],[137.8861826,36.9278803],[137.8860914,36.9279446],[137.88583381687278,36.927974481063],[137.88543348663143,36.92800137059656],[137.8850571378757,36.928077251592065],[137.88486918705414,36.928136202001156],[137.88475123016062,36.92822744898238],[137.88461764265563,36.92838170536831],[137.88430731067191,36.92859490260638],[137.8841744625093,36.92866136008399],[137.88408337782943,36.92879422708424],[137.88409200819487,36.928976706554955]],"type":"LineString"}},{"type":"Feature","properties":{"@id":"way/455172551","name":"第2・上級"},"geometry":{"coordinates":[[137.88323164552685,36.9277309578415],[137.88364689121903,36.928346787149316],[137.88396649820342,36.92879645292725]],"type":"LineString"}},{"type":"Feature","properties":{"@id":"way/455172543","name":"第3ゲレンデ_#下部"},"geometry":{"coordinates":[[137.88623561371992,36.92763845162294],[137.88652082749743,36.9280214591647],[137.88667752058643,36.928349771902106],[137.88688014701387,36.92897722293375],[137.88691675354085,36.92935092892759],[137.88692810067298,36.92957319647976],[137.88696712614177,36.930238929925494],[137.8868517898855,36.931122875003936],[137.88660613806613,36.931973458078936],[137.88660370311783,36.93225085607158],[137.8868625061561,36.93268437923629],[137.88723105361572,36.93296306545449],[137.88774106768963,36.93309636331133]],"type":"LineString"}},{"type":"Feature","properties":{"name":"第3ゲレンデ_#上部"},"geometry":{"coordinates":[[137.88766610532713,36.92535916340918],[137.88784561196758,36.92519174540428],[137.8880417395926,36.92505355883806],[137.8882744333868,36.924915372021346],[137.8883595002024,36.92477092089506],[137.88838335656095,36.92462652324426],[137.88837654046,36.92450664574122],[137.8883288277412,36.924315931143525],[137.88828111502414,36.92423692067038],[137.8882061378946,36.92418515514339],[137.88808685610013,36.92418243064097],[137.88794371794722,36.92423964517093],[137.887718786562,36.924479400828076],[137.88745977466516,36.92484993081483],[137.88717133550045,36.925141343286214],[137.88691120670438,36.9254154619358],[137.88681661441478,36.92556669938914],[137.88668655001754,36.9257699242451],[137.88639829452117,36.926379743421954],[137.88613424334056,36.9268404377614],[137.88604842685714,36.92709838798817],[137.8860955527045,36.92731188053997],[137.88623561371992,36.92763845162294]],"type":"LineString"}},{"type":"Feature","properties":{"@id":"way/455172544","name":"第3ゲレンデ・林間"},"geometry":{"coordinates":[[137.8869008,36.9280556],[137.8871467068875,36.92805891138104],[137.8873174978637,36.9280310437067],[137.8873862549903,36.9279733231988],[137.88741218699727,36.92786681371405],[137.88742122589397,36.92779068879491],[137.88749591196517,36.92770373999563],[137.88758867290062,36.92767380261199],[137.88764985042732,36.92768497220397],[137.88777037606826,36.92786621236024],[137.88784645085548,36.928020032275924],[137.88793517521367,36.9281599483644],[137.88797218248044,36.92821880400518],[137.88802072884783,36.928243175854796],[137.8880756,36.9282271],[137.88817606281958,36.92816478209997],[137.8882891752136,36.92811384011229],[137.88839614017206,36.928019035350076],[137.88850970812098,36.92787051344181],[137.88859179124086,36.92771409271613],[137.88874502820352,36.92746792810058],[137.88890998348637,36.92730963113245],[137.88914547521708,36.92724806110899],[137.88932990845004,36.9271794612153],[137.88942483335347,36.92710373125918],[137.88949675843577,36.92708713206344],[137.88953315846592,36.92709622699684],[137.8895151960142,36.92720931943282],[137.88949437310367,36.927313196800114],[137.88946001683976,36.92742248337615],[137.88936091697448,36.92759704950886],[137.88925046695147,36.92769920795371],[137.88914678360507,36.92781353707452],[137.88905634201063,36.927912741527976],[137.88896069613202,36.928140845433624],[137.88894501490577,36.92822920368815],[137.8888498995031,36.928428657874846],[137.8887837,36.9286131],[137.8888240183706,36.9288397097412],[137.8888695,36.92897551628782],[137.8890465,36.929192],[137.88928321022766,36.92928536435878],[137.88937478371264,36.92935809172383],[137.88933544905603,36.929467355376104],[137.88926478570096,36.9296073556276],[137.8892044488608,36.929734973696995],[137.88919792840562,36.92987312884737],[137.8892312488608,36.93006087351525],[137.88932587348506,36.93025725473895],[137.88943598788174,36.93043919037717],[137.889484191857,36.93053393578193],[137.8894735181761,36.93061224455391],[137.88937137026096,36.93073084982245],[137.8892847121182,36.9308700915652],[137.8891684967769,36.93107980968841],[137.8890819911894,36.93116609588574],[137.88898968745167,36.931211302610535],[137.88888963882707,36.931244127451905],[137.8887677163836,36.93126857736856],[137.8886871,36.93129715456779],[137.8886593162874,36.93136703632729],[137.88867996534208,36.9314303090703],[137.88878953987,36.931495990903855],[137.88899721628746,36.93153484545063],[137.88911727973868,36.9315749000276],[137.88928358371396,36.931649690946024],[137.88938321117428,36.93178754990675],[137.88941313465804,36.931900645272485],[137.88937657035765,36.932015926979176],[137.8892987,36.9320693],[137.88904758371385,36.932158827645864],[137.88881453882706,36.932213273924006],[137.8885223492485,36.93230876606814],[137.8881060946641,36.93260969997571],[137.88782180580557,36.93271405911206],[137.88778629836702,36.93289220614625],[137.88780569686818,36.93301768696212],[137.88799255848068,36.93321119450826],[137.88831119434576,36.93344859037361]],"type":"LineString"}},{"type":"Feature","properties":{"@id":"way/455172555","name":"第1ゲレンデ"},"geometry":{"coordinates":[[137.88753729035574,36.93352213840169],[137.88769789435167,36.93390579403495],[137.88788375140015,36.934110081197474],[137.88820893420697,36.934377536781554],[137.8884816,36.9347742],[137.888546,36.9349264],[137.8887391,36.9352159],[137.8888115,36.9353059],[137.8891522,36.935516],[137.8894472,36.9356104],[137.889997,36.935724],[137.8907078,36.9358097],[137.8912228,36.9359041],[137.8914749,36.9359384],[137.8916037,36.9359727],[137.8917217,36.9360241],[137.8919846,36.9361613],[137.8921884,36.93632],[137.8934370770638,36.93714515728201],[137.895132978719,36.938182230371964],[137.89663596744973,36.9389162],[137.89755288093994,36.939323380530475],[137.8986640920813,36.939743395406126],[137.8992078,36.9400524],[137.89948554389093,36.94026856714561]],"type":"LineString"}},{"type":"Feature","properties":{"@id":"way/455172539","name":"第5ゲレンデ・林間"},"geometry":{"coordinates":[[137.8939724082234,36.923716388391384],[137.89417321928204,36.923801967491116],[137.89432792081186,36.923873636208384],[137.89441014638496,36.92397143570627],[137.89446419118195,36.92406114224428],[137.8944868935639,36.92421183574518],[137.89442995833411,36.924314477678536],[137.89445026673394,36.9244047916538],[137.89455309536072,36.92451623662671],[137.89468427235377,36.92462186278086],[137.89477567473,36.92469039305499],[137.89491245377843,36.92475219405067],[137.89506385809958,36.924739703127464],[137.89540455809964,36.92469952125721],[137.89566747904985,36.924675472853245],[137.89586756717043,36.92466930211618],[137.8960431,36.9246657],[137.89631883477327,36.92459686064127],[137.89658727667364,36.92456451118926],[137.89679212807732,36.92457068194814],[137.89691816760285,36.92459216172414],[137.89702520475095,36.92467772232284],[137.89710294427516,36.924778452572376],[137.89714596522668,36.924877132292636],[137.89723690237616,36.92496082213969],[137.89736519762386,36.92501246153728],[137.8975431071271,36.925125991768454],[137.89762401187807,36.92520938254209],[137.89773370950326,36.92530127327772],[137.89783018855294,36.92537431268213],[137.89793763045347,36.925446958016465],[137.89800550475093,36.92554735651744],[137.89799419330404,36.925696286909705],[137.8979793866079,36.92581801796879],[137.8979966299119,36.92591217842103],[137.89808179778552,36.92598879962428],[137.89817752375743,36.92610129192169],[137.89819889784008,36.92615950826216],[137.89821679211792,36.926214804780294],[137.89817007345334,36.926244275182185],[137.89807745479402,36.92623852147964],[137.89798945134714,36.926240146687434],[137.89787510647196,36.926236170185184],[137.89778712288256,36.92628237575662],[137.89764529896343,36.926351206630265],[137.89757438700212,36.92643924625334],[137.89763124621518,36.92655537469309],[137.89772733180064,36.9266949232596],[137.89781383454886,36.92684468593222],[137.89779307173262,36.92699575785033],[137.8978138345489,36.92716981143233],[137.8978210388954,36.92730212673246],[137.89785379747678,36.92738592550703],[137.89791189725182,36.92749393252209],[137.89788113135225,36.927581988423064],[137.89773275126157,36.92767261401717],[137.89757159405514,36.92771727675052],[137.8973071813515,36.9277637023208],[137.8971002656762,36.92784587666973],[137.89700130274827,36.92787503709307],[137.89680529428023,36.92788673239685],[137.896684559843,36.92785194633582],[137.89645521991088,36.92777885809851],[137.89625404004377,36.92775319070952],[137.8960767828388,36.927766123233425],[137.89595057436918,36.92779507212189],[137.89580976887115,36.92782822114548]],"type":"LineString"}},{"type":"Feature","properties":{"@id":"way/455172540","name":"第5ゲレンデ_2"},"geometry":{"coordinates":[[137.89199767544537,36.92343323359893],[137.8924107,36.92390686548448],[137.89272360444232,36.92433246424126],[137.89300120111062,36.92464776255743],[137.89340132665896,36.92497253267298]],"type":"LineString"}},{"type":"Feature","properties":{"@id":"way/455172541","name":"第5ゲレンデ"},"geometry":{"coordinates":[[137.89367503887658,36.92373360086039],[137.89361661444008,36.924058834286214],[137.8934716211047,36.92430983352126],[137.89340861777313,36.92454096749473],[137.89341334408724,36.92477306655314],[137.89352135448843,36.92502406489367],[137.89385697636015,36.925369662529285],[137.894309796667,36.92568756065851],[137.89482454611107,36.92588595884117],[137.8951333177718,36.926102816221025],[137.8953855945674,36.92635823896],[137.89552198679428,36.926624866379974],[137.89562725803773,36.9269196983477],[137.89571336893064,36.927120168380135],[137.89577751781124,36.927437347300106],[137.89573618160827,36.927673339310786],[137.89568316934535,36.92805361495203],[137.89563075459733,36.928221037712575],[137.89534057183062,36.92854243098567],[137.8951923512195,36.92871383241534],[137.89518850272566,36.92901608274882],[137.89529964252162,36.92942427803956]],"type":"LineString"}},{"type":"Feature","properties":{"@id":"way/455172542","name":"第6ゲレンデ"},"geometry":{"coordinates":[[137.88607314958742,36.92224077604356],[137.88596603395064,36.92204880135317],[137.88587388395274,36.92189841823783],[137.8859738449086,36.92176510001913],[137.8865739979713,36.92189948882754],[137.88724249034917,36.92204690645606],[137.8880044817315,36.92218807145326],[137.88846573515832,36.92232624634526],[137.8889756527352,36.922481651002236],[137.88974817819332,36.92271708700553],[137.89102781625934,36.92300770886232],[137.89245627223042,36.92335913353912],[137.89346822557854,36.92363819978337]],"type":"LineString"}},{"type":"Feature","properties":{"@id":"way/455172545","name":"第3・深雪"},"geometry":{"coordinates":[[137.88754482697922,36.9255899168048],[137.88733134046893,36.92574069524182],[137.88717050933823,36.92582061921721],[137.88695606485018,36.92595239330251],[137.88678146355764,36.92607960525978],[137.88665387754597,36.92625075565913],[137.88649279597718,36.926527985047706]],"type":"LineString"}},{"type":"Feature","properties":{"@id":"way/455172548","name":"第6ゲレンデ・林間"},"geometry":{"coordinates":[[137.89363708982296,36.92345910992932],[137.8936770022953,36.92337955656371],[137.8936782681772,36.92329701328256],[137.89356434200607,36.92316227146731],[137.89342787228549,36.923012771208306],[137.89333594194414,36.922939127697745],[137.89321788126355,36.92283903063091],[137.89306555946695,36.922759747059196],[137.89292668126356,36.92269214175139],[137.892812811603,36.922619985304486],[137.8926766898098,36.922590104330915],[137.89255432442152,36.92258822334576],[137.89240455946862,36.92263652603629],[137.8921426898081,36.92272489335131],[137.89189204665013,36.92274107700123],[137.89167943767188,36.92270768248772],[137.8914997068989,36.92263801244608],[137.8912934889426,36.922546131514274],[137.8911658799644,36.92240239664614],[137.8911120893762,36.922237591144246],[137.89105754237787,36.922079813110706],[137.89096578686028,36.92194453464247],[137.89079786350933,36.92187177513875],[137.89070404409838,36.921834898056524],[137.89060593849928,36.92182768145499],[137.89056017533701,36.92184718231318],[137.89053284310395,36.92189600808026],[137.89055721614017,36.921966804358654],[137.89058971352193,36.92204276572359],[137.8905483059899,36.92208125924325],[137.89043978108037,36.92211695107379],[137.89034819577722,36.92207828351514],[137.8902509535709,36.9220577058249],[137.8902027955005,36.9221161131197],[137.89021686336275,36.92222878937807],[137.89021436980337,36.92236036104741],[137.89008486251478,36.922455953442736],[137.88977894820644,36.92251075027189],[137.88958614462854,36.92255413561741],[137.88945768126356,36.92261767224565],[137.88940051408096,36.922739204193974],[137.8894056988059,36.92294227762469],[137.88943564307846,36.9230781263386],[137.88951000668325,36.923297199878796],[137.88959349343813,36.92345372775389],[137.88966249928563,36.923550567556525],[137.88974913568086,36.923666658942615],[137.88982400083577,36.92376104872195],[137.88980163723096,36.92382429135426],[137.88975105914608,36.9238664295646],[137.88965601769206,36.92387640751337],[137.88960567679308,36.923850662007816],[137.88953887183823,36.92380763417241],[137.889472039021,36.9237652400505],[137.88936968890107,36.923737548794186],[137.88918688126356,36.923706472245655],[137.88894725811141,36.923717089165116],[137.88865681968858,36.92369385311059],[137.88848981384118,36.92366070164725],[137.88833281384112,36.92362185754696],[137.88820940035615,36.92360601345393],[137.88812952350614,36.92361301345176],[137.88808134462855,36.92365293994435],[137.88806328305355,36.923753797306944],[137.8881084593931,36.92390725458051],[137.88814728382704,36.92403193706116],[137.88810212911497,36.924057873239406],[137.88803722732592,36.92406235168196],[137.88792436217315,36.9239968322038],[137.88769367332543,36.92389998012481],[137.88733875586377,36.923725754813475],[137.88705388762213,36.92355930380708],[137.8867876987693,36.92333560187323],[137.88655128000698,36.92310659936703],[137.88632886928417,36.922733528689974],[137.8861572407051,36.92241205973292]],"type":"LineString"}},{"type":"Feature","properties":{"@id":"way/455172550","name":"第2・上級_2"},"geometry":{"coordinates":[[137.88491564902054,36.927454706832386],[137.8846993,36.9276981],[137.8845491,36.9278825],[137.8844901,36.9279811],[137.8843828,36.9284678]],"type":"LineString"}},{"type":"Feature","properties":{"@id":"way/455172553","name":"第2・明星尾根"},"geometry":{"coordinates":[[137.88336624409183,36.92758145114296],[137.88301703807036,36.927713496038926],[137.88286765668803,36.927815283753986],[137.8827824344212,36.927935173117916],[137.88274614321017,36.92812421434897],[137.8827601,36.9284078],[137.8828111,36.9286651],[137.8828513,36.9290103],[137.8829379896264,36.929460244506934],[137.8830122,36.9298936],[137.883259,36.9302882],[137.8834521,36.9304468],[137.8836667,36.9305669],[137.88406337474166,36.9307625179161],[137.88463902198725,36.93102043880917],[137.88516808776387,36.931352830261574]],"type":"LineString"}}]}