{"type":"FeatureCollection","features":[{"type":"Feature","properties":{"@id":"way/505920481","name":"第2リフト沿い"},"geometry":{"coordinates":[[140.32022528033875,40.64170468874468],[140.3210227141654,40.64107249222964],[140.32146449133262,40.64068823089946],[140.3222123,40.6400952],[140.3232008083857,40.63919569885796],[140.32402984855506,40.638279151700196],[140.32480378858466,40.637605408441594],[140.3256652141653,40.637008010818356],[140.32593561024518,40.6367880329678]],"type":"LineString"}},{"type":"Feature","properties":{"@id":"way/505920486","name":"第1リフト沿い"},"geometry":{"coordinates":[[140.32587882815437,40.636552135916375],[140.32636280603649,40.6358357922983],[140.32711661574274,40.634865028249614],[140.32855897398315,40.63273138442292],[140.3294845578241,40.63143242763173],[140.33020625094474,40.630171127013845],[140.33034590828336,40.62961590971185],[140.33047674689806,40.62920793476146],[140.33091920796807,40.62857939120098],[140.33143221883236,40.628024469964735]],"type":"LineString"}},{"type":"Feature","properties":{"@id":"way/505920489","name":"第3リフト沿い"},"geometry":{"coordinates":[[140.32606190724317,40.63686130153442],[140.3266465,40.6362312],[140.32725312707865,40.635578833074035],[140.32790625884832,40.634742833960374],[140.32949729281466,40.6331990610018],[140.3300174,40.6325833],[140.3302203,40.6323711],[140.33073,40.6319593],[140.3309602,40.6318595],[140.331464031378,40.63169617441224],[140.33193446994258,40.63155169999247],[140.33204154413738,40.63146055326979],[140.3322520013205,40.63121248892277],[140.3324790928147,40.631024966647296],[140.3326923,40.6306532],[140.3328622,40.6304909],[140.3329663,40.6304244],[140.33313808230338,40.630322495728834],[140.33327051407304,40.63024969136862]],"type":"LineString"}}]}