{"type":"FeatureCollection","features":[{"type":"Feature","properties":{"@id":"way/871515136","name":"W1"},"geometry":{"coordinates":[[140.96661489178712,39.831666693128994],[140.96633885125704,39.831483518977265],[140.9661111413244,39.83132818077417],[140.96579533264867,39.83131394679424],[140.96558003572756,39.83119084630971],[140.96544931735,39.831058467135904],[140.96485661324473,39.8302526],[140.9644743,39.8297418],[140.9642804,39.829537],[140.9640826694038,39.82929115008827],[140.96370578675652,39.829074791862915],[140.96316672145784,39.82883481249857],[140.96269402250127,39.828595962936035],[140.96237750705816,39.828449377421116],[140.96191489294176,39.82814205444113],[140.9618001716574,39.828004884580835],[140.9610462726644,39.82616329597154],[140.9610445405939,39.825993841906055],[140.9611088788227,39.82565698381211]],"type":"LineString"}},{"type":"Feature","properties":{"@id":"way/871515137","name":"W2"},"geometry":{"coordinates":[[140.9611088788227,39.82565698381211],[140.9612866489828,39.82496720559731],[140.96130337449043,39.82443427013942],[140.9612128,39.82404],[140.9609338,39.823628],[140.9607716489846,39.82320957720435],[140.9606779793443,39.82248126570463],[140.96060054209818,39.822066496933594],[140.9604433951462,39.82164309177784],[140.9601828,39.8209088],[140.9600326,39.8200683],[140.95996938623063,39.81955818432529],[140.95992339108273,39.81899501448152],[140.9599192097076,39.81836881402689],[140.95993702144423,39.81785349925153],[140.9600071821654,39.8175357399764],[140.96015537324809,39.81733504881078],[140.9606776192272,39.816819108963074],[140.96111685961444,39.816384551856174],[140.9613992841326,39.81608717927678],[140.96153977691247,39.81592305126375],[140.96182032401612,39.815800336437064],[140.9622896716226,39.81577673906648],[140.96279055961455,39.81575919832244],[140.9634150149036,39.815588964026],[140.9638735,39.815437],[140.9644958,39.8149425],[140.9647318,39.8145799],[140.9655838578594,39.81429463540055]],"type":"LineString"}},{"type":"Feature","properties":{"@id":"way/871515138","name":"W3"},"geometry":{"coordinates":[[140.96442634296017,39.82951392523519],[140.96460314880085,39.82926723234348],[140.96470606975987,39.82905297851076],[140.96471463024025,39.828795922038275],[140.9646331360791,39.82797861177775],[140.9644528511991,39.827497338601795],[140.96416530411952,39.826937068680756],[140.9639151926339,39.826389153738575],[140.9637233,39.8262153]],"type":"LineString"}},{"type":"Feature","properties":{"@id":"way/871515139","name":"W4"},"geometry":{"coordinates":[[140.9637233,39.8262153],[140.96351187479914,39.82599525889009],[140.96337591512057,39.82579750878485],[140.9632727,39.8253089],[140.96316948487694,39.8243453583502],[140.96310975755904,39.82403653727171],[140.962865,39.8233149],[140.96266115,39.822802079094274],[140.9624573,39.8224579],[140.9621998,39.8217987],[140.9619209,39.8211889],[140.9617702373444,39.82037659177732],[140.9616634,39.8198705],[140.9616205,39.819566610218416],[140.96164301329463,39.81854554152549],[140.96163202260578,39.817924923661],[140.9614703,39.8171017],[140.96135004799783,39.8163893523496]],"type":"LineString"}},{"type":"Feature","properties":{"@id":"way/871515140","name":"無名_連絡"},"geometry":{"coordinates":[[140.96358397903336,39.826152884954666],[140.9631011,39.826034],[140.96246664536153,39.82580642527301],[140.96185251512057,39.82565766603633]],"type":"LineString"}},{"type":"Feature","properties":{"@id":"way/871515141","name":"E3"},"geometry":{"coordinates":[[140.9670707,39.8315214],[140.9673282,39.8308788],[140.9676286,39.8300878],[140.9677574,39.8294616],[140.967693,39.8289179],[140.967457,39.8282752],[140.96698312017034,39.82734173602438],[140.9667779744335,39.82678814287777],[140.9666845,39.8263636],[140.9666201,39.8258692],[140.96659682017034,39.82532935650835],[140.9665557,39.8247651],[140.9665128,39.8241389],[140.9663841,39.8235456],[140.9663197,39.8228205],[140.9662717545912,39.82194561742653],[140.96616674409853,39.8217710605715],[140.9660837,39.8212384]],"type":"LineString"}},{"type":"Feature","properties":{"@id":"way/871515142","name":"E4"},"geometry":{"coordinates":[[140.9660837,39.8212384],[140.96599167291987,39.820296559003694],[140.96587670399487,39.819357095144355],[140.96570500399488,39.81783623848738],[140.9655687,39.8158655],[140.96547972152996,39.81447858679334]],"type":"LineString"}},{"type":"Feature","properties":{"@id":"way/871515143","name":"E5"},"geometry":{"coordinates":[[140.96587602481063,39.821128518664416],[140.96560641390943,39.82108185630962],[140.9655054475564,39.82100654510616],[140.96538164633273,39.8207393103057],[140.965271806997,39.82053855301879],[140.96522400601162,39.8202858149649],[140.965192961276,39.81997178734427],[140.96516191654052,39.8196144438102],[140.9648177,39.8188157],[140.9644529,39.8177609],[140.9642383,39.8171181],[140.9640452,39.8165742],[140.9639808,39.8161952],[140.96407339924787,39.815616643857865],[140.9642253781975,39.81524152429592]],"type":"LineString"}},{"type":"Feature","properties":{"@id":"way/871515144","name":"E5_2"},"geometry":{"coordinates":[[140.9640060931381,39.81665147611856],[140.9637834324428,39.81650566106182],[140.9634769929777,39.8162361037165],[140.96320416207837,39.81605735582132],[140.96292860589855,39.81595127921105]],"type":"LineString"}},{"type":"Feature","properties":{"@id":"way/871515145","name":"E1"},"geometry":{"coordinates":[[140.96799892913262,39.82951865986655],[140.9681347429786,39.829228527348135],[140.96827617809922,39.82878393375987],[140.96832031541493,39.82844094248111],[140.9684011,39.82815284787786],[140.9687659,39.8275336],[140.9688655125205,39.82712360004845],[140.96914042706982,39.826901923574354],[140.9692809,39.8267921],[140.9700685109933,39.82630109876321],[140.97018123294893,39.82618518544447],[140.9702465,39.8252101],[140.97024141179767,39.82490443347499]],"type":"LineString"}},{"type":"Feature","properties":{"@id":"way/871515146","name":"E2"},"geometry":{"coordinates":[[140.97024141179767,39.82490443347499],[140.97036238255066,39.823802045859104],[140.97049452995782,39.822871335915075],[140.9703819101315,39.822233011589226],[140.9702894,39.8213043],[140.9701821,39.8208593],[140.97010764622704,39.82021253892185],[140.97000423448503,39.819771368940124],[140.96973928257228,39.81944348253389],[140.9696242,39.81919205229733],[140.96949507045747,39.81891565730654],[140.96940808182828,39.81831558918521],[140.9693969394275,39.81814381222307],[140.96932113337004,39.81799858303208],[140.9691216901706,39.81788820605877],[140.96894331742777,39.8177562503966],[140.96871024357173,39.81751449669293],[140.9685333576001,39.817391425346685],[140.9681891750185,39.81708762153404],[140.96787582311032,39.81678381687413],[140.96771595356438,39.81673915294792],[140.96735054622073,39.816694489021714],[140.96711454622073,39.816298175749566],[140.9670064,39.815915],[140.9667703,39.8153711],[140.96642152267825,39.814441530476984]],"type":"LineString"}},{"type":"Feature","properties":{"@id":"way/871515147","name":"ファミリーゲレンデ"},"geometry":{"coordinates":[[140.9704089585531,39.81887639230941],[140.9702478803393,39.818308028869176],[140.96998687949008,39.817868279880365],[140.9695813,39.8170852],[140.96951647688968,39.81674185089763],[140.96946193066896,39.8164537569459],[140.969195,39.8159315],[140.96889865799085,39.815399312097284],[140.96859203909415,39.81500921231956],[140.96826476177012,39.8146839449163],[140.967929,39.8143162],[140.9675226146874,39.81385541205791]],"type":"LineString"}}]}