{
  "type": "FeatureCollection",
  "features": [
    {
      "type": "Feature",
      "properties": {
        "@id": "way/627345182",
        "name": "当間第1ゲレンデ"
      },
      "geometry": {
        "coordinates": [
          [138.77062904230937, 37.037784169041906],
          [138.7703705, 37.0379608],
          [138.77010794917572, 37.038126440662005],
          [138.76977258818624, 37.03840096547711],
          [138.7692547, 37.03889],
          [138.7686753, 37.0394467],
          [138.7685059, 37.0395789],
          [138.7670016, 37.0407527],
          [138.76632933028583, 37.04115582112458],
          [138.76594005283505, 37.04154705354631],
          [138.76542417358246, 37.042045283993936],
          [138.7648934, 37.0426624],
          [138.7641585, 37.0432661],
          [138.7637883, 37.0434888],
          [138.7632951, 37.0436951]
        ],
        "type": "LineString"
      }
    },
    {
      "type": "Feature",
      "properties": {
        "@id": "way/1126670714",
        "name": "無名_当間第2→第1"
      },
      "geometry": {
        "coordinates": [
          [138.76989729849154, 37.03731154954749],
          [138.76965633601765, 37.037442771920695],
          [138.76943252584744, 37.0375818181989],
          [138.76916071851008, 37.03764293080056],
          [138.76892190104198, 37.037706738298255],
          [138.7687951413214, 37.037773849154775],
          [138.7687783177035, 37.03787586268909],
          [138.7688056, 37.0379857],
          [138.7688795, 37.038165],
          [138.7688966, 37.0383753],
          [138.7687772, 37.0389054],
          [138.76862548246405, 37.03924372664142]
        ],
        "type": "LineString"
      }
    },
    {
      "type": "Feature",
      "properties": {
        "@id": "way/1126670718",
        "name": "無名_当間第1→第2"
      },
      "geometry": {
        "coordinates": [
          [138.77025095292038, 37.03797806339323],
          [138.77003561157244, 37.038006840656635],
          [138.76986572489625, 37.037999334354666],
          [138.7696914, 37.0380017],
          [138.7690401, 37.0380073],
          [138.768926, 37.0379998],
          [138.76886206569458, 37.037983690966655],
          [138.7688249820162, 37.037910426855476],
          [138.7688265349911, 37.037817766033456],
          [138.7689134600484, 37.03774295330129],
          [138.76906021708442, 37.03770383692917],
          [138.76927350108673, 37.03766553093688],
          [138.7694539383226, 37.03761655211494],
          [138.7695258935984, 37.037580745966906],
          [138.76948676352168, 37.03748104320229],
          [138.769447862998, 37.03740524040636],
          [138.76930841669622, 37.03730501093505],
          [138.76914969751752, 37.03720774497808]
        ],
        "type": "LineString"
      }
    },
    {
      "type": "Feature",
      "properties": {
        "@id": "way/627345180",
        "name": "当間第2ゲレンデ_2"
      },
      "geometry": {
        "coordinates": [
          [138.77210824955495, 37.03084972692588],
          [138.7722006988153, 37.03140046457585],
          [138.7723522, 37.0319689],
          [138.7721772, 37.0323974],
          [138.7718903, 37.032844],
          [138.7717915, 37.0339248],
          [138.7715373, 37.0343163],
          [138.7714813, 37.0346732],
          [138.7712214, 37.0351152],
          [138.7708009, 37.0361941],
          [138.7706387, 37.0366205],
          [138.7703502901682, 37.03695070116473],
          [138.77003258097503, 37.03705491820537],
          [138.7696265540187, 37.03711633436676],
          [138.76923507918625, 37.03709982867055],
          [138.76884360435378, 37.0368818820195],
          [138.7684480871935, 37.03661343501922],
          [138.768250328612, 37.03644563823961],
          [138.7681829934922, 37.03617708465069],
          [138.7680652081444, 37.03602602082915]
        ],
        "type": "LineString"
      }
    },
    {
      "type": "Feature",
      "properties": {
        "@id": "way/627345181",
        "name": "当間第2ゲレンデ"
      },
      "geometry": {
        "coordinates": [
          [138.77262070205165, 37.0283039421523],
          [138.7724371, 37.0284417],
          [138.7723238065913, 37.028576417705594],
          [138.7722019, 37.0287218],
          [138.7720451, 37.0291908],
          [138.77197382635643, 37.029754508190045],
          [138.7719062922494, 37.03007068672963],
          [138.7716204, 37.0315522],
          [138.7708044, 37.0331658],
          [138.7701424, 37.0339283],
          [138.769348, 37.0342386],
          [138.7689267, 37.0345609],
          [138.76846846178623, 37.03509169969865],
          [138.7681159398183, 37.035861685474146]
        ],
        "type": "LineString"
      }
    },
    {
      "type": "Feature",
      "properties": {
        "@id": "way/1133890716",
        "name": "当間第4ゲレンデ 迂回"
      },
      "geometry": {
        "coordinates": [
          [138.771231, 37.0178413],
          [138.771, 37.0180428],
          [138.770934, 37.0181138],
          [138.770888, 37.0181598],
          [138.770871, 37.0182138],
          [138.770863, 37.0182588],
          [138.770868, 37.0183048],
          [138.770894, 37.0183468],
          [138.770948, 37.0184288],
          [138.771, 37.0184918],
          [138.771119, 37.0186088],
          [138.77125, 37.0187198],
          [138.771279, 37.0187628],
          [138.771296, 37.0188118],
          [138.771296, 37.0188768],
          [138.771273, 37.0189448],
          [138.771239, 37.0190048],
          [138.771134, 37.0191398],
          [138.77094, 37.0194418],
          [138.770866, 37.0195778],
          [138.770854, 37.0196378],
          [138.77086, 37.0197088],
          [138.770906, 37.0198968],
          [138.770991, 37.0201898],
          [138.77104, 37.0203748],
          [138.771102, 37.0205118],
          [138.771171, 37.0206198],
          [138.771262, 37.0207618],
          [138.771282, 37.0208188],
          [138.771288, 37.0208788],
          [138.77126, 37.0210038],
          [138.771214, 37.0212778],
          [138.771208, 37.0213688],
          [138.771223, 37.0214348],
          [138.771254, 37.0214968],
          [138.771302, 37.0215508],
          [138.771371, 37.0216168],
          [138.771599, 37.0217878],
          [138.77195, 37.0220358],
          [138.772151, 37.0221748],
          [138.772219, 37.0222408],
          [138.772256, 37.0222998],
          [138.772271, 37.0223508],
          [138.77228, 37.0224508],
          [138.772263, 37.0225138],
          [138.772237, 37.0226218],
          [138.772205, 37.0227298],
          [138.772211, 37.0227898],
          [138.772237, 37.0228548],
          [138.772294, 37.0229578],
          [138.772348, 37.0230948],
          [138.772468, 37.0234788],
          [138.7725, 37.0235358],
          [138.772557, 37.0235668],
          [138.772945, 37.023617],
          [138.77366, 37.023615],
          [138.773815, 37.023618],
          [138.773998, 37.023657],
          [138.774215, 37.02373],
          [138.774442, 37.023823],
          [138.77480024261652, 37.0239891184894]
        ],
        "type": "LineString"
      }
    },
    {
      "type": "Feature",
      "properties": {
        "@id": "way/1133890719",
        "name": "当間第4ゲレンデ 中央"
      },
      "geometry": {
        "coordinates": [
          [138.7714551, 37.0179646],
          [138.7717116, 37.0181955],
          [138.77184087901452, 37.01847125076397],
          [138.7718683, 37.0188617],
          [138.7717807380468, 37.019077466165996],
          [138.7718074252517, 37.019302354211234],
          [138.7718819, 37.0194531],
          [138.772168, 37.0199355],
          [138.77237250016924, 37.02037223002846],
          [138.77269696195327, 37.020763349733436],
          [138.773311, 37.0213418],
          [138.773794, 37.0220826],
          [138.7739601, 37.0225148],
          [138.7744526, 37.0230421],
          [138.7747376, 37.0232155],
          [138.7748986, 37.0234248],
          [138.7749503, 37.0235665],
          [138.7749180292936, 37.02383954819068],
          [138.7748664884796, 37.02404153349998],
          [138.774996, 37.024233],
          [138.775103, 37.024347],
          [138.775177, 37.024423],
          [138.775292, 37.024541],
          [138.775355, 37.024619],
          [138.775389, 37.024643],
          [138.775418, 37.024653],
          [138.775453, 37.024651],
          [138.775483, 37.024629],
          [138.775611, 37.024461],
          [138.775693, 37.024366],
          [138.775812, 37.024206],
          [138.775921, 37.024057],
          [138.775969, 37.02397],
          [138.775999, 37.023914],
          [138.776034, 37.023795],
          [138.776088, 37.023461],
          [138.776112, 37.023342],
          [138.776136, 37.023273],
          [138.776166, 37.023214],
          [138.776214, 37.023153],
          [138.776273, 37.023099],
          [138.776349, 37.023047],
          [138.776429, 37.023017],
          [138.776492, 37.023004],
          [138.776585, 37.022995],
          [138.776721, 37.022998],
          [138.776793, 37.023023],
          [138.776943, 37.023095],
          [138.777055, 37.023162],
          [138.777123, 37.02319],
          [138.777294, 37.023255],
          [138.777439, 37.023318],
          [138.777528, 37.023368]
        ],
        "type": "LineString"
      }
    },
    {
      "type": "Feature",
      "properties": {
        "@id": "way/627345172",
        "name": "当間第4ゲレンデ メイン"
      },
      "geometry": {
        "coordinates": [
          [138.7712562604352, 37.017528001015705],
          [138.77124578691212, 37.01774218807246],
          [138.7713101440001, 37.0179048487196],
          [138.77175229626062, 37.01805163307239],
          [138.7723978, 37.0182135],
          [138.7728796, 37.0182217],
          [138.773219, 37.0183038],
          [138.773565632086, 37.01867063301973],
          [138.7741458160431, 37.01927235607818],
          [138.77469436899702, 37.019616768463834],
          [138.77540609252003, 37.02024937540566],
          [138.7761377, 37.020786727096564],
          [138.7764575, 37.0210549],
          [138.77653668021756, 37.021291875590734],
          [138.7766147, 37.0216401],
          [138.7767026679114, 37.02197809230278],
          [138.77681595615178, 37.0221858692252],
          [138.7771082, 37.0225524],
          [138.7772852, 37.0227794],
          [138.7775742481291, 37.023034686316464],
          [138.7779021, 37.023546],
          [138.7779996, 37.0236935],
          [138.7784171, 37.0243255],
          [138.7791359, 37.0251564],
          [138.7798333, 37.0257003],
          [138.7805629, 37.0263298],
          [138.7809759, 37.0268309],
          [138.7812173, 37.0270922],
          [138.7817204, 37.0275889],
          [138.7820577, 37.0279326],
          [138.78236660374188, 37.02828128187186]
        ],
        "type": "LineString"
      }
    },
    {
      "type": "Feature",
      "properties": {
        "@id": "way/627345175",
        "name": "当間第5ゲレンデ"
      },
      "geometry": {
        "coordinates": [
          [138.78684780409168, 37.02963985631397],
          [138.7862921, 37.0294647],
          [138.7854123, 37.0292592],
          [138.7844199, 37.0291007],
          [138.78334865403744, 37.02892416587565],
          [138.78243388216026, 37.02880118103838],
          [138.78184780701136, 37.02875165200901]
        ],
        "type": "LineString"
      }
    },
    {
      "type": "Feature",
      "properties": {
        "@id": "way/153371065",
        "name": "当間第5ゲレンデ_迂回"
      },
      "geometry": {
        "coordinates": [
          [138.7868128328907, 37.02945947004831],
          [138.78662976740458, 37.02885035990776],
          [138.78660823179484, 37.028513873616276],
          [138.78664746194153, 37.02824983426807],
          [138.78664707783582, 37.02801403474452],
          [138.78653689028374, 37.02787218567349],
          [138.78634670601016, 37.02779420138839],
          [138.78617542048266, 37.02775462843495],
          [138.78591947390092, 37.027796873294925],
          [138.78575288328818, 37.02781799571285],
          [138.78564879403726, 37.027816699273394],
          [138.78555219096165, 37.027789964227395],
          [138.785414, 37.027749],
          [138.785314, 37.02772],
          [138.785229, 37.027683],
          [138.7851270588732, 37.02761402771518],
          [138.78509247013963, 37.027563770779416],
          [138.78503055845016, 37.027529913084955],
          [138.784896, 37.02754],
          [138.78481, 37.027518],
          [138.78470241211397, 37.027493],
          [138.78462961817104, 37.027444885378046],
          [138.78458050042303, 37.02737839920245],
          [138.78458020605552, 37.02728939918227],
          [138.784625, 37.027097],
          [138.784631, 37.02703],
          [138.784601, 37.026975],
          [138.784554, 37.026937],
          [138.784463, 37.026907],
          [138.784358, 37.026882],
          [138.78427, 37.02684],
          [138.784204, 37.0268],
          [138.784143, 37.026788],
          [138.78407289126514, 37.026791061895146],
          [138.78403617386405, 37.02683615048132],
          [138.78404308693206, 37.02690102666611],
          [138.78407623913293, 37.026941451414324],
          [138.78414134787005, 37.02700132756503],
          [138.784251, 37.027088],
          [138.784278, 37.027135],
          [138.784286, 37.027205],
          [138.784283, 37.027356],
          [138.784239, 37.027582],
          [138.784189, 37.027687],
          [138.784129, 37.027765],
          [138.784076, 37.027838],
          [138.784043142802, 37.027883181797705],
          [138.78404771424132, 37.02795592726692],
          [138.78408371424132, 37.02800918182684],
          [138.78413085712066, 37.02803915457322],
          [138.78418428575867, 37.028082927300716],
          [138.78422342855913, 37.02813040005879],
          [138.784247, 37.028188],
          [138.784264, 37.028268],
          [138.784264, 37.028408],
          [138.784225, 37.028485],
          [138.784159, 37.028569],
          [138.784054, 37.028679],
          [138.783965, 37.02877]
        ],
        "type": "LineString"
      }
    },
    {
      "type": "Feature",
      "properties": {
        "@id": "way/627345184",
        "name": "パノラマゲレンデ 第3尾根"
      },
      "geometry": {
        "coordinates": [
          [138.79394953927934, 37.03738348808279],
          [138.7942187, 37.037849899983556],
          [138.7943128, 37.03822625912499],
          [138.79424637088667, 37.03861937971824],
          [138.7941629927222, 37.03890238119584],
          [138.79397558544446, 37.03926150201514],
          [138.79372259272324, 37.039609683549784],
          [138.79346930184676, 37.03987003622916],
          [138.7932299582023, 37.040027892069524],
          [138.79292823543, 37.040314413578315],
          [138.79271320358737, 37.04058017535006],
          [138.7925860942885, 37.04092540475209],
          [138.79252626543246, 37.041340173434534],
          [138.79248435771683, 37.041665537697334],
          [138.79234665343364, 37.041927520127594],
          [138.7923747197132, 37.0421394362665],
          [138.7923711, 37.042402],
          [138.792301, 37.0426098],
          [138.7921582168586, 37.04281791759813]
        ],
        "type": "LineString"
      }
    },
    {
      "type": "Feature",
      "properties": {
        "@id": "way/627345185",
        "name": "パノラマゲレンデ 第2"
      },
      "geometry": {
        "coordinates": [
          [138.79818384682318, 37.04136977546184],
          [138.79781002809295, 37.04154981062702],
          [138.79701242497126, 37.041760170419245],
          [138.7960875, 37.0420501],
          [138.79551466878542, 37.0422266965015],
          [138.7950897, 37.0424012],
          [138.79369551872674, 37.042781688855236],
          [138.7930098187268, 37.04287976499651],
          [138.7923775312098, 37.04290858882542],
          [138.7920876, 37.0428609],
          [138.79194707191, 37.04284857538352],
          [138.79184976878884, 37.04278449844947],
          [138.7917262, 37.0426367],
          [138.79129726872603, 37.042445696593475],
          [138.7908575312098, 37.042375449123206],
          [138.79057241566903, 37.0422548628432],
          [138.79030891261144, 37.042289534617574],
          [138.78997351547872, 37.04236117700997]
        ],
        "type": "LineString"
      }
    },
    {
      "type": "Feature",
      "properties": {
        "@id": "way/627345190",
        "name": "パノラマクワッドメイン"
      },
      "geometry": {
        "coordinates": [
          [138.79817840385724, 37.040727137631535],
          [138.7984434697748, 37.040653361287],
          [138.79862610192856, 37.040578580048305],
          [138.79886838392306, 37.04045592349359],
          [138.7993503639872, 37.04023129281513],
          [138.80060017411625, 37.03978189150891],
          [138.80202395594867, 37.03927513211448],
          [138.8028467, 37.0389757],
          [138.802954, 37.0389671],
          [138.8031299, 37.0390059],
          [138.80328802202564, 37.039115795452176],
          [138.8034423620587, 37.03918342653378],
          [138.8036165, 37.0391725],
          [138.80383173794135, 37.03913319233459],
          [138.80465185402022, 37.03893272227576],
          [138.8054755, 37.0387362],
          [138.8063737, 37.0384357],
          [138.80701413794142, 37.03832090594449]
        ],
        "type": "LineString"
      }
    },
    {
      "type": "Feature",
      "properties": {
        "@id": "way/627345195",
        "name": "美奈ファミリー林間"
      },
      "geometry": {
        "coordinates": [
          [138.80955647613956, 37.03865091611286],
          [138.8096273, 37.0389671],
          [138.8097185, 37.0390956],
          [138.8100779, 37.0394553],
          [138.81024035547154, 37.039421339921134],
          [138.810378922263, 37.039410261972755],
          [138.8104511107536, 37.039486948880466],
          [138.81046118867772, 37.03965897782635],
          [138.81033, 37.0400376],
          [138.81033, 37.0403331],
          [138.8104159, 37.0406961],
          [138.8105569, 37.0407025],
          [138.811013, 37.0406015],
          [138.8111903, 37.0406066],
          [138.8113454, 37.0406441],
          [138.8115134, 37.040732],
          [138.811827, 37.0408825],
          [138.8119609, 37.0409198],
          [138.8120963, 37.0409049],
          [138.812214, 37.0408642],
          [138.8123307, 37.0407814],
          [138.8123493, 37.0406978],
          [138.812312, 37.0405889],
          [138.8119097, 37.0399083],
          [138.81193147322836, 37.0397797427447],
          [138.81196810984488, 37.039672618923845],
          [138.812277, 37.0388975],
          [138.812277, 37.0388975],
          [138.8123795, 37.0388303],
          [138.8124919, 37.0387988],
          [138.8126981, 37.0388021],
          [138.8129254, 37.0388343],
          [138.8132529997014, 37.038871042394405],
          [138.81346723515384, 37.03889115241897],
          [138.81346950938536, 37.03899088270863],
          [138.8134740578485, 37.03911072302285],
          [138.81355796461645, 37.03920111592112],
          [138.81370084153738, 37.039222661756405],
          [138.81382716230456, 37.03917564478524],
          [138.81387785438065, 37.039017777436705],
          [138.8138849073821, 37.038889767783125],
          [138.813902, 37.0387307],
          [138.813957, 37.037856],
          [138.8140119, 37.0377269],
          [138.8142165, 37.037478],
          [138.8143813, 37.0372687],
          [138.814524, 37.037112],
          [138.8145607, 37.0370032],
          [138.8145347, 37.0368854],
          [138.8143379, 37.0365754],
          [138.8142932, 37.0364426],
          [138.8142509, 37.036236],
          [138.8142215, 37.0360933],
          [138.8140417, 37.0352922],
          [138.81396042922339, 37.0349500748866]
        ],
        "type": "LineString"
      }
    },
    {
      "type": "Feature",
      "properties": {
        "@id": "way/153366311",
        "name": "パノラマファミリー林間"
      },
      "geometry": {
        "coordinates": [
          [138.7981318894906, 37.040677135072166],
          [138.79800860634268, 37.04027872158754],
          [138.797917762223, 37.039983880971874],
          [138.7977512270386, 37.03971061930854],
          [138.7977058049782, 37.0394617837478],
          [138.7975749638547, 37.03924673866268],
          [138.79747169775976, 37.03909606010472],
          [138.79732815413456, 37.038886936776805],
          [138.79751048803894, 37.038894581009025],
          [138.7977577, 37.0390058],
          [138.7979386, 37.0391184],
          [138.7980477, 37.0393096],
          [138.7982739, 37.0398109],
          [138.7984762, 37.0402357],
          [138.7985773, 37.0403674],
          [138.7987902, 37.0404991],
          [138.798823, 37.0405163],
          [138.7989818, 37.0405374],
          [138.7995087, 37.0404035],
          [138.799711, 37.0404142],
          [138.799868, 37.0405034],
          [138.8009857, 37.0413488],
          [138.8011054, 37.0413849],
          [138.8012571, 37.0413509],
          [138.8013689, 37.0412511],
          [138.8015992, 37.0408994],
          [138.8015911, 37.040411],
          [138.8017115, 37.0398222],
          [138.8021782, 37.0394618],
          [138.802547, 37.0394497],
          [138.8027126, 37.039666],
          [138.8026976, 37.0400806],
          [138.8026194, 37.0402938],
          [138.8026296, 37.0403806],
          [138.8026694, 37.0404567],
          [138.8027698, 37.0405003],
          [138.802883, 37.0404963],
          [138.8029461, 37.0404601],
          [138.8030063, 37.0404002],
          [138.8030205, 37.0403308],
          [138.8030251, 37.040196],
          [138.8030449, 37.0401281],
          [138.803101, 37.040063],
          [138.8032797, 37.0399782],
          [138.8033803, 37.0399613],
          [138.8034757, 37.0399814],
          [138.8035585, 37.0400151],
          [138.8037521, 37.0401367],
          [138.8038931, 37.0401816],
          [138.8040208, 37.0402062],
          [138.8041478, 37.0401932],
          [138.8042581, 37.0401279],
          [138.8048918, 37.0394615],
          [138.8049674, 37.0394065],
          [138.8050582, 37.0393756],
          [138.8051759, 37.0393764],
          [138.8052933, 37.0394089],
          [138.805391, 37.039502],
          [138.8054564, 37.0396307],
          [138.8054999, 37.0398],
          [138.8055225, 37.0400491],
          [138.805541, 37.0401544],
          [138.8056081, 37.0402207],
          [138.8056895, 37.0402534],
          [138.8057955, 37.0402683],
          [138.8062459, 37.0402838],
          [138.806356, 37.0402708],
          [138.8064716, 37.04023],
          [138.8067278, 37.0400649],
          [138.8068046, 37.0400453],
          [138.8068937, 37.0400455],
          [138.8069592, 37.0400707],
          [138.8070141, 37.04014],
          [138.8070965, 37.0404118],
          [138.807148, 37.0406106],
          [138.8071961, 37.0407207],
          [138.8072734, 37.0407803],
          [138.8073533, 37.0407938],
          [138.8074421, 37.0407916],
          [138.8075269, 37.0407612],
          [138.8075808, 37.0407094],
          [138.8076095, 37.0406345],
          [138.8076069, 37.0405589],
          [138.8075723, 37.0404627],
          [138.8074875, 37.0403568],
          [138.8074471, 37.0402655],
          [138.8074282, 37.0401511],
          [138.8074505, 37.0400943],
          [138.8074884, 37.0400374],
          [138.8075584, 37.0400077],
          [138.8076205, 37.0400041],
          [138.8076905, 37.0400294],
          [138.8077433, 37.0400774],
          [138.8077598, 37.0401248],
          [138.8077823, 37.0403308],
          [138.807805, 37.0403778],
          [138.8078701, 37.0404198],
          [138.8079368, 37.0404285],
          [138.8080002, 37.0404075],
          [138.8080545, 37.0403514],
          [138.8080738, 37.0402901],
          [138.8080808, 37.040041],
          [138.8080808, 37.040041],
          [138.808056, 37.0399004],
          [138.8078303, 37.0394246],
          [138.8078016, 37.0392237],
          [138.807753, 37.0390224],
          [138.8076639, 37.0388631],
          [138.8070299, 37.0382653],
          [138.806941, 37.0381819],
          [138.8068369, 37.0381353],
          [138.80669, 37.0381068],
          [138.8065883, 37.0380475],
          [138.8065227, 37.0379536],
          [138.8065106, 37.0378541],
          [138.8065849, 37.0377678],
          [138.8067385, 37.037741],
          [138.8070804, 37.0377495],
          [138.8072172, 37.0377736],
          [138.807305, 37.03784],
          [138.807335, 37.0379538],
          [138.8073757, 37.0380154],
          [138.8074667, 37.03811090251666],
          [138.8080273323189, 37.03827605120392],
          [138.808659, 37.0384412],
          [138.8091286, 37.0383695],
          [138.80929244211472, 37.03840000127495],
          [138.8094562842294, 37.03855200828691]
        ],
        "type": "LineString"
      }
    },
    {
      "type": "Feature",
      "properties": {
        "@id": "way/504561409",
        "name": "大別当ゲレンデ"
      },
      "geometry": {
        "coordinates": [
          [138.80613548702505, 37.034172065497344],
          [138.80637856995028, 37.03417078997211],
          [138.8070340020931, 37.0341936],
          [138.80780065313766, 37.0342407196027],
          [138.8083827, 37.03422643708449],
          [138.80955845920548, 37.03420337830884],
          [138.8110022573221, 37.03423925772527],
          [138.81232821171116, 37.03427768715424],
          [138.81350032927853, 37.034359098012494]
        ],
        "type": "LineString"
      }
    },
    {
      "type": "Feature",
      "properties": {
        "@id": "way/1133890744",
        "name": "大別当迂回"
      },
      "geometry": {
        "coordinates": [
          [138.8058124755233, 37.03450787762232],
          [138.8059187, 37.0347152],
          [138.8060951, 37.0348152],
          [138.8063575, 37.034896],
          [138.8065571, 37.0349329],
          [138.8068109, 37.0349368],
          [138.8070655, 37.0348816],
          [138.8073014, 37.0348591],
          [138.807694, 37.0348629],
          [138.8081909, 37.0348887],
          [138.8085329, 37.0349241],
          [138.8087671, 37.034955],
          [138.8088392, 37.0349762],
          [138.8088822, 37.0350118],
          [138.80889, 37.035056],
          [138.8088612, 37.0351434],
          [138.8088357, 37.0352175],
          [138.8088409, 37.0352531],
          [138.808869, 37.0352724],
          [138.8089094, 37.0352769],
          [138.8089567, 37.0352672],
          [138.8091677, 37.0351494],
          [138.8092257, 37.0351253],
          [138.8092613, 37.035123],
          [138.8093056, 37.0351342],
          [138.8093204, 37.0351643],
          [138.8093269, 37.0352399],
          [138.809323, 37.0353017],
          [138.809309, 37.0353774],
          [138.809309, 37.0354614],
          [138.8093363, 37.0355248],
          [138.8093814, 37.0355695],
          [138.8094499, 37.0355836],
          [138.8095345, 37.035582],
          [138.8096003, 37.0355453],
          [138.8097396, 37.0354221],
          [138.8098574, 37.0352824],
          [138.8098876, 37.0352792],
          [138.8099104, 37.0352964],
          [138.8099886, 37.0354967],
          [138.8100195, 37.035625],
          [138.8100202, 37.035688],
          [138.8100032, 37.0357344],
          [138.8100015, 37.0357676],
          [138.8100181, 37.0357871],
          [138.810048, 37.0357963],
          [138.8101049, 37.0357798],
          [138.8101778, 37.035745],
          [138.8107476, 37.0353413],
          [138.8108977, 37.0351936],
          [138.8109865, 37.0350703],
          [138.8110627, 37.0349317],
          [138.8111441, 37.0347915],
          [138.8112258, 37.0347158],
          [138.8113082, 37.034685],
          [138.8115303, 37.0346531],
          [138.8119909, 37.0345187],
          [138.8122081, 37.0344205]
        ],
        "type": "LineString"
      }
    },
    {
      "type": "Feature",
      "properties": {
        "@id": "way/627345188",
        "name": "美奈ゲレンデ 第2"
      },
      "geometry": {
        "coordinates": [
          [138.80965933651166, 37.03840766212714],
          [138.81015371975383, 37.03815232685196],
          [138.81087381975377, 37.037776836666396],
          [138.8118655227527, 37.0372053029698],
          [138.8131678, 37.0365692],
          [138.81372376717806, 37.03630039304731],
          [138.81416346641103, 37.03606550458863]
        ],
        "type": "LineString"
      }
    },
    {
      "type": "Feature",
      "properties": {
        "@id": "way/627345189",
        "name": "美奈ゲレンデ 第1"
      },
      "geometry": {
        "coordinates": [
          [138.80938198868395, 37.03811241996581],
          [138.80950953524373, 37.03794804695434],
          [138.80961906944964, 37.037837658749005],
          [138.80982521110818, 37.03773491957149],
          [138.8102426479224, 37.0375890472631],
          [138.8107106616638, 37.03740601683031],
          [138.81109882124812, 37.03709396611172],
          [138.81143421916894, 37.0368244850267],
          [138.81189829584306, 37.03635303965332],
          [138.812508, 37.0358894],
          [138.81317045586457, 37.03537349421527],
          [138.81350982861977, 37.035191298017885],
          [138.8138252948463, 37.03502981269169]
        ],
        "type": "LineString"
      }
    },
    {
      "type": "Feature",
      "properties": {
        "@id": "way/1133890728",
        "name": "長峰ゲレンデ 第1"
      },
      "geometry": {
        "coordinates": [
          [138.81487252374586, 37.03524886800134],
          [138.8152316395371, 37.03475386367752],
          [138.81555757619907, 37.03440109067723],
          [138.81576111123567, 37.03407785652715],
          [138.8162057187688, 37.033559522656255],
          [138.81651243569604, 37.0333909605784],
          [138.81697144039438, 37.03319634804535],
          [138.81792617127257, 37.03266696669988],
          [138.8185014982417, 37.032368193576815],
          [138.81886237371637, 37.032167143409254],
          [138.819027450627, 37.03217450042395],
          [138.8190783117069, 37.03232730815201],
          [138.818998640412, 37.03255392646999],
          [138.819202084734, 37.03294806569536]
        ],
        "type": "LineString"
      }
    },
    {
      "type": "Feature",
      "properties": {
        "name": "長峰ゲレンデ 第2"
      },
      "geometry": {
        "coordinates": [
          [138.81504902136078, 37.035264499299416],
          [138.8164755362148, 37.034485353706685],
          [138.8171722437673, 37.034046594450174],
          [138.8176039601392, 37.03381364618454],
          [138.81830583911, 37.03357827822653],
          [138.8192510416401, 37.03332617889255]
        ],
        "type": "LineString"
      }
    },
    {
      "type": "Feature",
      "properties": {
        "@id": "way/627345187",
        "name": "長峰ゲレンデ 第3"
      },
      "geometry": {
        "coordinates": [
          [138.81538470970133, 37.03590793987832],
          [138.81591685790406, 37.035677784017615],
          [138.81746185790394, 37.03499250594828],
          [138.81940189922162, 37.03426352359602],
          [138.81966629514937, 37.0341620173346],
          [138.81978567410135, 37.03405227036308],
          [138.81982209514925, 37.0338508295108]
        ],
        "type": "LineString"
      }
    },
    {
      "type": "Feature",
      "properties": {
        "@id": "way/1133890732",
        "name": "ホテル前ゲレンデ"
      },
      "geometry": {
        "coordinates": [
          [138.8211471119094, 37.0329977304367],
          [138.82024317607568, 37.033569308761]
        ],
        "type": "LineString"
      }
    },
    {
      "type": "Feature",
      "properties": {
        "@id": "way/215159987",
        "name": "リーゼンファミリー林間"
      },
      "geometry": {
        "coordinates": [
          [138.82027751121964, 37.03375376193293],
          [138.82043016084492, 37.033979480396454],
          [138.82060903392374, 37.03414239798772],
          [138.820788460593, 37.03427145753065],
          [138.82092592973564, 37.034337716546986],
          [138.82112633516755, 37.03441234897116],
          [138.82127879003787, 37.03444898169647],
          [138.82149006826373, 37.03446311135486],
          [138.82161480908889, 37.03443118734137],
          [138.82179384624834, 37.0343788518131],
          [138.82206276082164, 37.03431604773749],
          [138.82235933418792, 37.0342867337753],
          [138.82251954558973, 37.03424485974756],
          [138.82272171451947, 37.034102504671864],
          [138.82288770968069, 37.034011812067156],
          [138.8230316757982, 37.03397603407733],
          [138.82320840484041, 37.03394401945147],
          [138.82337766210009, 37.0338470439501],
          [138.82360546292296, 37.033672178085666],
          [138.82368185808264, 37.03354122188556],
          [138.82379440967904, 37.03323113830752],
          [138.8238737242001, 37.03290099850904],
          [138.8239066, 37.0327187],
          [138.8239533, 37.0325837],
          [138.82400243388085, 37.03226824233611],
          [138.8240462580827, 37.03213721440228],
          [138.82414037260386, 37.03207352158909],
          [138.8243071064863, 37.032056407194595],
          [138.8249088, 37.031989835311244],
          [138.82519830484037, 37.031860735372646],
          [138.82551807095948, 37.03166019253784],
          [138.8258189273963, 37.03147532132291],
          [138.82624570968073, 37.0312567286162],
          [138.82645716776332, 37.03118696432708],
          [138.8265958435633, 37.03117446432992],
          [138.8267356484019, 37.03116253580654],
          [138.82694552904206, 37.031006814547716],
          [138.8271291242018, 37.030763136049416],
          [138.82740869762858, 37.03045676946864],
          [138.82763623233225, 37.03027503280497]
        ],
        "type": "LineString"
      }
    },
    {
      "type": "Feature",
      "properties": {
        "@id": "way/504561414",
        "name": "大沢ゲレンデ"
      },
      "geometry": {
        "coordinates": [
          [138.8042102506368, 37.03466045710513],
          [138.80475854408556, 37.03459818924351],
          [138.80521095857154, 37.034491159401526],
          [138.80563606708142, 37.03424503736231],
          [138.80568697685067, 37.03409081049962],
          [138.80555776040194, 37.03388865338566],
          [138.80509578699622, 37.03331301307968],
          [138.80476752737886, 37.03294729465516],
          [138.8044013607734, 37.03263161360613],
          [138.80423610424864, 37.03242633666443],
          [138.804261, 37.0320408],
          [138.80474404307228, 37.02983393856605],
          [138.80513699608588, 37.02847560890405],
          [138.8056469, 37.0268994],
          [138.8058668, 37.02626482310869],
          [138.8060478, 37.0251549],
          [138.80608184030794, 37.02481822092507]
        ],
        "type": "LineString"
      }
    },
    {
      "type": "Feature",
      "properties": {
        "@id": "way/627345186",
        "name": "パノラマゲレンデ 第3メイン"
      },
      "geometry": {
        "coordinates": [
          [138.79254850171415, 37.036270183301205],
          [138.79283885444244, 37.03640008509882],
          [138.79317263418272, 37.03648761953502],
          [138.79336781455973, 37.03651633153055],
          [138.79357856677552, 37.03677157200407],
          [138.79375938423246, 37.03703092562309],
          [138.79386158067155, 37.03725093348224],
          [138.7938459, 37.0373505],
          [138.7937637754236, 37.037434332680405],
          [138.79361092457634, 37.03743536222459],
          [138.7932240849168, 37.03742389843929],
          [138.7926815, 37.0373425],
          [138.7923909030584, 37.03727447429526],
          [138.79226918001237, 37.037287508756926],
          [138.79227947932662, 37.037345708649966],
          [138.7918656, 37.0374941],
          [138.7916147, 37.0375986],
          [138.7914261, 37.0378266],
          [138.79122517612174, 37.038084772084225],
          [138.79110229785678, 37.03830833380597],
          [138.79099969217054, 37.03885346181917],
          [138.7908679, 37.039538372864484],
          [138.7906638472936, 37.04021460480997],
          [138.7905192, 37.0407827],
          [138.79007462702575, 37.04168951717883],
          [138.78990952027067, 37.042200897906646],
          [138.7897736, 37.0425725],
          [138.78925205270642, 37.043264151961694],
          [138.78907225270635, 37.04359200400664],
          [138.7889906, 37.0439706],
          [138.78913422323777, 37.04427782693065]
        ],
        "type": "LineString"
      }
    },
    {
      "type": "Feature",
      "properties": {
        "name": "無名_長峰→美奈"
      },
      "geometry": {
        "coordinates": [
          [138.81514443327865, 37.035945705272084],
          [138.81509548363795, 37.036136735590716],
          [138.81504653399588, 37.03634513175362],
          [138.8150410951468, 37.03653616106688],
          [138.8150410951468, 37.03661430928422],
          [138.81487792967738, 37.036579576753184],
          [138.81471476420649, 37.03641459701379],
          [138.81443738290557, 37.03626264167377],
          [138.81431228937856, 37.03622356739473]
        ],
        "type": "LineString"
      }
    },
    {
      "type": "Feature",
      "properties": {
        "name": "無名_長峰→大別当"
      },
      "geometry": {
        "coordinates": [
          [138.81484595072402, 37.03532917765358],
          [138.81440499512019, 37.03510102974302],
          [138.81388238107178, 37.034801177160475]
        ],
        "type": "LineString"
      }
    }
  ]
}
