{"type":"FeatureCollection","features":[{"type":"Feature","properties":{"name":"田代第1ゲレンデB"},"geometry":{"coordinates":[[138.75249043338223,36.84801981260238],[138.75233501921667,36.84834701235423],[138.75218550504903,36.84846825435352],[138.7519971,36.8485573],[138.7517986,36.8486453],[138.7516001,36.8487333],[138.7513426,36.848802],[138.75068277019426,36.848851904948596],[138.7500605,36.8487891],[138.7497869,36.8487419],[138.74916157068506,36.84855707103249],[138.7485097625481,36.84844139911388]],"type":"LineString"}},{"type":"Feature","properties":{"name":"田代第1ゲレンデA"},"geometry":{"coordinates":[[138.7521543400317,36.84789757013923],[138.7519032600243,36.8478557974442],[138.751416230023,36.84776559749844],[138.75091483001677,36.847738970003086],[138.7500543300013,36.847752007515425],[138.74911869000366,36.84791529483533],[138.7487197,36.8480152],[138.7483585700423,36.84812969707512]],"type":"LineString"}},{"type":"Feature","properties":{"name":"らくらく"},"geometry":{"coordinates":[[138.7520389444755,36.84775619587079],[138.7520041314611,36.84761941326638],[138.75196527036317,36.847486160189426],[138.75184396017207,36.84716550080826],[138.75171906110072,36.84681836776073],[138.75164570833144,36.84669271735963],[138.7515727,36.8466622],[138.7515277,36.8466432],[138.7514807,36.8466522],[138.7514497,36.8466822],[138.7514609,36.8468015],[138.7514526,36.8469486],[138.7514445,36.8471],[138.7514546,36.8472379],[138.7514713,36.8474738],[138.7514505,36.847532],[138.7514007,36.8475551],[138.7513427,36.8475601],[138.7513067,36.8475421],[138.7512847,36.8475041],[138.7512507,36.8474412],[138.7512287,36.8473682],[138.7511847,36.8472762],[138.7511417,36.8471812],[138.7510677,36.8470822],[138.7509527,36.8469651],[138.7508667,36.8468912],[138.7507417,36.8467912],[138.7505494,36.8465688],[138.7504215,36.8464528],[138.75028418705622,36.84628377338657],[138.7501861305679,36.84612816006582],[138.7501151,36.8459967],[138.7500125,36.8458953],[138.7499599,36.8457481],[138.74968698504284,36.845596091873986],[138.74959523005708,36.845941136841134],[138.74925449511517,36.84643000477306],[138.74886847018195,36.846981005881844],[138.74885988018448,36.847803421138096]],"type":"LineString"}},{"type":"Feature","properties":{"name":"こぶこぶ"},"geometry":{"coordinates":[[138.74357482111222,36.844977194827585],[138.74384066064553,36.84485969828559],[138.7442167803237,36.84475158300354],[138.74460347978544,36.84474488131401],[138.7450240601073,36.844810779544176],[138.7454080805025,36.844767089794516],[138.74578482039524,36.844728588121804],[138.74619058050428,36.84459689156556],[138.7470537,36.8440428],[138.7475669,36.843707],[138.74781773953328,36.843419488962574]],"type":"LineString"}},{"type":"Feature","properties":{"name":"田代レディース"},"geometry":{"coordinates":[[138.7380257,36.8426405],[138.7380928,36.8426233],[138.7387043,36.8426212],[138.7392998,36.8427221],[138.7396002,36.8428251],[138.7405121,36.8432759],[138.74196911273256,36.84419120927326],[138.7430066,36.8448299],[138.74380580910537,36.8452292],[138.7444657,36.8454696],[138.7448841,36.84565591674549],[138.7457596163565,36.84595823292725],[138.7469065,36.8461264],[138.7473947,36.8463153],[138.7480599,36.8466759],[138.7481457,36.8467617],[138.74857498178756,36.8469549]],"type":"LineString"}},{"type":"Feature","properties":{"name":"スカイライン"},"geometry":{"coordinates":[[138.7306705764161,36.843700950393234],[138.73136461042202,36.84359589168452],[138.7338327724577,36.84335119196884],[138.73443859006773,36.84319284681141],[138.7351263655089,36.84307220316796],[138.73571344466714,36.84305225625363],[138.7361012,36.8432587],[138.7365505,36.8436816],[138.7370373,36.8440561],[138.73742708696557,36.84431218155878],[138.7376403806052,36.84436187568453],[138.7379354127222,36.84442865814638],[138.73837254515135,36.844536652265774],[138.73906025484865,36.84456100450448],[138.73995000969734,36.8446427218384],[138.7412622630344,36.84473001885121],[138.7425382421281,36.84478248107436]],"type":"LineString"}},{"type":"Feature","properties":{"name":"親切"},"geometry":{"coordinates":[[138.73291136229304,36.85144405565739],[138.73323272194028,36.85141894740064],[138.73346482106083,36.851330750271494],[138.733533,36.8511918],[138.73355643858645,36.850893654862546],[138.7335967377069,36.85078889179857],[138.7337154,36.8507389],[138.7337825,36.8507389],[138.7339139,36.8507733],[138.7340936,36.8508699],[138.7344074,36.8510051],[138.73474,36.8512025],[138.7353033,36.8513979],[138.7356225,36.8514986722431],[138.73599808467682,36.8514900722502],[138.73628374653143,36.85141851108447]],"type":"LineString"}},{"type":"Feature","properties":{"name":"田代アリエスカ"},"geometry":{"coordinates":[[138.7297231,36.8436337],[138.7300832149564,36.8438812],[138.7304753,36.8441302],[138.7308079,36.8446067],[138.731119,36.8451133],[138.7313765,36.8453751],[138.7318003,36.8457057],[138.7322831,36.846238],[138.7328142,36.8469249],[138.7331039,36.847367],[138.7332277,36.8477996],[138.7335158,36.848904],[138.7336829112182,36.849648639037845],[138.73377406308816,36.8498654],[138.7339860815432,36.850118909254434],[138.73451407056805,36.85046428268774],[138.73597368629257,36.851166665102994],[138.73664835887558,36.85145316480961],[138.73696014516815,36.85165769148473],[138.73729444059998,36.851866754698555],[138.738479,36.8524538],[138.73899764059897,36.85278652629066]],"type":"LineString"}},{"type":"Feature","properties":{"name":"田代湖"},"geometry":{"coordinates":[[138.73113244605022,36.845339266629985],[138.7311512,36.8455855],[138.7311244,36.845813],[138.7310627,36.8460298],[138.7310332,36.8463904],[138.73105982369734,36.8470578798877],[138.7311698618494,36.84737341997039],[138.7312478,36.8475087],[138.7314961,36.8481183],[138.7315661,36.8482419],[138.7316591,36.8483709],[138.7318003,36.8486506],[138.731993131597,36.8492364207518],[138.7321810236974,36.849895242116894],[138.7322134,36.850329],[138.73217301579777,36.850850264395774],[138.73217836184799,36.85114277331715]],"type":"LineString"}},{"type":"Feature","properties":{"name":"大会バーン"},"geometry":{"coordinates":[[138.76241176104847,36.88712318008276],[138.76301315638193,36.88782990089674],[138.7635211393677,36.888370594242126],[138.76399853936772,36.88888539424212],[138.7644008393677,36.890043794242125],[138.7644759393677,36.890262594242124],[138.7646744393677,36.89059299424213],[138.7648997393677,36.891026294242124],[138.7651342687238,36.891579196167505],[138.76538215446075,36.892445945545006],[138.76558286680387,36.89313569822134],[138.76591670383772,36.89394856138508]],"type":"LineString"}},{"type":"Feature","properties":{"name":"ゴンドラライン"},"geometry":{"coordinates":[[138.76178058390363,36.887099213496356],[138.76100996091546,36.88709567913334],[138.7600589,36.8872052],[138.7584512,36.8872544],[138.75702420804927,36.88762615828425],[138.75636598161623,36.88785503781158],[138.75574358277132,36.88811737347178],[138.75527828277126,36.888358593440415],[138.75508192646038,36.88874542706101]],"type":"LineString"}},{"type":"Feature","properties":{"name":"ゴンドラ"},"geometry":{"coordinates":[[138.7276991,36.8708651],[138.7281767,36.8709888],[138.7294883,36.8717892],[138.72977784601977,36.87217869716501],[138.73000271886454,36.872433678086125],[138.7308025,36.8729521],[138.7310412,36.8732311],[138.7320676615259,36.87420735],[138.73326756171252,36.87523354686547],[138.73390082453602,36.87571844655939],[138.73510031375076,36.87649807327969],[138.73602230111285,36.87731099699963],[138.736403,36.8778184],[138.73668596356663,36.878154595505784],[138.73673730780442,36.878321639579674],[138.7367192765767,36.87852198020142],[138.73651776319588,36.878665637113585],[138.736344,36.87882594210211],[138.7362421,36.8791014],[138.7362421,36.8794061],[138.7363118,36.879685],[138.7367248,36.8805517],[138.7369931,36.8809508],[138.7372613,36.8812941],[138.7374812,36.8816309],[138.7376268996301,36.88187864085763],[138.73777238698986,36.88211174404465],[138.7382269,36.8824848],[138.7384309122688,36.882640847337676],[138.7386131,36.8827637],[138.7392461,36.8832764],[138.7395143,36.8835489],[138.7400132,36.8840381],[138.740437,36.8843792],[138.7407777,36.8846967],[138.7411237,36.8850035],[138.7417513,36.8854304],[138.7422851,36.8856514],[138.742939024906,36.8859731864423],[138.7444469,36.8868163],[138.7447634,36.8869660879843],[138.7455761,36.8870201],[138.74635177509245,36.88706463187666],[138.74747181263876,36.88712958544538],[138.74793077546397,36.88712449028444],[138.74878071263865,36.88716208298947],[138.74977427509242,36.88717654391184],[138.75021020037002,36.887152390286005],[138.75048380037134,36.88703744154692],[138.75083255092787,36.887022129526336],[138.75190794981353,36.88706197826047],[138.75226322453608,36.88710418304046],[138.7525392,36.8872282],[138.75298731226735,36.88766283374074],[138.75355798661835,36.88806488462618],[138.7541887,36.8881828],[138.7548243,36.8883828],[138.75490222490748,36.888648245296835]],"type":"LineString"}},{"type":"Feature","properties":{"name":"ダイナミック"},"geometry":{"coordinates":[[138.72529325148798,36.85157712224169],[138.7270045,36.852501],[138.72767678877833,36.852845015620886],[138.7280452,36.8530634],[138.7285763,36.8534025],[138.7291396,36.8537072],[138.7294936,36.8538789]],"type":"LineString"}},{"type":"Feature","properties":{"name":"チャレンジバーン"},"geometry":{"coordinates":[[138.7256132302659,36.85128082622686],[138.7259769058402,36.85122557567811],[138.72655464477887,36.851171425945815],[138.72707741398347,36.851080250221735],[138.72760027327527,36.85100515022686],[138.72868270176966,36.85081752735254],[138.72922681221397,36.85072302693353],[138.7296331,36.8506338],[138.72979824477986,36.85071115105747],[138.73001981398346,36.850863753587866],[138.73043522650318,36.85115570904564],[138.7308318308839,36.851568067025724],[138.73164384778642,36.85239278340076]],"type":"LineString"}},{"type":"Feature","properties":{"name":"かもしか"},"geometry":{"coordinates":[[138.72596130241897,36.85222062194468],[138.72518907800375,36.852569877579256],[138.72471119243102,36.852737343637834],[138.72439315429008,36.8528004],[138.72415807457125,36.85292993408319],[138.72407252113982,36.853079844996884],[138.7240771965675,36.85324178895542],[138.72437058213788,36.85389321281379],[138.7245819,36.8540582],[138.7249003,36.8542643],[138.7253289,36.8544593],[138.7258364781026,36.854647534447786]],"type":"LineString"}},{"type":"Feature","properties":{"name":"かぐら第1高速リフト～田代第1高速リフト連絡"},"geometry":{"coordinates":[[138.72199028580843,36.86187532709681],[138.72214798147422,36.86113375252509],[138.72246110783743,36.86048021376777],[138.7227765039187,36.859511678055256],[138.72290130051914,36.85851137381523],[138.72292219177555,36.85776037406134],[138.72289339177374,36.85744799129204],[138.72288423692186,36.85719895992415],[138.72292652805316,36.85707341939863],[138.72321961835766,36.856788369391914],[138.7235512931494,36.856688556584245],[138.72415774854193,36.85653628823064],[138.72430119007691,36.856476639270625],[138.7244189086203,36.856344953265875],[138.7244396304335,36.85567413758211],[138.7245182289805,36.855224581407434],[138.72460254348908,36.85496892965479],[138.72468971597993,36.85485654051181],[138.72507270287934,36.85481618991699],[138.72633299142183,36.85481117172154],[138.72783020233004,36.85483774940478],[138.72906087557516,36.85448517553882],[138.72961698160748,36.854253595646085],[138.72999539586436,36.853927227376204],[138.73000115098677,36.853620603348375],[138.7299279319844,36.85309280443002],[138.7297420069193,36.85247955747323],[138.72978724910183,36.85210184088443],[138.7299509524651,36.85180311680827],[138.7303389347615,36.85141866742441],[138.73050922496546,36.85129885484487],[138.73085929699795,36.851086824435434],[138.73154087625713,36.851156614172396],[138.73222626953827,36.85131700934575],[138.7332620933663,36.851622445056634],[138.73405624095574,36.851865028196116],[138.73485038854517,36.852310666993155],[138.7357552222545,36.85270083888821],[138.7375407220523,36.8531911053751],[138.73811493628216,36.85299199598031],[138.7386045638286,36.85287990884267],[138.73911835899838,36.8529998823538]],"type":"LineString"}},{"type":"Feature","properties":{"name":"田代ーかぐら連絡"},"geometry":{"coordinates":[[138.72305890835918,36.857390883497665],[138.7233229292545,36.8576003915932],[138.72369300417955,36.85776593073526],[138.72586473761635,36.858212460711094],[138.72639681671842,36.8584143257799],[138.72719371253885,36.858749460195725],[138.72850762396365,36.859465600000355],[138.72897564368108,36.85979715595528],[138.7294818,36.8600429],[138.7296944832502,36.86021166040589],[138.7302969187426,36.860410585898926]],"type":"LineString"}},{"type":"Feature","properties":{"name":"パノラマ"},"geometry":{"coordinates":[[138.7227879,36.8622046],[138.7232888,36.8622308],[138.723673,36.8622806],[138.72421287216275,36.862345502906045],[138.72597839103355,36.862281991976694],[138.72651036412782,36.86208428116915],[138.72751156861347,36.86170720379792],[138.72894274619347,36.86114877416335],[138.73144210364367,36.86018739142599]],"type":"LineString"}},{"type":"Feature","properties":{"name":"かぐら連絡"},"geometry":{"coordinates":[[138.7305674887799,36.860618533006566],[138.7305181334883,36.861047904371745],[138.73055839792784,36.8614629349249],[138.73061885902484,36.8618963175212],[138.7305897003948,36.862329700117506],[138.73049446332436,36.86252846706016],[138.7302916825775,36.8626985529265],[138.73021717812316,36.862826617710155],[138.73025917931412,36.86329168326689],[138.7302446,36.8641286],[138.7302554,36.8644805],[138.7302017,36.865047],[138.7301223323781,36.865735350169416],[138.73018900421633,36.86615872938638],[138.7303305,36.8667251],[138.73042730143322,36.8675406343596],[138.73047028719247,36.86783239126978],[138.7305937638323,36.86835117942819]],"type":"LineString"}},{"type":"Feature","properties":{"name":"ジャイアント"},"geometry":{"coordinates":[[138.72556838624482,36.862472595715765],[138.7261645059972,36.86252451821903],[138.7272674,36.862635],[138.7278414,36.862738],[138.7285012,36.8628753],[138.7290323,36.8630556],[138.72940601137583,36.863279197661036],[138.72971655987706,36.86348994464095],[138.72990559700233,36.86366164457134],[138.73013922275175,36.86393634448539]],"type":"LineString"}},{"type":"Feature","properties":{"name":"かぐらメインゲレンデ迂回"},"geometry":{"coordinates":[[138.72475344293815,36.86451830918686],[138.72415547520464,36.86460478750916],[138.7234483,36.8645676],[138.7226478,36.8645301],[138.7222668,36.864529],[138.7223008,36.8647607],[138.72243275536692,36.86506855429268],[138.72256092561113,36.86522189849614],[138.7228110760203,36.865435286912046],[138.72324006528513,36.86562970805191],[138.72373456528507,36.86584528660802],[138.7240246504078,36.86608527487852],[138.72508694953015,36.86706018331047]],"type":"LineString"}},{"type":"Feature","properties":{"name":"かぐら第5ロマンスリフト～かぐらメイン"},"geometry":{"coordinates":[[138.71838075494173,36.86166412967275],[138.7187087065269,36.86212493626265],[138.7189947858399,36.86249039304647],[138.71911068112044,36.862658023001146],[138.7193595554555,36.86292630087817],[138.71963751828864,36.86321913169628],[138.72001153244872,36.8635336163874],[138.7203108533926,36.86361008602529],[138.72070262094388,36.86363963205858],[138.7212545,36.8637244],[138.7215855,36.8638682],[138.7219084,36.8641166],[138.7221856,36.8643603],[138.7222385835194,36.86451094017969]],"type":"LineString"}},{"type":"Feature","properties":{"name":"テクニカル"},"geometry":{"coordinates":[[138.7259349137881,36.8664262983787],[138.72658337808434,36.866976754565265],[138.72703397808434,36.86723425456526],[138.72751172123841,36.86750987094012],[138.72829112788293,36.86795329473279],[138.72849638513173,36.86805033737719],[138.7298429868096,36.86849479278376]],"type":"LineString"}},{"type":"Feature","properties":{"name":"下山"},"geometry":{"coordinates":[[138.7652215,36.8961636],[138.7653393,36.89632],[138.7654313,36.8964],[138.765726,36.8963991],[138.7658543,36.8964446],[138.7659402,36.8965391],[138.7660363,36.8967267],[138.7660537,36.8968536],[138.7660038,36.8971856],[138.7657831,36.8973415],[138.7656823,36.8974471],[138.765682,36.8975082],[138.7657605,36.8975428],[138.7664066,36.8973504],[138.7665705,36.8973717],[138.7663937,36.8976159],[138.7665201,36.8978368],[138.766584,36.8982492],[138.7666261,36.8982962],[138.766633,36.8982619],[138.7666459,36.8981879],[138.7666956,36.8980643],[138.7667708,36.8980574],[138.7668451,36.8981041],[138.7668662,36.8982822],[138.7668885,36.8985311],[138.7669471,36.8986341],[138.7670589,36.8986824],[138.7671826,36.898709],[138.7672481,36.8987081],[138.7672702,36.8986874],[138.7671311,36.8986325],[138.767071,36.8985852],[138.7670116,36.8985142],[138.767054,36.8983161],[138.7670887,36.8982612],[138.7671188,36.8982774],[138.7671534,36.8984223],[138.7672502,36.8984762],[138.767338,36.8985],[138.7674235,36.8985147],[138.7676265,36.8984679],[138.7676939,36.8984391],[138.7676792,36.8984078],[138.7675262,36.8983895],[138.7674004,36.8983394],[138.7674008,36.8982374],[138.7674449,36.8980963],[138.7676106,36.8977632],[138.7683422,36.8973003],[138.7684705,36.8972861],[138.7684966,36.8973118],[138.7682835,36.8976429],[138.7682308,36.8977635],[138.7682315,36.8978021],[138.7682715,36.8978174],[138.7682952,36.8978164],[138.7683182,36.8978035],[138.7686905,36.8974025],[138.7687704,36.8973428],[138.7692595,36.8971491],[138.7689337,36.8975002],[138.7689248,36.8975215],[138.7689417,36.8975438],[138.7689762,36.8975518],[138.7690087,36.8975438],[138.7698602,36.8970592],[138.7700614,36.8970075],[138.7700956,36.8970781],[138.7700392,36.8971645],[138.7698591,36.8973329],[138.7698275,36.8973863],[138.7698244,36.8974653],[138.7698555,36.8975038],[138.7699196,36.8975159],[138.7699702,36.8974961],[138.7701241,36.8973209],[138.7705083,36.8970795],[138.7705671,36.8970201],[138.7706157,36.8969509],[138.7707526,36.8966617],[138.770792,36.8966518],[138.7708294,36.89667],[138.7708481,36.8971491],[138.7708696,36.8972172],[138.7709415,36.897245],[138.7711623,36.8972741],[138.771574,36.8973892],[138.7723011,36.8974677],[138.7723919,36.8974523],[138.7724155,36.8974216],[138.772381,36.8972724],[138.7723365,36.8971551],[138.7723382,36.8970659],[138.772383,36.8970087],[138.7724834,36.8969531],[138.7726595,36.8968871],[138.7729026,36.8967945],[138.7730326,36.8967678],[138.7733644,36.896737],[138.7736322,36.8966698],[138.7739284,36.8965825],[138.7740574,36.8965466],[138.7742063,36.8965021],[138.7745478,36.8964068],[138.7749441,36.8963533],[138.7750693,36.8963316],[138.7751559,36.8963135],[138.7752246,36.8962463],[138.7753545,36.8960448],[138.775416,36.895988]],"type":"LineString"}},{"type":"Feature","properties":{"name":"ファミリー"},"geometry":{"coordinates":[[138.7615210349002,36.88722959167872],[138.7616265,36.8879103],[138.7616801,36.8883737],[138.76188792465274,36.88879567914135],[138.7622112,36.8892876],[138.76228562882054,36.8896496779719],[138.7627959,36.8905919],[138.76301060069466,36.891155137751056],[138.76321597673646,36.89152447616355],[138.7634075,36.8920334],[138.7634879,36.8924667],[138.76378169305764,36.8936387018349],[138.76390291354244,36.89421948487671],[138.7643945,36.8957873],[138.76454449861077,36.896046900715625],[138.7646875534712,36.89630254333459]],"type":"LineString"}},{"type":"Feature","properties":{"name":"かぐらメインゲレンデ"},"geometry":{"coordinates":[[138.7218770382071,36.862056569858964],[138.7221651226514,36.862211727964166],[138.72246571924452,36.86224375943519],[138.72291489406638,36.862328096665465],[138.72316481787146,36.862526302929645],[138.72447606626554,36.86348340170096],[138.724880187349,36.863892575899726],[138.725075648394,36.86442138325491],[138.7255293,36.8663517],[138.7257868,36.8676907],[138.72598821365526,36.86859440313195],[138.7266039704818,36.869435080445065],[138.72704817891426,36.86976824841847],[138.7273240263062,36.86997528708317],[138.72756123696718,36.87011327925357],[138.72794076978397,36.8701374139968],[138.72822067709063,36.87017293434347],[138.7285005843973,36.870026282899985],[138.72873781626333,36.86971293408014],[138.72895610011642,36.86920009326087],[138.72939266782208,36.86878924714584],[138.7300284865463,36.868503646262866],[138.73047448584745,36.86841777557918],[138.73072123413152,36.86844576473224],[138.73110121226668,36.868601360302264]],"type":"LineString"}},{"type":"Feature","properties":{"name":"田代第1高速連絡"},"geometry":{"coordinates":[[138.73753608729498,36.842680562637184],[138.73709015082005,36.84275980596561],[138.736709987295,36.84282923217948],[138.7360328,36.8429153],[138.7359148,36.8429668],[138.7358129,36.8430355],[138.73543941598356,36.84342051831838],[138.73521012377,36.84376425819999],[138.7350178,36.8440908],[138.7349702889343,36.84419754870645],[138.73497547622853,36.84439918635745],[138.73496317623005,36.84484129906468],[138.73496552377006,36.84500302932636],[138.73486703647643,36.84509518702047],[138.7347081,36.84515971623628],[138.73439790491705,36.84510150083614],[138.73387111270495,36.84503947329704],[138.73375448811498,36.84506475087511],[138.733637863525,36.84509002845317],[138.73367318258113,36.84523212269608],[138.7339501905736,36.84564382849061],[138.7341572,36.8460296],[138.7342257,36.8461842],[138.7344333069484,36.84656648049725],[138.734556,36.8466864],[138.734608,36.8467434],[138.7346834,36.8467785],[138.7348574,36.8467928],[138.7350274,36.8467994],[138.7351521,36.8468377],[138.7352397,36.8468992],[138.7353781,36.8470724],[138.735459,36.8472018],[138.7355165,36.8473115],[138.7355042,36.8474639],[138.7354275,36.8476437],[138.7352548,36.8478477],[138.7352069,36.8479332],[138.7351863,36.8480483],[138.7352096,36.8481931],[138.7352425,36.8482863],[138.7352466,36.8484124],[138.7352165,36.8485396],[138.7351466,36.8486876],[138.7350219,36.8488828],[138.7348657,36.8491153],[138.7347656,36.8492041],[138.7346341,36.8492995],[138.7345108,36.8494464],[138.7344409,36.8495659],[138.7344327,36.8496569],[138.7344751,36.8497567],[138.7345573,36.8498379],[138.7347588,36.8499969],[138.7349602,36.8501899],[138.7352055,36.8503872],[138.7354028,36.85051],[138.73555,36.850623],[138.7357834,36.8508398],[138.7360007,36.8510802]],"type":"LineString"}},{"type":"Feature","properties":{"name":"ゴンドライースト"},"geometry":{"coordinates":[[138.7380540281245,36.84244061937115],[138.7388438,36.8423529],[138.7396105951014,36.84229722909651],[138.740555,36.8419751],[138.7414134,36.8416875],[138.74199327981472,36.84145013911286],[138.7423894733958,36.84113990792991],[138.7427677975488,36.84103829820242],[138.74349131773812,36.84104854730909],[138.74386850886808,36.84111142757977],[138.74463333792346,36.84151909774779],[138.7452019379235,36.84198709730791],[138.7456561467915,36.842537987103874],[138.74618916452576,36.84294184468342],[138.74694218226392,36.8430255691189],[138.74778051680715,36.84299915359147]],"type":"LineString"}},{"type":"Feature","properties":{"name":"無名_1"},"geometry":{"coordinates":[[138.7585631,36.8892406],[138.7588897,36.8891555],[138.7593358,36.8888602],[138.7596358,36.8886756],[138.7600127,36.8886018],[138.7605127,36.8886756],[138.7616127,36.889014],[138.7618512,36.8891001],[138.7622112,36.8892876]],"type":"LineString"}},{"type":"Feature","properties":{"name":"林間エキスパート"},"geometry":{"coordinates":[[138.71481451895,36.85713357141849],[138.71522221876194,36.85721672404725],[138.7155699627201,36.85735744367423],[138.71580179202448,36.85751095569961],[138.7161215565826,36.85775401577557],[138.7164613064259,36.858131396992846],[138.7167610856995,36.85847359699504],[138.71674110041494,36.85860791807205],[138.71672129129075,36.85897711188102],[138.71671729423906,36.85937367559234],[138.7167972353791,36.85966789894083],[138.71716184913362,36.860078360314716],[138.7173776902103,36.860410957471345],[138.71750959309196,36.860682790611264],[138.71775981399492,36.86102557303673],[138.71797965212852,36.86122704783617],[138.7181475285223,36.861434918104834],[138.7182794314021,36.86158522394662]],"type":"LineString"}},{"type":"Feature","properties":{"name":"サンシャイン"},"geometry":{"coordinates":[[138.75854333162215,36.88886741117693],[138.75813843598718,36.888462615032864],[138.75775041100343,36.888179256454436],[138.75736238601968,36.888078056706874],[138.756873137129,36.88798360348868],[138.75640919421323,36.88798360348868],[138.75621518172136,36.888010590134684]],"type":"LineString"}}]}