{"type":"FeatureCollection","features":[{"type":"Feature","properties":{"@id":"way/1364659218","name":"センターリンク"},"geometry":{"coordinates":[[141.0085436,43.0594245],[141.0061498,43.0606116],[141.004966,43.0611986],[141.004529011288,43.061879649156594],[141.00435960322517,43.06248049361614],[141.00371819354763,43.0626465846211],[141.0032934,43.0628682]],"type":"LineString"}},{"type":"Feature","properties":{"@id":"way/327028779","name":"朝里第2C"},"geometry":{"coordinates":[[141.0263765,43.0563699],[141.0260863,43.056315],[141.0245199,43.0559073],[141.0233398,43.0556251],[141.0220308,43.0551861],[141.0210223,43.0548803],[141.0202606,43.0546922],[141.0194666,43.0546138],[141.0183079,43.0544805],[141.0170634,43.0540729],[141.0162748,43.0536073],[141.0153747,43.0531521]],"type":"LineString"}},{"type":"Feature","properties":{"@id":"way/327030389","name":"朝里第1B"},"geometry":{"coordinates":[[141.0147466,43.0554716],[141.01299650603684,43.054869431253444],[141.0113204106356,43.05403242501921],[141.0093547,43.0530367],[141.009006,43.0529361],[141.0077577,43.0523921],[141.0066917,43.0518127]],"type":"LineString"}},{"type":"Feature","properties":{"@id":"way/327028780","name":"朝里パノラマ"},"geometry":{"coordinates":[[141.01622015486433,43.0594423412007],[141.01524660280478,43.059572079189536],[141.01507334908598,43.05951477412883],[141.01509122966416,43.05938685633101],[141.01575856680722,43.058986923157605],[141.01686559041534,43.05863424342342],[141.01755496188713,43.05838918478673],[141.01867731578824,43.05813343171967],[141.01911186984728,43.05781168023793],[141.01938046873826,43.057453934985205],[141.0196430728347,43.05684381909931],[141.01977317165577,43.056498859144526],[141.01977198393826,43.05632790255453],[141.01972605041868,43.056102454316154],[141.01941643749177,43.05592133950988],[141.01891436758734,43.055965227254774],[141.01817463677213,43.05610467681666],[141.01748400973213,43.05638065144025],[141.01718304832013,43.05672151765935],[141.01695906969758,43.057006134255374],[141.01672226061208,43.057328246344284],[141.01626531391793,43.05749314670075],[141.01580836722377,43.05745180078476],[141.01556953843874,43.057307329965255],[141.01548861544103,43.05701947339689],[141.01547381487194,43.056509923371905],[141.01567170203174,43.05609577335761],[141.01580549688327,43.05587759638016],[141.01529776847005,43.05560316894971],[141.0148725130449,43.05546681839225],[141.01307254776813,43.05581287374098],[141.01230785429482,43.05602495939173],[141.011564353807,43.056276197843935],[141.0105091688101,43.05659848845284],[141.0098308460163,43.0567383710778],[141.00917476970034,43.05691076381612],[141.00852650833406,43.057138476274154],[141.00800854776813,43.057459073740986],[141.00688512361984,43.05782246403041],[141.00570489475106,43.05812660666605],[141.00422014776814,43.058347273740985]],"type":"LineString"}},{"type":"Feature","properties":{"@id":"way/1364659217","name":"パウダーライド"},"geometry":{"coordinates":[[141.004966,43.0611986],[141.0061867,43.0629914]],"type":"LineString"}},{"type":"Feature","properties":{"@id":"way/327028776","name":"余市第1A"},"geometry":{"coordinates":[[141.0040488,43.0549823],[141.00384400454476,43.0554486247033],[141.0021273539778,43.05736981845226],[141.00077165340795,43.05845863375763],[141.000273576704,43.059185780321585],[140.9997755,43.0597712],[140.9984912,43.0603913],[140.99762906193348,43.06098408027492],[140.9972061000351,43.06121569758214],[140.9966802618634,43.06134208536876],[140.99577356406945,43.061348948886135],[140.9946508261003,43.06130319777226],[140.99401022002348,43.06155744879523],[140.99277015837785,43.06205091669264],[140.9923887110541,43.06281236142229],[140.99183156895478,43.06367382311036],[140.99133454239427,43.06463010727539]],"type":"LineString"}},{"type":"Feature","properties":{"@id":"way/327028777","name":"センターB"},"geometry":{"coordinates":[[141.0032934,43.0628682],[141.003309,43.062931],[141.0033519,43.0632838],[141.0027726,43.0649063],[141.0025258,43.0652747],[141.0022678,43.0654174],[141.0002191,43.0659723],[140.9994783,43.0662639],[140.998974,43.066789],[140.9983201,43.0670148],[140.9975262,43.067054],[140.9966357,43.0670226],[140.9957237,43.0668188],[140.9949185,43.0666636],[140.9941359,43.0665759],[140.9930093,43.066615],[140.9924509,43.0668047],[140.9918077,43.0670461]],"type":"LineString"}},{"type":"Feature","properties":{"@id":"way/327028778","name":"センターC"},"geometry":{"coordinates":[[141.00265132275752,43.06533455104182],[141.00256335000046,43.06579280662472],[141.0025801591119,43.0662893374657],[141.0026546,43.0667326],[141.0025795,43.0670932],[141.00219547733465,43.067435158075995],[141.00149005457834,43.06772229504724],[141.00114080009226,43.06800223640501],[141.00077020471664,43.068346705290836]],"type":"LineString"}},{"type":"Feature","properties":{"@id":"way/327028781","name":"朝里第2A"},"geometry":{"coordinates":[[141.02508040110192,43.053852760169406],[141.0245307,43.0534065],[141.0239722,43.0531023],[141.0229535,43.0529439],[141.0223736,43.0526554],[141.0195417,43.0512584],[141.0188546,43.0510482],[141.0178895,43.0510153],[141.01682049972294,43.05122483269733],[141.0160637,43.0517629],[141.0151155410466,43.05266371533255]],"type":"LineString"}},{"type":"Feature","properties":{"@id":"way/327028782","name":"長峰第1"},"geometry":{"coordinates":[[141.0084261,43.0734173],[141.0084691,43.0728687],[141.0081429,43.0723922],[141.0072358,43.0718503],[141.0071891,43.0713322],[141.0072422,43.0705571],[141.0068817,43.0698517],[141.0061651272886,43.069185222982036],[141.00551889084193,43.0689412493071],[141.0047896,43.0688645],[141.0036631,43.0687078],[141.0024287,43.0686153],[141.0012813,43.0685353],[141.00082928635572,43.068559012719206],[141.0001327816838,43.068353084256714],[140.9991242,43.068098],[140.9981377,43.0679945],[140.9965922,43.0676826],[140.99479433635568,43.06737639045729],[140.9935697181317,43.067199958115474],[140.9918077,43.0670461],[140.9909709,43.0670932]],"type":"LineString"}},{"type":"Feature","properties":{"@id":"way/327028783","name":"朝里ダイナミック"},"geometry":{"coordinates":[[141.0271293641773,43.05632706311684],[141.02679078759246,43.05624533402724],[141.02616305996884,43.05673085327176],[141.0257182134888,43.057117175959334],[141.0241532179159,43.05815971922992],[141.02253570562658,43.05898006380184],[141.02175969514764,43.05921079354685],[141.0192923400723,43.059350084016586],[141.0163338,43.0595133],[141.0153248,43.059805],[141.0150571,43.0599758],[141.0141988,43.0610262],[141.01396576017004,43.06129882875435],[141.01342458293027,43.06159462019642],[141.0127186739681,43.061518806763225],[141.0122783,43.0613868],[141.0113771,43.0611909],[141.0108621,43.0611987],[141.0083945,43.0617317],[141.0080509,43.0618514],[141.0075571,43.0620233],[141.006989,43.0623588],[141.0061867,43.0629914],[141.0054977,43.0635346],[141.0050685,43.0641146],[141.00410232844928,43.06537483041384],[141.0043845434009,43.06586690643239],[141.00464135659732,43.066200994165705],[141.00462647639011,43.06653759531924],[141.0045321,43.0668659],[141.00420770468878,43.067477696559855],[141.0036631,43.0679397],[141.0029985255175,43.06859658921748]],"type":"LineString"}},{"type":"Feature","properties":{"@id":"way/327028784","name":"その他(センター)"},"geometry":{"coordinates":[[140.9968489,43.0648088],[140.9960563,43.0652355],[140.9957237,43.0655491],[140.9954233,43.0660977],[140.9951009,43.0665147],[140.9949185,43.0666636]],"type":"LineString"}},{"type":"Feature","properties":{"@id":"way/327028785","name":"センターA"},"geometry":{"coordinates":[[141.0032934,43.0628682],[141.0031052,43.062884],[141.0015388,43.0633935],[141.0007877,43.0638638],[140.999157,43.0644674],[140.997494,43.0647496],[140.9968489,43.0648088],[140.9957023,43.0649142],[140.9940178,43.0650944],[140.9934385,43.0652904],[140.9929879,43.0656039],[140.9927299,43.0659504],[140.9926338,43.0664818],[140.9924509,43.0668047]],"type":"LineString"}},{"type":"Feature","properties":{"@id":"way/327028788","name":"朝里第2B"},"geometry":{"coordinates":[[141.026689914605,43.05606536775585],[141.02631637521137,43.055376933650365],[141.02557036776983,43.05459418287572],[141.02515171900885,43.054010767402],[141.02446649917505,43.05380640062327],[141.0236781798913,43.053705067600745],[141.0227844187339,43.053763533780916],[141.02200665922828,43.05403380052843],[141.0212905,43.05441],[141.0207643,43.0546389],[141.0202606,43.0546922]],"type":"LineString"}},{"type":"Feature","properties":{"@id":"way/327028790","name":"余市第1B"},"geometry":{"coordinates":[[141.0040488,43.0549823],[141.00437973529125,43.055737598681254],[141.00443807062769,43.05669208335228],[141.00454522645964,43.05762920643894],[141.0042515,43.058332],[141.0032334,43.0588235],[141.0028243,43.0591862],[141.0016165,43.0602573],[140.9990781,43.0614315],[140.9972445,43.0618039],[140.996324,43.0618807],[140.9953799,43.061865],[140.9945859,43.0620061],[140.9938349,43.0623823],[140.9929981,43.0629938],[140.9922471,43.0636365],[140.991987,43.0639616],[140.9912815,43.0648436],[140.99027330939384,43.065976307098715],[140.9897283809173,43.06654493882186]],"type":"LineString"}},{"type":"Feature","properties":{"@id":"way/327029109","name":"朝里エキスパートA"},"geometry":{"coordinates":[[141.0150571,43.0599758],[141.0145528,43.0599915],[141.0137804,43.0599053],[141.0127719,43.0599994],[141.0117955,43.0599602],[141.0104437,43.0598426],[141.0094137,43.0596701],[141.0085436,43.0594245],[141.0079546,43.0592076],[141.007386,43.0589411],[141.0068817,43.0588314],[141.0065169,43.0588627],[141.0056479,43.0590273],[141.0053797,43.0590195],[141.0051115,43.0589568],[141.0045965,43.0589803],[141.0035129,43.0591606],[141.0028243,43.0591862]],"type":"LineString"}},{"type":"Feature","properties":{"@id":"way/327029110","name":"朝里エキスパートB"},"geometry":{"coordinates":[[141.0094137,43.0596701],[141.0088451,43.0599445],[141.0084583,43.060338],[141.0080509,43.0618514]],"type":"LineString"}},{"type":"Feature","properties":{"@id":"way/327029526","name":"ファミリー"},"geometry":{"coordinates":[[140.99014175388388,43.06475098720227],[140.98901318705586,43.06661174071896],[140.98888958446753,43.066773940861694]],"type":"LineString"}},{"type":"Feature","properties":{"@id":"way/327030382","name":"余市第2A"},"geometry":{"coordinates":[[141.0043497,43.0548882],[141.0055835,43.0548098],[141.0059585,43.0545762],[141.0065384,43.053038],[141.0067207,43.052148],[141.0066917,43.0518127],[141.0066554,43.0513935]],"type":"LineString"}},{"type":"Feature","properties":{"@id":"way/327030383","name":"長峰第2A"},"geometry":{"coordinates":[[141.01951424542168,43.07222718545007],[141.018797754394,43.07198325713414],[141.01728763042468,43.07170523502178],[141.01546316084932,43.07137618376928],[141.01359551346127,43.07143248551491],[141.0088124,43.0710348],[141.0074803271054,43.07082294111724]],"type":"LineString"}},{"type":"Feature","properties":{"@id":"way/327030385","name":"朝里第1A"},"geometry":{"coordinates":[[141.0153747,43.0531521],[141.0135748,43.0533643],[141.0114202,43.0532259],[141.0102667,43.0529978],[141.0093547,43.0530367]],"type":"LineString"}},{"type":"Feature","properties":{"@id":"way/327030387","name":"余市第2B"},"geometry":{"coordinates":[[141.0040279,43.0545119],[141.00451998280707,43.05411783059878],[141.0054785,43.0535541],[141.0059213595226,43.053227210081374],[141.0064771343859,43.052536321714754]],"type":"LineString"}},{"type":"Feature","properties":{"@id":"way/327058121","name":"長峰第2B"},"geometry":{"coordinates":[[141.01903899444304,43.072795364118775],[141.01710576992582,43.072916326081796],[141.01516032181206,43.07286484046128],[141.01289354454636,43.07288943845913],[141.01076997298804,43.072887606704924],[141.0086641365403,43.07283983650687]],"type":"LineString"}},{"type":"Feature","properties":{"@id":"way/327059672","name":"長峰第2C"},"geometry":{"coordinates":[[141.0193481,43.072853],[141.01795351790065,43.07339586020336],[141.01711777243352,43.07383666571548],[141.01681233617145,43.07429844335648],[141.01638721382926,43.07479177036775],[141.01542071849917,43.074915157049524],[141.01373496355197,43.0746012],[141.0116994,43.0742407],[141.01010640911122,43.07398845909964],[141.00875790925028,43.07340454318076]],"type":"LineString"}},{"type":"Feature","properties":{"@id":"way/1365450896","name":"無名_1"},"geometry":{"coordinates":[[141.0147466,43.0554716],[141.01480703507562,43.054751003270084],[141.01518457922896,43.05403215193196],[141.0153861637521,43.05367138877162],[141.0154625,43.0533237],[141.0153747,43.0531521]],"type":"LineString"}},{"type":"Feature","properties":{"name":"ゲートウェイ"},"geometry":{"coordinates":[[140.98794773088275,43.06671757034725],[140.9874656608844,43.067458370760846],[140.98723444515048,43.06792441577143],[140.98726939934014,43.068049836943416],[140.987396,43.068137],[140.987067,43.068839],[140.986866,43.069154],[140.986905,43.069942],[140.98679,43.070455],[140.986748,43.071244],[140.98703,43.071917],[140.986798,43.072308],[140.986714,43.072715],[140.986308,43.07302],[140.98573731875783,43.0734339397713],[140.98527616599273,43.073429374145235],[140.98433563355695,43.07439655030201]],"type":"LineString"}}]}