{"type":"FeatureCollection","features":[{"type":"Feature","properties":{"@id":"way/513093797","name":"ほろたち"},"geometry":{"coordinates":[[142.1345741,44.0159002],[142.1349764,44.0155839],[142.13600063667428,44.01467751733075],[142.13665434419582,44.01413683452241],[142.1376505,44.0133482]],"type":"LineString"}},{"type":"Feature","properties":{"@id":"way/513093798","name":"からまつ"},"geometry":{"coordinates":[[142.13175825006567,44.01675005528963],[142.1323590266582,44.01641541655194],[142.13246978653956,44.01636134427273],[142.13288874668362,44.01624078010138],[142.13352328998732,44.016073425846166],[142.13402877834812,44.01597611466528],[142.13459590676192,44.015956377775424],[142.1353328343472,44.01598883255459],[142.13562307383413,44.016018264592745],[142.135742403773,44.016006727006186],[142.13582700309382,44.01597000829106],[142.13593059236842,44.0158650068075],[142.13640347261307,44.0154421441717],[142.13716609773638,44.014732829504055],[142.13785352286203,44.01419502984966],[142.13822176532432,44.0138727723486]],"type":"LineString"}},{"type":"Feature","properties":{"@id":"way/513093799","name":"しらかば"},"geometry":{"coordinates":[[142.13150059404268,44.01659240087687],[142.13148938648766,44.016150731134],[142.1314565986154,44.0157821311424],[142.1314520304261,44.01545401690493],[142.13155368648876,44.01521066915221],[142.1318980318082,44.01502008616319],[142.13234846093314,44.01470052259603],[142.13277631430879,44.01428354534415],[142.13333289244738,44.01399348525497],[142.13482650914793,44.01345380235512],[142.1355382803196,44.01314619689274],[142.13628388031958,44.01292745075027],[142.13660768787216,44.01288644243964],[142.13703484989583,44.01297217866425]],"type":"LineString"}},{"type":"Feature","properties":{"@id":"way/513093800","name":"林間"},"geometry":{"coordinates":[[142.13164630343437,44.01685179057872],[142.1319234915683,44.01705974576653],[142.13206516484144,44.01712245124267],[142.13224724123626,44.01716772360826],[142.1326376040426,44.01721756918268],[142.1331503521515,44.01730423620224],[142.13397513523083,44.01741717481361],[142.13506274491903,44.01759914905689],[142.1357382427953,44.017699769506315],[142.1361459427953,44.01774424635859],[142.13671056373073,44.01772899027561],[142.1377498427953,44.01750894635859],[142.13880134279532,44.01733534635859],[142.13910715698808,44.01725027011144],[142.13935951397605,44.01709774354119],[142.1394933855905,44.01691423270676],[142.1395570004313,44.01657129652366],[142.13943858645055,44.01619681524973],[142.13909382738706,44.01569123948734],[142.13879117791288,44.01506279439819],[142.13859297986875,44.014508861119126],[142.1384522156847,44.01407083668181],[142.13784358114174,44.013388128935794]],"type":"LineString"}}]}