{"type":"FeatureCollection","features":[{"type":"Feature","properties":{"@id":"way/451759686","name":"ウィング"},"geometry":{"coordinates":[[132.87859203397866,33.72008319079687],[132.87876855571926,33.72003511440612],[132.87902357774618,33.72000791200624],[132.8792881664763,33.71998070961067],[132.87938503335153,33.71994586442081],[132.8794245,33.7198898],[132.87940217768963,33.7197240216973],[132.87938942208226,33.719531719331314],[132.8793746500427,33.71936395166725],[132.8793547734836,33.71925685424215],[132.8792967865296,33.71918267824593],[132.8791752513229,33.71911752667176],[132.8789641495315,33.71906031217844],[132.87867817527695,33.7189941816326],[132.8784294,33.7189461],[132.87821904803639,33.71894372879031],[132.87807202320795,33.7189747733961],[132.8778253638983,33.71904220677969],[132.87753339816734,33.71909085015959],[132.87717115094824,33.71916031576867],[132.87679434043395,33.719227135980645],[132.87643936399922,33.719273200869495],[132.87606061001918,33.71926356078433],[132.87564914291872,33.71919616460385],[132.8753771,33.7190844],[132.87522971381563,33.7190399329781],[132.87509201959026,33.718967256393924]],"type":"LineString"}},{"type":"Feature","properties":{"@id":"way/451759697","name":"皿ヶ嶺"},"geometry":{"coordinates":[[132.87937781506818,33.71972065467687],[132.87886767909202,33.71958245242373],[132.8786354237669,33.71952060812727],[132.8783073866847,33.71946110697584],[132.87788953954845,33.719352875141375],[132.8776048897448,33.7192965863606],[132.87720307376924,33.719197977294435]],"type":"LineString"}},{"type":"Feature","properties":{"@id":"way/451759692","name":"三坂"},"geometry":{"coordinates":[[132.87846389139017,33.72017591649231],[132.87836203625642,33.720254909179985],[132.87829437607348,33.7203343700733],[132.87827591738144,33.720392165456005],[132.87827793476544,33.7204616854379],[132.87831813476544,33.720530785437894],[132.87853570364035,33.72072665809023],[132.87866934056015,33.72082383294166],[132.87873212392174,33.72090522371198],[132.87875728261355,33.72100587253063],[132.87875803476544,33.721084085437894],[132.87870443476544,33.721191185437895],[132.87862607681896,33.721234012936804],[132.8784919768214,33.72127117093834],[132.87835247681892,33.72121998392809],[132.8782088173815,33.72112273884718],[132.87801660091733,33.72096188312909],[132.87771883655086,33.72075886930646],[132.87741153476546,33.72047021599593],[132.87708422736532,33.72021226900641],[132.8767585831793,33.72000028395037],[132.87642653807586,33.71974552619795],[132.87574863476544,33.7192725854379]],"type":"LineString"}},{"type":"Feature","properties":{"@id":"way/451759695","name":"モーグル"},"geometry":{"coordinates":[[132.87930066085895,33.71945366958751],[132.87817052802103,33.719182346511964]],"type":"LineString"}}]}