{"type":"FeatureCollection","features":[{"type":"Feature","properties":{"@id":"way/1065572767","name":"E1"},"geometry":{"coordinates":[[140.54956560822885,38.43165591430606],[140.5485035950517,38.43252703594399],[140.548304223276,38.43273145442722],[140.54816196470898,38.43380631004659],[140.54811642122735,38.43464757532084],[140.5480113492274,38.43492601087459],[140.54751135729816,38.43564005546469],[140.54731916343965,38.43608777157973],[140.54727285360502,38.43663488850322],[140.54733937803462,38.43725776196018],[140.5476717349754,38.4380595370185]],"type":"LineString"}},{"type":"Feature","properties":{"@id":"way/1065572766","name":"E2"},"geometry":{"coordinates":[[140.5506619304739,38.43123343501523],[140.55071173341892,38.43140275431148],[140.55089465397475,38.43163507247775],[140.55133041148855,38.43180568290572],[140.55186821638995,38.43188616861025],[140.5522399057933,38.43205822440043],[140.5524595422494,38.432452186414366],[140.5529867999983,38.43311603738411],[140.5520875422339,38.434412665297586],[140.5512161906973,38.43533039452171],[140.5499986550508,38.43646167073446],[140.5487503572769,38.43773270371639],[140.54782612283523,38.43811652062128],[140.5464929999983,38.438641037384116],[140.5458886185817,38.439244252367935],[140.5454075050211,38.4399573764488],[140.54533178468915,38.43999972079039],[140.54356935380918,38.44024866657442],[140.5432498935168,38.440261189316956],[140.54193447381292,38.44004101706922]],"type":"LineString"}},{"type":"Feature","properties":{"@id":"way/1065572768","name":"W1"},"geometry":{"coordinates":[[140.55043425492093,38.431104120772474],[140.54965610880924,38.43126968886606],[140.54895442305832,38.431373143093765],[140.54801629779894,38.431268682951256],[140.54742263310385,38.43116321230776],[140.54710932305832,38.43117531451617],[140.5463318203385,38.43137772696038],[140.54550055497006,38.43160501190852],[140.5446348453834,38.43188383834283],[140.5444062898345,38.43194026919479],[140.54414746773168,38.43190186314827],[140.5435353,38.4317451],[140.54260530946664,38.431592799862536],[140.54167622703056,38.43128350756534],[140.54089388698793,38.43114466752385],[140.54074210016884,38.431152035794085],[140.5409973331947,38.43236754251882],[140.5410745054487,38.43305432707657],[140.54112318042712,38.433599243946816],[140.54113654442574,38.43404537419279],[140.54119339266902,38.43439579604479],[140.5414260222571,38.434829583723555],[140.54133867197132,38.434970951767326],[140.53888961543376,38.438113877874216]],"type":"LineString"}},{"type":"Feature","properties":{"@id":"way/1065572770","name":"W3"},"geometry":{"coordinates":[[140.54553223001844,38.43165609332142],[140.54540288598372,38.432967747251595],[140.54522634507737,38.43317765806877],[140.54489147173763,38.43339798023756],[140.54478950112204,38.433618302406344],[140.54468334935885,38.43395861456551],[140.5447827,38.434256],[140.5449687243189,38.43449434345038],[140.54526434992,38.43483463691411],[140.54527338792053,38.43496632521237],[140.54526872576116,38.43522679190174],[140.5451907833461,38.43583834397181],[140.54497695762885,38.43651180000779],[140.544942673248,38.43683710546935],[140.54495942665991,38.43703105593266],[140.54523497333764,38.437295156160125],[140.5454449,38.4376335],[140.54556931885503,38.43820906749754],[140.54598538222555,38.43903877582037]],"type":"LineString"}},{"type":"Feature","properties":{"@id":"way/1065572771","name":"無名_2"},"geometry":{"coordinates":[[140.54702681129922,38.4360587796159],[140.5460028,38.4359194],[140.5451361,38.4358926],[140.54435194257115,38.43597666678113],[140.5434778,38.4362252],[140.54285640456283,38.43622449896246],[140.5421156258474,38.43631731089528]],"type":"LineString"}},{"type":"Feature","properties":{"@id":"way/1065572772","name":"W2"},"geometry":{"coordinates":[[140.54347392062755,38.431855635415786],[140.5437589,38.4324762],[140.54388955326183,38.433361629776186],[140.5438723501266,38.434342120267544],[140.54375169607925,38.43449579751609],[140.5435422629233,38.43474097809587],[140.5429455,38.4352227],[140.54245518763412,38.43537077449575],[140.5422757394773,38.435517327387174],[140.5420962913205,38.43566388027859],[140.5415952123731,38.43688474324257],[140.54146917632272,38.43727876613076],[140.54141076183157,38.438137723226944],[140.54137775091255,38.438815772008546],[140.54157466360962,38.439794246570884]],"type":"LineString"}},{"type":"Feature","properties":{"name":"無名_1"},"geometry":{"coordinates":[[140.55035683306915,38.43118934012111],[140.55007002748192,38.43130942261209],[140.54978816681637,38.4313946423232],[140.54943707721708,38.43144499937776],[140.54929861934733,38.431483735549875],[140.54943213231184,38.4314992300001],[140.5496101495745,38.431506977230185],[140.54974860744431,38.431545713369076],[140.54978816680142,38.43162318559831],[140.5494964162903,38.43164642724622],[140.5491799411579,38.43165417446056],[140.54885852110374,38.43166966888748],[140.54865577922192,38.431599943942075],[140.54804101917318,38.43155504713749],[140.54775103083102,38.43158749894869],[140.5474373699713,38.43174975778635],[140.54715921788772,38.4319630117042],[140.54691065645073,38.43225971175903],[140.54666209514102,38.43255641046548],[140.54650230564653,38.43274184661905],[140.54638394305732,38.43285774397299],[140.5461235453643,38.43298291290611],[140.54573886695016,38.433145168608064],[140.54541928796118,38.433247157719364]],"type":"LineString"}}]}