{
  "type": "FeatureCollection",
  "features": [
    {
      "type": "Feature",
      "properties": {
        "@id": "way/503232556",
        "name": "ローズ下部（大会バーン）"
      },
      "geometry": {
        "coordinates": [
          [139.34283234369116, 36.81140730321467],
          [139.3425018, 36.8115266],
          [139.341048, 36.8119862],
          [139.3406457, 36.8121064],
          [139.3403774, 36.8122009],
          [139.3391651, 36.8125746],
          [139.3387628, 36.8127034],
          [139.3373895, 36.8132102],
          [139.3371481, 36.8133133],
          [139.3368852, 36.8133991],
          [139.33593197184476, 36.81363045885988],
          [139.33551255187032, 36.81380946442152]
        ],
        "type": "LineString"
      }
    },
    {
      "type": "Feature",
      "properties": {
        "@id": "way/503232558",
        "name": "グリーン"
      },
      "geometry": {
        "coordinates": [
          [139.3438482, 36.8123813],
          [139.3433547, 36.8131672],
          [139.3430221, 36.813601],
          [139.3428397, 36.8137728],
          [139.34206122241483, 36.81419217965567],
          [139.34139750402338, 36.81439028633182],
          [139.3406255816086, 36.81450417711117],
          [139.3400341, 36.8144342],
          [139.3395352, 36.8143998],
          [139.3384194, 36.8144041],
          [139.33762474722766, 36.81434639601672]
        ],
        "type": "LineString"
      }
    },
    {
      "type": "Feature",
      "properties": {
        "@id": "way/503232552",
        "name": "シルバー"
      },
      "geometry": {
        "coordinates": [
          [139.34575837474745, 36.808374673268965],
          [139.34641529763582, 36.80836588939756],
          [139.34721032114888, 36.80830926706572],
          [139.3474254050265, 36.8083261774218],
          [139.34757773328602, 36.80853778659522],
          [139.34735764826172, 36.80886558702334],
          [139.34710618542746, 36.80917454600655],
          [139.34681446240424, 36.81001002915961],
          [139.34674540460443, 36.810233329148886],
          [139.3464985340198, 36.81090134941174],
          [139.34633970166539, 36.811493250751845]
        ],
        "type": "LineString"
      }
    },
    {
      "type": "Feature",
      "properties": {
        "@id": "way/503232554",
        "name": "からくら"
      },
      "geometry": {
        "coordinates": [
          [139.35496851617302, 36.80703122008664],
          [139.35384201617302, 36.80733832008664],
          [139.35363281617302, 36.807364120086646],
          [139.353426216173, 36.807336120086646],
          [139.353262616173, 36.80723312008664],
          [139.3531129274889, 36.806894402351574],
          [139.35286831617302, 36.806619018522255],
          [139.352621616173, 36.80652222008665],
          [139.352128016173, 36.80637402008664],
          [139.35160183361108, 36.80617310120566],
          [139.350808416173, 36.805974620086644],
          [139.350111016173, 36.80601332008665],
          [139.34982370885382, 36.805949766446574],
          [139.3494709750117, 36.80587728875012],
          [139.3488519942154, 36.805969155767194],
          [139.34793662288027, 36.806244161441285],
          [139.347310816173, 36.806442820086644],
          [139.347137016173, 36.80656162008665],
          [139.34682876769568, 36.8067652324798],
          [139.34661849300167, 36.807025894909025],
          [139.34634406415387, 36.807200851288435],
          [139.34606963530604, 36.8074151222745],
          [139.34573794703002, 36.80771538064569],
          [139.3453501170095, 36.808121871282204]
        ],
        "type": "LineString"
      }
    },
    {
      "type": "Feature",
      "properties": {
        "@id": "way/503232551",
        "name": "シルバー連絡路"
      },
      "geometry": {
        "coordinates": [
          [139.3483919, 36.8067592],
          [139.34804943092212, 36.80681767402548],
          [139.34768975605965, 36.80694043605529],
          [139.34744571735885, 36.8072043277558],
          [139.34738633209622, 36.80739726586776],
          [139.34736709366706, 36.80760857181859],
          [139.34734128498928, 36.808015948467414],
          [139.34736565261971, 36.80815681212855],
          [139.3476248, 36.8084687]
        ],
        "type": "LineString"
      }
    },
    {
      "type": "Feature",
      "properties": {
        "@id": "way/503232553",
        "name": "しらね"
      },
      "geometry": {
        "coordinates": [
          [139.35365048098888, 36.80739546161587],
          [139.35312961660125, 36.80774863313798],
          [139.35275128428464, 36.80791699722298],
          [139.3524581, 36.8079447],
          [139.3521792, 36.8079747],
          [139.3516213, 36.8079017],
          [139.3509829, 36.8076354],
          [139.3504626, 36.8075023],
          [139.3502104, 36.807455],
          [139.34948936032896, 36.807366686802744],
          [139.3492012330796, 36.807291701101555],
          [139.34891626615922, 36.80711550220311],
          [139.3486118, 36.8068795],
          [139.3483919, 36.8067592],
          [139.3482202, 36.8065917],
          [139.3481719, 36.8064929],
          [139.34802077934003, 36.80626366229479]
        ],
        "type": "LineString"
      }
    },
    {
      "type": "Feature",
      "properties": {
        "@id": "way/503232555",
        "name": "バイオレット"
      },
      "geometry": {
        "coordinates": [
          [139.3431294, 36.8116512],
          [139.343521, 36.8117757],
          [139.3436444, 36.8118402],
          [139.3437248, 36.811926],
          [139.3437517, 36.8120334],
          [139.3436927, 36.8121322],
          [139.3435746, 36.8122009],
          [139.3434352, 36.8122396],
          [139.3424159, 36.8122997],
          [139.3415576, 36.8124973],
          [139.3403077, 36.8128709],
          [139.3376148, 36.8136568],
          [139.33552461600846, 36.81412204805922]
        ],
        "type": "LineString"
      }
    },
    {
      "type": "Feature",
      "properties": {
        "@id": "way/503232557",
        "name": "ローズ上部"
      },
      "geometry": {
        "coordinates": [
          [139.34560148463186, 36.80831966648189],
          [139.34524766347388, 36.80826846646945],
          [139.34480776347388, 36.808229866469446],
          [139.34438406347388, 36.80832436646945],
          [139.3442498634739, 36.80838016646945],
          [139.34386796926373, 36.80848463328982],
          [139.34355019621157, 36.80848066659722],
          [139.34340704142244, 36.80838531653333],
          [139.3433754634739, 36.80828996646945],
          [139.34320640957833, 36.80762359963512],
          [139.34302380178713, 36.806987034483974],
          [139.3428804826305, 36.80683456562483],
          [139.3427235840903, 36.8068585387073],
          [139.3426782623908, 36.80698971390618],
          [139.34255030786196, 36.80754993234218],
          [139.3424436220614, 36.80816643066141],
          [139.34222216947717, 36.809184991053776],
          [139.34221929918914, 36.80959930009644],
          [139.34221532282422, 36.8099716019866]
        ],
        "type": "LineString"
      }
    },
    {
      "type": "Feature",
      "properties": {
        "@id": "way/503232559",
        "name": "レッド"
      },
      "geometry": {
        "coordinates": [
          [139.3385965, 36.8153317],
          [139.3383819, 36.8155851],
          [139.3379849, 36.8161864],
          [139.3374109, 36.8167876],
          [139.3365741, 36.8172385],
          [139.3359518, 36.8173115],
          [139.3347287, 36.81726],
          [139.334439, 36.817217],
          [139.3340045, 36.8171956],
          [139.3328351, 36.8170882],
          [139.3326849, 36.8170539],
          [139.3325508, 36.8170066],
          [139.3324488, 36.8169465],
          [139.3322128, 36.8166888],
          [139.3320787, 36.8164655],
          [139.3320492, 36.8161821]
        ],
        "type": "LineString"
      }
    },
    {
      "type": "Feature",
      "properties": {
        "@id": "way/503232560",
        "name": "オレンジ"
      },
      "geometry": {
        "coordinates": [
          [139.34419413453094, 36.813506109406006],
          [139.3433695906464, 36.813821356457815],
          [139.342491, 36.8142323],
          [139.3423891, 36.8143096],
          [139.3420619, 36.8145201],
          [139.3419385, 36.8145673],
          [139.34121879607886, 36.81490780214324],
          [139.34048384607763, 36.81507742525922],
          [139.3402004, 36.8150827],
          [139.3391222, 36.8152544],
          [139.3385965, 36.8153317],
          [139.3380332, 36.8153962],
          [139.3376094, 36.8154906],
          [139.3372245691152, 36.815664949704384],
          [139.33665058798545, 36.815823502329806],
          [139.3359089, 36.81586],
          [139.3357748, 36.8158943],
          [139.3352383, 36.8159845],
          [139.3350989, 36.8160189],
          [139.3346912, 36.8160876],
          [139.3342888, 36.8161692],
          [139.3339992, 36.8162035],
          [139.3338597, 36.8162121],
          [139.3332803, 36.8162164],
          [139.3322745, 36.8161821],
          [139.3320492, 36.8161821],
          [139.3317568, 36.8161606],
          [139.3310997, 36.8160511],
          [139.3308932, 36.8159759],
          [139.3306893, 36.8159287]
        ],
        "type": "LineString"
      }
    },
    {
      "type": "Feature",
      "properties": {
        "@id": "way/503232561",
        "name": "イエロー"
      },
      "geometry": {
        "coordinates": [
          [139.3352406625886, 36.81450846326751],
          [139.3346804, 36.8146639],
          [139.3328458629497, 36.81501017626539],
          [139.33215460539608, 36.81511342534995],
          [139.33093134568264, 36.815178029793834]
        ],
        "type": "LineString"
      }
    },
    {
      "type": "Feature",
      "properties": {
        "@id": "way/503232562",
        "name": "ブルー"
      },
      "geometry": {
        "coordinates": [
          [139.33786539208722, 36.81269644747151],
          [139.3375772, 36.8126261],
          [139.3372983, 36.8125917],
          [139.3371642, 36.8125831],
          [139.3365741, 36.8126304],
          [139.3358123, 36.8126261],
          [139.3353671, 36.8126132],
          [139.3352276, 36.8125874],
          [139.3348092, 36.8125574],
          [139.3318802, 36.8125617],
          [139.3315422, 36.8125831],
          [139.33118671654626, 36.81257800825508]
        ],
        "type": "LineString"
      }
    },
    {
      "type": "Feature",
      "properties": {
        "name": "コバルト",
        "@id": ""
      },
      "geometry": {
        "coordinates": [
          [139.34649419327565, 36.81150073754587],
          [139.34577145914074, 36.81230309886331],
          [139.34492287103137, 36.8131102415323],
          [139.34432541081287, 36.813619422637714]
        ],
        "type": "LineString"
      }
    },
    {
      "type": "Feature",
      "properties": {
        "name": "しらね急斜面"
      },
      "geometry": {
        "coordinates": [
          [139.3497478117855, 36.8075757878035],
          [139.34760898819763, 36.80831427991133]
        ],
        "type": "LineString"
      }
    },
    {
      "type": "Feature",
      "properties": {
        "name": "バイオレット連絡路"
      },
      "geometry": {
        "coordinates": [
          [139.34206266584732, 36.810128661539466],
          [139.3423738889353, 36.81065192332045],
          [139.34267992496973, 36.81094262276491],
          [139.34300152216053, 36.81132883603286],
          [139.34305339267405, 36.81143265647164]
        ],
        "type": "LineString"
      }
    },
    {
      "type": "Feature",
      "properties": {
        "name": "イエロー（ゴンドラ連絡路）"
      },
      "geometry": {
        "coordinates": [
          [139.33520434721652, 36.81412127768236],
          [139.3342420138062, 36.814271486855716],
          [139.33278338266308, 36.81446045926779],
          [139.33158029932952, 36.81458421005705],
          [139.33102347748144, 36.81455513745556],
          [139.330636123153, 36.81445338326371]
        ],
        "type": "LineString"
      }
    },
    {
      "type": "Feature",
      "properties": {
        "name": "ローズ迂回"
      },
      "geometry": {
        "coordinates": [
          [139.34237681794525, 36.810273759851924],
          [139.34314178000005, 36.81098077253972],
          [139.34397161174746, 36.81165760472615],
          [139.34453970856697, 36.812134942959545],
          [139.34496156264277, 36.81235109514297]
        ],
        "type": "LineString"
      }
    }
  ]
}
