{"type":"FeatureCollection","features":[{"type":"Feature","properties":{"@id":"way/507088104","piste:difficulty":"advanced","name":"ダイナミック"},"geometry":{"coordinates":[[141.54014640141517,43.808058390416065],[141.53968081975202,43.80795231002146],[141.53887442373056,43.80774584700131],[141.53837334272686,43.80770229575198],[141.53766351582698,43.80772924212341],[141.53676839456867,43.807837690539486],[141.5359767491712,43.80787146403096],[141.53500195113165,43.80792580788102]],"type":"LineString"}},{"type":"Feature","properties":{"@id":"way/507088103","piste:difficulty":"advanced","name":"チャレンジ"},"geometry":{"coordinates":[[141.5403253,43.8084285],[141.5400517,43.8084014],[141.5394570949851,43.80837662339552],[141.5386503662154,43.80831711212514],[141.53793521972878,43.80828554770155],[141.53730065150143,43.80823430108452],[141.53684336120043,43.80816249445262],[141.53549526185444,43.80801952213013]],"type":"LineString"}},{"type":"Feature","properties":{"@id":"way/507088106","piste:difficulty":"intermediate","name":"ジャイアント"},"geometry":{"coordinates":[[141.5405171288054,43.808998460624956],[141.54045982194032,43.8085749905972],[141.54033970686515,43.80827717707229],[141.54015433329164,43.80806227359837],[141.54007875368546,43.80793650861611],[141.53986094710436,43.80770564102322],[141.5396242914817,43.80750036746891],[141.53924657403093,43.807249207725505],[141.538893,43.8071045],[141.5377879,43.8068645],[141.537627,43.8068683],[141.5372086,43.8069341],[141.5361357,43.8072129],[141.53561,43.8073871],[141.534726539966,43.80783621721311],[141.5344888,43.8080491],[141.53385363072812,43.80846660223565],[141.53352916305738,43.80864824428427]],"type":"LineString"},"id":2},{"type":"Feature","properties":{"@id":"way/507088109","piste:difficulty":"intermediate","name":"連絡"},"geometry":{"coordinates":[[141.5377646707985,43.8051108976729],[141.53740080805255,43.805399184572835],[141.53687577627778,43.8058386804437],[141.53613097260592,43.80634787001901],[141.5354667926611,43.80679887400657],[141.53486059266118,43.807250622277714],[141.534242,43.807761531840654],[141.53357525648863,43.808326736270395],[141.5332347007736,43.808551851697345],[141.53298789051757,43.80865293828107],[141.53274425790292,43.80873108292286],[141.53228824116127,43.8088648218682],[141.53198846685586,43.80896473531322],[141.53165744406297,43.809132300320755],[141.53133913183353,43.80930957741661],[141.53097394687654,43.809543230497724],[141.53078261336302,43.80966664404397],[141.53057970952108,43.809728672847285],[141.53043440982287,43.80973778092931],[141.53029092894994,43.80973259883733],[141.5300842722728,43.80970201640238],[141.52992483628157,43.80965196169348]],"type":"LineString"},"id":3},{"type":"Feature","properties":{"@id":"way/507088110","name":"スノーボード"},"geometry":{"coordinates":[[141.53398669773497,43.806847161181416],[141.5336514874672,43.806877013483074],[141.53317254151537,43.806988172778766],[141.53263531645132,43.80713878349782],[141.53230369994455,43.8072825276957],[141.5319711586141,43.807400844410466],[141.5315545,43.80748],[141.53135382897773,43.807620815488335],[141.53126136107608,43.807727533926375],[141.5311421496004,43.80787285226981],[141.53092964021937,43.808106683924684],[141.5307176,43.8082001],[141.5305889,43.808262],[141.53034239316304,43.808342682602486],[141.53000559570842,43.808512958906526],[141.5299037927364,43.8086860561081],[141.52978790281878,43.808876219033166],[141.52966015389345,43.80916022470042],[141.52958420429164,43.80933743544365]],"type":"LineString"}},{"type":"Feature","properties":{"@id":"way/507088111","piste:difficulty":"easy","name":"シーガル"},"geometry":{"coordinates":[[141.53755475986932,43.80486874738066],[141.5372795369687,43.80510293691575],[141.53703539400053,43.80528397636781],[141.53649371232353,43.80562941137379],[141.53596520316202,43.80598170588562],[141.53550798309672,43.806289584343084],[141.5351486,43.8065393],[141.53455719542038,43.80688082980786],[141.5331316,43.8077123],[141.53216447709923,43.80827078506533],[141.530723,43.8091563],[141.5298296722646,43.809655395184144]],"type":"LineString"},"id":5}]}