{
  "type": "FeatureCollection",
  "features": [
    {
      "type": "Feature",
      "properties": {
        "@id": "way/507084382",
        "name": "レーシングAライン"
      },
      "geometry": {
        "coordinates": [
          [141.98559803389534, 43.04602790943031],
          [141.98532639317366, 43.04610462601531],
          [141.98506011599451, 43.04619602902493],
          [141.98485889888988, 43.046296301792864],
          [141.98467330243201, 43.046366465209786],
          [141.98454644476803, 43.04640191413308],
          [141.9844224186004, 43.04648395547282],
          [141.9844417390081, 43.046532605606394],
          [141.98448381038395, 43.04659659073707],
          [141.9840252374866, 43.04693289440875],
          [141.98351563748656, 43.047204778885806],
          [141.98282713595586, 43.047556915634004],
          [141.9811571, 43.0484278],
          [141.9801396713681, 43.04896321072017],
          [141.97953570102604, 43.04929896161788],
          [141.97875828301116, 43.04971520609922]
        ],
        "type": "LineString"
      },
      "id": 0
    },
    {
      "type": "Feature",
      "properties": {
        "@id": "way/327026235",
        "name": "ビギナーズBライン"
      },
      "geometry": {
        "coordinates": [
          [141.97700915221398, 43.05015754046577],
          [141.97609964876415, 43.05070350038963],
          [141.97548252711923, 43.05100157457368],
          [141.97495839861597, 43.05134491687843],
          [141.97457769895024, 43.05181049076513],
          [141.97442784291172, 43.052144740342094],
          [141.9743038466139, 43.052486545266305],
          [141.9742187039031, 43.05265253940895],
          [141.97410428477409, 43.052682653717476],
          [141.9739588592406, 43.05268219448607],
          [141.97384563975464, 43.05269468345374],
          [141.9737593, 43.0526417],
          [141.9734589, 43.0524457],
          [141.9729761, 43.052187],
          [141.9723163, 43.0519753],
          [141.9715867, 43.051803],
          [141.9710567592405, 43.05172136836296],
          [141.9704441, 43.0516776],
          [141.9702242, 43.0516423],
          [141.9700721, 43.0515482],
          [141.96989923587373, 43.05144554097201]
        ],
        "type": "LineString"
      }
    },
    {
      "type": "Feature",
      "properties": {
        "@id": "way/327026237",
        "name": "ビギナーズAライン"
      },
      "geometry": {
        "coordinates": [
          [141.97707635034755, 43.04952561259136],
          [141.9766154713531, 43.04964414909772],
          [141.97505757040494, 43.05007010816575],
          [141.97321674888403, 43.050546705524106],
          [141.97193146412621, 43.050861134167675],
          [141.97092118160222, 43.05110549552037],
          [141.96986774888407, 43.05133049671967]
        ],
        "type": "LineString"
      }
    },
    {
      "type": "Feature",
      "properties": {
        "name": "無名"
      },
      "geometry": {
        "coordinates": [
          [141.9781659452849, 43.044651928940795],
          [141.9784046858158, 43.044591466644135],
          [141.9785441481058, 43.04457246419523],
          [141.97869070170066, 43.04457591918623],
          [141.97877816110156, 43.044588011654014],
          [141.9788372552934, 43.04461737906399],
          [141.97881598138514, 43.044683023813405],
          [141.9787261582146, 43.04478840076342],
          [141.97873088574977, 43.04490241496504],
          [141.97873116770387, 43.044970517245304],
          [141.97885914064193, 43.04513902051346],
          [141.9789269177641, 43.045330806084934],
          [141.979003438802, 43.045448069674194],
          [141.97909856814027, 43.04553129616201],
          [141.97911652824735, 43.04559560501572],
          [141.97910398451603, 43.04565000607738],
          [141.97893769960834, 43.04585891751428],
          [141.9788613357846, 43.04597699649458],
          [141.97881129127012, 43.04607071305803],
          [141.97881846750724, 43.04613367138885],
          [141.97884408617358, 43.04617258133641],
          [141.97891620851993, 43.04619451323599],
          [141.97900649873517, 43.046203002264726],
          [141.97910417822737, 43.04621839293259],
          [141.9791713538812, 43.046244929747985],
          [141.97922695643834, 43.0462853371193],
          [141.97925645237592, 43.04633897922162],
          [141.97924866584515, 43.04643225200539],
          [141.9792129250712, 43.04660788765365],
          [141.97911247709715, 43.046880912753295],
          [141.97910456205034, 43.04705772968747],
          [141.9791365139302, 43.04720765331655],
          [141.97920352813094, 43.047557807241986]
        ],
        "type": "LineString"
      }
    },
    {
      "type": "Feature",
      "properties": {
        "@id": "way/507084381",
        "name": "スリリングライン"
      },
      "geometry": {
        "coordinates": [
          [141.98215589811974, 43.04457717179774],
          [141.98198658838484, 43.044583241102416],
          [141.98186252290037, 43.04459618963348],
          [141.9817618285213, 43.04466623717755],
          [141.98172195219342, 43.04472009746041],
          [141.9816504651804, 43.04478705514559],
          [141.98156936554346, 43.044860303923315],
          [141.9815059858228, 43.04491000710796],
          [141.98145146606083, 43.044956767027614],
          [141.98138232273902, 43.04500663566114],
          [141.9813066417297, 43.04502528349056],
          [141.98123579342618, 43.04503922221497],
          [141.98111336110597, 43.04503922709452],
          [141.98100952210785, 43.045144369871686],
          [141.98085989273403, 43.04525646165787],
          [141.980781437489, 43.04527181580755],
          [141.98072553581946, 43.04525664480453],
          [141.98067570029787, 43.04519803190041],
          [141.98067891999162, 43.045103989157646],
          [141.98067427707076, 43.045000609008994],
          [141.98065277315672, 43.04492703158823],
          [141.98062524894647, 43.04490162002966],
          [141.9805936774098, 43.04488803992226],
          [141.9805491214559, 43.04488695335185],
          [141.98047321640377, 43.0448945441898],
          [141.98040288526684, 43.0448953817471],
          [141.9803201636127, 43.04489653999058],
          [141.9802514833318, 43.04489490071582],
          [141.98019640064416, 43.044898148145805],
          [141.98003257569752, 43.04499255925954],
          [141.9798424701778, 43.04506922557645],
          [141.97964309137768, 43.04512638418926],
          [141.97946097152465, 43.04515119836558],
          [141.97932096851804, 43.04516172288892],
          [141.9791736884626, 43.045153807317156],
          [141.9790845927277, 43.045119728781884],
          [141.97899882963264, 43.045066921098325],
          [141.97894647743982, 43.04502924601856],
          [141.97889927715022, 43.04501039644321],
          [141.97884692495745, 43.045004724719234],
          [141.97880487657105, 43.04502540870925],
          [141.97878244675582, 43.04504621858517],
          [141.97880880484922, 43.045106249007084],
          [141.97885786194388, 43.04518530652081],
          [141.97889960085217, 43.04527684324063],
          [141.9788867824429, 43.04534806263872],
          [141.97879081494597, 43.045382499231195],
          [141.97863803968792, 43.045328110424286],
          [141.97851738228263, 43.04529465070473],
          [141.97839823556995, 43.045273673655366],
          [141.97835727818568, 43.045290019190546],
          [141.97833868386726, 43.0453571671794],
          [141.97839759071883, 43.04543148612515],
          [141.9785343147258, 43.04552028102296],
          [141.97865580232326, 43.04561681869725],
          [141.97882289689397, 43.045739169928694],
          [141.97873837613685, 43.04579370466098],
          [141.97862131365943, 43.045823423735776],
          [141.97849085563792, 43.04581574976369],
          [141.97834356318975, 43.04580648433307],
          [141.9782164191401, 43.0458591790399],
          [141.9780524888019, 43.04614969088318],
          [141.97778118877042, 43.04646137381002],
          [141.977659028159, 43.04661207426869],
          [141.97762347762094, 43.046653689858104],
          [141.97757039225365, 43.04680236974972],
          [141.97756652238098, 43.04699756990898],
          [141.97753805126234, 43.04726226992181],
          [141.97740271017827, 43.047434780321225],
          [141.97725797859187, 43.04756269600391],
          [141.97706936308413, 43.04770208333948],
          [141.97682721719576, 43.04775229853885],
          [141.97658033896641, 43.047729053558776],
          [141.97653204076101, 43.04780248490174],
          [141.97657203902193, 43.047915974501414],
          [141.97658346803246, 43.04805740329533],
          [141.97654348786097, 43.04816985481126],
          [141.97638387175232, 43.04819014070931],
          [141.97625367378126, 43.04811494712596],
          [141.97629729104455, 43.04828847946945],
          [141.97634879970286, 43.04844329642681],
          [141.97620508345193, 43.04848560279886],
          [141.97602434645418, 43.04834056595337],
          [141.97595827320197, 43.04820833725654],
          [141.9758259890466, 43.048237821158295],
          [141.97580292245516, 43.048299799396275],
          [141.97564634744487, 43.048362510869204],
          [141.97548785706658, 43.04843165412022],
          [141.97535465247628, 43.048451817986475],
          [141.97519306387585, 43.048484093558145],
          [141.97500548516936, 43.048515662141035],
          [141.97497759121885, 43.04856927090552],
          [141.97499013171122, 43.0486524281631],
          [141.975033106892, 43.04871715149551],
          [141.97483785187418, 43.04876816742234],
          [141.97453402893848, 43.048819640926496],
          [141.97449891472885, 43.04868722977456],
          [141.97442336607622, 43.04862657909422],
          [141.97424043082196, 43.04864791382239],
          [141.97412437020398, 43.04871641358993],
          [141.9739768146028, 43.048827427576725],
          [141.97389761343976, 43.04897920630761],
          [141.97371458761785, 43.0491876524855],
          [141.97355048763808, 43.0493165045691],
          [141.97338086668728, 43.04948684297973],
          [141.97332808591344, 43.049725545969935],
          [141.9732338577876, 43.049788941660296],
          [141.97313590237178, 43.04984688985716],
          [141.97276676106833, 43.0499776153754],
          [141.97235229753935, 43.05014401085212],
          [141.97200983800803, 43.05030800256526],
          [141.97172725040818, 43.05044189965908],
          [141.97134150287013, 43.05056209047575],
          [141.970917000311, 43.0506585565586],
          [141.9704950552676, 43.05079443825289],
          [141.97024191739493, 43.05095773242771]
        ],
        "type": "LineString"
      }
    },
    {
      "type": "Feature",
      "properties": {
        "@id": "way/327026233",
        "name": "スウィンギングCライン"
      },
      "geometry": {
        "coordinates": [
          [141.97445019102568, 43.046623484046364],
          [141.97368467255495, 43.046357219772105],
          [141.97341490443307, 43.04628840241304],
          [141.9731384530158, 43.04628509926044],
          [141.97268722139734, 43.046251385926745],
          [141.97252099710525, 43.04625368609031],
          [141.97244155922357, 43.04628667516319],
          [141.97237229010955, 43.04633654633501],
          [141.97235192431685, 43.046399621942825],
          [141.97238846880285, 43.04644031678251],
          [141.9724447201807, 43.04646372944906],
          [141.97257308203788, 43.04645159133386],
          [141.97260646778614, 43.04641074160142],
          [141.9726063632906, 43.04635758195133],
          [141.97255866624982, 43.04631669780935],
          [141.9725150638375, 43.046291770861615],
          [141.9724098710695, 43.04625456835589],
          [141.9722836815905, 43.04624293993411],
          [141.97214629386517, 43.04623131150909],
          [141.97204113023417, 43.046251813402705],
          [141.9719777521931, 43.04628758381448],
          [141.9719454216136, 43.046330848307676],
          [141.9719153749379, 43.046395258787065],
          [141.97192390752645, 43.04649502500702],
          [141.9719612884341, 43.04659330846308],
          [141.97204875539472, 43.04669085041266],
          [141.97200842870046, 43.046780575322686],
          [141.9719670479642, 43.04681592232271],
          [141.9719227093259, 43.04685159796004],
          [141.97186014087924, 43.04688239729057],
          [141.97183444156602, 43.04690073124651],
          [141.97179930216657, 43.04690556761368],
          [141.97177527703886, 43.046903218514984],
          [141.9717438938099, 43.04689728491974],
          [141.97172126075765, 43.046880160791915],
          [141.9717104665081, 43.04685138379173],
          [141.97172430731896, 43.04682894938816],
          [141.97173953928154, 43.046814940588305],
          [141.9717684669102, 43.04681022561988],
          [141.9718047296694, 43.04681902324014],
          [141.9718409924286, 43.04683782960079],
          [141.97193450070225, 43.046893998152434],
          [141.97194511930218, 43.046914648752235],
          [141.97196798579967, 43.0469532007597],
          [141.97194429460495, 43.047003532537914],
          [141.9718677101186, 43.04705810782453],
          [141.97176138073795, 43.04707304438344],
          [141.97165373908172, 43.04706336665302],
          [141.97154609742546, 43.0470536889226],
          [141.9714542818375, 43.04703690055697],
          [141.97140271468078, 43.0470464293506],
          [141.97132997438865, 43.04711817392712],
          [141.9708304, 43.0475458],
          [141.9701780024012, 43.04801384261989]
        ],
        "type": "LineString"
      }
    },
    {
      "type": "Feature",
      "properties": {
        "@id": "way/327026234",
        "name": "スウィンギングBライン"
      },
      "geometry": {
        "coordinates": [
          [141.97445809527244, 43.046695315274874],
          [141.97368059003605, 43.0468279394662],
          [141.97318596334483, 43.04697280910347],
          [141.97256164163568, 43.047250134330795],
          [141.97200993665516, 43.04760373086152],
          [141.97147484614726, 43.04783644140712],
          [141.97083391400076, 43.04805368237016],
          [141.96997942716231, 43.04836606816111]
        ],
        "type": "LineString"
      }
    },
    {
      "type": "Feature",
      "properties": {
        "@id": "way/327027323",
        "name": "ディアライン"
      },
      "geometry": {
        "coordinates": [
          [141.98185331083764, 43.04427817715704],
          [141.98126908288327, 43.044319569952755],
          [141.98077543526176, 43.044378362060115],
          [141.9802095047, 43.04442843559922],
          [141.9796975, 43.0445232],
          [141.97934476148896, 43.04462075709219],
          [141.97870580246612, 43.04496669951733],
          [141.9779487, 43.0453857],
          [141.97769742774304, 43.04551107972215],
          [141.97729346049408, 43.04569774787442],
          [141.9766389808547, 43.045891518253306]
        ],
        "type": "LineString"
      }
    },
    {
      "type": "Feature",
      "properties": {
        "@id": "way/507084384",
        "name": "カービングライン"
      },
      "geometry": {
        "coordinates": [
          [141.98804307134031, 43.04651933662009],
          [141.98802177990737, 43.046859806123486],
          [141.98799445420602, 43.047048849085954],
          [141.98801912990626, 43.047394773368644],
          [141.988098956386, 43.047673963733686],
          [141.98811810389444, 43.04798428097693],
          [141.98814244283568, 43.04834771191287],
          [141.98809477710418, 43.04850756848277],
          [141.98796697422338, 43.048738609382944],
          [141.9878703199398, 43.0489393000045],
          [141.98776652570143, 43.04915816844851],
          [141.9875772485972, 43.04938240583407],
          [141.9871974, 43.0496548],
          [141.9869399, 43.0498038],
          [141.986661, 43.0498743415844],
          [141.9862973510176, 43.04994946886292],
          [141.98591911709744, 43.05004157308768],
          [141.98568622615332, 43.05010497188925],
          [141.98517273655114, 43.05035539948969],
          [141.98491850739458, 43.050531192791546],
          [141.98473445561746, 43.050714938252675],
          [141.98465980303874, 43.05073447548367],
          [141.98457231433275, 43.05071320886033],
          [141.98425715702223, 43.05055582223792],
          [141.9832873973212, 43.05016004795865],
          [141.98286860303236, 43.050047869393694],
          [141.98247185075755, 43.05006694248127],
          [141.98204447522258, 43.050154016046854],
          [141.98149351737203, 43.05029582416023],
          [141.98119459494006, 43.05037814922765],
          [141.9808566, 43.05048617152052],
          [141.98050736948338, 43.05051823722987],
          [141.9801590607201, 43.05050291629573],
          [141.9798381027126, 43.05048188489205],
          [141.97939938398503, 43.050525264022205],
          [141.97897034350493, 43.05067427164407],
          [141.97848200945924, 43.050821578677656],
          [141.97815815670577, 43.05090707168962],
          [141.97794199468098, 43.05091688517674],
          [141.9776835374652, 43.05086488460054],
          [141.97756587169835, 43.05072808995411],
          [141.97731662089546, 43.050388680541786]
        ],
        "type": "LineString"
      }
    },
    {
      "type": "Feature",
      "properties": {
        "@id": "way/507084383",
        "name": "レーシングBライン"
      },
      "geometry": {
        "coordinates": [
          [141.98487221359028, 43.04678378631847],
          [141.98445572329678, 43.047114836333236],
          [141.98419158692914, 43.047302583610254],
          [141.9839503815409, 43.047524177763265],
          [141.98387528153867, 43.04766815031624],
          [141.98364198593163, 43.04825458978296],
          [141.983513806813, 43.04839549007192],
          [141.9827992650525, 43.048813643011584],
          [141.98247315098646, 43.048997269630355],
          [141.98218951604136, 43.04921067104432],
          [141.9817443160413, 43.04938859612578],
          [141.98103403252742, 43.04958594405088],
          [141.9807897662637, 43.04971837202544],
          [141.98064010483773, 43.04978550728481],
          [141.98041802132377, 43.04978922953017],
          [141.9801631669286, 43.04974949432081],
          [141.97994113489324, 43.04969890069154],
          [141.97938798593168, 43.04957917341145]
        ],
        "type": "LineString"
      }
    },
    {
      "type": "Feature",
      "properties": {
        "@id": "way/507084385",
        "name": "パノラマCライン"
      },
      "geometry": {
        "coordinates": [
          [141.9861550612748, 43.045894553288164],
          [141.98459719149133, 43.04602580024375],
          [141.98368539000313, 43.04621334674119],
          [141.98227454807125, 43.04649119998263]
        ],
        "type": "LineString"
      }
    },
    {
      "type": "Feature",
      "properties": {
        "@id": "way/327026236",
        "name": "ダンシングAライン"
      },
      "geometry": {
        "coordinates": [
          [141.98259627093103, 43.04446587057467],
          [141.9797836, 43.0472557],
          [141.97795262114425, 43.049029517571626],
          [141.97748022157032, 43.04953315176013],
          [141.97703742651402, 43.049957225972065]
        ],
        "type": "LineString"
      }
    },
    {
      "type": "Feature",
      "properties": {
        "@id": "way/507084386",
        "name": "パノラマAライン"
      },
      "geometry": {
        "coordinates": [
          [141.9895170409782, 43.0450359298229],
          [141.9894181524454, 43.04506731955048],
          [141.9893503, 43.045135],
          [141.98924948195491, 43.04521087304446],
          [141.98913214819495, 43.04531313331417],
          [141.98905175605387, 43.045451020523444],
          [141.98900377591093, 43.04551833853078],
          [141.98892564008844, 43.045609698092214],
          [141.98878418195633, 43.04577658757536],
          [141.9886232891738, 43.04595302885345],
          [141.98850249586758, 43.046118366074936],
          [141.98840187601948, 43.046219061552975],
          [141.98830221491193, 43.04629394211156],
          [141.98820539073324, 43.04633717309697],
          [141.98810210959363, 43.046343306757954],
          [141.987998828454, 43.04632564526449],
          [141.98778031617246, 43.04624542895479],
          [141.98755017520273, 43.046122721152415],
          [141.9871899, 43.0459045],
          [141.9869854, 43.0457658],
          [141.9863080321483, 43.04538765816328],
          [141.98597106077167, 43.045211540241255],
          [141.9851105586031, 43.04493169915524],
          [141.98416023468596, 43.04464685216808],
          [141.983067161685, 43.04437692623937]
        ],
        "type": "LineString"
      }
    },
    {
      "type": "Feature",
      "properties": {
        "@id": "way/327025711",
        "name": "ワインディングロード"
      },
      "geometry": {
        "coordinates": [
          [141.98292352497535, 43.044335653602346],
          [141.98199707770536, 43.04418422225312],
          [141.98132195032562, 43.04414024260466],
          [141.98042468720425, 43.044120405210606],
          [141.97977744526116, 43.04412954344477],
          [141.97920767213958, 43.044130103433325],
          [141.97903211405261, 43.0441294],
          [141.97881961145544, 43.04414552781894],
          [141.97871300580178, 43.04418417266495],
          [141.97858609528294, 43.04426238911685],
          [141.9782736061238, 43.044444598246365],
          [141.97806613349402, 43.04460026797571],
          [141.97790703594205, 43.044713832708965],
          [141.9778126649564, 43.04476096112144],
          [141.97768995126088, 43.04479594096421],
          [141.97760979980796, 43.04479426711865],
          [141.97750950633554, 43.044780933518574],
          [141.9774345269573, 43.04475106822906],
          [141.97734916415465, 43.044708110331584],
          [141.9773141162772, 43.04466025101605],
          [141.97724516601374, 43.04445577505249],
          [141.97714600187817, 43.044242832314254],
          [141.97706312817576, 43.044108706008636],
          [141.97691543591446, 43.04394029702274],
          [141.97685058685082, 43.043798211586704],
          [141.97684997088507, 43.04363429355064],
          [141.97684935492097, 43.04348880193897],
          [141.9768250048583, 43.04329536240549],
          [141.97668976510784, 43.04312218329272],
          [141.97657193219317, 43.04293623521143],
          [141.97653044594387, 43.042674134127196],
          [141.9763718571, 43.04232614800054],
          [141.97623130859768, 43.041991578446726],
          [141.97604326374474, 43.041739747227275],
          [141.97592712748948, 43.04161699821626],
          [141.9758550444833, 43.04158323048988],
          [141.97575685480086, 43.0415780831937],
          [141.97562688820386, 43.041585619442365],
          [141.97543092091897, 43.0416301090506],
          [141.97517029042965, 43.041677934781184],
          [141.9749315, 43.0417255],
          [141.97458006758075, 43.041823105964056],
          [141.97441324666016, 43.04189481732352],
          [141.97421577900528, 43.04205579487324],
          [141.97405545140825, 43.04228824003536],
          [141.97383673874754, 43.04250302473473],
          [141.97357007236775, 43.04276593468438],
          [141.9726309, 43.0439116],
          [141.97236745400895, 43.04435414176837],
          [141.97217268876528, 43.044724641891406],
          [141.97203624625553, 43.045065055030534],
          [141.97185908435765, 43.0452822233052],
          [141.9716231008166, 43.045488605558006],
          [141.97144384032669, 43.04569498784676],
          [141.97129110081664, 43.04583466492929],
          [141.97097726315786, 43.046140365046035],
          [141.9707534, 43.0464089],
          [141.97056603662062, 43.04667537641702],
          [141.9703477228329, 43.04722208238177],
          [141.97014896871866, 43.04777307669806],
          [141.9698132763301, 43.048362910440524],
          [141.9696698, 43.0486826],
          [141.9695053, 43.0490041],
          [141.96928325410272, 43.04956799963601],
          [141.96909959557848, 43.04993524102095],
          [141.96901487618885, 43.05033461588382],
          [141.96916424129708, 43.0507557971375],
          [141.96931910302385, 43.05105647905464],
          [141.96957290388502, 43.05126076181998]
        ],
        "type": "LineString"
      }
    },
    {
      "type": "Feature",
      "properties": {
        "@id": "way/327025720",
        "name": "スウィンギングAライン"
      },
      "geometry": {
        "coordinates": [
          [141.97781698888753, 43.04483603259796],
          [141.97746609825228, 43.04518103358858],
          [141.97707361114055, 43.04549895154081],
          [141.9764055977719, 43.04588507947599],
          [141.97519961030923, 43.046486093155735],
          [141.97445716882083, 43.04687630373773],
          [141.97410188821803, 43.047134864802025],
          [141.9738354534243, 43.047346947133974],
          [141.9735823, 43.04761241151489],
          [141.97334315931528, 43.0479339993281],
          [141.97303205171184, 43.04814907849454],
          [141.97249516082502, 43.04846606746846],
          [141.9700632, 43.04989],
          [141.9693404289028, 43.05033827835906]
        ],
        "type": "LineString"
      }
    },
    {
      "type": "Feature",
      "properties": {
        "@id": "way/327026232",
        "name": "スウィンギングDライン"
      },
      "geometry": {
        "coordinates": [
          [141.9746344667874, 43.046637326174064],
          [141.9743000845182, 43.04649745741507],
          [141.9740130715578, 43.04632390980054],
          [141.9739254, 43.0461305],
          [141.97385175661637, 43.045955963854354],
          [141.97371225661533, 43.045769759297215],
          [141.9735488326723, 43.0455765613379],
          [141.9733486685853, 43.04544656606639],
          [141.97305759351875, 43.045351538552055],
          [141.97263424444097, 43.0452412736308],
          [141.9723028809168, 43.04519221036181],
          [141.97211194432248, 43.0451898266568],
          [141.9719664664244, 43.04523912151051]
        ],
        "type": "LineString"
      }
    },
    {
      "type": "Feature",
      "properties": {
        "name": "パノラマBライン"
      },
      "geometry": {
        "coordinates": [
          [141.9866718215127, 43.045939538223934],
          [141.98624489969598, 43.045807608096666],
          [141.98585600000786, 43.0456756779694],
          [141.98553270687376, 43.04555098201109],
          [141.9848951009701, 43.0453836265109],
          [141.98417218146915, 43.04519986309529],
          [141.98349519462755, 43.045016046357915]
        ],
        "type": "LineString"
      }
    },
    {
      "type": "Feature",
      "properties": {
        "name": "ダンシングBライン"
      },
      "geometry": {
        "coordinates": [
          [141.98327763241872, 43.044921972313546],
          [141.98169795897064, 43.0464152817361],
          [141.97944587711214, 43.04854732665885],
          [141.97792603498624, 43.04995337779485],
          [141.9774703399122, 43.05028345902127]
        ],
        "type": "LineString"
      }
    },
    {
      "type": "Feature",
      "properties": {
        "name": "カービングライン_2"
      },
      "geometry": {
        "coordinates": [
          [141.9827890512135, 43.04997344194993],
          [141.9816028431349, 43.04979574118698],
          [141.98098601493456, 43.04971772605509]
        ],
        "type": "LineString"
      }
    },
    {
      "type": "Feature",
      "properties": {
        "name": "ワインディングロード_迂回"
      },
      "geometry": {
        "coordinates": [
          [141.97594964568844, 43.04154560234855],
          [141.97591833086932, 43.04134152877853],
          [141.9759757413711, 43.04114699072491],
          [141.97607751453575, 43.04092193612837],
          [141.97612185129918, 43.040761897970896],
          [141.97609859828992, 43.04058817223341],
          [141.976035340796, 43.04038978376232],
          [141.97599379542885, 43.04029109945614],
          [141.975926284205, 43.04022847279472],
          [141.97585617639572, 43.04020380166821],
          [141.97568480175397, 43.04020000610947],
          [141.97556535882114, 43.04020190388886],
          [141.97540956369215, 43.04023037057323],
          [141.9753420524683, 43.04026453057696],
          [141.975297910518, 43.04035182827832],
          [141.97526465621576, 43.040432220625576],
          [141.97521861179501, 43.04054252623229],
          [141.97511373284186, 43.04064348373299],
          [141.9750307192246, 43.04074953305184],
          [141.97498657727203, 43.04093361573496],
          [141.97500475337017, 43.04109872035201],
          [141.97499976513217, 43.041230536798224],
          [141.97496600952144, 43.04132162861487],
          [141.9748933051266, 43.04138425416048],
          [141.97479723146512, 43.04145067512377],
          [141.97468817487413, 43.04153227792281],
          [141.9746094903781, 43.04161892948056],
          [141.97442772939456, 43.04173658897338],
          [141.97437839426885, 43.04176695267668]
        ],
        "type": "LineString"
      }
    },
    {
      "type": "Feature",
      "properties": {
        "name": "ラクーンライン"
      },
      "geometry": {
        "coordinates": [
          [141.98188620776642, 43.0482148745285],
          [141.98191109222438, 43.04835256120262],
          [141.98194664144984, 43.04854480245723],
          [141.9819075373017, 43.048760423688265],
          [141.98179022485607, 43.04889291346612],
          [141.98154849011814, 43.049056576914296],
          [141.98144539736268, 43.04924102249882],
          [141.9814098481176, 43.04939169597773],
          [141.98139207350488, 43.04944884787798]
        ],
        "type": "LineString"
      }
    }
  ]
}
