{"type":"FeatureCollection","features":[{"type":"Feature","properties":{"@id":"way/513101453","name":"チャレンジ"},"geometry":{"coordinates":[[142.50841657008388,44.41532003743929],[142.50839802679968,44.415123280421284],[142.50840611155854,44.414918915731114],[142.50835747165564,44.41477430752505],[142.50832250048762,44.41464304091926],[142.50829818053612,44.414485146278786],[142.50831211459712,44.41430391779815],[142.50827115115266,44.41417526316516],[142.50811220361658,44.414050070677376],[142.5078942640348,44.41393421729792],[142.50751123060007,44.41382597253958],[142.50763327567088,44.41358120713139],[142.50781091466257,44.413003312177906],[142.50834642186857,44.412025291507476],[142.50880140100446,44.41116106511055],[142.50926678155932,44.410430581243006],[142.5095873000086,44.409913500422995]],"type":"LineString"}},{"type":"Feature","properties":{"@id":"way/513101457","name":"ジャイアント第1"},"geometry":{"coordinates":[[142.51477241546687,44.40894266158088],[142.5155394950678,44.40763306128736],[142.5159144,44.4069754],[142.51665512546256,44.40555977272757],[142.51694303301167,44.40480114460867],[142.5173377566086,44.40400542356224]],"type":"LineString"}},{"type":"Feature","properties":{"@id":"way/513101458","name":"イースタン"},"geometry":{"coordinates":[[142.5115866486141,44.41594597669308],[142.51176257357807,44.415972729435794],[142.5119120262497,44.41597259160102],[142.5120293227163,44.415935358681224],[142.51207851092028,44.41582552151178],[142.51215134919644,44.41567176402179],[142.51226694875965,44.41562289274884],[142.5128508197675,44.41506047859589],[142.5135916,44.4144134],[142.5140216865974,44.41395616129104],[142.51493701237237,44.412975418321835],[142.51617882150936,44.411264652772886],[142.51735633178285,44.40963570037734],[142.5183928,44.4085696],[142.51904988972657,44.407630730986405],[142.5195052748016,44.407061615018094],[142.5200665,44.4063699],[142.5201587784905,44.406147635674145],[142.5201029523265,44.40595182318389],[142.51981621571247,44.405704497499244],[142.5195192889736,44.40550374046729],[142.51928049783507,44.40533876898],[142.5190097,44.4051052],[142.5184755614942,44.404525633887424],[142.51839085453273,44.40438182083178],[142.51822054156355,44.404283877386284],[142.5174184193594,44.403931828894876],[142.51648230359643,44.40352645101866],[142.51520986776282,44.40279342220307]],"type":"LineString"}},{"type":"Feature","properties":{"@id":"way/513101459","name":"一般ゲレンデ第1"},"geometry":{"coordinates":[[142.51327536741533,44.4087246431672],[142.51407613029397,44.40662946103871],[142.51480040114612,44.40509220129509],[142.51564269942335,44.40313378819034]],"type":"LineString"}},{"type":"Feature","properties":{"@id":"way/513101460","name":"林間"},"geometry":{"coordinates":[[142.51082851047025,44.41173677579805],[142.51094249909198,44.411519283795414],[142.51097527403746,44.41141056710241],[142.5110106959646,44.41123655558342],[142.5109953593491,44.41103716280642],[142.51095453440118,44.410823298260986],[142.5109186498922,44.41061538586105],[142.5107051104703,44.41030232224137],[142.5106349585586,44.41003490679962],[142.5107050876206,44.409859992609725],[142.51084030908802,44.4095926374422],[142.51095980560225,44.409291341888306],[142.51095405985743,44.409016256972336],[142.51091619332868,44.40878703200118],[142.510920659179,44.408162446385816],[142.51085760988198,44.4078094598414],[142.51081433169162,44.407166782405255],[142.510786,44.4066382],[142.51063892638973,44.406445852877326],[142.5105433105912,44.406269602854735],[142.51045923694676,44.40609572323766],[142.51043801588602,44.405911394397855],[142.5105634211824,44.40568835702409],[142.5106858000875,44.40554497912483],[142.51092687196183,44.405374143468045],[142.51111588856713,44.40528078413652],[142.51144492135333,44.40519290693098],[142.51175443341424,44.40510502981467],[142.511930558217,44.405034008756154],[142.51201742930954,44.40497069880072],[142.51206083213896,44.4048000640647],[142.51214161572582,44.40447086529106],[142.51224287486838,44.40409781901294],[142.51229257698802,44.40405182128167],[142.51237718572193,44.404017971478375],[142.51253388032436,44.40399825677836],[142.51282141078195,44.404025478047856],[142.51311092094886,44.4040745987403],[142.51340614281847,44.404100557910205],[142.51372530277644,44.40410411776987],[142.51420391422647,44.40410767763738],[142.51464609715512,44.40406995793746]],"type":"LineString"}},{"type":"Feature","properties":{"name":"一般ゲレンデ第2"},"geometry":{"coordinates":[[142.51079043338325,44.41301279443334],[142.51126838614869,44.41234818777619],[142.5117150596003,44.41147365947751],[142.5122679244999,44.41063640316395],[142.51283722973875,44.40955447729266],[142.5132242351683,44.40879618305431]],"type":"LineString"}},{"type":"Feature","properties":{"name":"樹氷"},"geometry":{"coordinates":[[142.508490387513,44.415458264106746],[142.50833874721508,44.41569294444767],[142.50827977598954,44.41593965866227],[142.50831347383178,44.416276632493236],[142.5083471716763,44.41661360438235],[142.5084566896686,44.4170107473297],[142.50860832996653,44.417173214122045],[142.50882736595116,44.41726949052645],[142.50923174007602,44.417335680462685],[142.50965296312535,44.41731161140359],[142.5099899415635,44.41725143871275],[142.51027637323494,44.41711905857463],[142.51068074736196,44.41690845319198],[142.5111188193314,44.416577500343976],[142.51131258193487,44.41634282355335],[142.51149792007504,44.4159637282861],[142.51160743806741,44.415614717772144],[142.5117422294431,44.4151333205416],[142.51187699093998,44.4147701728549],[142.51187205079376,44.41455549501504],[142.51175925266034,44.414257848045224],[142.51155081008085,44.41373499861436]],"type":"LineString"}},{"type":"Feature","properties":{"name":"ジャイアント第2"},"geometry":{"coordinates":[[142.5115786664581,44.41364972675382],[142.5122143781973,44.41295619925356],[142.51278073956513,44.412213124947556],[142.51338177611785,44.41133793643408],[142.51393657909023,44.41047099150475],[142.51450294045804,44.40950495201696],[142.51474566675847,44.40900954096185]],"type":"LineString"}},{"type":"Feature","properties":{"@id":"way/513101451","name":"林間_2"},"geometry":{"coordinates":[[142.50982551336935,44.40986464378308],[142.50986875067923,44.40935135847562],[142.5098148703901,44.40882265610461],[142.50986004221997,44.40829897764036],[142.5099727422224,44.407814982064934],[142.51017301969173,44.40743557762248],[142.5103435499819,44.4070668208413],[142.51061303309535,44.40654064772491]],"type":"LineString"}},{"type":"Feature","properties":{"@id":"way/513101455","name":"壁"},"geometry":{"coordinates":[[142.50870985961396,44.41535586834057],[142.50902589725382,44.4146605683213],[142.5095737,44.4134439],[142.50980970000143,44.412734041296815],[142.50991330783134,44.41238045248762],[142.50984490144788,44.41168990555164],[142.50978737074996,44.41129457849702],[142.50953092542846,44.41058161512916]],"type":"LineString"}}]}