{"type":"FeatureCollection","features":[{"type":"Feature","properties":{"@id":"way/453532974","name":"パノラマ"},"geometry":{"coordinates":[[137.7261634,36.0488802],[137.7260722,36.0489583],[137.7259595,36.049019],[137.7256806,36.0490494],[137.7249618,36.0490624],[137.7239854,36.0489626],[137.7230145,36.0489453],[137.7222045,36.0488672],[137.7218129,36.0487284],[137.7217002,36.0486677],[137.7215071,36.0485072],[137.7213944,36.0484465],[137.7212603,36.0484031],[137.7209921,36.0483771],[137.7207024,36.0483858]],"type":"LineString"}},{"type":"Feature","properties":{"@id":"way/453532964","name":"チャンピオン"},"geometry":{"coordinates":[[137.7344249,36.0484386],[137.7336739,36.0483584],[137.733006,36.0483562],[137.7324321,36.0483714],[137.7321021,36.0484018],[137.7319546,36.0484018],[137.7315282,36.0483866],[137.7309676,36.0483432],[137.7303614,36.0483107],[137.730061,36.0483129],[137.7298437,36.0483584],[137.7292885,36.0486078],[137.7292241,36.0486295],[137.7287387,36.0487704],[137.7283953,36.0488485],[137.7280896,36.0489483]],"type":"LineString"}},{"type":"Feature","properties":{"@id":"way/453532965","name":"峰の原"},"geometry":{"coordinates":[[137.7322534,36.0449842],[137.7314591,36.0453],[137.7310299,36.045415],[137.7308127,36.0454996],[137.7302896,36.0456362],[137.7300509,36.0457208],[137.7292731,36.0461133],[137.7290987,36.0462326],[137.72832739697205,36.046599233855645]],"type":"LineString"}},{"type":"Feature","properties":{"@id":"way/453532966","name":"ゆりわり"},"geometry":{"coordinates":[[137.73276097308042,36.045565760072634],[137.73256106935236,36.04564751023906],[137.732471585504,36.045755300323236],[137.73232078467476,36.04600024975637],[137.7322044900592,36.04610570000507],[137.731551185918,36.046449220890516],[137.73059006142384,36.04688884522048],[137.7295561,36.0472963],[137.729202,36.0474655],[137.72879584302697,36.047641250333406]],"type":"LineString"}},{"type":"Feature","properties":{"@id":"way/453532967","name":"エキスパート"},"geometry":{"coordinates":[[137.737547,36.0471114],[137.737547,36.0471656],[137.7374827,36.0472654],[137.7372734,36.0474801],[137.7372037,36.0475734],[137.7371393,36.0477685],[137.7370696,36.0479312],[137.7370106,36.048148],[137.7369811,36.0481979],[137.7368336,36.0483215],[137.7365519,36.0484755],[137.7362462,36.0485492],[137.7359377,36.0485861],[137.7354764,36.0485883],[137.7349721,36.0485189],[137.7345993,36.0484798],[137.7344249,36.0484386]],"type":"LineString"}},{"type":"Feature","properties":{"@id":"way/453532968","name":"チャンピオン2"},"geometry":{"coordinates":[[137.73482623148223,36.04678687994354],[137.7347844,36.0470312],[137.7347253,36.0473652],[137.734661,36.0475734],[137.734559,36.0477815],[137.7343552,36.0480765],[137.7343498,36.0481849],[137.7344249,36.0484386],[137.7345161,36.0487401],[137.73449906574186,36.04929347313094],[137.7344571,36.0495208],[137.7342372,36.049807],[137.734146,36.0498894],[137.7340172,36.0499545],[137.7337705,36.0500412],[137.7334808,36.0500629],[137.7331911,36.0500586],[137.7330516,36.0500369],[137.7329122,36.0499979],[137.7325259,36.049833],[137.7321075,36.0497333],[137.7318178,36.04970921125969],[137.7314155,36.04973505212776],[137.7310132,36.0498374],[137.7307396,36.0498287],[137.730187,36.0497506],[137.7300529,36.0497203],[137.729377,36.0494514],[137.7289854,36.0492605],[137.7284865,36.049061],[137.7280896,36.0489483],[137.7278267,36.0488962],[137.7266184,36.0487455],[137.7263984,36.0487455],[137.7262224,36.0487805]],"type":"LineString"}},{"type":"Feature","properties":{"@id":"way/453532972","name":"樹海"},"geometry":{"coordinates":[[137.73474856261387,36.04667409626584],[137.7345573813243,36.04653916253322],[137.73414569409726,36.046210572917026],[137.7337272081058,36.04598074171895],[137.73342549533047,36.04586465501339],[137.73311966511255,36.04563476491454],[137.73297488132192,36.04546136454766],[137.73283273586208,36.045188094481745],[137.73258323832843,36.04498637055349],[137.73223998722466,36.04480634227647],[137.73180006365067,36.04482372912742],[137.73161766536882,36.04468494798428],[137.7313601722438,36.04440734792241],[137.73120998845783,36.04416012820386],[137.7310945931274,36.04405166902005],[137.73089482678398,36.04392050438605],[137.73069364546214,36.04385325928232],[137.7305139,36.0437947],[137.73013307444688,36.043814168187936],[137.7297065966895,36.04381743101783],[137.72943302457855,36.04377514435775],[137.72930295184864,36.043712276649515],[137.72917019656134,36.04361904257619],[137.729079,36.0435648],[137.72899083882643,36.04357685609969],[137.72895019779457,36.04360812387325],[137.72896358501913,36.04368845224059],[137.7291030663433,36.04380548054143],[137.7292130488984,36.04395295827002],[137.72940590470193,36.04417589711814],[137.72957604977853,36.04429709568834],[137.72971728378835,36.04451899007162],[137.72968912211442,36.04463938009641],[137.7296395,36.0446947],[137.7294759104406,36.044858443007755],[137.7292694,36.0450352],[137.72921572911636,36.045279155069856],[137.72921302678165,36.04552311020923],[137.7290079,36.0459016],[137.7287102,36.0461054],[137.7283749,36.0464199],[137.7282542,36.0465609],[137.7282327,36.0466758],[137.7282515,36.0467864],[137.7285814,36.0471399],[137.7286511,36.0472353],[137.7286833,36.0473394],[137.7286887,36.0475693],[137.7286404,36.0479033],[137.728503,36.0482768],[137.7284118,36.0483701],[137.7282294,36.0484546],[137.7279477,36.0484937],[137.7276715,36.048485],[137.7274569,36.0484395],[137.7270049,36.0482996],[137.7268762,36.0482801],[137.7265409,36.0482801],[137.72641268533212,36.048311492614346],[137.7263471303373,36.048389649832444],[137.72626071897108,36.04853707109866]],"type":"LineString"}},{"type":"Feature","properties":{"@id":"way/453532973","name":"無名"},"geometry":{"coordinates":[[137.7281221169352,36.04669436329741],[137.7278672790017,36.046965460660076],[137.7276246825132,36.04705067371337],[137.72734656236258,36.04702715315149],[137.72682992620616,36.04744984993488],[137.72638179996525,36.04764482400249],[137.72580426182995,36.04779338303561],[137.7246547,36.0479206],[137.7239036,36.0480464],[137.7229541,36.0478382],[137.7223962,36.0478209],[137.7213555,36.0481331],[137.7212322,36.0481852],[137.7209783697101,36.04824388523965]],"type":"LineString"}},{"type":"Feature","properties":{"@id":"way/453532975","name":"ファミリー"},"geometry":{"coordinates":[[137.7160214939214,36.04872328371792],[137.7156196,36.0487761],[137.7154158,36.0488347],[137.7145548,36.0488932],[137.7138708,36.0490103],[137.7134417,36.0490407],[137.7130608,36.0490429],[137.7124814,36.049019],[137.7120442,36.0489431],[137.7111698,36.0488564],[137.7100044,36.0488293],[137.7096423,36.0487577],[137.70920714688938,36.04872778674108]],"type":"LineString"}},{"type":"Feature","properties":{"@id":"way/453532976","name":"トレーニングバーン"},"geometry":{"coordinates":[[137.71679022524788,36.04832428836519],[137.7154644,36.0482648741626],[137.7149548856779,36.04818027867494],[137.71445597514816,36.04817441544316],[137.7135113863964,36.04823611611327],[137.7130665,36.0482131],[137.7129109,36.0482131],[137.7127715,36.0482044],[137.7124790952227,36.04817165291618],[137.71213701676837,36.04805613632306],[137.71172336967675,36.048048083169974],[137.7113990564361,36.04807957554239],[137.7107169,36.0481524],[137.710493044862,36.04815017869626],[137.7101644,36.0481871],[137.7095998,36.0482727],[137.70925880882626,36.048257646606075]],"type":"LineString"}},{"type":"Feature","properties":{"@id":"way/453532977","name":"バンビ"},"geometry":{"coordinates":[[137.71156938412767,36.04937475184645],[137.7081469866577,36.04890112158278]],"type":"LineString"}},{"type":"Feature","properties":{"name":"立て水の坂"},"geometry":{"coordinates":[[137.72066142280818,36.048392486967316],[137.72018424139628,36.04861822702894],[137.71956492083808,36.048860383828725],[137.71925018415988,36.04907791387937],[137.71874762075618,36.04934059087425],[137.71832120332357,36.04938573839463],[137.71779325793023,36.04936521679714],[137.71707818957077,36.049150832131446],[137.71682436967,36.04904411945077],[137.71656039697325,36.04890867622427],[137.71625581309098,36.04877733711619],[137.7160426043758,36.0487239805408]],"type":"LineString"}},{"type":"Feature","properties":{"name":"ラビット"},"geometry":{"coordinates":[[137.73751245214567,36.04700227471916],[137.73715809115902,36.04701023341572],[137.73659978146873,36.04705837706628],[137.7362292092156,36.047046486677424],[137.73593426835947,36.04701761001887],[137.7355869888625,36.04694879689066],[137.73517152577392,36.046847662067236],[137.7347914828365,36.04671285062925]],"type":"LineString"}}]}