{"type":"FeatureCollection","features":[{"type":"Feature","properties":{"@id":"way/503041071","name":"A"},"geometry":{"coordinates":[[138.92928767219271,36.742645281866956],[138.9296404366732,36.742841830896495],[138.9298593826195,36.7430229507303],[138.9299555976806,36.74317289331741],[138.93007850927071,36.74337631778313],[138.93022940463536,36.743565870962875],[138.93046928841224,36.74360924212105],[138.93116383319753,36.74370615347954],[138.9321856552146,36.74382391943494],[138.93289016775847,36.74389025591533],[138.93339890579267,36.7439245038071],[138.933859381461,36.743932269205544],[138.93427567085726,36.743903992599165],[138.93468848890421,36.74383637330918],[138.93503901506335,36.74377945026944],[138.93545836564383,36.74373949621871],[138.9359007351656,36.743742434593784],[138.93674307702923,36.74372984811083],[138.9369002081121,36.74368517295801],[138.93713533302196,36.74355417147524],[138.93736413099612,36.74347084368101],[138.93785989420732,36.7433696888148],[138.9383379343562,36.743323230850436],[138.93885891486102,36.74323627775563],[138.93955787219264,36.74316715201646]],"type":"LineString"}},{"type":"Feature","properties":{"@id":"way/503041073","name":"B"},"geometry":{"coordinates":[[138.92582639405197,36.743345578373315],[138.92604539858357,36.743352762563376],[138.92625594357355,36.743363445353594],[138.926499191515,36.74336410042865],[138.9266874822699,36.7433577263555],[138.9268422969971,36.743303393201515],[138.9270171859781,36.74320122593252],[138.92733445518064,36.743081503556375],[138.9277937128399,36.74289077148459],[138.92817966030407,36.74277248574229],[138.92865220388663,36.7426542],[138.92917031790657,36.74254939366226],[138.92957359028853,36.74247494683113],[138.92982291401742,36.74240435513377],[138.92998403463054,36.742310619550864],[138.9302277070075,36.74218322713772],[138.93044859417006,36.742022175745944],[138.93074694476388,36.7418123417079],[138.9310629852193,36.741509069053315],[138.93129652179064,36.741261548572545],[138.9316034,36.7410077],[138.93190880194334,36.740808368742336],[138.93205457314275,36.74074253436074],[138.93221213851467,36.740713323928716],[138.93237461478068,36.74069360306187],[138.93259554488424,36.74070634304512],[138.93278363309219,36.74073983245134],[138.9330804259748,36.740842093327494],[138.93354456454063,36.74093724847113],[138.934173,36.7410701],[138.9348696034984,36.74121309564881]],"type":"LineString"}},{"type":"Feature","properties":{"@id":"way/503041074","name":"C_#下部"},"geometry":{"coordinates":[[138.9288193,36.7405779],[138.92956128554556,36.74021387987998],[138.93008929062177,36.73991335202774],[138.930788,36.739529],[138.9314799835946,36.7392237],[138.9317435464889,36.7391684839743],[138.93197540722718,36.739188338143265],[138.93224900195082,36.7392565005903],[138.9327085,36.7394473],[138.9329499,36.7395419],[138.93319936869423,36.73967952654561]],"type":"LineString"}},{"type":"Feature","properties":{"@id":"way/503041079","name":"D"},"geometry":{"coordinates":[[138.93343221724948,36.73822665665942],[138.93330542068762,36.73851475522871],[138.93324660608866,36.73871477679265],[138.93321800913301,36.738937525360775],[138.9332396,36.7392108],[138.93330923961372,36.73951691457057],[138.93337220942067,36.739700095692605],[138.9336018640095,36.73997537782673],[138.9337772422705,36.740142264371855],[138.9339859695642,36.740330530232896],[138.934326543478,36.74065648597998],[138.93452758309175,36.74084974484673],[138.9348956490336,36.741168612108666],[138.93513698864638,36.741300410116864],[138.93553378502477,36.741455403969695],[138.93601291714918,36.741715877483344],[138.9365756340575,36.74202176000109],[138.9368924584532,36.74218897623001],[138.93716984710133,36.74229438678425],[138.9375725555497,36.74240017412959],[138.93791952963622,36.7425041197028],[138.9382483012418,36.74264088458041],[138.93879760372283,36.74283552264457],[138.93938980620842,36.74297340198279],[138.93981013634254,36.74307085792806],[138.94039883944677,36.74318654652611],[138.94099279875832,36.743304332606506],[138.9417120729678,36.74340351168862]],"type":"LineString"}},{"type":"Feature","properties":{"@id":"way/503041075","name":"C_#上部"},"geometry":{"coordinates":[[138.92573489106712,36.74325959921909],[138.92574860780664,36.743111501438435],[138.92578393997056,36.74290346844709],[138.92587077996603,36.742693634799764],[138.92601671996144,36.74246673258203],[138.9262623049342,36.74224676051925],[138.9266775224399,36.74195009772525],[138.92692990999316,36.741739278546014],[138.927104805009,36.74155431633073],[138.92726852248862,36.741385624410555],[138.9274622349615,36.74120319741154],[138.92765400996822,36.741078232458754],[138.9280468,36.7409089],[138.9284813,36.7407197],[138.9288193,36.7405779]],"type":"LineString"}},{"type":"Feature","properties":{"@id":"way/503041077","name":"E_#上部"},"geometry":{"coordinates":[[138.93351773928418,36.738327694928266],[138.9342856,36.738709522319475],[138.93496021680355,36.73901776756503],[138.93563644736943,36.73931807041134],[138.93624796255304,36.739634946033206],[138.9370805,36.7400878],[138.93762626477286,36.74040682187061],[138.93853121299557,36.7409671294351],[138.93955361506224,36.741514219841825]],"type":"LineString"}},{"type":"Feature","properties":{"@id":"way/503041078","name":"E_#下部"},"geometry":{"coordinates":[[138.93955361506224,36.741514219841825],[138.94040438759177,36.74193874059628],[138.94139145669075,36.74245402117491],[138.9417797,36.7426542],[138.94212514695778,36.74283314467395]],"type":"LineString"}},{"type":"Feature","properties":{"@id":"way/503041076","name":"無名_E・D連絡"},"geometry":{"coordinates":[[138.939492276954,36.74166218710062],[138.9396125,36.7417815],[138.93966958289877,36.741914014628975],[138.93972517732055,36.74218610863024],[138.9398217773205,36.742437981800194],[138.93998518568782,36.742663243253794],[138.94015174833135,36.742835424627444],[138.9404212195239,36.74294723609228],[138.94070330781764,36.74303377147614]],"type":"LineString"}},{"type":"Feature","properties":{"name":"無名_B・C連絡"},"geometry":{"coordinates":[[138.92898460586616,36.74241950548932],[138.92881130576882,36.74215719300011],[138.92874872514665,36.741933455160975],[138.9287150279062,36.741649602921356],[138.92873428347292,36.74137957263646],[138.9288257474132,36.74108253822581],[138.9288305623619,36.74082760178837]],"type":"LineString"}}]}