{
  "type": "FeatureCollection",
  "features": [
    {
      "type": "Feature",
      "properties": { "@id": "way/503280482", "name": "水無ゲレンデB" },
      "geometry": {
        "coordinates": [
          [138.4704673, 36.917402],
          [138.4701401, 36.9174577],
          [138.4694695, 36.9176507],
          [138.4686756, 36.9180367],
          [138.4683859, 36.9181182],
          [138.4673774, 36.9181826],
          [138.4662187, 36.9184356],
          [138.4657735, 36.9187101],
          [138.4656018, 36.9188773],
          [138.4651726, 36.919452],
          [138.4649239, 36.9199874],
          [138.4646523, 36.9199367],
          [138.4645128, 36.9199452],
          [138.4642607, 36.9200396],
          [138.4637135, 36.9207258],
          [138.4635204, 36.9208973],
          [138.4625709, 36.9210088],
          [138.4617662, 36.9212104]
        ],
        "type": "LineString"
      },
      "id": 0
    },
    {
      "type": "Feature",
      "properties": { "@id": "way/503280475", "name": "伊勢宮ゲレンデ" },
      "geometry": {
        "coordinates": [
          [138.4592128, 36.9240709],
          [138.4586602, 36.9245726],
          [138.4584993, 36.92498],
          [138.4582472, 36.9252502],
          [138.4577107, 36.9254518],
          [138.4569007, 36.9255933],
          [138.4559351, 36.9259492],
          [138.455506, 36.9259664],
          [138.4546665, 36.9259115],
          [138.4541136, 36.9253463]
        ],
        "type": "LineString"
      }
    },
    {
      "type": "Feature",
      "properties": { "@id": "way/503280486", "name": "日影ゲレンデA" },
      "geometry": {
        "coordinates": [
          [138.45971998637708, 36.924069612030486],
          [138.4593576, 36.9240795],
          [138.4592128, 36.9240709],
          [138.4583620790738, 36.924166624639206],
          [138.45742992457872, 36.92434357549413],
          [138.4551144, 36.9246927],
          [138.45451055280824, 36.92476793408109],
          [138.45406079368033, 36.92485867681296]
        ],
        "type": "LineString"
      }
    },
    {
      "type": "Feature",
      "properties": { "@id": "way/503404976", "name": "小毛無B" },
      "geometry": {
        "coordinates": [
          [138.4795927, 36.9053386],
          [138.4793937, 36.9056324],
          [138.4793669, 36.9057397],
          [138.4793669, 36.9058469],
          [138.4794259, 36.9059456],
          [138.4795117, 36.9060314],
          [138.47979076143588, 36.9061613729975],
          [138.48006627609175, 36.90632737181813],
          [138.4802788, 36.9064603],
          [138.4804948785344, 36.9065575988834],
          [138.4806061, 36.9066233],
          [138.48100732776078, 36.90668401456233]
        ],
        "type": "LineString"
      }
    },
    {
      "type": "Feature",
      "properties": { "name": "ユートピアB" },
      "geometry": {
        "coordinates": [
          [138.4594548772602, 36.928672680051804],
          [138.45916247249696, 36.928165506977074],
          [138.45890608604532, 36.92777926295828],
          [138.45836844093213, 36.927363951792024],
          [138.4576002786194, 36.927184744572884],
          [138.4569252352091, 36.92718709933055],
          [138.45617103666677, 36.92699793885603],
          [138.4557876812143, 36.92679049212556]
        ],
        "type": "LineString"
      }
    },
    {
      "type": "Feature",
      "properties": { "@id": "way/503404971", "name": "シュナイダー" },
      "geometry": {
        "coordinates": [
          [138.4677127249986, 36.92574346290093],
          [138.46613196305995, 36.925993083333864],
          [138.46466358342718, 36.92609569317332],
          [138.46447241713352, 36.926119762101834],
          [138.4637725, 36.92612406210793],
          [138.46242706685427, 36.92619266212984],
          [138.46108211713567, 36.926188794903815],
          [138.46070794971854, 36.92612259142646],
          [138.45998824859504, 36.92591679120423],
          [138.4590036, 36.9257219],
          [138.4584618, 36.9255933],
          [138.4577107, 36.9254518]
        ],
        "type": "LineString"
      }
    },
    {
      "type": "Feature",
      "properties": { "@id": "way/503404973", "name": "チャレンジ" },
      "geometry": {
        "coordinates": [
          [138.464571824978, 36.92623272035757],
          [138.464571409049, 36.926386587767226],
          [138.46462530889798, 36.92665209091628],
          [138.46472304044403, 36.926824210381675],
          [138.46489345085539, 36.926954916640334],
          [138.46531097719583, 36.9270953892611],
          [138.46570797719582, 36.9272668892611],
          [138.4658259771958, 36.9273397892611],
          [138.4659063771958, 36.9274426892611],
          [138.46594397719582, 36.927558489261095],
          [138.4659493771958, 36.9276742892611],
          [138.46594397719582, 36.927790089261094],
          [138.4659010771958, 36.9278972892611],
          [138.46564897719583, 36.9281588892611],
          [138.4655147771958, 36.928214589261096],
          [138.46536997719582, 36.92826608926109],
          [138.46479597719582, 36.928368989261095],
          [138.4643614771958, 36.9284204892611],
          [138.4640717771958, 36.9284246892611],
          [138.46340127719583, 36.9284804892611],
          [138.4627087525824, 36.9284801421194],
          [138.46192832952104, 36.92865545694261],
          [138.461373878229, 36.92878990326944],
          [138.46075117719582, 36.9288921892611],
          [138.46026635697717, 36.92885830753995],
          [138.45982470775172, 36.92866095542071]
        ],
        "type": "LineString"
      }
    },
    {
      "type": "Feature",
      "properties": { "@id": "way/503280504", "name": "長坂ゲレンデ" },
      "geometry": {
        "coordinates": [
          [138.45856340617928, 36.9166872517714],
          [138.4576088, 36.917016],
          [138.4571482772462, 36.91718626414885],
          [138.4565091, 36.9173419],
          [138.4559995, 36.9174835],
          [138.4557083, 36.9176334],
          [138.4556025, 36.9176765],
          [138.4545404, 36.9181225],
          [138.4544009, 36.9181654],
          [138.4540576, 36.9184013],
          [138.4526414, 36.9191518],
          [138.4523195, 36.919407],
          [138.4521156696622, 36.91954401566383]
        ],
        "type": "LineString"
      }
    },
    {
      "type": "Feature",
      "properties": { "@id": "way/503280499", "name": "柄沢ゲレンデ" },
      "geometry": {
        "coordinates": [
          [138.4684292, 36.9026912],
          [138.46668, 36.9037836],
          [138.4656179, 36.9044013],
          [138.4626675, 36.9055381],
          [138.4607445, 36.9062212],
          [138.45989, 36.9065515],
          [138.4576893, 36.9073225],
          [138.4568202, 36.9075927],
          [138.4548515, 36.9083691],
          [138.4535909, 36.9090297],
          [138.452239, 36.9096516],
          [138.4496963, 36.9110285],
          [138.4495461, 36.9112172],
          [138.4495588, 36.9115145],
          [138.4484571, 36.9122423],
          [138.4475934, 36.9127613],
          [138.4455657, 36.913885],
          [138.4444714, 36.9145284],
          [138.4441066, 36.9148072],
          [138.4437525, 36.9152189]
        ],
        "type": "LineString"
      }
    },
    {
      "type": "Feature",
      "properties": { "@id": "way/503280480", "name": "牛首" },
      "geometry": {
        "coordinates": [
          [138.46203299164176, 36.92105369961445],
          [138.46151230739773, 36.92088819965943],
          [138.46099653890556, 36.920682098158096],
          [138.46009846205723, 36.92049324822087],
          [138.45940428842417, 36.92062859874667],
          [138.45868008842638, 36.92066534905212],
          [138.45784025578797, 36.92090674926712],
          [138.4570134, 36.9212061],
          [138.4565681, 36.9214849],
          [138.4561872, 36.9216307],
          [138.4548086, 36.9222397],
          [138.4545135, 36.922527],
          [138.454287, 36.922655]
        ],
        "type": "LineString"
      }
    },
    {
      "type": "Feature",
      "properties": { "@id": "way/163523315", "name": "ウサギ" },
      "geometry": {
        "coordinates": [
          [138.4480762, 36.9158858],
          [138.4482485, 36.9156322],
          [138.44851312973603, 36.91529275467293],
          [138.4491770215833, 36.9147481078515],
          [138.44983268105548, 36.913852976559404],
          [138.45031466210892, 36.91308243674047],
          [138.450661, 36.912536],
          [138.450664, 36.912397],
          [138.4506773189445, 36.91226579861978],
          [138.45063963788897, 36.912067735372446],
          [138.45054812709736, 36.91182086948773],
          [138.45043729736327, 36.91175163999234],
          [138.45024244604178, 36.91167711813576],
          [138.4498965755394, 36.911485267516696]
        ],
        "type": "LineString"
      }
    },
    {
      "type": "Feature",
      "properties": { "@id": "way/163523347", "name": "カモシカ" },
      "geometry": {
        "coordinates": [
          [138.4644242, 36.9090322],
          [138.4643792, 36.9090002],
          [138.4643572, 36.9089712],
          [138.4643442, 36.9089432],
          [138.4643342, 36.9089012],
          [138.4643442, 36.9088372],
          [138.4645032, 36.9086232],
          [138.4648492, 36.9082272],
          [138.4649972, 36.9080622],
          [138.4650872, 36.9079732],
          [138.4651512, 36.9079182],
          [138.4652122, 36.9078742],
          [138.4652852, 36.9078352],
          [138.4655542, 36.9076982],
          [138.4657532, 36.9075862],
          [138.4659572, 36.9074582],
          [138.4661912, 36.9072732],
          [138.4662952, 36.9071842],
          [138.4664032, 36.9070812],
          [138.4664962, 36.9069862],
          [138.4665442, 36.9069192],
          [138.4665832, 36.9068482],
          [138.4666112, 36.9067752],
          [138.4666282, 36.9066702],
          [138.4666692, 36.9064712],
          [138.4667042, 36.9063852],
          [138.4667392, 36.9063402],
          [138.4668002, 36.9062992],
          [138.4668992, 36.9062542],
          [138.4670342, 36.9062032],
          [138.4671272, 36.9061552],
          [138.4671712, 36.9061132],
          [138.4672192, 36.9060432],
          [138.4672462, 36.9059742],
          [138.4672912, 36.9058402],
          [138.4673222, 36.9056962],
          [138.4673642, 36.9055872],
          [138.4674252, 36.9054562],
          [138.4674822, 36.9053542],
          [138.4675462, 36.9052612],
          [138.4676172, 36.9051882],
          [138.4677132, 36.9051052],
          [138.4678322, 36.9050292],
          [138.4679762, 36.9049332],
          [138.4681292, 36.9047702],
          [138.4683312, 36.9045232],
          [138.4687122, 36.9039862],
          [138.4689332, 36.9036642],
          [138.4691092, 36.9033862],
          [138.4691482, 36.9033152],
          [138.4691602, 36.9032522],
          [138.4691572, 36.9031912],
          [138.4691222, 36.9031052],
          [138.4690612, 36.9030132],
          [138.4689912, 36.9029332],
          [138.4689112, 36.9028592],
          [138.4688342, 36.9028052],
          [138.4687442, 36.9027512],
          [138.4686772, 36.9027092],
          [138.4686072, 36.9026962],
          [138.4685082, 36.9026902],
          [138.4684292, 36.9026912]
        ],
        "type": "LineString"
      }
    },
    {
      "type": "Feature",
      "properties": { "@id": "way/163523384", "name": "タヌキ" },
      "geometry": {
        "coordinates": [
          [138.4561805, 36.9128762],
          [138.4562435, 36.9128002],
          [138.4563065, 36.9126942],
          [138.4563625, 36.9125382],
          [138.4564185, 36.9123932],
          [138.4564815, 36.9122702],
          [138.4565485, 36.9121552],
          [138.4565835, 36.9121062],
          [138.4566635, 36.9120432],
          [138.4568735, 36.911808423855064],
          [138.45711330348053, 36.911680881107735],
          [138.4572755780448, 36.911611870276765],
          [138.4574080491303, 36.91143562548816],
          [138.4575825, 36.9112542],
          [138.4576985, 36.9110412],
          [138.4577895, 36.9108642],
          [138.4578325, 36.9107422],
          [138.4578495, 36.9106602],
          [138.4578515, 36.9105922],
          [138.4578435, 36.9105222],
          [138.4578235, 36.9104572],
          [138.4577765, 36.9103342],
          [138.4577145, 36.9101942],
          [138.4576825, 36.9101042],
          [138.4576625, 36.9100172],
          [138.4576645, 36.9099172],
          [138.4576695, 36.9098452],
          [138.4576905, 36.9097772],
          [138.4577275, 36.9097142],
          [138.4579569739041, 36.909380708697434],
          [138.45824593347393, 36.90929366617476],
          [138.45844983521187, 36.90915653895649],
          [138.4586135, 36.9089892],
          [138.4585835, 36.9087372],
          [138.4585975, 36.9085882],
          [138.4586165, 36.9085622],
          [138.4586465, 36.9085432],
          [138.4586925, 36.9085192],
          [138.4588905, 36.9084502],
          [138.4589465, 36.9084182],
          [138.4589875, 36.9083842],
          [138.4590245, 36.9083432],
          [138.4590495, 36.9083022],
          [138.4590715, 36.9082272],
          [138.4590845, 36.9081202],
          [138.4594935, 36.9078782],
          [138.4601009913012, 36.907762115482406],
          [138.46020624565136, 36.9074316223526],
          [138.4602365, 36.9072292],
          [138.4602435, 36.9071862],
          [138.4602625, 36.9071132],
          [138.4603155, 36.9069962],
          [138.4604485, 36.9067872],
          [138.4605455, 36.9066452]
        ],
        "type": "LineString"
      }
    },
    {
      "type": "Feature",
      "properties": { "@id": "way/163526678", "name": "クマタカ" },
      "geometry": {
        "coordinates": [
          [138.45436550551864, 36.92238479967277],
          [138.45439584759012, 36.922183736641394],
          [138.45439394759012, 36.922018536641396],
          [138.4544281475901, 36.92193423664139],
          [138.45467444759012, 36.92174883664139],
          [138.4547704475901, 36.92165833664139],
          [138.4548701475901, 36.921395836641395],
          [138.45511218442925, 36.921163370691886],
          [138.4552204475901, 36.921045036641395],
          [138.4553060265536, 36.9208457078011],
          [138.4554233107494, 36.920683545078454],
          [138.45549958442928, 36.92043627026015],
          [138.45554774759012, 36.92040193664139],
          [138.4556283475901, 36.920280236641396],
          [138.4557859475901, 36.9200918366414],
          [138.4558389475901, 36.919963836641394],
          [138.45590294759012, 36.919791836641394],
          [138.4558700475901, 36.91970763664139],
          [138.45588424759012, 36.919587036641396],
          [138.4559380475901, 36.91946403664139],
          [138.4560099475901, 36.91939283664139],
          [138.4563999475901, 36.91905583664139],
          [138.4566133919732, 36.91887647078655],
          [138.45682955053937, 36.9186787250953],
          [138.4568036140223, 36.91848781172347],
          [138.4566962648649, 36.918366420916634],
          [138.45651686809524, 36.918322887751636],
          [138.45633561416358, 36.918250420618804],
          [138.45622064590498, 36.91814896354752],
          [138.4559647571412, 36.91779974372438],
          [138.45542633703695, 36.9171117725795],
          [138.45531667428872, 36.91685652349965],
          [138.45527637993214, 36.916645642866825],
          [138.4552185641337, 36.91658984375124],
          [138.45509730252442, 36.91659527806725],
          [138.45478158914318, 36.91670067225539],
          [138.4543641028609, 36.916753916269684],
          [138.45377931689217, 36.91687036462882]
        ],
        "type": "LineString"
      }
    },
    {
      "type": "Feature",
      "properties": { "@id": "way/163526724", "name": "日影ゲレンデA_2" },
      "geometry": {
        "coordinates": [
          [138.454287, 36.922655],
          [138.454346, 36.922689],
          [138.454383, 36.922712],
          [138.454458, 36.922744],
          [138.454519, 36.922747],
          [138.454584, 36.922744],
          [138.454627, 36.922737],
          [138.454698, 36.922706],
          [138.454783, 36.922678],
          [138.454831, 36.922668],
          [138.454892, 36.922683],
          [138.45506483443828, 36.922660144738714],
          [138.4552674459191, 36.92265300395451],
          [138.45560983443892, 36.92264543222716],
          [138.45584643928674, 36.9227118578951],
          [138.456154, 36.922734],
          [138.456247, 36.922753],
          [138.456341, 36.922784],
          [138.456369, 36.922807],
          [138.456393, 36.92285],
          [138.456403, 36.922884],
          [138.456405, 36.922937],
          [138.456393, 36.922989],
          [138.456367, 36.923061],
          [138.456262, 36.923234],
          [138.456135, 36.923366],
          [138.455723, 36.923693],
          [138.455519, 36.923865],
          [138.455437, 36.923931],
          [138.455267, 36.924015]
        ],
        "type": "LineString"
      }
    },
    {
      "type": "Feature",
      "properties": { "@id": "way/503280476", "name": "日影のかべ" },
      "geometry": {
        "coordinates": [
          [138.45360771904745, 36.92313485589422],
          [138.45350497518925, 36.923772787799926],
          [138.4534675, 36.924221],
          [138.4534621, 36.9244483]
        ],
        "type": "LineString"
      }
    },
    {
      "type": "Feature",
      "properties": { "@id": "way/503280478", "name": "黒鞍" },
      "geometry": {
        "coordinates": [
          [138.4589875, 36.9228529],
          [138.4587514, 36.9228229],
          [138.4576371764051, 36.92277001571783],
          [138.45692566699438, 36.92289848502831]
        ],
        "type": "LineString"
      }
    },
    {
      "type": "Feature",
      "properties": { "@id": "way/503280479", "name": "黒鞍" },
      "geometry": {
        "coordinates": [
          [138.4617662, 36.9212104],
          [138.4617662, 36.9213176],
          [138.4617126, 36.9214248],
          [138.4615463, 36.9216178],
          [138.4609616, 36.9219824],
          [138.4603554, 36.9222483],
          [138.4596956, 36.922497],
          [138.4589875, 36.9228529],
          [138.4587944, 36.9230245],
          [138.4585637, 36.9233418],
          [138.4583062, 36.9240709]
        ],
        "type": "LineString"
      }
    },
    {
      "type": "Feature",
      "properties": { "@id": "way/503280481", "name": "水無ゲレンデA" },
      "geometry": {
        "coordinates": [
          [138.4703328136925, 36.91760687765111],
          [138.47010912605356, 36.91843647500896],
          [138.46995415861386, 36.919168459138966],
          [138.4695232, 36.9192247],
          [138.4689492, 36.9193277],
          [138.4682679, 36.9196965],
          [138.4679943, 36.9198123],
          [138.4676725, 36.9199109],
          [138.4671467, 36.9200096],
          [138.4664333, 36.9200139],
          [138.4661543, 36.9199838],
          [138.4655321, 36.9197823],
          [138.4651726, 36.919452]
        ],
        "type": "LineString"
      }
    },
    {
      "type": "Feature",
      "properties": {
        "@id": "way/503280485",
        "name": "日影ゲレンデB (検定コース)"
      },
      "geometry": {
        "coordinates": [
          [138.4546210357203, 36.922829908447135],
          [138.4544561826838, 36.92430877709076],
          [138.4541219, 36.9247527]
        ],
        "type": "LineString"
      }
    },
    {
      "type": "Feature",
      "properties": { "@id": "way/503280491", "name": "キツネ" },
      "geometry": {
        "coordinates": [
          [138.4481767521354, 36.91585995239846],
          [138.44818161727403, 36.91598913630246],
          [138.4483366979972, 36.916053728229286],
          [138.44855816375934, 36.916030232310455],
          [138.4489000495593, 36.91594177044671],
          [138.44917130410073, 36.915932409446114],
          [138.44939415888769, 36.91586147595386],
          [138.4495765647938, 36.915876272145454],
          [138.44976966182864, 36.91599627539938],
          [138.4499121551251, 36.91616754677841],
          [138.45072523011157, 36.916216503815555],
          [138.45160873995786, 36.91629361770383],
          [138.4519920001202, 36.9163949291301],
          [138.4522700555856, 36.91657904649939],
          [138.45272652422662, 36.91692163450859],
          [138.45293271472758, 36.91705776508044],
          [138.4530454671721, 36.91733199004806],
          [138.4530525788275, 36.917599176671914],
          [138.45297876814348, 36.918006860136266],
          [138.45279593317895, 36.918575887490775],
          [138.45266795502937, 36.91907346322472]
        ],
        "type": "LineString"
      }
    },
    {
      "type": "Feature",
      "properties": { "@id": "way/503280493", "name": "向林" },
      "geometry": {
        "coordinates": [
          [138.448366, 36.9160367],
          [138.4484839, 36.9163598],
          [138.4485269, 36.9165828],
          [138.4485912, 36.9170289],
          [138.448602, 36.9173505],
          [138.4485805, 36.9176851],
          [138.4484893, 36.918144],
          [138.4482224, 36.9185986]
        ],
        "type": "LineString"
      }
    },
    {
      "type": "Feature",
      "properties": { "@id": "way/503280494", "name": "長坂連絡コース" },
      "geometry": {
        "coordinates": [
          [138.4522873, 36.9198766],
          [138.4516114, 36.9198552],
          [138.4509033, 36.9197051],
          [138.4502757, 36.9195164],
          [138.4497178, 36.9190703],
          [138.449353, 36.9188816],
          [138.4492457, 36.9187959],
          [138.4491223, 36.9187358],
          [138.4484303, 36.9186961],
          [138.4482224, 36.9185986],
          [138.4481084, 36.9185107],
          [138.4480146, 36.918368],
          [138.4479368, 36.9182801],
          [138.4475251, 36.9181986],
          [138.4467942, 36.9180453],
          [138.446357, 36.9179885],
          [138.4461182, 36.9179552],
          [138.4460311, 36.9178898],
          [138.4458956, 36.9177505],
          [138.4456998, 36.91767],
          [138.4453645, 36.9173827],
          [138.4452224, 36.9172787],
          [138.4450601, 36.9171672],
          [138.4449501, 36.9170192],
          [138.4448335, 36.9168219],
          [138.4445572, 36.9165635],
          [138.4444968, 36.9164777],
          [138.4445022, 36.9163973],
          [138.4445666, 36.9161925],
          [138.4445545, 36.9160874],
          [138.4444151, 36.9158494],
          [138.4442782, 36.9156414],
          [138.444116, 36.9153476]
        ],
        "type": "LineString"
      }
    },
    {
      "type": "Feature",
      "properties": { "@id": "way/503280495", "name": "はちまん" },
      "geometry": {
        "coordinates": [
          [138.4480762, 36.9158858],
          [138.4480441, 36.9159373],
          [138.44739165393287, 36.91608797369559],
          [138.4467563084284, 36.91616723310535],
          [138.44633803707825, 36.91608606058714],
          [138.445914139887, 36.91593542190422],
          [138.44528123707835, 36.91570840838922],
          [138.44450598988834, 36.91545808645075]
        ],
        "type": "LineString"
      }
    },
    {
      "type": "Feature",
      "properties": { "@id": "way/503280496", "name": "ジャンピング" },
      "geometry": {
        "coordinates": [
          [138.4529632, 36.9141853],
          [138.4531617, 36.9143568],
          [138.4534568, 36.9146699],
          [138.4535962, 36.9148715],
          [138.4537035, 36.915086],
          [138.4537303, 36.9152061],
          [138.4538054, 36.9162097],
          [138.4536499, 36.9166429],
          [138.4536284, 36.9167501],
          [138.453638, 36.917036]
        ],
        "type": "LineString"
      }
    },
    {
      "type": "Feature",
      "properties": { "@id": "way/503280498", "name": "グランプリ" },
      "geometry": {
        "coordinates": [
          [138.457464, 36.9121437],
          [138.45782521369063, 36.9124561976135],
          [138.4581232225498, 36.91260953297907],
          [138.4582365271133, 36.91286496692233],
          [138.4581476042932, 36.913433991954655],
          [138.45797090657496, 36.913982992021985],
          [138.45790000442835, 36.914527540275415],
          [138.45792123624292, 36.914928615390075],
          [138.4580134771798, 36.915124903824406],
          [138.45832414080405, 36.91566343250428],
          [138.45834275906074, 36.915877325729674],
          [138.4582955, 36.9160295],
          [138.45802039557168, 36.916154839331426],
          [138.45781045691302, 36.91644455316923],
          [138.4575169954365, 36.916738719127544],
          [138.45736814563807, 36.91695043875431]
        ],
        "type": "LineString"
      }
    },
    {
      "type": "Feature",
      "properties": { "@id": "way/503280500", "name": "スカイライン" },
      "geometry": {
        "coordinates": [
          [138.48104117544128, 36.903692882323845],
          [138.48029131053704, 36.90397535550609],
          [138.47971006085308, 36.904292215930326],
          [138.47911550038003, 36.9045398917587],
          [138.47895577954807, 36.90467281778258],
          [138.4789131683191, 36.90477524023184],
          [138.4787929, 36.9049976],
          [138.4787768, 36.9051091],
          [138.478632, 36.9052893],
          [138.47845046878913, 36.90544298937064],
          [138.47817061519453, 36.905707463148644],
          [138.47798958860412, 36.90591623437789],
          [138.47783537720824, 36.90615716875578],
          [138.4777254, 36.906396],
          [138.47746517720824, 36.90651605813393],
          [138.4768885151946, 36.90678913086929],
          [138.4765238, 36.9069364],
          [138.4761429, 36.90701004293151],
          [138.4760034, 36.9069714594668],
          [138.47571812997916, 36.9068735274811],
          [138.47539262833573, 36.90681990654074],
          [138.4748876, 36.9068549],
          [138.4746328075973, 36.906843527437886],
          [138.47437801519465, 36.90673698660964],
          [138.47410169240072, 36.906519729854445],
          [138.4737583772063, 36.906315223649635],
          [138.4734990371666, 36.90622087471997],
          [138.47314142915735, 36.90619013218448],
          [138.472774, 36.906192253163006],
          [138.47249593080102, 36.906231563423454],
          [138.4722215, 36.9063102],
          [138.4718862, 36.906398100000004],
          [138.47118889486603, 36.90654317832832],
          [138.470130230801, 36.906844204447374],
          [138.4695715, 36.906906441761535],
          [138.4690332232036, 36.9070351165532],
          [138.46821428480547, 36.90726532226402],
          [138.46787635441441, 36.90738964720755],
          [138.46704931478462, 36.907795009451185],
          [138.4665084, 36.9080388],
          [138.46596390759925, 36.908373374065775],
          [138.46547751478457, 36.908697227020426],
          [138.4649473, 36.9088624],
          [138.4644242, 36.9090322],
          [138.4635633, 36.9094286],
          [138.4633326, 36.909553],
          [138.4629518, 36.9098704],
          [138.4625924, 36.9100334],
          [138.46216411560644, 36.91012844483464],
          [138.46166743819416, 36.91029181016683],
          [138.4610635, 36.910398],
          [138.4606773, 36.9105181],
          [138.4601623, 36.9111014],
          [138.45959015523616, 36.91129653921253],
          [138.4581667, 36.9117962],
          [138.4573728, 36.9120622],
          [138.4566915, 36.9123924],
          [138.45610247867992, 36.91287246324545],
          [138.45545246316817, 36.91317916589901],
          [138.45433423973782, 36.9135474066881],
          [138.45332924383848, 36.91399671377083],
          [138.45234546117723, 36.91438251961506],
          [138.45108341463725, 36.91484645057372],
          [138.44932897840982, 36.91540509817881],
          [138.4482060421932, 36.915783964877704]
        ],
        "type": "LineString"
      }
    },
    {
      "type": "Feature",
      "properties": { "@id": "way/503404960", "name": "やまびこC_2" },
      "geometry": {
        "coordinates": [
          [138.4906965, 36.9057611],
          [138.4917641, 36.9061901],
          [138.4928638, 36.9066919],
          [138.4931213, 36.906752],
          [138.4934914, 36.9066705],
          [138.4936738, 36.9065118],
          [138.4937704, 36.9063188],
          [138.4938455, 36.9060056],
          [138.493647, 36.9054909]
        ],
        "type": "LineString"
      }
    },
    {
      "type": "Feature",
      "properties": { "@id": "way/503404961", "name": "やまびこC" },
      "geometry": {
        "coordinates": [
          [138.48715132989025, 36.902704194610344],
          [138.4874779, 36.9032732],
          [138.4883911276382, 36.904544238708255],
          [138.48893766148922, 36.905186697897584],
          [138.4891891, 36.9054866],
          [138.4894359, 36.9055938],
          [138.4906965, 36.9057611],
          [138.49135966376366, 36.9055667134498],
          [138.4919786, 36.9053794],
          [138.49254632275267, 36.90524378594248],
          [138.49300142921345, 36.905345280639324],
          [138.4931874676982, 36.90547785724521],
          [138.49336194943902, 36.90556041449127],
          [138.49351774297773, 36.905553949650056],
          [138.493647, 36.9054909],
          [138.493706, 36.9054008],
          [138.4940793, 36.9051069]
        ],
        "type": "LineString"
      }
    },
    {
      "type": "Feature",
      "properties": { "@id": "way/503404962", "name": "やまびこB" },
      "geometry": {
        "coordinates": [
          [138.4868503, 36.9019219],
          [138.487274, 36.9020206],
          [138.48804336913656, 36.902233500246645],
          [138.4888440913623, 36.90257897140595],
          [138.4894984382705, 36.90304499293402],
          [138.49031417716066, 36.90340325673729],
          [138.49111293333254, 36.90372055964386],
          [138.4916782, 36.9038995],
          [138.49231940370353, 36.90408218970694],
          [138.49274221173044, 36.90425504119252],
          [138.49305970370528, 36.90440845845818],
          [138.4933948, 36.9047574]
        ],
        "type": "LineString"
      }
    },
    {
      "type": "Feature",
      "properties": { "@id": "way/503404963", "name": "やまびこA" },
      "geometry": {
        "coordinates": [
          [138.4861607045278, 36.8978845695852],
          [138.4865573992199, 36.89796439314273],
          [138.4869524179153, 36.89799439315861],
          [138.48731876830539, 36.898086621489064],
          [138.48762559094442, 36.89825679553299],
          [138.48849689605635, 36.89839124377571],
          [138.48956887931126, 36.89878442879697],
          [138.4900780645577, 36.89898770004046],
          [138.49031378266886, 36.89931132675729],
          [138.49052019172265, 36.899684850199826],
          [138.49079479133445, 36.90000409965602],
          [138.4915417458631, 36.90041514874805],
          [138.49226003208474, 36.90088842437966],
          [138.49259068680658, 36.901237850068064],
          [138.49306540077833, 36.90181194991497],
          [138.49371227361323, 36.90227455026485],
          [138.4939111964464, 36.902557475039],
          [138.4938991, 36.9030415],
          [138.4938512588615, 36.90344704987616],
          [138.4937274, 36.9039981],
          [138.4934217, 36.9045214],
          [138.4933948, 36.9047574],
          [138.4934592, 36.9049676],
          [138.4935397, 36.9050662],
          [138.4936523, 36.9051263],
          [138.49387529586224, 36.90526519615968]
        ],
        "type": "LineString"
      }
    },
    {
      "type": "Feature",
      "properties": { "@id": "way/503404964", "name": "やまびこE" },
      "geometry": {
        "coordinates": [
          [138.4858449, 36.9000022],
          [138.4857559, 36.9000859],
          [138.4855252, 36.9002317],
          [138.4852195, 36.9004591],
          [138.4850371, 36.900635],
          [138.4848171, 36.9008023],
          [138.4844309, 36.9010039],
          [138.4834009, 36.9014286],
          [138.48294469618645, 36.901614690419855],
          [138.48260345590998, 36.90210021193711],
          [138.48217938436875, 36.90257745298664],
          [138.48187995430666, 36.90291339436741],
          [138.48151190781448, 36.90314977475853],
          [138.481046, 36.903878],
          [138.4807402, 36.9045472],
          [138.4806919, 36.9047745],
          [138.4806704, 36.9050448],
          [138.4806812, 36.9052678],
          [138.4806275, 36.9057097]
        ],
        "type": "LineString"
      }
    },
    {
      "type": "Feature",
      "properties": { "@id": "way/503404965", "name": "やまびこD" },
      "geometry": {
        "coordinates": [
          [138.48602862643722, 36.89789081347902],
          [138.48590169576022, 36.89792392652025],
          [138.4857237, 36.898134],
          [138.4856701, 36.8982326],
          [138.48573278678234, 36.8986523653289],
          [138.4858257, 36.8990649],
          [138.48605043865015, 36.89946650336343],
          [138.48619384475572, 36.899716347603274],
          [138.48620857356298, 36.90002268028442],
          [138.48647055186768, 36.9007817829988],
          [138.4868503, 36.9019219],
          [138.4869468, 36.9022436],
          [138.4869575, 36.9023509],
          [138.4869629, 36.9025739],
          [138.48692, 36.9028099],
          [138.4868556, 36.9029043],
          [138.4867644, 36.90299],
          [138.4865552, 36.9031445],
          [138.4862441, 36.9034233],
          [138.48589124789055, 36.90363576588314],
          [138.4853536, 36.9040625],
          [138.48510841704453, 36.9042247520538],
          [138.48475110404797, 36.904246103922496],
          [138.48437684841747, 36.90424715995536],
          [138.48379406021118, 36.904445478532516],
          [138.48358239317884, 36.90445981400797],
          [138.48323943541456, 36.904395325956926],
          [138.48283640798536, 36.90438847921435],
          [138.48267136633268, 36.90454772897337],
          [138.48259442685503, 36.90472619230526],
          [138.48244960827773, 36.90491826902197],
          [138.4820310342574, 36.90517413492385],
          [138.48173397743705, 36.90539218972724],
          [138.4816667739272, 36.90558510337166]
        ],
        "type": "LineString"
      }
    },
    {
      "type": "Feature",
      "properties": { "@id": "way/503404967", "name": "カンダハー東" },
      "geometry": {
        "coordinates": [
          [138.45639317923386, 36.93531270676564],
          [138.4565413, 36.9351044],
          [138.4569329, 36.934667],
          [138.4571475, 36.9343754],
          [138.457244, 36.9343025],
          [138.4576142, 36.9336808],
          [138.4577, 36.9334792],
          [138.457818, 36.9330462],
          [138.4578341, 36.9328232],
          [138.4578288, 36.9327031],
          [138.4576786, 36.9323944],
          [138.457398978278, 36.93178315746547],
          [138.4570319971323, 36.93063451166996],
          [138.45666802780087, 36.929954184260005],
          [138.45644947827796, 36.929367],
          [138.4561423278009, 36.92884397073415],
          [138.4559244, 36.9281791],
          [138.4560351, 36.9280229]
        ],
        "type": "LineString"
      }
    },
    {
      "type": "Feature",
      "properties": { "@id": "way/503404969", "name": "カンダハー西" },
      "geometry": {
        "coordinates": [
          [138.4561263, 36.9353941],
          [138.45605966951436, 36.93518697885767],
          [138.45605257732234, 36.934940064865074],
          [138.4560871082995, 36.934543071475616],
          [138.45602164683663, 36.93405727871303],
          [138.45590079318183, 36.933671357236996],
          [138.45553313147096, 36.93283621295778],
          [138.45524861610744, 36.93160469326005],
          [138.45503596964159, 36.9303354835931],
          [138.45498603147317, 36.92908253187281],
          [138.45504904622223, 36.92863676815219],
          [138.4552646, 36.9283292],
          [138.4555811, 36.9281062],
          [138.4560351, 36.9280229]
        ],
        "type": "LineString"
      }
    },
    {
      "type": "Feature",
      "properties": { "@id": "way/503404970", "name": "ユートピアA" },
      "geometry": {
        "coordinates": [
          [138.4611332, 36.9262623],
          [138.4606183, 36.9268755],
          [138.4601462, 36.9276088],
          [138.4595615, 36.9284107],
          [138.4593576, 36.9285908]
        ],
        "type": "LineString"
      }
    },
    {
      "type": "Feature",
      "properties": { "@id": "way/503404972", "name": "チャレンジ39°のカベ" },
      "geometry": {
        "coordinates": [
          [138.4682947, 36.9257605],
          [138.4681338, 36.9261851],
          [138.4677627381773, 36.92645981750788],
          [138.46704009088435, 36.92719185066473],
          [138.4666747, 36.9277332],
          [138.466044823269, 36.92829280072628]
        ],
        "type": "LineString"
      }
    },
    {
      "type": "Feature",
      "properties": {
        "@id": "way/503404974",
        "name": "上ノ平ファミリーレーン"
      },
      "geometry": {
        "coordinates": [
          [138.4806597, 36.9137692],
          [138.4810245, 36.9141038],
          [138.4813249, 36.9144812],
          [138.4814429, 36.9146785],
          [138.4815287, 36.9148844],
          [138.4815717, 36.9150903],
          [138.4815824, 36.9162397],
          [138.4813678, 36.917818],
          [138.4812874, 36.9180582],
          [138.4812337, 36.9181697],
          [138.4811532, 36.9182726],
          [138.4807241, 36.9187401],
          [138.4805471, 36.9189074],
          [138.4802413, 36.9191518],
          [138.4799033, 36.9193577],
          [138.4794688, 36.9196708],
          [138.4785461, 36.9202669],
          [138.4780794, 36.9207258],
          [138.4777093, 36.9211847]
        ],
        "type": "LineString"
      }
    },
    {
      "type": "Feature",
      "properties": { "@id": "way/503404975", "name": "小毛無A" },
      "geometry": {
        "coordinates": [
          [138.4795927, 36.9053386],
          [138.4797424, 36.9053493],
          [138.4800267, 36.9054094],
          [138.4801555, 36.9054566],
          [138.4806275, 36.9057097],
          [138.4809494, 36.9059027],
          [138.481046, 36.9059799],
          [138.481164, 36.9061729],
          [138.4812015, 36.9062802],
          [138.4812176, 36.9064946]
        ],
        "type": "LineString"
      }
    },
    {
      "type": "Feature",
      "properties": { "@id": "way/503404977", "name": "上ノ平ゲレンデ" },
      "geometry": {
        "coordinates": [
          [138.482224, 36.907033],
          [138.4821349, 36.907138],
          [138.4820384, 36.9072238],
          [138.4818184, 36.9073697],
          [138.4816199, 36.9076699],
          [138.4815663, 36.9077815],
          [138.4815556, 36.9078973],
          [138.4816414, 36.9082361],
          [138.4817004, 36.9083348],
          [138.4818345, 36.9085192],
          [138.4818613, 36.9092356],
          [138.4817755, 36.9094586],
          [138.4816736, 36.9098189],
          [138.4815878, 36.9100162],
          [138.4814858, 36.9103293],
          [138.4814966, 36.9106639],
          [138.4815395, 36.9108955],
          [138.4815609, 36.9111271],
          [138.4815556, 36.9112386],
          [138.4813785, 36.9116719],
          [138.481341, 36.9117791],
          [138.4812927, 36.9120107],
          [138.4808904, 36.9130958],
          [138.4808904, 36.9132074],
          [138.4808475, 36.9133275],
          [138.4807241, 36.9135333],
          [138.4806597, 36.9137692],
          [138.4806114, 36.9138808],
          [138.48059, 36.9139923],
          [138.4805793, 36.9142067],
          [138.4804237, 36.9148715],
          [138.480134, 36.9157293],
          [138.4801286, 36.9160939],
          [138.4801823, 36.916407],
          [138.4802037, 36.9166386],
          [138.4802037, 36.9168745],
          [138.4802359, 36.9174835],
          [138.4802252, 36.9177151],
          [138.480016, 36.9180496],
          [138.4799302, 36.9181568],
          [138.4798282, 36.918234],
          [138.4795064, 36.918457],
          [138.4790504, 36.9187401],
          [138.4784496, 36.9189846],
          [138.4782779, 36.9191604],
          [138.4781009, 36.9194692],
          [138.4779453, 36.9197866],
          [138.4778702, 36.9200182],
          [138.4778112, 36.9202455],
          [138.4777629, 36.9203527],
          [138.4777093, 36.9211847],
          [138.4775698, 36.9218022],
          [138.47758570741436, 36.92243399141377]
        ],
        "type": "LineString"
      }
    },
    {
      "type": "Feature",
      "properties": { "name": "ブナ林" },
      "geometry": {
        "coordinates": [
          [138.48091383417312, 36.9086099012069],
          [138.48033845763484, 36.90839380841555],
          [138.48005948719282, 36.90824742262876],
          [138.47958000674276, 36.90804527036549],
          [138.47930975412697, 36.908156802714345],
          [138.47903078368313, 36.90847745731067],
          [138.47885642715545, 36.908707491298955],
          [138.47847284279726, 36.90889570041051],
          [138.47815028322236, 36.908937524594336],
          [138.4779672088685, 36.909076938374696],
          [138.4779933623471, 36.90933485319705],
          [138.47800208017327, 36.9095300314015],
          [138.47794105538992, 36.9097042972338],
          [138.4776359314136, 36.90996221018146],
          [138.47740055010257, 36.910017974975716],
          [138.4770867083539, 36.90992038655938],
          [138.47694722313105, 36.90980188617293],
          [138.47674671312677, 36.90982279801895],
          [138.47662466355615, 36.90996221018146],
          [138.47655492094668, 36.91015738678148],
          [138.47667697051526, 36.91021315143233],
          [138.47688619834764, 36.91026194546846],
          [138.47723491140113, 36.9104292390701],
          [138.47743542140734, 36.91054773848276],
          [138.4774877283645, 36.91066623771128],
          [138.4775051640188, 36.910791707281916],
          [138.47730465401258, 36.91088232406557],
          [138.47689491617382, 36.910840500947984],
          [138.47664209921038, 36.91077776622818],
          [138.476380564419, 36.910784736755005],
          [138.47604928701793, 36.91085444198946],
          [138.47569185613838, 36.911147203277594],
          [138.47549134611688, 36.91145390431501],
          [138.47531698959114, 36.91158634304361],
          [138.47516878654397, 36.911690899771884],
          [138.47497699436389, 36.91178151548735],
          [138.47479392001003, 36.911879101522715],
          [138.4747416130529, 36.9120533619886],
          [138.47479392001003, 36.912206710868816],
          [138.4749421230572, 36.91229732597154],
          [138.47515135088963, 36.912380970586256],
          [138.4753692965483, 36.91244370398752],
          [138.4753582768795, 36.9126591185251],
          [138.47523622731097, 36.912965813542414],
          [138.4752100738304, 36.913091279330544],
          [138.475096742088, 36.913418883471124],
          [138.47499212817178, 36.91369769439669],
          [138.47489623208185, 36.91384406972527],
          [138.47474802903457, 36.9139207424042],
          [138.47461726163982, 36.91390680192238],
          [138.4745039298973, 36.913830129229396],
          [138.4744603407645, 36.91364890255831],
          [138.47436444467456, 36.913460705174984],
          [138.4742162416273, 36.9133700914544],
          [138.47408547423254, 36.913460705174984],
          [138.47404188509967, 36.913704664657416],
          [138.47425111293217, 36.91401832570193],
          [138.4743818803288, 36.91431107484679],
          [138.47436444467456, 36.91478504727007],
          [138.47432085554345, 36.91501506223722],
          [138.47412906336348, 36.91521719603014],
          [138.47405060292772, 36.915440239593295],
          [138.47406803858013, 36.9155866115769]
        ],
        "type": "LineString"
      }
    },
    {
      "type": "Feature",
      "properties": { "name": "湯の峰ゲレンデ" },
      "geometry": {
        "coordinates": [
          [138.4740490288753, 36.91567747891504],
          [138.47344410098327, 36.9163273837255],
          [138.47306602105226, 36.91658432130863],
          [138.47258396913998, 36.91679591631603],
          [138.47208301323144, 36.916894156655374],
          [138.47159150932094, 36.9170075107356],
          [138.4712039773898, 36.91717376308263],
          [138.4708258974589, 36.917324901264976],
          [138.47052343351282, 36.91740047024422]
        ],
        "type": "LineString"
      }
    }
  ]
}
