{"type":"FeatureCollection","features":[{"type":"Feature","properties":{"@id":"way/254093629","name":"ぬまパーク_こそ練エリア"},"geometry":{"coordinates":[[140.2373114054103,37.6249083],[140.2372001,37.6248559],[140.2368916,37.624798],[140.2364925,37.6246601],[140.235972,37.6245015],[140.23532030369955,37.6244413],[140.23472696417008,37.6245111804859],[140.23425433494816,37.62461380298007],[140.23350807437097,37.624658722261614]],"type":"LineString"}},{"type":"Feature","properties":{"@id":"way/254093625","name":"しゃくなげ"},"geometry":{"coordinates":[[140.23242612219136,37.62544905281734],[140.23198990730475,37.6255104759881],[140.23159598876396,37.625545099566644],[140.23121966095448,37.62548434937243],[140.23088562949445,37.625366650047276],[140.23044348132078,37.62511680044027],[140.23010400730297,37.62481570028261],[140.22988692584212,37.62457774987466],[140.2297324,37.6242166],[140.2296213,37.6239341],[140.22933425912936,37.623306046815145]],"type":"LineString"}},{"type":"Feature","properties":{"@id":"way/254093626","name":"しらかば"},"geometry":{"coordinates":[[140.23902296564927,37.62476112727972],[140.23859563047296,37.62452006685286],[140.23611519612228,37.623770732726825],[140.23566635166355,37.62362175086012],[140.23525651883799,37.62344187013056],[140.2348379,37.6232592],[140.2344492,37.6230495],[140.23405101939036,37.622841796488935],[140.23375785221504,37.62276708053613],[140.2331829343507,37.62266146557655],[140.2324725,37.6225255],[140.2316578531886,37.62238491835059],[140.23114663019766,37.62239196623025],[140.23047676502782,37.62251965325755],[140.2299932528445,37.62267914289467],[140.22953405868304,37.62297731227876]],"type":"LineString"}},{"type":"Feature","properties":{"@id":"way/254093627","name":"しらかば_2"},"geometry":{"coordinates":[[140.23543206313272,37.624356491129745],[140.2350034,37.6237243],[140.23481731060056,37.62349218222051],[140.23443088420035,37.62308334947139]],"type":"LineString"}},{"type":"Feature","properties":{"@id":"way/254093628","name":"ぬまぱーく_ヒットパークエリア"},"geometry":{"coordinates":[[140.23874564075902,37.624842133753766],[140.23819678211945,37.6248806436869],[140.23776093079317,37.6249083],[140.2375264,37.6249192],[140.23718538013236,37.624964116107165],[140.23700462682095,37.625080239553924],[140.23676386258222,37.625234139444956],[140.23648984188628,37.62537151059357],[140.23630181788064,37.625412906991095],[140.2360853910596,37.62540351709628],[140.2358846,37.6253384],[140.2355951,37.6252303],[140.23400532458683,37.624831450764844],[140.23225457532612,37.62458334112554],[140.23143875648617,37.62460664527889],[140.23086635137255,37.624660795885205],[140.23063677675344,37.62460715322817],[140.23046972399038,37.62449986783764],[140.23026219360395,37.624285296867896],[140.2297108211425,37.6236016697409]],"type":"LineString"}},{"type":"Feature","properties":{"@id":"way/254093632","name":"チャレンジ"},"geometry":{"coordinates":[[140.2315470339899,37.62584333795666],[140.23097049943908,37.625759444592205],[140.23061519522562,37.62561820937687],[140.2303978557589,37.62546252514487],[140.22993108483132,37.62514495617832],[140.22969716643257,37.62494673432154],[140.22958796376489,37.624808876694594],[140.2293778205055,37.624393142270456],[140.2292879,37.624036],[140.22918436376483,37.62360682556935],[140.2290748123594,37.62323642062172]],"type":"LineString"}},{"type":"Feature","properties":{"@id":"way/254093633","name":"ファミリー"},"geometry":{"coordinates":[[140.2351428661017,37.62517710675019],[140.23481624756917,37.62519579674295],[140.23429756358036,37.625211096743826],[140.23398544271083,37.625247604445136],[140.2331113645521,37.62547313784887],[140.23243458146092,37.625616550047475],[140.2319084,37.6257594],[140.2313440776465,37.62593708582556],[140.23071068350544,37.62612531854426],[140.23005784950055,37.62630965002633],[140.22979136503707,37.62635158888208],[140.22950633979423,37.62631318521491],[140.2293527,37.6261721],[140.2291542,37.6258708],[140.22901890486003,37.62540570978038],[140.2287306,37.624571],[140.2287606524308,37.62444651385545],[140.2288086786454,37.62433948116849],[140.22898805242926,37.62384889190522],[140.22889275217852,37.62330944814215],[140.22873865737225,37.623006453230296]],"type":"LineString"}},{"type":"Feature","properties":{"@id":"way/254093634","name":"ポプラ"},"geometry":{"coordinates":[[140.2339310147083,37.62518030127908],[140.23320699157676,37.62493899354335],[140.23247942810613,37.624791362726164],[140.23159583728935,37.624812858501436],[140.2310312957488,37.624823303663646],[140.23081683880167,37.62481505214737],[140.23067189174242,37.624745193005666],[140.23054232355707,37.62467029681727],[140.2303527945286,37.624527643219345],[140.23013502968567,37.62432627671427],[140.229880634509,37.62400508832354],[140.2295862,37.6236237]],"type":"LineString"}},{"type":"Feature","properties":{"@id":"way/254093637","name":"一本松林間"},"geometry":{"coordinates":[[140.23536274033557,37.62437841860248],[140.2341991143256,37.62433701692758],[140.2331884685351,37.624327500777156],[140.2330241129624,37.624280813880816],[140.2329866417693,37.624146817206324],[140.2330070244463,37.6240090007699],[140.23306751070498,37.623869274235005],[140.2331727035617,37.623742826157304],[140.23323273350843,37.62360840466396],[140.2334041883244,37.623422407386066],[140.23352,37.6233081],[140.2335916,37.6232456],[140.233713,37.6231842],[140.2338358,37.6231414],[140.2339367,37.6231078],[140.23397136628432,37.62303583956],[140.23396980652453,37.622983527466154],[140.23392328404583,37.62293281762449],[140.23383374144768,37.6229118659948],[140.2337539,37.6229063],[140.2335755508774,37.62298537911101],[140.2332831,37.6230927],[140.2328269,37.6232699],[140.2318868,37.6236405],[140.23135788292456,37.62392001276525],[140.2311322792635,37.6240443423526],[140.23100130243967,37.62411674369945],[140.23091707682389,37.62418072114254],[140.23088116218796,37.624240822588135],[140.23088418352359,37.624338484396276],[140.23080925242965,37.62439023639167],[140.23072995852857,37.624402616605714],[140.2306583902416,37.62431704216146],[140.23069436950684,37.62424606335673],[140.23083537560402,37.624021716898646],[140.23107129756045,37.62375910472013],[140.23117811097822,37.62357272446782],[140.23122111951494,37.6233855350812],[140.23122412927347,37.623296505208614],[140.23122442195455,37.622894766250596],[140.23114247279204,37.62272036032252],[140.2307994639583,37.6226331514124],[140.23050917350292,37.62265091687603]],"type":"LineString"}},{"type":"Feature","properties":{"@id":"way/254094389","name":"ポニー"},"geometry":{"coordinates":[[140.2300135195442,37.6224803685661],[140.23009044473275,37.621959857582425],[140.2301561,37.621542],[140.2302252853437,37.620912114512585],[140.2302975,37.6204445],[140.2303343048854,37.62012069349632]],"type":"LineString"}},{"type":"Feature","properties":{"name":"ぬまぱーく_JIBりの森エリア"},"geometry":{"coordinates":[[140.2310614549233,37.623688843911964],[140.23037021363734,37.62339021300805],[140.2298663745803,37.62319006064156],[140.22942200518196,37.62305318737465],[140.22920655335236,37.62302474614441]],"type":"LineString"}}]}