{"type":"FeatureCollection","features":[{"type":"Feature","properties":{"@id":"way/627205974","name":"ブナ平B"},"geometry":{"coordinates":[[139.23404026728758,37.16305670320049],[139.23439286081793,37.16305639422261],[139.2347081561344,37.16301174708998],[139.2350645649075,37.16290157166496],[139.23532046899595,37.16284079558747],[139.2355147028995,37.162714491069316],[139.23589287308673,37.16260534015728],[139.2362916,37.1625781],[139.23647379880995,37.16241918219982],[139.2366564,37.1623387],[139.23697359360597,37.16221053935062],[139.2374552410429,37.16222162770362],[139.23803189197454,37.16224751952255],[139.23853617390665,37.16197075440498],[139.23882316427878,37.16195103846092],[139.23912043301516,37.16200504284941]],"type":"LineString"}},{"type":"Feature","properties":{"@id":"way/627205967","name":"ブナ平A"},"geometry":{"coordinates":[[139.2335665,37.1617573],[139.2340976,37.1616589],[139.2367852,37.1613469],[139.2371017,37.1613383],[139.2380136,37.1612015],[139.23942312072165,37.16112644814262]],"type":"LineString"}},{"type":"Feature","properties":{"@id":"way/627205968","name":"カモシカE"},"geometry":{"coordinates":[[139.23279626918472,37.15918618397779],[139.2336416,37.15943964402729],[139.23461393041913,37.15981214142822],[139.236474,37.1607783],[139.2371553771365,37.16109168547441]],"type":"LineString"}},{"type":"Feature","properties":{"@id":"way/627205972","name":"カモシカB"},"geometry":{"coordinates":[[139.22988674548083,37.15844796904124],[139.23025897797677,37.15902069002935],[139.2308092,37.1597864],[139.2312169,37.1605645],[139.2313671,37.161287],[139.23183037905292,37.16189326185231],[139.23206509060168,37.16213451140799],[139.23234959024356,37.16240003042183],[139.2326599,37.1626379],[139.2330837,37.1627192],[139.2334914,37.162856],[139.2336738,37.1629586]],"type":"LineString"}},{"type":"Feature","properties":{"@id":"way/627205976","name":"カモシカC"},"geometry":{"coordinates":[[139.23006730200066,37.15792662801874],[139.22973589586297,37.158490719183156],[139.2294788,37.1588373],[139.22924611390826,37.158972733468964],[139.22907388145396,37.15918766270448],[139.22889607318263,37.15942942840378],[139.22882708145397,37.15971696423688],[139.22874238865842,37.15998539026015],[139.2286395597725,37.16015745897229],[139.22858811647632,37.160453587409364],[139.22859108145397,37.16074008017711],[139.22856269386375,37.16098875920497],[139.22840433095442,37.16121575793215],[139.22828528145396,37.16146829548532],[139.22820181127358,37.1617615],[139.22821635275182,37.161988615795856],[139.22830343859192,37.16223500253503],[139.22842679661426,37.16211042399916],[139.22858642681877,37.16204365814292],[139.228771928136,37.16198948577964],[139.2289634748168,37.16189195377652],[139.22900002643027,37.16189226132802],[139.22903657804375,37.161892568879516],[139.22898986619168,37.16201557490574],[139.2289250182491,37.16211930999093],[139.2288148300791,37.16226158695905],[139.22878927700054,37.16246167655039],[139.22897847404542,37.16233913310651],[139.22923417008872,37.16222381620206],[139.22919003322616,37.16234915346809],[139.2290854427261,37.16248412616153],[139.2290352605001,37.16262391660353],[139.22900019168273,37.16280706635371],[139.22918547065888,37.16272291108868],[139.22940097645233,37.16269175040072],[139.22929583202102,37.16294238515483],[139.2290879164102,37.1631544784967],[139.22919738238733,37.163197953881905],[139.22958493509023,37.16315952903164],[139.22947916747853,37.16332471016163],[139.2293069008658,37.1635043442475],[139.22958704472808,37.16354954417521],[139.229988095863,37.16350320897407],[139.23050255256803,37.1634565868908],[139.23102305463652,37.16343887063649],[139.23144452731827,37.16328464113707],[139.23194354572436,37.16320108710006],[139.232653209273,37.16311018803782],[139.23297982681748,37.163120040889346],[139.2332575464262,37.16315993887682],[139.2336117479776,37.16306744672435]],"type":"LineString"}},{"type":"Feature","properties":{"@id":"way/627205970","name":"カモシカA"},"geometry":{"coordinates":[[139.23071484662566,37.15535208403294],[139.23057423191443,37.15556667767051],[139.230444482144,37.155733332651224],[139.23031316429046,37.155842639836195],[139.23025012321722,37.156001828615736],[139.2301906296941,37.15623264497222],[139.230262,37.1564816],[139.2302994296844,37.15700996560418],[139.23038564007788,37.15730695045818],[139.2304475819086,37.15748358055133],[139.23057592501834,37.157595950165366],[139.2314023378471,37.158029420643686],[139.23213771044612,37.15857073181736],[139.23229769218034,37.158731971397785],[139.23247132961296,37.15917082921082],[139.23262009135274,37.159407418869144],[139.23289995828242,37.15965893500356],[139.23299721441344,37.15991791416381],[139.23292410194904,37.16021159292876],[139.23275012575291,37.16032864443697],[139.23251470535598,37.16055566372947],[139.23397631656815,37.162463413697566],[139.23392249127593,37.1628948602766]],"type":"LineString"}},{"type":"Feature","properties":{"@id":"way/627205973","name":"丸山ゲレンデ"},"geometry":{"coordinates":[[139.23029332331376,37.15503454110562],[139.22998331460573,37.15529451310288],[139.22899324269713,37.15608574710095],[139.22758531783666,37.157355842022646]],"type":"LineString"}},{"type":"Feature","properties":{"@id":"way/627205979","name":"八崎ゲレンデ"},"geometry":{"coordinates":[[139.23955922006456,37.161134146953394],[139.23994136860827,37.16109797279067],[139.2412559828478,37.1610060986596],[139.2420691,37.1609407],[139.2424554,37.1609664],[139.2426646,37.1610134],[139.2429435,37.1611331],[139.24369218350316,37.161502230140236],[139.24501812316367,37.16208584699521],[139.24594086613723,37.16211972753423],[139.2468125061983,37.16204500692362]],"type":"LineString"}},{"type":"Feature","properties":{"@id":"way/627205980","name":"ブナ平C"},"geometry":{"coordinates":[[139.23390497984548,37.1631465917446],[139.2339528,37.1634844],[139.2341781,37.163681],[139.2343712,37.1637537],[139.2354119,37.1639803],[139.2360556,37.1639717],[139.23693,37.1638691],[139.2375523,37.163681],[139.2382389,37.1634074],[139.238593,37.1630654],[139.2389631,37.1626337],[139.2390919,37.1623985],[139.2392421,37.1620437],[139.2395241087393,37.161331392357056]],"type":"LineString"}},{"type":"Feature","properties":{"name":"カモシカD"},"geometry":{"coordinates":[[139.229217477774,37.158937731255975],[139.2284497909955,37.159286126795564],[139.22827919393438,37.15966851029597],[139.22799131139072,37.16002539981794],[139.22731958546018,37.160611714660035],[139.22657890694802,37.16147575166357],[139.22610030191845,37.16233281944244],[139.22600288715785,37.16320402331495],[139.2262301882683,37.16380782208806],[139.22584052921871,37.16454962540605],[139.2256240519705,37.16535179987028],[139.22548334175838,37.16625747048438],[139.22567825477944,37.16647324078349],[139.2261761524543,37.16649911685337],[139.22674981716523,37.16630935880167],[139.2272368909754,37.16599884459866],[139.22786467500015,37.16561932550617],[139.2287414078624,37.165041417773935],[139.23053816903354,37.16421336317181],[139.23229163475548,37.163635444688694],[139.23341731572805,37.16342843216323]],"type":"LineString"}}]}