{"type":"FeatureCollection","features":[{"type":"Feature","properties":{"@id":"way/502983736","name":"B-5"},"geometry":{"coordinates":[[138.46028899174902,36.556124159340506],[138.46151160245358,36.55548388382718],[138.46265952976572,36.55459164800956],[138.4636599,36.5540295],[138.46486597068437,36.553527200640346],[138.4655328467124,36.55301012065218],[138.4663758799334,36.552278520057605],[138.46704288996764,36.551820833300695],[138.46737203908762,36.55156392659165],[138.4677030776656,36.551253024322044],[138.4676869972081,36.55094456238012],[138.46756213350636,36.5506405000722]],"type":"LineString"}},{"type":"Feature","properties":{"@id":"way/502983735","name":"A-4"},"geometry":{"coordinates":[[138.4599189709966,36.55616627663299],[138.4601355,36.556253],[138.4615785,36.5564943],[138.4625065,36.5566925],[138.4637954,36.5571571]],"type":"LineString"}},{"type":"Feature","properties":{"name":"B-6"},"geometry":{"coordinates":[[138.45647756723264,36.5563358523914],[138.45702717518174,36.55629420290266],[138.4573953088086,36.55629836785266],[138.45784121714382,36.556323357547384],[138.4583415626301,36.556349912563604],[138.45890999128616,36.55628271452342],[138.45984259909142,36.55614050555012]],"type":"LineString"}},{"type":"Feature","properties":{"@id":"way/502983730","name":"C-1"},"geometry":{"coordinates":[[138.4429259455129,36.558567669082265],[138.4431810680146,36.558368614709416],[138.44348644772327,36.55812030319859],[138.4440066914049,36.55787199158817],[138.4450936,36.5574639],[138.44571326736747,36.55732058083911],[138.44676387205976,36.5571444207016],[138.4477919,36.5569769],[138.4485817813726,36.55681218023434],[138.4491759,36.5567055],[138.45000386743743,36.5565272399225],[138.45080739299752,36.556602539997606],[138.45189992556,36.55672937000673],[138.4527350604349,36.55684377017973],[138.45401165581242,36.55668904021106],[138.45562995826248,36.556414030468254],[138.45636322944245,36.5563467115849]],"type":"LineString"}},{"type":"Feature","properties":{"@id":"way/502983739","name":"A-1"},"geometry":{"coordinates":[[138.4506313264974,36.56086438159813],[138.4512987241332,36.56071920886337],[138.45182866705142,36.56052435554381],[138.45330379884575,36.56010851222725],[138.45467446589717,36.55979293356511],[138.4558585118563,36.559551714509716],[138.4569919,36.5593383],[138.4579468,36.5591444],[138.46033102832962,36.558626131124626],[138.46196992948586,36.55832237871188],[138.4632327826804,36.558093032406],[138.4640478424543,36.55795278830337],[138.46442346382085,36.55781852693045],[138.4645118248971,36.55760384885245],[138.46448744811678,36.55701295840336]],"type":"LineString"}},{"type":"Feature","properties":{"@id":"way/502983732","name":"C-4"},"geometry":{"coordinates":[[138.44485539971936,36.56011081979151],[138.44518835488444,36.560131568519814],[138.44573700787302,36.56015617727068],[138.44639557934062,36.56022543646278],[138.4474314990511,36.56021539094302],[138.44853045952033,36.560195218166676],[138.44913043737824,36.56023022714093],[138.4496639597115,36.560328435991266],[138.45009816719573,36.56048187200987],[138.45035187153744,36.56069358168679],[138.45047570261505,36.56091142759242],[138.45072336477028,36.561175302393295],[138.45121868908475,36.56145760039832]],"type":"LineString"}},{"type":"Feature","properties":{"@id":"way/502983740","name":"D-7"},"geometry":{"coordinates":[[138.4431891515923,36.561476346243445],[138.44358220453935,36.56180091344187],[138.443916922086,36.562070889498386],[138.44434483959478,36.562445219255736],[138.44460825509876,36.56263874300514],[138.44495471305845,36.5628373193606],[138.44533815795987,36.56303777912508],[138.4456783,36.5631472],[138.4462027763267,36.5632080812418],[138.446825793262,36.56314421076191],[138.4472501,36.5630697],[138.4482667550986,36.56289074031386],[138.44964840286298,36.562593759644386],[138.45026153184108,36.56241270290492],[138.4506722946926,36.56215165250665],[138.45124423761783,36.56180020310643]],"type":"LineString"}},{"type":"Feature","properties":{"@id":"way/502983738","name":"C-3"},"geometry":{"coordinates":[[138.44919803006707,36.558996951633894],[138.44963805427662,36.55908031507132],[138.45008259407183,36.559153361999556],[138.45056843995187,36.55920556803118],[138.45098708021436,36.55919246448713],[138.45140140388642,36.55914670618104],[138.45179620341366,36.55900685206013],[138.45216001365083,36.55883721845646],[138.4530705,36.5582912],[138.45416720341362,36.55793795578248],[138.4552163,36.5578301],[138.45638818622086,36.55755905116423],[138.457464,36.557145],[138.45795892414714,36.55683130642019]],"type":"LineString"}},{"type":"Feature","properties":{"@id":"way/502983728","name":"C-2"},"geometry":{"coordinates":[[138.44232734818826,36.558230313601534],[138.4428441055659,36.5585883398559],[138.44348995499718,36.55902537024666],[138.44385476481435,36.55924719713707],[138.4441426713919,36.559448503012696],[138.44429365812547,36.559563279428986],[138.44441838560527,36.55961784266587],[138.4445546005121,36.559597103241785],[138.4452275842012,36.559326854798556],[138.4458232,36.5591357],[138.4460807,36.5590797],[138.44651113377893,36.55907467175757],[138.4470999,36.5590754],[138.4479421,36.5590539],[138.44855213394686,36.55900159743625],[138.4490848,36.5588815],[138.4493262,36.5587824],[138.4496427,36.5585325],[138.449868,36.5582524],[138.4499645,36.5581792],[138.450442,36.5580025],[138.45107733277817,36.557805027568506],[138.4516790819437,36.55752308100025],[138.45224611594253,36.55719753211533],[138.45268085464116,36.55698870318319]],"type":"LineString"}},{"type":"Feature","properties":{"@id":"way/502983731","name":"D-3"},"geometry":{"coordinates":[[138.42778877686345,36.56053448439034],[138.42842457246076,36.56059889043603],[138.4293307074488,36.560685544525484],[138.4305673133754,36.56087798889915],[138.43161130496583,36.56103308870322],[138.43277589063132,36.56118964425136],[138.433924102483,36.56133779306947],[138.43503428030368,36.561518371946505],[138.43615603458787,36.56165402947521],[138.436642694964,36.56172329693794]],"type":"LineString"}},{"type":"Feature","properties":{"@id":"way/183926687","name":"D-2"},"geometry":{"coordinates":[[138.4275544706536,36.56058487266562],[138.42759948984988,36.560769801400426],[138.42764468984834,36.561000789826664],[138.42766728984907,36.56114260002211],[138.4277852,36.561274840818044],[138.42813560180943,36.56156097013121],[138.42855849649823,36.56187360445872],[138.42884801919473,36.562144746096905],[138.4288996311558,36.56243159233586],[138.4289393018095,36.5626620767461],[138.42895520075012,36.56275074627747],[138.4289853209754,36.562780325466065],[138.42901544120068,36.562760492461315],[138.42909413728938,36.56266153177444],[138.42918130209154,36.56254733856335],[138.42936178357434,36.562378246805736],[138.42952316789928,36.56223592224029],[138.42970787670325,36.562177902745134]],"type":"LineString"}},{"type":"Feature","properties":{"@id":"way/502983729","name":"D-4"},"geometry":{"coordinates":[[138.42976478125507,36.56218889136122],[138.42990575469014,36.56196615830824],[138.43004650703216,36.56175673095893],[138.43020651093417,36.561583384114435],[138.4305449054671,36.561421692057216],[138.4308833,36.56126],[138.43139414530987,36.56113880509442]],"type":"LineString"}},{"type":"Feature","properties":{"@id":"way/502983726","name":"D-1"},"geometry":{"coordinates":[[138.42764984078346,36.56024052575237],[138.42781116888162,36.559943225620906],[138.42822459697777,36.55925240484514],[138.42843675014817,36.55902271809958],[138.42860802205382,36.55886629765518],[138.42895545951492,36.558647545540765],[138.42953814078348,36.55848621369627],[138.42985128127037,36.55841132043841],[138.43034478126853,36.55836148630641],[138.4306258,36.5583731],[138.4310335,36.5583774],[138.4314197,36.5584291],[138.43222945015012,36.5587767134909],[138.4326890030222,36.55898974487897],[138.43338688761307,36.55941509020594],[138.43407434380558,36.5597482104609],[138.43470075951487,36.55994576674541],[138.43558805732548,36.56010238432321],[138.4359502948388,36.56023434875262],[138.43619050353053,36.560325458406034],[138.43641680870797,36.56050590981837],[138.43668050364232,36.560848240253996],[138.43705542981994,36.56138681948996]],"type":"LineString"}},{"type":"Feature","properties":{"@id":"way/502983733","name":"B-4"},"geometry":{"coordinates":[[138.45690791182602,36.55612790790024],[138.4574264,36.5557575],[138.45824944304331,36.55533659986972],[138.45906671478122,36.554899543750615],[138.4615999,36.5539433],[138.46263152657966,36.5534608596888],[138.4646352477463,36.55205074452522],[138.46684967396112,36.550586207054906]],"type":"LineString"}},{"type":"Feature","properties":{"@id":"way/502983734","name":"B-3"},"geometry":{"coordinates":[[138.45683360753378,36.55567697140589],[138.4570831,36.555374],[138.4576781538217,36.55488475554274],[138.45814698471563,36.554534384945164],[138.4585583,36.5543311],[138.459025,36.554051],[138.4596258,36.5537839],[138.4602749,36.553577],[138.4616053,36.5533486],[138.4628445,36.5532194]],"type":"LineString"}},{"type":"Feature","properties":{"name":"D-8"},"geometry":{"coordinates":[[138.4338525191426,36.56122731572617],[138.43418689258522,36.56100171181639],[138.43468622359217,36.56072239177617],[138.43511422159685,36.56045023281797],[138.43531038735097,36.56031057192769],[138.43539509529006,36.560170910784905]],"type":"LineString"}},{"type":"Feature","properties":{"name":"D-5"},"geometry":{"coordinates":[[138.43589384915896,36.56015759763149],[138.43668365844388,36.56024070675731],[138.43735620346763,36.560260098873414],[138.43813246916488,36.560240656425336],[138.43891193160403,36.56023234551736],[138.439739679326,36.56018248004705],[138.44057136990187,36.560140827628175],[138.4414439539588,36.56010758394572],[138.44239440251528,36.5600824069372],[138.4431024080045,36.560017323039276],[138.4435979327991,36.55994810309785],[138.44414516287873,36.55978543339498],[138.44433906330073,36.55971967320585]],"type":"LineString"}},{"type":"Feature","properties":{"name":"D-9"},"geometry":{"coordinates":[[138.44009395575375,36.56000766219529],[138.44053683575896,36.55951577870984],[138.44090316860195,36.55908976994672],[138.44136068275088,36.55865425293021],[138.44144929131585,36.558523766036245],[138.44159992587504,36.55843361132638],[138.44195448894374,36.55827806769243],[138.44249431432308,36.55809589151815],[138.44295734793604,36.55797191365666],[138.44332540029615,36.55793376658221]],"type":"LineString"}},{"type":"Feature","properties":{"name":"C-5"},"geometry":{"coordinates":[[138.45053917594151,36.56040537580367],[138.45079159163424,36.560296203897465],[138.45104400732822,36.560220823202556],[138.45125758983528,36.56011425037694],[138.4513482005969,36.56004406819055],[138.45142263086592,36.55984911733847],[138.45158207575247,36.55956957797065],[138.4517082835988,36.559257654455266],[138.45175358898047,36.559158878412944]],"type":"LineString"}},{"type":"Feature","properties":{"name":"D-6"},"geometry":{"coordinates":[[138.4372444853953,36.561831576570654],[138.43845736085785,36.561673598170884],[138.4393656044607,36.561650967508854],[138.44030970338332,36.56154369350614],[138.44089685188885,36.5614403165049],[138.44157383989642,36.56132194486055],[138.44239359408402,36.561266458089705],[138.44300150168255,36.56127755544729],[138.4433849347186,36.56114213972289],[138.44367863696925,36.56083474382696],[138.44383818447756,36.56060105357672],[138.4441103537598,36.56049551581313],[138.44442475620616,36.56045782371936]],"type":"LineString"}},{"type":"Feature","properties":{"name":"A-2"},"geometry":{"coordinates":[[138.45131209295124,36.561759520593824],[138.45197767491345,36.56151651768012],[138.45278847475953,36.561390155863194],[138.4535569193875,36.56137071556556],[138.45440402370343,36.561322114799125],[138.4550890353957,36.56123012101493],[138.4557606681032,36.56120096050594],[138.45652306198593,36.561016277025814],[138.4576606020679,36.56071495040047],[138.45845324967672,36.56039418205653],[138.45949693122702,36.56002967414567],[138.46024117287567,36.55975264456042],[138.46086440038016,36.55954365607792],[138.46128190179292,36.55931036660482],[138.46201404195114,36.55897987197886],[138.46267357316964,36.55874172056309],[138.46329074917014,36.55846954661763],[138.46371430132814,36.55815848950587]],"type":"LineString"}},{"type":"Feature","properties":{"name":"A-3"},"geometry":{"coordinates":[[138.46068655597782,36.55836736551413],[138.46091157227704,36.55790144506793],[138.46114158894244,36.55741543884976],[138.46131160125975,36.55710214396474],[138.46157662045778,36.55679688106015],[138.46177163458543,36.55664826578892]],"type":"LineString"}}]}