{
  "type": "FeatureCollection",
  "features": [
    {
      "type": "Feature",
      "properties": { "name": "ホワイトラバー_2" },
      "geometry": {
        "coordinates": [
          [140.8996322989729, 42.75191742193249],
          [140.89984175627194, 42.751488386977314],
          [140.89999058119508, 42.75114839490362]
        ],
        "type": "LineString"
      }
    },
    {
      "type": "Feature",
      "properties": { "name": "エバー" },
      "geometry": {
        "coordinates": [
          [140.89257659315786, 42.75142680085692],
          [140.89294024301466, 42.75142861465036],
          [140.8934721281005, 42.7514972099726],
          [140.89394770188284, 42.75150459888478],
          [140.89478534415662, 42.751413296631206],
          [140.89538342581727, 42.75128467231101],
          [140.89580139823408, 42.75116766899426],
          [140.89636804865845, 42.75103853507459],
          [140.89695773070878, 42.75096259226446],
          [140.8976762677716, 42.750881690447734],
          [140.89842604656695, 42.75083641800575],
          [140.89927369356488, 42.750812645005055],
          [140.89982382113314, 42.75081734613417],
          [140.9002673034694, 42.75089357848482]
        ],
        "type": "LineString"
      }
    },
    {
      "type": "Feature",
      "properties": { "name": "ダイナミック" },
      "geometry": {
        "coordinates": [
          [140.89057434937794, 42.752973616634584],
          [140.8912951, 42.7532046],
          [140.89219052241472, 42.7534843],
          [140.8944601, 42.7541972],
          [140.89512491714018, 42.754404935762736],
          [140.8956563828597, 42.75457329427515]
        ],
        "type": "LineString"
      }
    },
    {
      "type": "Feature",
      "properties": { "name": "イゾラグラン迂回_2" },
      "geometry": {
        "coordinates": [
          [140.92655384800014, 42.71776259820021],
          [140.92664392791454, 42.71812515995924],
          [140.92673792434596, 42.71841866078347],
          [140.92673400782894, 42.7185855527903]
        ],
        "type": "LineString"
      }
    },
    {
      "type": "Feature",
      "properties": { "name": "ルスツNo.1" },
      "geometry": {
        "coordinates": [
          [140.93326064503447, 42.7202834],
          [140.934026, 42.720177047198256],
          [140.934506654734, 42.720090671308235],
          [140.9352060772513, 42.71991127131107],
          [140.93587362361333, 42.71970481773324],
          [140.93660297124924, 42.71952430927157],
          [140.9368692718839, 42.71951212511408],
          [140.937109086257, 42.71956480434907],
          [140.93736214555344, 42.719714934873096],
          [140.93772997863513, 42.71997533309047]
        ],
        "type": "LineString"
      }
    },
    {
      "type": "Feature",
      "properties": { "name": "スティームボートB_#下部" },
      "geometry": {
        "coordinates": [
          [140.9357326617329, 42.71525382064587],
          [140.93662344595197, 42.71584850656592],
          [140.93688025354237, 42.71607291427512],
          [140.9372183876227, 42.71647114713636],
          [140.93762095449165, 42.71699984534742],
          [140.9380074660432, 42.71764465192391],
          [140.93829734019113, 42.71797428789132],
          [140.93859832186857, 42.7181960573705],
          [140.93895888303064, 42.71837405382266],
          [140.93935336472512, 42.71871126961229],
          [140.93952200962195, 42.7189425687869],
          [140.9397314078671, 42.71963795348398],
          [140.93987816504716, 42.72013366522363],
          [140.93988527437494, 42.72025007504536],
          [140.93987334857533, 42.72034317716926],
          [140.93984315193524, 42.72042216607588],
          [140.93977189907733, 42.7204786230985],
          [140.93965940344424, 42.72050478016865],
          [140.93948295482664, 42.720505776532484],
          [140.93924940082667, 42.720504442150755]
        ],
        "type": "LineString"
      }
    },
    {
      "type": "Feature",
      "properties": { "name": "イゾラ山頂迂回" },
      "geometry": {
        "coordinates": [
          [140.9247007027072, 42.71087546210445],
          [140.9245554688601, 42.71115635062189],
          [140.92433857093647, 42.711436040957935],
          [140.92409663235455, 42.7116473860388],
          [140.923854, 42.711839],
          [140.92377448320883, 42.71198865567351],
          [140.92370432214082, 42.71218643161733],
          [140.92362095848156, 42.712469814188346],
          [140.92349984932912, 42.71265359618895],
          [140.92339393637576, 42.71280800452533]
        ],
        "type": "LineString"
      }
    },
    {
      "type": "Feature",
      "properties": { "name": "ヘブンリースピリット" },
      "geometry": {
        "coordinates": [
          [140.93031767710227, 42.70569906032618],
          [140.9304339, 42.7058948],
          [140.9308007993918, 42.70637597405251],
          [140.930981, 42.7066162],
          [140.9312653, 42.7069513],
          [140.9313565, 42.7071365],
          [140.93138625030284, 42.707466325974366],
          [140.9314782668685, 42.70762838383898],
          [140.9316623, 42.7079525],
          [140.931775, 42.7081536],
          [140.9318393, 42.7083546],
          [140.9319466, 42.7085477],
          [140.93217831686854, 42.708830186073655],
          [140.9324723, 42.709066918242314],
          [140.9326829891594, 42.7092884417995],
          [140.93294792289768, 42.709527844442356]
        ],
        "type": "LineString"
      }
    },
    {
      "type": "Feature",
      "properties": { "name": "ファミリー" },
      "geometry": {
        "coordinates": [
          [140.8957773359983, 42.756409666217635],
          [140.89662862755694, 42.75618152622893],
          [140.8975071, 42.755965939745515],
          [140.89812987333397, 42.75572153002996],
          [140.89851995466506, 42.75552141602665],
          [140.89884185466724, 42.75522645172318],
          [140.89915816355523, 42.75485139499053],
          [140.8994154724432, 42.75448280669883],
          [140.90014250378397, 42.7530947077576],
          [140.90031957651254, 42.75285753605942],
          [140.90037518834342, 42.75277198822429],
          [140.90049870591463, 42.75264541202395],
          [140.9006316822967, 42.75251189021991],
          [140.90075350595862, 42.75241316600872],
          [140.90100503532008, 42.752238097455496],
          [140.90115617333393, 42.75209807005795]
        ],
        "type": "LineString"
      }
    },
    {
      "type": "Feature",
      "properties": { "name": "ヘブンリーリッジA" },
      "geometry": {
        "coordinates": [
          [140.9328318, 42.7057056],
          [140.9332341, 42.7059855],
          [140.9335506, 42.7061708],
          [140.9339261, 42.7064979],
          [140.9343284, 42.7068133],
          [140.935058, 42.7073218],
          [140.93570976938423, 42.70758985346137],
          [140.93616429950387, 42.70777508635193],
          [140.9365518327367, 42.70807101872494],
          [140.93677030374556, 42.708256524231594],
          [140.9369574396464, 42.708523170713384],
          [140.9374827, 42.7095766],
          [140.9375578, 42.7096751],
          [140.9379762, 42.7101205],
          [140.9383893, 42.7103886],
          [140.9395908918498, 42.71110298263363],
          [140.94056864642226, 42.711428196100634],
          [140.94099369229147, 42.711540893671824],
          [140.9414989419032, 42.71176910895035],
          [140.9420787433029, 42.71212922537493],
          [140.9423039229618, 42.712301323049104]
        ],
        "type": "LineString"
      }
    },
    {
      "type": "Feature",
      "properties": { "name": "イーストビバルディ" },
      "geometry": {
        "coordinates": [
          [140.9119072704769, 42.71867150293321],
          [140.91173675207244, 42.71875983476106],
          [140.9114601071895, 42.718867659251565],
          [140.9113202852392, 42.718912460423866],
          [140.9112335265262, 42.71911320182775],
          [140.91104939645237, 42.71956536287687],
          [140.9104956252947, 42.72120866893849],
          [140.91015808161853, 42.72218762616161],
          [140.91000095295576, 42.723104210543],
          [140.90988925868845, 42.72361801421266],
          [140.90974042015455, 42.72420978002004],
          [140.90970870138946, 42.72457159419527],
          [140.90975651789216, 42.72495130716537],
          [140.90988392925482, 42.725370002978615],
          [140.91004946601484, 42.726130268251325],
          [140.91009727035942, 42.72717458046369],
          [140.9101185430853, 42.72846056655884],
          [140.91022963933204, 42.729362767727764],
          [140.91034886334202, 42.729950292375925],
          [140.9103991051415, 42.730483246815126],
          [140.91039379881744, 42.7312987568446],
          [140.91036268735277, 42.73248575966096],
          [140.9102679, 42.7336104],
          [140.91035902525434, 42.73510640964797],
          [140.9104284248961, 42.73533024160218],
          [140.9105727128878, 42.73553207123436],
          [140.9108152819341, 42.73577055733518],
          [140.91084574893364, 42.73589115522884],
          [140.91075612752502, 42.73603264577555],
          [140.9105762672056, 42.736217017962716],
          [140.9103528267185, 42.73644540033543],
          [140.91027031379744, 42.73661385654116]
        ],
        "type": "LineString"
      }
    },
    {
      "type": "Feature",
      "properties": { "name": "フーボル" },
      "geometry": {
        "coordinates": [
          [140.91592079857523, 42.72608891206454],
          [140.9163239, 42.7263818],
          [140.91684220179576, 42.72678818506366],
          [140.91737680207387, 42.72717704913053],
          [140.91773560128576, 42.727568643909024],
          [140.91803340111417, 42.72804089648757],
          [140.91866240093037, 42.72901164912564],
          [140.91886950173392, 42.72946747276621],
          [140.9189653011142, 42.729882263230536],
          [140.91902450086698, 42.73031945854831],
          [140.9188850478945, 42.73066872521301],
          [140.91869332264602, 42.73099122254628],
          [140.91819660049447, 42.73147950622138],
          [140.91754275092723, 42.732021417467834],
          [140.91721829801884, 42.73229449274492],
          [140.91681039151595, 42.73250312573328],
          [140.91602694414775, 42.73282251005237],
          [140.91499339931846, 42.733141894618505],
          [140.91439079873052, 42.73332120888612],
          [140.91367839925664, 42.73359013393888]
        ],
        "type": "LineString"
      }
    },
    {
      "type": "Feature",
      "properties": { "name": "フリコ沢_#上部" },
      "geometry": {
        "coordinates": [
          [140.9169806788237, 42.718971002301195],
          [140.91692440594736, 42.72023935194851],
          [140.91698050297367, 42.72069882549748],
          [140.9170902821579, 42.721329201261725],
          [140.91737380297354, 42.722207083456],
          [140.91747082825336, 42.722876079585426],
          [140.91771100594968, 42.72375540774344],
          [140.91800810594742, 42.72486341085837],
          [140.91843841770947, 42.72572903540224],
          [140.91861968301924, 42.72606258231839],
          [140.91897945018746, 42.72660153575251]
        ],
        "type": "LineString"
      }
    },
    {
      "type": "Feature",
      "properties": { "name": "イゾラグラン_#中部" },
      "geometry": {
        "coordinates": [
          [140.92409325712174, 42.71587532367489],
          [140.92426947616238, 42.717437740318736],
          [140.9241564, 42.7185192],
          [140.9241576, 42.7194108],
          [140.92389156671436, 42.72102336804064],
          [140.92394135952108, 42.72160110341312],
          [140.9240878, 42.7224451],
          [140.9242282, 42.723064],
          [140.92430505965, 42.72332256617053],
          [140.92447856697504, 42.723669883655994]
        ],
        "type": "LineString"
      }
    },
    {
      "type": "Feature",
      "properties": { "name": "イーストティーニュ_#下部" },
      "geometry": {
        "coordinates": [
          [140.91576122728083, 42.7253523179501],
          [140.91577121502735, 42.725524786946124],
          [140.91569457225174, 42.7261300062768],
          [140.9155325138721, 42.72657315479568],
          [140.91520438612594, 42.7271748954111],
          [140.9150319153168, 42.727682494608416],
          [140.9149092653168, 42.728385278998076],
          [140.914750297973, 42.729062187434515],
          [140.91447508207605, 42.729970872703305],
          [140.9140401, 42.7314641],
          [140.91352631055446, 42.733538930750385],
          [140.9133720667904, 42.73431801402895],
          [140.9128582217113, 42.735453683657],
          [140.91270437298908, 42.73571784473183],
          [140.91251172960162, 42.73591076998882],
          [140.91229723379888, 42.73606329780125],
          [140.91212153266133, 42.73615883714846],
          [140.9116983681401, 42.73628510066382],
          [140.91140765225143, 42.73641020225796],
          [140.91120227595502, 42.73658544825972],
          [140.9111245195217, 42.736751076660326],
          [140.91106616041606, 42.73694876070228]
        ],
        "type": "LineString"
      }
    },
    {
      "type": "Feature",
      "properties": { "name": "スーパーイースト" },
      "geometry": {
        "coordinates": [
          [140.9124816, 42.71840314367915],
          [140.9127552774793, 42.7183169061737],
          [140.91298398579403, 42.71830667023423],
          [140.91353777106733, 42.71839681348948],
          [140.91470582438592, 42.7186397386659],
          [140.91567608923208, 42.718848303580415],
          [140.91672644550326, 42.71906379115304]
        ],
        "type": "LineString"
      }
    },
    {
      "type": "Feature",
      "properties": { "name": "イゾラB" },
      "geometry": {
        "coordinates": [
          [140.92397108297897, 42.718636937024854],
          [140.9235362, 42.7189106],
          [140.92316558840562, 42.71911355896565],
          [140.9227601903386, 42.719283164132364],
          [140.92249536827615, 42.71937081929477],
          [140.92218395394607, 42.71946988469445],
          [140.92132670386417, 42.719669401707314],
          [140.92075830201208, 42.71982621099285],
          [140.92001906183424, 42.720040070711576],
          [140.91956720185217, 42.7202205571051],
          [140.91893358949352, 42.72050762362338],
          [140.91843975394403, 42.72077757476377],
          [140.91725888856547, 42.72141487385888]
        ],
        "type": "LineString"
      }
    },
    {
      "type": "Feature",
      "properties": { "name": "スティームボートA_#下部" },
      "geometry": {
        "coordinates": [
          [140.92668229570046, 42.71757380379722],
          [140.92688186921936, 42.71764916735428],
          [140.92706512538507, 42.71769914303618],
          [140.9278134674046, 42.717856618372394],
          [140.9285681836269, 42.71798662443008],
          [140.92873349628636, 42.71802366696764],
          [140.9289088997648, 42.71809777820049],
          [140.92990670497153, 42.71874274371521],
          [140.93071783002705, 42.71925055735898],
          [140.93113909033514, 42.719503797767786],
          [140.9320735010913, 42.719933866577186],
          [140.93285463790698, 42.72022608350764],
          [140.93333764535728, 42.72050674508861],
          [140.93364516274283, 42.72068675646557],
          [140.9338986689536, 42.7208711771633],
          [140.93423804257785, 42.72103448936835],
          [140.9346057703723, 42.72118227908193],
          [140.93500567897618, 42.721304671768706],
          [140.9353995863397, 42.72141383785563],
          [140.93581673820182, 42.721473713306295],
          [140.93616073906807, 42.72147891196861],
          [140.93633701384317, 42.721446645166736],
          [140.93649248428054, 42.72136262515475],
          [140.93659994477963, 42.721248476599285],
          [140.93667113487018, 42.72112550586168],
          [140.93670452271482, 42.72091596338389],
          [140.93671224575945, 42.72072707936348],
          [140.93676793852117, 42.72051302299428],
          [140.93686116013657, 42.720375625630126],
          [140.93701056320106, 42.72027168483186],
          [140.93722164161872, 42.72019291695744],
          [140.93743914704967, 42.72010837603221],
          [140.93765050485945, 42.7200642630658],
          [140.9378709776054, 42.72006697700834],
          [140.93806171125507, 42.7201175796025],
          [140.9383562073922, 42.72027109150335],
          [140.93860751287207, 42.72039936700246],
          [140.9389674, 42.7205775]
        ],
        "type": "LineString"
      }
    },
    {
      "type": "Feature",
      "properties": { "name": "ヘブンリーキャニオン" },
      "geometry": {
        "coordinates": [
          [140.9239976442598, 42.70970781007109],
          [140.92467434539597, 42.70964005133627],
          [140.9252892856237, 42.709509571862895],
          [140.9262177218167, 42.70940241324424],
          [140.9266422442624, 42.70937301697043],
          [140.9270382, 42.7094465],
          [140.9273225, 42.7095332],
          [140.9279287, 42.7096712],
          [140.92876391448496, 42.70985147491612],
          [140.92951873406213, 42.71000654232861],
          [140.92991078261056, 42.710064275516686],
          [140.93085986884233, 42.71008305033618],
          [140.93161523658955, 42.7100065417391],
          [140.93214430724257, 42.70992247488577],
          [140.9326078760848, 42.709819974677735],
          [140.9328644485484, 42.70971128324256],
          [140.9331442760848, 42.709634333308195],
          [140.9334594, 42.7096396],
          [140.93382485644813, 42.70965594556827],
          [140.93406408542623, 42.7096499004507],
          [140.9343124253132, 42.7096478670737],
          [140.93450867722186, 42.709686099919466],
          [140.93464990242668, 42.7097684422068],
          [140.93490911657855, 42.710028488558656],
          [140.93523767679253, 42.710424238637444],
          [140.93553233034189, 42.710768774281476],
          [140.93572915295658, 42.710906282253305],
          [140.93597099742436, 42.71101806023365],
          [140.93619488740958, 42.711144023147675],
          [140.93650339226076, 42.711324540834106],
          [140.93672801708516, 42.71146721144838],
          [140.9370466461304, 42.71167305133366],
          [140.93734548080442, 42.711967266637],
          [140.93796947329346, 42.71256656095231],
          [140.9385095490137, 42.71297591267223],
          [140.93883161942387, 42.71321476639076]
        ],
        "type": "LineString"
      }
    },
    {
      "type": "Feature",
      "properties": { "name": "ヘブンリーリッジB" },
      "geometry": {
        "coordinates": [
          [140.93451645126748, 42.704775741972256],
          [140.93494442889684, 42.704930487271625],
          [140.9353799, 42.7050985],
          [140.93576169673426, 42.705242912714645],
          [140.9361031160822, 42.705429739797964],
          [140.936358813306, 42.70562547623562],
          [140.9367788904475, 42.706056242055034],
          [140.9370804, 42.70637063530261],
          [140.93744764824473, 42.706630913938056],
          [140.93785415675202, 42.7068506182717],
          [140.93808762311434, 42.70692102898897],
          [140.93861634233767, 42.70699352149663],
          [140.93901374805316, 42.707066014132714],
          [140.93958449610605, 42.70728065713289],
          [140.93996048168896, 42.707448],
          [140.94033547597255, 42.707623806904884],
          [140.94043588649416, 42.707733011231824],
          [140.94061035285816, 42.70796091474358],
          [140.94079703889662, 42.70818078560055],
          [140.94118069519484, 42.7086472453996],
          [140.9413628624684, 42.70878217589715],
          [140.94162463844106, 42.708956621146086],
          [140.94203067597255, 42.70924192937409],
          [140.94219571922227, 42.70936557625038],
          [140.9423122096103, 42.70955390533724],
          [140.9423484528582, 42.709817281497564],
          [140.94238543668868, 42.71016770424563],
          [140.9423957747427, 42.710435556960824]
        ],
        "type": "LineString"
      }
    },
    {
      "type": "Feature",
      "properties": { "name": "ヘブンリービュー" },
      "geometry": {
        "coordinates": [
          [140.92343821328038, 42.71028763795374],
          [140.9235297434675, 42.710048408901145],
          [140.92358441701444, 42.70991927607963],
          [140.92375049429114, 42.70969123887613],
          [140.92409862821233, 42.70936043451343],
          [140.92478504242632, 42.708998620847396],
          [140.92540729242634, 42.70866874646622],
          [140.9256381, 42.708528],
          [140.926362533866, 42.70809464812502],
          [140.926877366933, 42.707755524062506],
          [140.92735562902678, 42.707434315548824],
          [140.92775917905223, 42.70724998989367],
          [140.92817273391546, 42.707070042915944],
          [140.92860287580964, 42.70681133175498],
          [140.9288142612977, 42.7065743159098],
          [140.92909545321723, 42.70627286822697],
          [140.92938078224395, 42.70603049923482],
          [140.92983599995063, 42.705721338314206],
          [140.9303760564584, 42.70554072586206],
          [140.93122301441107, 42.70529161074899],
          [140.9316838, 42.7052128],
          [140.93220777063192, 42.70511047839219],
          [140.93265492576597, 42.704933933177145],
          [140.9332555, 42.7048186],
          [140.93385997063197, 42.70480782226427],
          [140.934366, 42.704728],
          [140.9351063, 42.7045585],
          [140.93575, 42.7044126],
          [140.93692867594137, 42.70420257383759],
          [140.93742457881496, 42.70415891917422],
          [140.93786323931857, 42.70421622154756],
          [140.93888238509564, 42.704651973956196],
          [140.93981831831147, 42.70513420935447],
          [140.9404224, 42.7055795],
          [140.9408838, 42.7058357],
          [140.94159738133467, 42.70622947202207],
          [140.9425467, 42.7067818],
          [140.9429491, 42.7070616],
          [140.9430832, 42.7072311],
          [140.9431636, 42.7074322],
          [140.9431744, 42.7079486],
          [140.9432387, 42.7086857],
          [140.9432012, 42.7090996],
          [140.9431261, 42.7094149],
          [140.9428232210072, 42.71011570561519],
          [140.9425464393186, 42.7106789610213],
          [140.94242856965928, 42.711448262120285],
          [140.9424014178099, 42.71199264698895],
          [140.94239079975972, 42.712311355349726],
          [140.94243879952083, 42.712610991755305],
          [140.9424759173306, 42.712800704743984],
          [140.9424405536719, 42.7129716875271],
          [140.94239451732923, 42.713079935317296]
        ],
        "type": "LineString"
      }
    },
    {
      "type": "Feature",
      "properties": { "name": "ヘブンリートレイル" },
      "geometry": {
        "coordinates": [
          [140.93597032190223, 42.71515637777863],
          [140.93658069174236, 42.7149790554733],
          [140.9372179260301, 42.71478339972383],
          [140.93755207809406, 42.71459006609271],
          [140.9376513603198, 42.714358990003895],
          [140.93769982127088, 42.7141617733497],
          [140.93777010412603, 42.71383628782788],
          [140.93791762190224, 42.713612564823116],
          [140.9381094917405, 42.71346020916223],
          [140.93837500951665, 42.71334869823808],
          [140.93856891777438, 42.71331799955624],
          [140.9387843260302, 42.71330196575508],
          [140.93894220412795, 42.71332141980337],
          [140.9391509999982, 42.71339431992614],
          [140.93937310286708, 42.713548973340686],
          [140.93963860286613, 42.71369686421551],
          [140.93991865080122, 42.71380734325864],
          [140.94026579873548, 42.7138561546508],
          [140.94054202772372, 42.71383654696086],
          [140.94085901118672, 42.713780340560234],
          [140.94133059310414, 42.71366038581597],
          [140.94165257778758, 42.71354742481612],
          [140.94192998468174, 42.7133854497526],
          [140.9420770350015, 42.71327088675039],
          [140.94212973084674, 42.71317391224597]
        ],
        "type": "LineString"
      }
    },
    {
      "type": "Feature",
      "properties": { "name": "イゾラグラン迂回" },
      "geometry": {
        "coordinates": [
          [140.92441909010645, 42.718537482890326],
          [140.92503834834096, 42.71856468914571],
          [140.92531668643636, 42.7185673293322],
          [140.9256090587304, 42.71853216304766],
          [140.92613362121145, 42.718439869582895],
          [140.92636596060453, 42.71842863695842],
          [140.92649403866994, 42.71846711521499],
          [140.92661654126965, 42.71851164568766],
          [140.92667033903143, 42.71860780759462],
          [140.92666188319362, 42.71869881084632],
          [140.9266105336129, 42.718787757797465],
          [140.92648334958076, 42.718872139650166],
          [140.9262657088217, 42.71896175166581],
          [140.92604853676596, 42.719046225832905],
          [140.92587418235675, 42.719182380357985],
          [140.9257185, 42.719338921116794],
          [140.92559970083846, 42.71953029661797],
          [140.9254068268857, 42.719994733984706],
          [140.92520334579802, 42.72032806479374],
          [140.9250426823567, 42.72061196303656],
          [140.9249353, 42.7208254],
          [140.9247261, 42.7212274],
          [140.9244579, 42.7218185],
          [140.92432941384914, 42.72207212133354]
        ],
        "type": "LineString"
      }
    },
    {
      "type": "Feature",
      "properties": { "name": "イゾラC" },
      "geometry": {
        "coordinates": [
          [140.923546486124, 42.7213577457049],
          [140.9233582, 42.7215505],
          [140.9229429435778, 42.721971509397804],
          [140.9228453138752, 42.72208654620442],
          [140.92271283268292, 42.7221759792551],
          [140.92250785447274, 42.72226145852918],
          [140.9220693287279, 42.722353279264595],
          [140.92156528448345, 42.72242997525582],
          [140.92137133510076, 42.7224852079422],
          [140.92119855384158, 42.72257222135365],
          [140.92034340000006, 42.722977982713694],
          [140.9197772546114, 42.723217535204846],
          [140.91916104357773, 42.723531241263565],
          [140.91877160298108, 42.72368372062218],
          [140.9185785, 42.7237259],
          [140.91813909506928, 42.723835861826544],
          [140.9179240657541, 42.72390908473365]
        ],
        "type": "LineString"
      }
    },
    {
      "type": "Feature",
      "properties": { "name": "イゾラD迂回" },
      "geometry": {
        "coordinates": [
          [140.92262620739245, 42.72683275656647],
          [140.922339, 42.7267367],
          [140.92170479772665, 42.7264293],
          [140.921437750002, 42.726259676311614],
          [140.9211944014209, 42.726127773044595],
          [140.92100070028414, 42.72604768091754],
          [140.9207848980087, 42.7260589],
          [140.92055899687207, 42.726170909511175],
          [140.92027474957473, 42.726322075278404],
          [140.9200537, 42.72645583145041],
          [140.9198831495748, 42.72658231879338],
          [140.91973916443698, 42.72674350329535],
          [140.91963557300483, 42.72688212668561],
          [140.91950433256812, 42.72708168267269]
        ],
        "type": "LineString"
      }
    },
    {
      "type": "Feature",
      "properties": { "name": "アクロスA" },
      "geometry": {
        "coordinates": [
          [140.91505046929868, 42.72272262097615],
          [140.91600170185163, 42.72231026385782],
          [140.91714501861443, 42.721834632634184]
        ],
        "type": "LineString"
      }
    },
    {
      "type": "Feature",
      "properties": { "name": "イゾラA" },
      "geometry": {
        "coordinates": [
          [140.9236672285787, 42.715657886921505],
          [140.92216901907148, 42.71617031041907],
          [140.9210272185323, 42.7165461],
          [140.9197798485506, 42.7168778712268],
          [140.9188691, 42.71708598268267],
          [140.9182836941971, 42.71731748934735],
          [140.91783319999865, 42.71762646016087],
          [140.91749841941996, 42.717912244402136],
          [140.91728030737482, 42.718228595007744],
          [140.9170300059886, 42.718820854954]
        ],
        "type": "LineString"
      }
    },
    {
      "type": "Feature",
      "properties": { "name": "イージートレイル" },
      "geometry": {
        "coordinates": [
          [140.91170107832133, 42.73040086738729],
          [140.9116153330213, 42.73073351177459],
          [140.91154064053515, 42.73110107436048],
          [140.9114756697984, 42.73146704842193],
          [140.91143883865612, 42.73183736760785],
          [140.91142167543322, 42.73223059294741],
          [140.91140100845442, 42.73253101603932],
          [140.91140254241196, 42.732825063161606],
          [140.911358, 42.7333173],
          [140.9113093046964, 42.734388104772194],
          [140.9112145754333, 42.73518560680538],
          [140.91112974335255, 42.73582735945684],
          [140.91111461126974, 42.736515038152426]
        ],
        "type": "LineString"
      }
    },
    {
      "type": "Feature",
      "properties": { "name": "レインボー_#下部" },
      "geometry": {
        "coordinates": [
          [140.89230524154738, 42.75136364337234],
          [140.89287417825645, 42.75170621484149],
          [140.8933658811612, 42.75207659959152],
          [140.89365539130822, 42.75231322795575],
          [140.89386035493624, 42.7526146871088],
          [140.89398384030608, 42.75280646002177],
          [140.8940688727564, 42.75297640008091],
          [140.89405869232718, 42.75310867471116],
          [140.89400928279753, 42.75318489624553],
          [140.89388477467634, 42.75328013291458],
          [140.89381747694415, 42.75334494540603],
          [140.8937657008321, 42.75337925317322],
          [140.8937631272473, 42.75343828049298],
          [140.8938065143274, 42.75348749250434],
          [140.89389648876784, 42.75351392067695],
          [140.89412792766387, 42.75348910477774],
          [140.8943774938072, 42.75344147087425],
          [140.8948544411438, 42.753332461416946],
          [140.89500335514833, 42.75327443510959],
          [140.89524549499154, 42.75314795461126],
          [140.8954356410117, 42.753017279911575],
          [140.8955558676541, 42.75290371899405],
          [140.89560927792508, 42.75280601883076],
          [140.89562303502788, 42.752707729223644],
          [140.895585, 42.75256],
          [140.8954902128766, 42.75230481554286],
          [140.895447423157, 42.752169655472386],
          [140.89548491124464, 42.75204590459483],
          [140.89563867742086, 42.751828625469145],
          [140.895789626972, 42.75158527355701],
          [140.895905, 42.751345],
          [140.89600048117936, 42.75129872650555],
          [140.8961115, 42.7513095],
          [140.8961842980772, 42.751353820605715],
          [140.89622084166243, 42.75143617250028],
          [140.89618552476452, 42.75165125981344],
          [140.8961786935407, 42.75190247678172],
          [140.8962399193792, 42.752151984600225],
          [140.89633690912228, 42.75241366748327],
          [140.8963492752921, 42.75271948630416],
          [140.8961994445846, 42.753107272349496],
          [140.89604920398125, 42.75336726313342],
          [140.89590526630596, 42.75354858213885],
          [140.89558732847888, 42.753722157624296],
          [140.89537466423945, 42.7538147474148],
          [140.8952577866558, 42.75388814385566],
          [140.89517323398454, 42.754027747022946],
          [140.89517472081442, 42.75422425092519]
        ],
        "type": "LineString"
      }
    },
    {
      "type": "Feature",
      "properties": { "name": "スカイ_#上部" },
      "geometry": {
        "coordinates": [
          [140.88748944700055, 42.75195652718042],
          [140.8877543698083, 42.75194711255834],
          [140.88803331166457, 42.751895245365404],
          [140.888583173775, 42.751800878678196],
          [140.88946211952037, 42.75168154407673]
        ],
        "type": "LineString"
      }
    },
    {
      "type": "Feature",
      "properties": { "name": "ジャイアント_#下部" },
      "geometry": {
        "coordinates": [
          [140.89082773687244, 42.75063448552923],
          [140.89128370711106, 42.750606924528846],
          [140.89202723511025, 42.7504572245143],
          [140.89245066533283, 42.75034820199767],
          [140.8931905488893, 42.749990865078054],
          [140.89385424644445, 42.749705140111196],
          [140.89442600444463, 42.749515010857024],
          [140.89499721622198, 42.74938554183005],
          [140.89541239988736, 42.749311131234904],
          [140.8959534253349, 42.749300252241646],
          [140.89630858133333, 42.749221634532454],
          [140.8966295186668, 42.74915207846204],
          [140.89703334444468, 42.749123017812266],
          [140.89765358733362, 42.749155081511056],
          [140.89808955055628, 42.74917111333566],
          [140.89836821155572, 42.74929110744395],
          [140.89874175111171, 42.749427322929066],
          [140.89898357666655, 42.74957628908558],
          [140.89946922066653, 42.75000248337293],
          [140.9002810877777, 42.75082148839283]
        ],
        "type": "LineString"
      }
    },
    {
      "type": "Feature",
      "properties": { "name": "バンビ_#下部" },
      "geometry": {
        "coordinates": [
          [140.8939016135824, 42.752592693936435],
          [140.89552373388693, 42.75219782735862],
          [140.89659869810217, 42.751864468339896],
          [140.8973329842376, 42.75153696815219],
          [140.89786013011937, 42.75130152995303],
          [140.89850058776096, 42.75117875374329],
          [140.89921744057594, 42.75111736561762],
          [140.90040090985457, 42.75109024158536]
        ],
        "type": "LineString"
      }
    },
    {
      "type": "Feature",
      "properties": { "name": "林間" },
      "geometry": {
        "coordinates": [
          [140.8909486273888, 42.756498297544134],
          [140.8912960403095, 42.75638315760983],
          [140.8915706236053, 42.756313492286324],
          [140.8918610978567, 42.75619569676301],
          [140.89217700039998, 42.756119562332685],
          [140.89244182988443, 42.756008880274194],
          [140.89269932988296, 42.75595555128222],
          [140.89311327808497, 42.75589912981775],
          [140.89354698325883, 42.75584754413018],
          [140.89406929720286, 42.75582307338301],
          [140.89451038084303, 42.75578485978817],
          [140.89481876395132, 42.75570265992526],
          [140.89495573589815, 42.755660938052]
        ],
        "type": "LineString"
      }
    },
    {
      "type": "Feature",
      "properties": { "name": "タイガー" },
      "geometry": {
        "coordinates": [
          [140.89040892837338, 42.75792134225274],
          [140.89044306592848, 42.757655726715676],
          [140.8905286742244, 42.75739461451698],
          [140.89066682400352, 42.75707563580736],
          [140.89079258689162, 42.75678574661248],
          [140.8908684812225, 42.756326653832545],
          [140.89100625720454, 42.756054671301115],
          [140.8911965746683, 42.75569395788366],
          [140.8913084394216, 42.75549356193268],
          [140.89147284565666, 42.75529702401301],
          [140.8915452075633, 42.75516988533736],
          [140.89245297903688, 42.75512762079618],
          [140.89339385022157, 42.75508754207746],
          [140.89406989607323, 42.755005294509196],
          [140.8945750003671, 42.754944075033606],
          [140.89511564845006, 42.75488489203853]
        ],
        "type": "LineString"
      }
    },
    {
      "type": "Feature",
      "properties": { "name": "エリート" },
      "geometry": {
        "coordinates": [
          [140.89024094268362, 42.75796774315741],
          [140.89074213144795, 42.75807569916203],
          [140.8911771, 42.7581715],
          [140.8916298146305, 42.758220572431],
          [140.89215702699772, 42.7582757224366],
          [140.89237659554976, 42.7582879817289],
          [140.89281965731632, 42.75814222427214],
          [140.89320177526338, 42.75796618281345],
          [140.89377865278985, 42.75767295964582],
          [140.89412027978977, 42.75745176587271],
          [140.89447816742035, 42.75714917674124],
          [140.89478487752655, 42.75683929873414],
          [140.8949946797898, 42.75655456492065],
          [140.89522713310723, 42.75628744888192],
          [140.89531886847786, 42.756002101597986],
          [140.89527589487162, 42.75574586238777],
          [140.89517163280524, 42.755490108508766],
          [140.89509645384518, 42.75530842363672]
        ],
        "type": "LineString"
      }
    },
    {
      "type": "Feature",
      "properties": { "name": "ホワイトラバー" },
      "geometry": {
        "coordinates": [
          [140.89542201489073, 42.75590734497415],
          [140.8955492749301, 42.75571816900477],
          [140.89562786665073, 42.755550167823245],
          [140.89572051793573, 42.75535915114088],
          [140.89582502517334, 42.75512945188421],
          [140.895967598637, 42.754908402311095],
          [140.8961211805472, 42.75464407558863],
          [140.89631943394136, 42.75438384381376],
          [140.89658223394272, 42.75412762805503],
          [140.89690864751844, 42.753871744294344],
          [140.8974022244148, 42.75354472975196],
          [140.89811460533122, 42.753156008913926],
          [140.8985497683312, 42.75290261857618],
          [140.8989355276869, 42.7526420720626],
          [140.8992908576158, 42.75234422505735],
          [140.89962970577648, 42.75198750317378],
          [140.89994776544202, 42.75177590984287],
          [140.9001454631824, 42.751693948232514],
          [140.90031248602878, 42.75165703588537],
          [140.9006473909661, 42.751681202974716],
          [140.9007972681189, 42.75171072691567],
          [140.90105757489547, 42.751884408519494]
        ],
        "type": "LineString"
      }
    },
    {
      "type": "Feature",
      "properties": { "name": "連絡" },
      "geometry": {
        "coordinates": [
          [140.91882917395554, 42.728996174602045],
          [140.91900073413905, 42.72897903074991],
          [140.91906356527483, 42.728912736650116],
          [140.9191018449077, 42.72875245532866],
          [140.918949, 42.7276705],
          [140.9188827, 42.7273464],
          [140.9188572, 42.7270763],
          [140.9188461, 42.7269585],
          [140.9188482, 42.7268636],
          [140.9188501, 42.7267745],
          [140.9188951, 42.7266381]
        ],
        "type": "LineString"
      }
    },
    {
      "type": "Feature",
      "properties": { "name": "アクロスB" },
      "geometry": {
        "coordinates": [
          [140.91915536110122, 42.72894702428776],
          [140.91970861769514, 42.72893213023431],
          [140.92032911436021, 42.72895300076729]
        ],
        "type": "LineString"
      }
    },
    {
      "type": "Feature",
      "properties": { "name": "イゾラD" },
      "geometry": {
        "coordinates": [
          [140.92433055912795, 42.72379321008189],
          [140.92368766227133, 42.72514387192499],
          [140.9228958070133, 42.726670987729456],
          [140.92273959849825, 42.726981583867946],
          [140.9222100643592, 42.727598313291224],
          [140.92193980717897, 42.727840263414606],
          [140.92054657245384, 42.728799405752]
        ],
        "type": "LineString"
      }
    },
    {
      "type": "Feature",
      "properties": { "name": "フリコ沢_#中部" },
      "geometry": {
        "coordinates": [
          [140.91897945018746, 42.72660153575251],
          [140.9195511226216, 42.7275135584172],
          [140.91995981369388, 42.728295332106654],
          [140.92005040790946, 42.72852865759546],
          [140.92024684629934, 42.72878028232684],
          [140.92044328469092, 42.728914924611075],
          [140.9206736886482, 42.72905434102756],
          [140.92083584181546, 42.729112586483495],
          [140.92097367781793, 42.729186402967954],
          [140.92106372106332, 42.729250766073214],
          [140.92114076415766, 42.72933900292236]
        ],
        "type": "LineString"
      }
    },
    {
      "type": "Feature",
      "properties": { "name": "フリコ沢_#下部" },
      "geometry": {
        "coordinates": [
          [140.92114076415766, 42.72933900292236],
          [140.92148518920573, 42.729822308106435],
          [140.9217977980975, 42.73027339050131],
          [140.9221217139946, 42.73066601191505],
          [140.9225765276786, 42.731030104519675],
          [140.9228025479336, 42.73122906411129],
          [140.92292631507487, 42.73133194481561],
          [140.9231604898385, 42.73149629244656],
          [140.9235027688822, 42.73170778774758],
          [140.92389129627304, 42.73190353147979],
          [140.92411183807914, 42.73204081806982],
          [140.92443372764762, 42.73218554914669],
          [140.92479814571885, 42.73240123397488],
          [140.92501729866626, 42.73259706744338],
          [140.92524438126657, 42.73283070335465],
          [140.92544575729255, 42.73300459384766],
          [140.92575185933725, 42.73324300062029],
          [140.92609309110395, 42.7334893843275],
          [140.92643904132927, 42.733739715594965],
          [140.92682635955788, 42.73401302630208],
          [140.9272282615551, 42.73428218637518],
          [140.92748489842523, 42.73443968505447],
          [140.92773900178236, 42.73467469493738],
          [140.92787281218284, 42.7348023620693],
          [140.92800742562991, 42.73494064873178],
          [140.9281893346996, 42.73516081961466],
          [140.9283473282743, 42.73532876306402],
          [140.9285135372357, 42.735511355886246],
          [140.92860090482435, 42.73561255878333],
          [140.928688272413, 42.735681458827685]
        ],
        "type": "LineString"
      }
    },
    {
      "type": "Feature",
      "properties": { "name": "イゾラグラン_#上部" },
      "geometry": {
        "coordinates": [
          [140.92317327749544, 42.71058749169609],
          [140.92322258939805, 42.710877361868285],
          [140.92324998489806, 42.71111891931065],
          [140.92323354759856, 42.711324242397836],
          [140.92322258939805, 42.7115496944169],
          [140.92315684019604, 42.711686575600254],
          [140.92309657009287, 42.711791249242594],
          [140.92308561142084, 42.71202473685946],
          [140.9231404024237, 42.71246355740408],
          [140.92320075518097, 42.71291850913457],
          [140.92325006708353, 42.71333316852861],
          [140.9234138813431, 42.713906719647355],
          [140.92351362292317, 42.714289000016976],
          [140.9236229096493, 42.71467699954245],
          [140.9237769243009, 42.715111007130446],
          [140.92393024179546, 42.71541891962622],
          [140.92409325712174, 42.71587532367489]
        ],
        "type": "LineString"
      }
    },
    {
      "type": "Feature",
      "properties": { "name": "イゾラグラン_#下部" },
      "geometry": {
        "coordinates": [
          [140.92447856697504, 42.723669883655994],
          [140.92469412893604, 42.723899219691276],
          [140.92514916997484, 42.7242628991974],
          [140.92554972525244, 42.72480669880599],
          [140.92585429182623, 42.72532047224854],
          [140.92593325353062, 42.7257099428291],
          [140.92597837450387, 42.72609941096454],
          [140.92585478738135, 42.726742198384784],
          [140.92569686397263, 42.72738025130687],
          [140.92556222588723, 42.72800757810481],
          [140.92552821595268, 42.72834901311822],
          [140.9255625668327, 42.72863499137037],
          [140.92571142064327, 42.72887891295508],
          [140.92608950807994, 42.72929360753028],
          [140.92668492332223, 42.72993284148032],
          [140.92693682977148, 42.730294510402615],
          [140.9270742332887, 42.73057206884252],
          [140.9271772859273, 42.73077392874612],
          [140.92748644384187, 42.73104307426246],
          [140.92787575380828, 42.73121970037283],
          [140.9284269877365, 42.7314805801052],
          [140.9288735491682, 42.731749722554525],
          [140.9291827070827, 42.73202727448293],
          [140.9294689644119, 42.7323552887967],
          [140.92959491763577, 42.73262442745025],
          [140.9296063679314, 42.73287661855838],
          [140.92952814184594, 42.73336528652652],
          [140.92951224213664, 42.733788074843545],
          [140.92957092458965, 42.73408979591949],
          [140.92957092458965, 42.73430531007449],
          [140.92951224213664, 42.73458116710083],
          [140.92917188390686, 42.734934607122256],
          [140.92890194462092, 42.73526218388014],
          [140.92879631620593, 42.7354518327914],
          [140.92877284322418, 42.735624240388944],
          [140.92886673514977, 42.73575354577281],
          [140.92897236356475, 42.73595181350396],
          [140.92894889058454, 42.736193182060504]
        ],
        "type": "LineString"
      }
    },
    {
      "type": "Feature",
      "properties": { "name": "イーストティーニュ_#上部" },
      "geometry": {
        "coordinates": [
          [140.91242289238528, 42.71855287663803],
          [140.91278992949833, 42.718916330784225],
          [140.91312505034023, 42.71926805857663],
          [140.91335644330258, 42.71956702563165],
          [140.91360379440061, 42.720000818405396],
          [140.913861422296, 42.72054655023848],
          [140.91410877339405, 42.72097447421223],
          [140.9143343581506, 42.7215150130838],
          [140.91462160458764, 42.72222429904568],
          [140.91476522780403, 42.722675658618044],
          [140.91478916500756, 42.722962885727156],
          [140.91485299754794, 42.723127014906765],
          [140.91500459983428, 42.72326183497967],
          [140.91518037707186, 42.72351424207827],
          [140.91528410495124, 42.72385422044721],
          [140.9153802839873, 42.7242637368625],
          [140.91554784440928, 42.72460371112345],
          [140.9156755094922, 42.72495540667444],
          [140.91576122728083, 42.7253523179501]
        ],
        "type": "LineString"
      }
    },
    {
      "type": "Feature",
      "properties": { "name": "スティームボートB_#中部" },
      "geometry": {
        "coordinates": [
          [140.92979249953567, 42.712251228825124],
          [140.93085133037886, 42.712601826277336],
          [140.93134392135323, 42.712798197025876],
          [140.93194131891852, 42.71303307102647],
          [140.93263312160053, 42.7134257808348],
          [140.93359460729056, 42.714052531521844],
          [140.9343649357291, 42.71456077206608],
          [140.9348575267034, 42.71478793884191],
          [140.93537369916174, 42.7150651581876],
          [140.9357326617329, 42.71525382064587]
        ],
        "type": "LineString"
      }
    },
    {
      "type": "Feature",
      "properties": { "name": "スティームボートB_#上部" },
      "geometry": {
        "coordinates": [
          [140.92317037406792, 42.71032094855144],
          [140.92369991548952, 42.710472981996844],
          [140.92434518450784, 42.71066366748747],
          [140.9247239293656, 42.710769317304255],
          [140.9250816830792, 42.71082598758127],
          [140.92557381327185, 42.71091654570478],
          [140.92618519094333, 42.7110429359453],
          [140.92670691417663, 42.71119574639866],
          [140.92745204643, 42.711417392643966],
          [140.92855429564491, 42.71181621077642],
          [140.92979249953567, 42.712251228825124]
        ],
        "type": "LineString"
      }
    },
    {
      "type": "Feature",
      "properties": { "name": "スティームボートA_#上部" },
      "geometry": {
        "coordinates": [
          [140.92402923761813, 42.7152903142599],
          [140.92446363353582, 42.715712197956975],
          [140.92478818221036, 42.716013017624135],
          [140.92533059594393, 42.716466933801],
          [140.92599564660537, 42.71703476508412],
          [140.9264333842035, 42.71738675442151],
          [140.92668229570046, 42.71757380379722]
        ],
        "type": "LineString"
      }
    },
    {
      "type": "Feature",
      "properties": { "name": "無名_お帰り" },
      "geometry": {
        "coordinates": [
          [140.91435281302176, 42.72946683671353],
          [140.91373341938703, 42.73019382789343],
          [140.91342571284525, 42.73059643902269],
          [140.9129498136976, 42.73098881545553],
          [140.91273614469043, 42.73125991045015],
          [140.91256644214002, 42.7318162628529],
          [140.9124445151386, 42.73235362054794],
          [140.9121443871336, 42.73324231728844],
          [140.91195680713253, 42.73375899558559],
          [140.91165641544427, 42.734348882852515],
          [140.91145007744245, 42.73498266298998],
          [140.91131877144068, 42.735340883680976]
        ],
        "type": "LineString"
      }
    },
    {
      "type": "Feature",
      "properties": { "name": "ジャイアント_#上部" },
      "geometry": {
        "coordinates": [
          [140.88716892695413, 42.75150116815348],
          [140.88756037745242, 42.75138518188956],
          [140.88786254976839, 42.75127928119775],
          [140.888082311453, 42.7511834661297],
          [140.88819905984815, 42.751077565093254],
          [140.88832267579414, 42.75086576247742],
          [140.88854930503163, 42.75057327196143],
          [140.8886523183212, 42.750532928333485],
          [140.88892702042614, 42.75047745580261],
          [140.88929100071516, 42.7504724128427],
          [140.8896961863207, 42.750512756510034],
          [140.89020667391844, 42.75057697006662],
          [140.89060224455244, 42.750614624055515],
          [140.89082773687244, 42.75063448552923]
        ],
        "type": "LineString"
      }
    },
    {
      "type": "Feature",
      "properties": { "name": "レインボー_#上部" },
      "geometry": {
        "coordinates": [
          [140.88729216104178, 42.7519339310694],
          [140.88708110497743, 42.752065427740376],
          [140.8867996968902, 42.75220162042697],
          [140.8866462015704, 42.752347205381284],
          [140.88669097103792, 42.75259610789905],
          [140.88683167508248, 42.752863794396006],
          [140.88729216104178, 42.753150264630506],
          [140.8875927560445, 42.75329115114465],
          [140.88804593796823, 42.75353320186173],
          [140.88823780711886, 42.753575467588774],
          [140.88883899712272, 42.75345806272102],
          [140.88946576968033, 42.75327960689543],
          [140.89006696074802, 42.753101150364216],
          [140.89026522553706, 42.75302131446688],
          [140.89044430341056, 42.7529179972677]
        ],
        "type": "LineString"
      }
    },
    {
      "type": "Feature",
      "properties": { "name": "レインボー_#中部" },
      "geometry": {
        "coordinates": [
          [140.89044430341056, 42.7529179972677],
          [140.89072700251756, 42.7526814792827],
          [140.89095743882905, 42.75244942319068],
          [140.8910166938818, 42.75229955316914],
          [140.8909771905133, 42.75206749564708],
          [140.89085868040928, 42.75188378282621],
          [140.89072700251756, 42.75169523489046],
          [140.8905594796757, 42.75141397252838],
          [140.89040805009967, 42.75121575395019],
          [140.8903092916799, 42.751027203982204],
          [140.89026978831305, 42.75091117294812],
          [140.89025003662874, 42.750848322713864],
          [140.89027637220784, 42.75075646456463],
          [140.8903948823101, 42.75072262205421],
          [140.89055289578096, 42.750751629921325],
          [140.8907569965151, 42.75084348807772],
          [140.89110260646657, 42.75099155158938],
          [140.89153452890758, 42.75115542011363],
          [140.89180355124495, 42.751208810759664],
          [140.8922325328066, 42.75132627001855],
          [140.89230524154738, 42.75136364337234]
        ],
        "type": "LineString"
      }
    },
    {
      "type": "Feature",
      "properties": { "name": "バンビ_#上部" },
      "geometry": {
        "coordinates": [
          [140.88960576726248, 42.752633927970464],
          [140.89026558679484, 42.75277309263447],
          [140.8906867481993, 42.75283494349648],
          [140.8912342580237, 42.752865868903996],
          [140.8918870581992, 42.7528091723112],
          [140.89262409065708, 42.75277309263447],
          [140.8932909295463, 42.75270093321802],
          [140.8939016135824, 42.752592693936435]
        ],
        "type": "LineString"
      }
    },
    {
      "type": "Feature",
      "properties": { "name": "スカイ_#下部" },
      "geometry": {
        "coordinates": [
          [140.88946211952037, 42.75168154407673],
          [140.89055324304326, 42.75151530948881],
          [140.89075854160222, 42.75149558122705],
          [140.89136489414818, 42.75144432112924],
          [140.89219665916994, 42.75138888604363]
        ],
        "type": "LineString"
      }
    },
    {
      "type": "Feature",
      "properties": { "name": "無名_1" },
      "geometry": {
        "coordinates": [
          [140.8908809373729, 42.75266665246559],
          [140.8913887155328, 42.752490697279626],
          [140.89172533251508, 42.75230636273881],
          [140.89206194949583, 42.75214297484689],
          [140.89230728051683, 42.75203404934578],
          [140.89268383510637, 42.75189998692849],
          [140.89284358553851, 42.75185390290571]
        ],
        "type": "LineString"
      }
    }
  ]
}
