{
  "type": "FeatureCollection",
  "features": [
    {
      "type": "Feature",
      "properties": {
        "@id": "way/503270178",
        "name": "すぎのき"
      },
      "geometry": {
        "coordinates": [
          [138.5632975373376, 36.999514980653515],
          [138.5631638857124, 36.99923660131045],
          [138.56301491433396, 36.99898289537191],
          [138.56288987151268, 36.998717723186076],
          [138.5628237286448, 36.99856133266795],
          [138.56282786436634, 36.99844301448012],
          [138.56288942862406, 36.99828647529424],
          [138.56301874291174, 36.99800568638968],
          [138.5633475143779, 36.99759410826743],
          [138.56367122081943, 36.997176319608684],
          [138.56399114851345, 36.99685510552443],
          [138.56422176808903, 36.996588570972875],
          [138.56448639639925, 36.99631298228067]
        ],
        "type": "LineString"
      }
    },
    {
      "type": "Feature",
      "properties": {
        "@id": "way/124880405",
        "name": "かもしか"
      },
      "geometry": {
        "coordinates": [
          [138.55901990598534, 37.00198427259591],
          [138.55894992639807, 37.00180142775369],
          [138.5588734276633, 37.001671621483666],
          [138.55880459276028, 37.00157007911089],
          [138.5587920221197, 37.001515818472285],
          [138.55879692892864, 37.00147377095734],
          [138.55883166765125, 37.00141313161199],
          [138.5588495910567, 37.00134966320705],
          [138.55883822169534, 37.00129364212717],
          [138.55879885233182, 37.00123062105718],
          [138.55873569914488, 37.00116677106122],
          [138.55869364427747, 37.00110818193079],
          [138.55865846059817, 37.001064232036384],
          [138.55864693996486, 37.00104106981417],
          [138.5586456858509, 37.00101798486993],
          [138.55865408688396, 37.000985096878104],
          [138.558667220525, 37.00094087014284],
          [138.55869004667002, 37.00085332630907],
          [138.5587104119, 37.000783326314895],
          [138.55872673111497, 37.00070032283584],
          [138.55872336006138, 37.00064389204136],
          [138.55871998900776, 37.00062740229848],
          [138.55870206351327, 37.000604908521616],
          [138.55866463519874, 37.00056659654964],
          [138.55857181856214, 37.00049959615151],
          [138.55842161790014, 37.00040741756224],
          [138.5582618629193, 37.00029927134828],
          [138.55811077081353, 37.00021518251376],
          [138.55800312325064, 37.000151265022645],
          [138.55788937697383, 37.00012887750539],
          [138.5577876151952, 37.000109434985],
          [138.55772970881065, 37.00009537998208],
          [138.55769588054366, 37.00008458873046],
          [138.55767342735138, 37.000069269980195],
          [138.55767181792774, 37.00005026998481],
          [138.55767973981204, 37.000029643742614],
          [138.55769627112002, 37.000011336249464],
          [138.5577328179278, 37.000004698747574],
          [138.55794300577162, 37.00000783561552],
          [138.55816978753734, 37.00000655499671],
          [138.5583158972674, 37.000020433741234],
          [138.55843195988146, 37.000049993713155],
          [138.5585234911894, 37.00007414743875],
          [138.5585999598814, 37.00009531240669],
          [138.55874163029924, 37.00013118965833],
          [138.5588592309498, 37.000167031749044],
          [138.55892696579858, 37.0001930317192],
          [138.55895410324982, 37.00020266319949],
          [138.5589881016258, 37.00022612633725],
          [138.55901616709986, 37.000257826314545],
          [138.55902836677538, 37.00029375790446],
          [138.55904283322457, 37.000338910538694],
          [138.5590661, 37.0003776],
          [138.5590989011382, 37.00041745003474],
          [138.55912476937456, 37.00047114214308],
          [138.5591742387417, 37.00053931647464],
          [138.55921591613028, 37.00060039249315],
          [138.55925572154914, 37.000658963706215],
          [138.55930457199534, 37.00072523206873],
          [138.55934457199544, 37.000769768843305],
          [138.55938957199538, 37.00078964761898],
          [138.5595230673272, 37.00080433160089],
          [138.5597929177757, 37.00083245280547],
          [138.55997526355387, 37.000848037208144],
          [138.5600464430966, 37.00083884820527],
          [138.56008096518352, 37.00080563703568],
          [138.56009452604866, 37.0007558545422],
          [138.56006780828253, 37.000711171338466],
          [138.56001389123452, 37.000686693035654],
          [138.5599225350517, 37.000660848300946],
          [138.5598430165649, 37.0006234881413],
          [138.55978717526617, 37.000587022370574],
          [138.5597378215073, 37.00053434414523],
          [138.55967333157687, 37.00048108046419],
          [138.5595903570863, 37.00038787569765],
          [138.5594795461784, 37.000247966141636],
          [138.55937474890573, 37.00015187552314],
          [138.55934178945026, 37.00008796604351],
          [138.55933154617838, 36.99998360244819],
          [138.55932989745173, 36.99986623414199],
          [138.55930173527048, 36.999801870647914],
          [138.55919597854384, 36.999701780103756],
          [138.55898322181585, 36.99956087079279],
          [138.5588173241058, 36.9994447680974],
          [138.55865890909945, 36.999351866331494],
          [138.55851003947836, 36.99924780713731],
          [138.55842800813565, 36.9992106295903],
          [138.55837118085955, 36.99919545204818],
          [138.55829968636323, 36.99919182192742],
          [138.5581966, 36.9992076],
          [138.55804019087935, 36.99923392209724],
          [138.55796373637503, 36.999245803496656],
          [138.55790489554605, 36.99924730620098],
          [138.55785710010522, 36.99924139650583],
          [138.55780635005257, 36.99922157712862],
          [138.55776142963805, 36.99919310763005],
          [138.55770852611394, 36.99911403722741],
          [138.55764494072156, 36.99900254895415],
          [138.55761614528083, 36.99894901794262],
          [138.55760023626755, 36.99891189933271],
          [138.55758614549342, 36.99889292760952],
          [138.55755023648018, 36.99888434002885],
          [138.5574127363727, 36.9988761310443],
          [138.55724419820035, 36.998861932658535],
          [138.55711291756637, 36.99886096952198],
          [138.5570348702638, 36.998847342411466],
          [138.5569398229629, 36.99882034577929],
          [138.5568962993132, 36.99879834746744],
          [138.55687250389198, 36.9987786],
          [138.5568588229644, 36.99872722711738],
          [138.55686350539796, 36.99867547457605],
          [138.5569025069027, 36.99861009150056],
          [138.55696387177002, 36.99852959658868],
          [138.5570166, 36.9984376],
          [138.55701083239597, 36.99836603085441],
          [138.5569567669036, 36.998275646089446],
          [138.55688640845548, 36.998209430647655],
          [138.55679005493545, 36.9980740458108],
          [138.55671353450992, 36.998005415746334],
          [138.55664300422774, 36.997970415757806],
          [138.5565369992995, 36.9979571542482],
          [138.55643006971795, 36.997957154247956],
          [138.5563341859158, 36.99794593879713],
          [138.55625712535388, 36.99791681545788],
          [138.55620041831187, 36.99789133848605],
          [138.55611547394568, 36.99786081546093],
          [138.55607547887374, 36.99782984674172],
          [138.55604083732186, 36.997782401094035],
          [138.55598911867224, 36.99773803407724],
          [138.55593592926408, 36.997711849052834],
          [138.55583318384262, 36.99768115514149],
          [138.55577120556381, 36.99766078504806],
          [138.55569533986008, 36.997634960724184],
          [138.55565722858518, 36.99760304289995],
          [138.5556287097919, 36.997549353466994],
          [138.55562533986014, 36.99744263199451],
          [138.55560922858342, 36.99734563197469],
          [138.55558885865335, 36.99727984657905],
          [138.55555123006812, 36.997213586370925],
          [138.55551578645154, 36.99716211154268],
          [138.5554101939681, 36.997086782776925],
          [138.55522378496497, 36.99700345398484],
          [138.55503178496497, 36.996912979181594],
          [138.55484419099872, 36.99679892887548],
          [138.55470400454712, 36.99669365038148],
          [138.55457037447724, 36.99658894751715],
          [138.5544653744772, 36.996469422371646],
          [138.55439455944233, 36.99639076448049],
          [138.55428296695888, 36.9963326],
          [138.55417648426751, 36.99626530277738],
          [138.55406200306243, 36.99619218874751],
          [138.55394980454722, 36.99613881774618],
          [138.55381352334044, 36.99607881774259],
          [138.5537580120637, 36.99604259732367],
          [138.55372128199377, 36.99600917926577],
          [138.5537201203693, 36.99597435094891],
          [138.55375644143786, 36.995950408694725],
          [138.55380173767787, 36.99595863660819],
          [138.55396977823554, 36.99601652261849],
          [138.55406970603187, 36.99606676937024],
          [138.5543333, 36.9961497],
          [138.55456996468706, 36.99630267476187],
          [138.55478881879503, 36.996417263058056],
          [138.55496848645154, 36.99650191490243],
          [138.5551373, 36.9965727],
          [138.5553664112766, 36.99664137109475],
          [138.5555786353129, 36.99667248516938],
          [138.55572096914116, 36.996689042214776],
          [138.55587693303943, 36.996707845923744],
          [138.55602408041787, 36.99673137111348],
          [138.55615034055597, 36.99677566814149],
          [138.55635675104548, 36.9968491295646],
          [138.55656245034965, 36.996938028846515],
          [138.55675700672774, 36.99702583250427],
          [138.55699363531474, 36.997128092666145],
          [138.5571972233405, 36.99721463146782],
          [138.55743581730857, 36.997270631504925],
          [138.5575666338283, 36.99730287809561],
          [138.55766874510496, 36.997309042476],
          [138.5578660037583, 36.99732692832204],
          [138.55795222631164, 36.99733664978487],
          [138.55800033758652, 36.997350928328984],
          [138.5580424488632, 36.997375010521985],
          [138.55808685637973, 36.997413731988516],
          [138.5581233, 36.9975267],
          [138.5581503, 36.9975587],
          [138.5581753, 36.9975727],
          [138.5582083, 36.9975827],
          [138.5582523, 36.9975827],
          [138.5583053, 36.9975647],
          [138.5584383, 36.9975107],
          [138.5585233, 36.9974917],
          [138.5585803, 36.9974897],
          [138.5586103, 36.9974947],
          [138.55864904000188, 36.99751072600646],
          [138.55870948001822, 36.99754373467941],
          [138.55874776667545, 36.99756792110956],
          [138.55878152000815, 36.99758395580656],
          [138.55881775334464, 36.99758896882238],
          [138.55886874001632, 36.99758096880946],
          [138.5589500533327, 36.99755983872629],
          [138.5590208333246, 36.997544773694166],
          [138.55911206666102, 36.99753378669678],
          [138.55921245019718, 36.99754069888134],
          [138.5593053, 36.9975636195492],
          [138.5593803790752, 36.99758711379619],
          [138.5594673763856, 36.99758934367345],
          [138.5595197115121, 36.99759198735004],
          [138.55977084268804, 36.997613865425066],
          [138.55999744355898, 36.997670194212446],
          [138.56016126163755, 36.9977639216059],
          [138.56028105890914, 36.99790156462275],
          [138.56037884577563, 36.997975429473016],
          [138.5605463136369, 36.99804826744679],
          [138.56068942216376, 36.99810365437953],
          [138.56084805917075, 36.99813767048518],
          [138.56100258550111, 36.99817364645496],
          [138.5611194317304, 36.99817582783476],
          [138.56113336198962, 36.99814007337271],
          [138.56101167986208, 36.9980401622171],
          [138.5609310472662, 36.99795227072718],
          [138.56079104007202, 36.99783592723416],
          [138.56068019170306, 36.99769572498699],
          [138.56050260497335, 36.997489236662645],
          [138.56046535227546, 36.997265138261064],
          [138.56040434973588, 36.99716117142992]
        ],
        "type": "LineString"
      }
    },
    {
      "type": "Feature",
      "properties": {
        "@id": "way/503270176",
        "name": "おおわし"
      },
      "geometry": {
        "coordinates": [
          [138.55808558125005, 37.00070615584579],
          [138.55838160625163, 37.0002241344869],
          [138.55860041250097, 36.99981625884097],
          [138.5587442711694, 36.999536667303246],
          [138.55889735854043, 36.99925498032611],
          [138.5590630499989, 36.99898768760061],
          [138.55916636656818, 36.99879985941895],
          [138.5592963265091, 36.99854407130223],
          [138.55936120431883, 36.9983542],
          [138.55936120431883, 36.9981012341484],
          [138.55930199219574, 36.99754883476997],
          [138.55936302418274, 36.99730374488192],
          [138.55947306374256, 36.99717849640032],
          [138.55974124050798, 36.997052845372345]
        ],
        "type": "LineString"
      }
    },
    {
      "type": "Feature",
      "properties": {
        "@id": "way/503270179",
        "name": "くまのす"
      },
      "geometry": {
        "coordinates": [
          [138.5596285790307, 37.002144919829405],
          [138.56047918166956, 37.0016896994891],
          [138.56102104191922, 37.0013760849496],
          [138.5622311, 37.0005906],
          [138.5624456, 37.0004192],
          [138.5629729503643, 36.99999252531574],
          [138.56342929388612, 36.999658292725755],
          [138.5640448337487, 36.99921788802732],
          [138.56436365599393, 36.99888491097335],
          [138.56460763813425, 36.99851348444207],
          [138.56472202542014, 36.99832423355286],
          [138.56479856918622, 36.99811495140745],
          [138.56484480683824, 36.99795707596086],
          [138.56490721295225, 36.99770033093017],
          [138.5649614315361, 36.99750879846933],
          [138.56496934400613, 36.99737414030207],
          [138.5649347, 36.9971845],
          [138.56476172469988, 36.99680740844454],
          [138.564595631296, 36.99652975311276],
          [138.5645592, 36.9963448],
          [138.5646020865656, 36.99614165974813]
        ],
        "type": "LineString"
      }
    },
    {
      "type": "Feature",
      "properties": {
        "@id": "way/503270180",
        "name": "ファミリー"
      },
      "geometry": {
        "coordinates": [
          [138.5598476402842, 36.99706775424279],
          [138.56083954316898, 36.99654427840526],
          [138.56137610016734, 36.996305286302636],
          [138.56175419527872, 36.99609827455544],
          [138.5623773045539, 36.99581704549084],
          [138.5628870615544, 36.99559945963929],
          [138.56329753794384, 36.9954142458006],
          [138.56367893322255, 36.99526453634048],
          [138.56398260455396, 36.99509626664776]
        ],
        "type": "LineString"
      }
    },
    {
      "type": "Feature",
      "properties": {
        "@id": "way/503270835",
        "name": "しらかば"
      },
      "geometry": {
        "coordinates": [
          [138.55455067275713, 37.004627121746935],
          [138.5543583625161, 37.00451044966512],
          [138.55399543623116, 37.00444040063424],
          [138.55393809452997, 37.00441822536693],
          [138.5541392781978, 37.004322700468265],
          [138.55438008128775, 37.00429145847913],
          [138.55454875228435, 37.004272166341764],
          [138.55461240087618, 37.00420561677727],
          [138.5547542, 37.0038417],
          [138.55494031583873, 37.00329488201239],
          [138.55505677103992, 37.002877404070446],
          [138.55514584344093, 37.00269911680576],
          [138.5552935027189, 37.002598809374945],
          [138.55541624662578, 37.002548568606684],
          [138.55553947661167, 37.0025133368786],
          [138.55587396786268, 37.0024636062641],
          [138.555947072381, 37.002432226959925],
          [138.55612555042748, 37.00231051352141],
          [138.55633777377716, 37.002109488316194],
          [138.55664039994474, 37.00198065998338]
        ],
        "type": "LineString"
      }
    },
    {
      "type": "Feature",
      "properties": {
        "@id": "way/503270836",
        "name": "いがぐり"
      },
      "geometry": {
        "coordinates": [
          [138.55467776432036, 37.00460151077631],
          [138.5553775335682, 37.00377402561665],
          [138.55572526854516, 37.00338921201903],
          [138.55617276995218, 37.002860496203944],
          [138.55647120422486, 37.0025398],
          [138.5568099014089, 37.00211422975142],
          [138.5571030035184, 37.001707668500075],
          [138.55763823497503, 37.001063434037135],
          [138.55790136572745, 37.00076225425363]
        ],
        "type": "LineString"
      }
    },
    {
      "type": "Feature",
      "properties": {
        "@id": "way/503270837",
        "name": "まむし"
      },
      "geometry": {
        "coordinates": [
          [138.557583847272, 37.003142397465744],
          [138.55759632836472, 37.00278819219759],
          [138.55762112636276, 37.00248544068756],
          [138.5576228432708, 37.00224263516673],
          [138.55767288854562, 37.00190585415893],
          [138.55773014327312, 37.001695683192516],
          [138.55776819291856, 37.001572071089775],
          [138.55788287338106, 37.001387260224625],
          [138.5580241893998, 37.00118105462541],
          [138.55825758580625, 37.00098631087717]
        ],
        "type": "LineString"
      }
    },
    {
      "type": "Feature",
      "properties": {
        "@id": "way/503270838",
        "name": "オリオン"
      },
      "geometry": {
        "coordinates": [
          [138.55504735051596, 37.00484518683826],
          [138.55533411459592, 37.004666278127324],
          [138.55554237200192, 37.00453433319504],
          [138.55575961481628, 37.004344983090135],
          [138.5560233777283, 37.00412414705782],
          [138.5563171500106, 37.00390244694189],
          [138.5564946655138, 37.003795009741495],
          [138.55682940406322, 37.00362086985264],
          [138.55746606782898, 37.00333789700773],
          [138.55824888540621, 37.00293145426492],
          [138.55886345970816, 37.002539752861146],
          [138.5595157927043, 37.002164634494115]
        ],
        "type": "LineString"
      }
    },
    {
      "type": "Feature",
      "properties": {
        "name": "無名_連絡"
      },
      "geometry": {
        "coordinates": [
          [138.5589569496595, 37.002066101863136],
          [138.5588198476587, 37.001867973846565],
          [138.55876489331763, 37.00175877615689],
          [138.55869802391268, 37.001608488219055],
          [138.55863480551392, 37.00151651551026],
          [138.55850860214713, 37.0014284171651],
          [138.55836921560655, 37.001320691028624],
          [138.55834223758796, 37.0012201465603],
          [138.55832425217318, 37.00103701158844],
          [138.55835123238631, 37.00085382901028]
        ],
        "type": "LineString"
      }
    },
    {
      "type": "Feature",
      "properties": {
        "name": "無名_連結路"
      },
      "geometry": {
        "coordinates": [
          [138.5601237104338, 37.00086686008147],
          [138.56020193239317, 37.00103738643827],
          [138.5602695838159, 37.001157261173006],
          [138.56039220202013, 37.001233238019736],
          [138.56064800896752, 37.0013446705903]
        ],
        "type": "LineString"
      }
    }
  ]
}
