{"type":"FeatureCollection","features":[{"type":"Feature","properties":{"@id":"way/506713322","name":"メルヘン"},"geometry":{"coordinates":[[141.0677055,43.0778876],[141.0677992,43.0779616],[141.0680653,43.0779506],[141.0684664,43.0778164],[141.06907,43.0776357],[141.0692012,43.07758235],[141.0693324,43.077529],[141.0695588,43.0774734],[141.0698658,43.0775518],[141.0702628,43.0776106],[141.0711533,43.0776145],[141.0714483,43.0776419],[141.0728913,43.0776655],[141.0734139,43.0776764],[141.0740286,43.0777203],[141.0745168,43.0777712],[141.0751712,43.0779711],[141.0756004,43.0780455],[141.0758793,43.0780573],[141.0764628,43.0780518],[141.076754,43.0778924],[141.0769805,43.0774817],[141.0769368,43.0769853],[141.0768292,43.0761907],[141.0768853,43.0755092],[141.0769516,43.0748889],[141.0770881,43.0743046],[141.0772315,43.0741464],[141.0778262,43.0738922],[141.0783195,43.0736002],[141.0784388,43.0731601],[141.0784734,43.0728248],[141.07842254179545,43.07249587707752],[141.0783688,43.0722776],[141.078249,43.071979],[141.0781169,43.0715813],[141.0783969741408,43.07104166154767],[141.0790040258486,43.07075999113896],[141.07966880695255,43.070827240470265],[141.08040326998952,43.0711958194985],[141.08125093868995,43.071689337050444],[141.081706234311,43.072044314722255],[141.08180839416042,43.07245661775252]],"type":"LineString"}},{"type":"Feature","properties":{"@id":"way/1084139729","name":"ファミリー"},"geometry":{"coordinates":[[141.0677953,43.0766183],[141.0688412,43.0758865],[141.070062,43.0750387],[141.0705681,43.0746872],[141.0711315,43.0744636],[141.0716894,43.0743423],[141.0736294,43.0738825],[141.0746243,43.0737447],[141.0757885,43.0731764],[141.0766412,43.0725342],[141.0773055,43.0718945],[141.07836068044963,43.07098702262002]],"type":"LineString"}},{"type":"Feature","properties":{"@id":"way/506713307","name":"ダウンヒル"},"geometry":{"coordinates":[[141.0590444,43.0691004],[141.0598635,43.0691522],[141.0607017,43.0691718],[141.0615251,43.0690867],[141.0620208,43.0691099],[141.0632227,43.0690889],[141.0636074,43.0690349],[141.064182376436,43.06885306943809],[141.06482364769676,43.0685622194353],[141.0656226,43.0681549],[141.0660034,43.0680413],[141.0661483,43.0680178],[141.0666418,43.0680452],[141.0673258764384,43.06823593886896],[141.06822354137927,43.06831364669801],[141.0692865,43.0682999],[141.0696995,43.0683078],[141.069839,43.0683235],[141.0701019,43.0683235],[141.0711265,43.068202],[141.0713893,43.0681706],[141.07194901494083,43.068153346024054],[141.0723978,43.0681824],[141.0726875,43.0681941],[141.0729879,43.0682176],[141.073283,43.0682098],[141.0737121,43.0682137],[141.0742539,43.0682803],[141.0745704,43.0682882],[141.0748547,43.0683117],[141.0751283,43.0683195],[141.0758793,43.0684489],[141.077022,43.0686291],[141.0779987,43.0689214],[141.0792848,43.0694016],[141.0801065,43.0697225],[141.0807708,43.0701139],[141.0811541,43.0706407],[141.08141,43.0711658],[141.0818018,43.0718919]],"type":"LineString"}},{"type":"Feature","properties":{"@id":"way/506713309","name":"エコー"},"geometry":{"coordinates":[[141.0593581,43.0695569],[141.0599892,43.0698835],[141.0608076,43.0702405],[141.0613841,43.070614],[141.0618004,43.0710454],[141.0619639,43.0715006],[141.0624161,43.0722968],[141.0627974,43.0727384],[141.0632032,43.0730377],[141.0633427,43.0730848],[141.0639113,43.073171],[141.0644746,43.0732141],[141.0652149,43.0731827],[141.066556,43.0731671],[141.0676235,43.0733081],[141.0691709,43.0737226]],"type":"LineString"}},{"type":"Feature","properties":{"@id":"way/506713311","name":"スイング"},"geometry":{"coordinates":[[141.06415308178657,43.074981106664794],[141.0651285,43.0749343],[141.0658186,43.0747708],[141.0675967,43.0740487],[141.0684121,43.0738567],[141.0691709,43.0737226],[141.0701213,43.0736717],[141.0723897,43.0735504],[141.0728607,43.0733116],[141.0731838,43.0730328],[141.0744631,43.0719797],[141.0754692,43.0712073],[141.0763336,43.0706457],[141.0768342,43.0704827],[141.0781201,43.0704342],[141.0787761,43.070518],[141.0789692,43.0706277]],"type":"LineString"}},{"type":"Feature","properties":{"@id":"way/506713314","name":"ウッディー"},"geometry":{"coordinates":[[141.0593581,43.0695569],[141.0596039,43.0700266],[141.0611083,43.0726208],[141.0616788,43.0735094],[141.062192,43.0740152],[141.0626775,43.0743152],[141.0632032,43.0746404],[141.0637559,43.0750369],[141.0643652,43.0754594],[141.0648606,43.0759042],[141.0661569,43.0764863],[141.0664701,43.0765713],[141.0669529,43.0766625],[141.0674985,43.0766509],[141.0677953,43.0766183]],"type":"LineString"}},{"type":"Feature","properties":{"@id":"way/506713318","name":"メルヘン（迂回）"},"geometry":{"coordinates":[[141.0677953,43.0766183],[141.0682779,43.0766741],[141.0687662,43.076719],[141.0691094,43.0767407],[141.0694957,43.076631],[141.0698926,43.0765566],[141.0701609,43.0765526],[141.0704184,43.0765801],[141.0706448,43.0766347],[141.0712114,43.076862],[141.0715439,43.0769538],[141.072033,43.0770385],[141.0724208,43.0771201],[141.0731008,43.0774835],[141.0734139,43.0776764]],"type":"LineString"}},{"type":"Feature","properties":{"@id":"way/1084139722","name":"林間"},"geometry":{"coordinates":[[141.058814,43.068995],[141.0586005,43.0690994],[141.0583655,43.0692488],[141.0580319,43.0694717],[141.0578596,43.0696657],[141.0577095,43.0700128],[141.0577657,43.0705045],[141.0578915,43.0707902],[141.0583724,43.0712874],[141.0587331,43.07171],[141.0590577,43.0719935],[141.0595355,43.0724113],[141.0600809,43.0728059],[141.0603547,43.0731122],[141.0604835,43.0732885],[141.0605897,43.0734412],[141.0608607,43.073926],[141.0613673,43.0747287],[141.0616572,43.0750829],[141.0619587,43.07526],[141.06275169895434,43.07567456410659],[141.0643338,43.0764233],[141.0648995,43.0765173],[141.0658323,43.0765241],[141.0664701,43.0765713]],"type":"LineString"}},{"type":"Feature","properties":{"@id":"way/1084139742","name":"メルヘン（迂回）"},"geometry":{"coordinates":[[141.0675404,43.077435],[141.0680312,43.0773481],[141.0682364,43.0773653],[141.0687915,43.0773866],[141.0695588,43.0774734]],"type":"LineString"}},{"type":"Feature","properties":{"@id":"way/1084139726","name":"深雪エリア"},"geometry":{"coordinates":[[141.06404740977553,43.0690975646269],[141.06456053502933,43.069455378523344],[141.06508143490908,43.0699211014186],[141.06554791241143,43.07054584608582],[141.06621483807533,43.071308481396045],[141.06653359770218,43.07177986956435],[141.0667279633268,43.071955929275504],[141.06741139126854,43.072175218084226],[141.06793229114834,43.072351276659646],[141.06857758502554,43.072533014013715],[141.06917623115612,43.07272043009553],[141.06945611765758,43.07283969457623],[141.0696116101591,43.07301007200351],[141.06974377878498,43.07321452429102],[141.06987594741088,43.073373542265216],[141.06996924291138,43.07348712627984],[141.07002366528633,43.07365182272744]],"type":"LineString"}}]}