{
  "type": "FeatureCollection",
  "features": [
    {
      "type": "Feature",
      "properties": { "name": "ナチュラル" },
      "geometry": {
        "coordinates": [
          [141.1970956, 43.0745785],
          [141.1972644, 43.0742606],
          [141.1974031, 43.0742326],
          [141.1974778, 43.074331],
          [141.1977217, 43.0747052],
          [141.1978383, 43.0747586],
          [141.1979738, 43.0747883],
          [141.1980768, 43.0746933],
          [141.1982746, 43.0743924],
          [141.1984129, 43.0743231],
          [141.1985484, 43.0744716],
          [141.1986622, 43.0747072],
          [141.198711, 43.074921],
          [141.1987516, 43.075113],
          [141.1988302, 43.0751783],
          [141.1989468, 43.0751625],
          [141.1991745, 43.0750338],
          [141.1994048, 43.0748279],
          [141.1998168, 43.0745765],
          [141.2001447, 43.0744676],
          [141.2003697, 43.0744161],
          [141.2005974, 43.0744577],
          [141.200722, 43.0745765],
          [141.2009334, 43.074824],
          [141.2011286, 43.0751922],
          [141.2011855, 43.0752595],
          [141.2013698, 43.0752338],
          [141.2016679, 43.0750536],
          [141.2019281, 43.0746933],
          [141.2021558, 43.0744676],
          [141.202481, 43.074232],
          [141.2026301, 43.0741924],
          [141.2029038, 43.0743171],
          [141.203286, 43.0744735],
          [141.2034324, 43.0744419],
          [141.2035353, 43.0742459],
          [141.2036167, 43.0741231],
          [141.2042238, 43.0737925],
          [141.2043063, 43.0737503],
          [141.204521, 43.0736897],
          [141.2047333, 43.0737707],
          [141.2050667, 43.0739845],
          [141.2051859, 43.0741132],
          [141.2052618, 43.0742894],
          [141.205251, 43.0744735],
          [141.2050694, 43.0749051],
          [141.2050775, 43.0753367],
          [141.2050921, 43.0757119],
          [141.2053193, 43.0762713],
          [141.2054314, 43.0763282],
          [141.2055466, 43.0762486],
          [141.2057619, 43.0759216],
          [141.2058489, 43.0758397],
          [141.205922, 43.075882],
          [141.2061597, 43.0767356],
          [141.206308, 43.0770756],
          [141.2064518, 43.0774006],
          [141.2072392, 43.0778675],
          [141.2077051, 43.0783381],
          [141.2077163, 43.0784367],
          [141.2073281, 43.0789366],
          [141.2073395, 43.0792049],
          [141.2079328, 43.0798426],
          [141.2079787, 43.0800633],
          [141.207881, 43.0801937],
          [141.2075828, 43.0804265],
          [141.2074779, 43.0805729],
          [141.207563, 43.0807017],
          [141.2077777, 43.0807846],
          [141.2079498, 43.0810707],
          [141.2081319, 43.0811073],
          [141.2083601, 43.0809979],
          [141.2088571, 43.0809582],
          [141.2093976, 43.0810218],
          [141.2095088, 43.0810957],
          [141.2095203, 43.0811782],
          [141.2094331, 43.081211],
          [141.2089279, 43.0811648],
          [141.2084558, 43.0812319],
          [141.2081951, 43.0813944],
          [141.2078845, 43.0815329],
          [141.2077228, 43.0815418],
          [141.207542, 43.0814443],
          [141.2072894, 43.0811498],
          [141.2069664, 43.0810733],
          [141.2063916, 43.0810261],
          [141.2064036, 43.0808841],
          [141.2066715, 43.0802885],
          [141.2066245, 43.0801433],
          [141.2061796, 43.0800345],
          [141.2058218, 43.0800285],
          [141.205374, 43.0798258],
          [141.2049378, 43.0798534],
          [141.2045887, 43.0801169],
          [141.2043121, 43.080127],
          [141.2043175, 43.0797622],
          [141.2041528, 43.0796079],
          [141.2035549, 43.0797008],
          [141.2028961, 43.0800294],
          [141.2022916, 43.0801218],
          [141.2015071, 43.0805605],
          [141.200856, 43.0809395],
          [141.2004753, 43.0816936],
          [141.201117, 43.0822732],
          [141.2013853, 43.0825083],
          [141.2018627, 43.0829824],
          [141.2023401, 43.0834094],
          [141.2028565, 43.0835061],
          [141.2029938, 43.0836233]
        ],
        "type": "LineString"
      }
    },
    {
      "type": "Feature",
      "properties": { "name": "聖火台オーシャンダイブ" },
      "geometry": {
        "coordinates": [
          [141.2076034250662, 43.098910456256526],
          [141.20764876596252, 43.09940398409985],
          [141.20832206332338, 43.10111304557222],
          [141.2085628, 43.1017388],
          [141.2084663, 43.1020835],
          [141.2082651, 43.1024027],
          [141.20775384247008, 43.10333923089662]
        ],
        "type": "LineString"
      }
    },
    {
      "type": "Feature",
      "properties": { "name": "聖火台オーシャンクルーズ" },
      "geometry": {
        "coordinates": [
          [141.20677504867822, 43.09908331171803],
          [141.20664822629044, 43.09939383933229],
          [141.2065724553567, 43.09982886824318],
          [141.2067068, 43.1001917],
          [141.207211, 43.1009633],
          [141.2076563, 43.1019817],
          [141.2077206, 43.1021893],
          [141.2077528, 43.1027023],
          [141.2077635, 43.1028668]
        ],
        "type": "LineString"
      }
    },
    {
      "type": "Feature",
      "properties": { "name": "白樺サントラップ" },
      "geometry": {
        "coordinates": [
          [141.2069611, 43.0921053],
          [141.2066799, 43.0921772],
          [141.2066182, 43.0922027],
          [141.2065431, 43.0922751],
          [141.2066343, 43.0924691],
          [141.2066907, 43.0925552],
          [141.2067711, 43.0926473],
          [141.2070474, 43.0933054],
          [141.2072781, 43.0935933],
          [141.207447, 43.0938499],
          [141.2075222, 43.0939361],
          [141.2076724, 43.0940556],
          [141.2080666, 43.0942749],
          [141.2082195, 43.0944022],
          [141.2084126, 43.0947019],
          [141.2086192, 43.0950623],
          [141.2086567, 43.0951073],
          [141.208815, 43.09536],
          [141.2088981, 43.0954462],
          [141.2091637, 43.0956264],
          [141.2093943, 43.0957517],
          [141.2095124, 43.0958085],
          [141.209574, 43.0958281],
          [141.2096357, 43.0958457],
          [141.2097509, 43.0958642]
        ],
        "type": "LineString"
      }
    },
    {
      "type": "Feature",
      "properties": { "name": "白樺サンシャイン" },
      "geometry": {
        "coordinates": [
          [141.2070352, 43.0920823],
          [141.2071842, 43.092091],
          [141.2074417, 43.0921811],
          [141.2079459, 43.0925141],
          [141.2087184, 43.0929528],
          [141.2091637, 43.0932702],
          [141.2095445, 43.0936266],
          [141.209861, 43.0940262],
          [141.21013181104902, 43.0945409286558],
          [141.21018227239472, 43.09519510855575],
          [141.21009222534875, 43.09574185473444]
        ],
        "type": "LineString"
      }
    },
    {
      "type": "Feature",
      "properties": { "name": "北かべ" },
      "geometry": {
        "coordinates": [
          [141.1969484, 43.0750551],
          [141.1973825, 43.0763055],
          [141.1989451, 43.0789794],
          [141.1989315, 43.08012],
          [141.2004753, 43.0816936]
        ],
        "type": "LineString"
      }
    },
    {
      "type": "Feature",
      "properties": { "name": "シティビュークルーズ" },
      "geometry": {
        "coordinates": [
          [141.19704615084686, 43.074148746806],
          [141.19788771898976, 43.0738575531544],
          [141.19891384155005, 43.07355557309154],
          [141.2000802254684, 43.073172703372705],
          [141.20132043292375, 43.072746692231874],
          [141.20237608419035, 43.072396173166254],
          [141.2033505315148, 43.07203486680061],
          [141.20408874918422, 43.07172748508151],
          [141.20502628562582, 43.07158727536438],
          [141.20612622995333, 43.07147402881975],
          [141.2071745024512, 43.071274505351596],
          [141.20758052217036, 43.071037225427006],
          [141.20793486665036, 43.07071905317699],
          [141.20813418542247, 43.07027145213135],
          [141.20812680324582, 43.069893954732066]
        ],
        "type": "LineString"
      }
    },
    {
      "type": "Feature",
      "properties": { "name": "女子大回転" },
      "geometry": {
        "coordinates": [
          [141.19723276573524, 43.074893213847],
          [141.1985481813304, 43.07551464397295],
          [141.19954593622822, 43.075734471116874],
          [141.20056201770333, 43.075815971633546],
          [141.20194973422622, 43.07596827749333],
          [141.20267769391012, 43.07614735811589],
          [141.20316431537788, 43.07639736662451],
          [141.2036947687264, 43.076718004511676],
          [141.20412938688702, 43.07711438259625],
          [141.2047327, 43.0781944],
          [141.20465923143647, 43.07861240879047],
          [141.20430546001373, 43.0793464],
          [141.2041528, 43.0796079],
          [141.2039855, 43.0798057],
          [141.2036973, 43.0801653],
          [141.2035847, 43.0803494],
          [141.2035203, 43.0806433],
          [141.203531, 43.0809528],
          [141.2036812, 43.0813133]
        ],
        "type": "LineString"
      }
    },
    {
      "type": "Feature",
      "properties": { "name": "シティビューパノラマ" },
      "geometry": {
        "coordinates": [
          [141.19722304219465, 43.07482350268069],
          [141.19791197650284, 43.07514701366645],
          [141.1986555881386, 43.07546652901323],
          [141.19975460239232, 43.07566622525931],
          [141.20060756572644, 43.07575408892211],
          [141.20184874102773, 43.07587390618539],
          [141.20271951715947, 43.07606692790169],
          [141.20333372118654, 43.07632688285858],
          [141.20416900202093, 43.07669734901526],
          [141.2050438392393, 43.076893047411716],
          [141.20617583020532, 43.07705584336421],
          [141.20697408491725, 43.077160497791226],
          [141.20750625473738, 43.07719226777914],
          [141.20796678631365, 43.07729692173936],
          [141.20837103069613, 43.07741839486212],
          [141.20874968999152, 43.07749875387279]
        ],
        "type": "LineString"
      }
    },
    {
      "type": "Feature",
      "properties": { "name": "男女回転" },
      "geometry": {
        "coordinates": [
          [141.2095203, 43.0811782],
          [141.2097082, 43.0813211],
          [141.2097698, 43.081423],
          [141.2097806, 43.0814759],
          [141.2097833, 43.0816561],
          [141.2096947, 43.0819461],
          [141.2093192, 43.0823869],
          [141.208182, 43.0834721],
          [141.2077743, 43.0837817],
          [141.2073827, 43.084193],
          [141.2068382, 43.0846025]
        ],
        "type": "LineString"
      }
    },
    {
      "type": "Feature",
      "properties": { "name": "パラダイス" },
      "geometry": {
        "coordinates": [
          [141.2036812, 43.0813133],
          [141.203987, 43.081517],
          [141.2042016, 43.0816738],
          [141.2050277, 43.0826689],
          [141.2056768, 43.0835348],
          [141.2059772, 43.084005],
          [141.2061381, 43.0841656],
          [141.2068382, 43.0846025]
        ],
        "type": "LineString"
      }
    },
    {
      "type": "Feature",
      "properties": { "name": "レインボー" },
      "geometry": {
        "coordinates": [
          [141.2032028858033, 43.083717969292664],
          [141.2028458167091, 43.0840138704629],
          [141.20269659343967, 43.084176397134044],
          [141.20247986708375, 43.08482186976393],
          [141.2024407392829, 43.08503283169546],
          [141.20273820052756, 43.08530331593411],
          [141.20317844852678, 43.08568339964829],
          [141.203677, 43.086138],
          [141.20381412065575, 43.08631301615284],
          [141.2047474, 43.0884279],
          [141.2047921, 43.0885374],
          [141.2054037, 43.0889659],
          [141.2063688, 43.0892508],
          [141.2067229, 43.0893919],
          [141.2085038, 43.0898581],
          [141.20911, 43.0900422],
          [141.2092173, 43.090097],
          [141.2094158, 43.0902498],
          [141.209633, 43.0905025],
          [141.2098412773689, 43.09056777956808],
          [141.21008275879075, 43.0904815473329],
          [141.21028212356887, 43.09042209547284],
          [141.21049413003624, 43.090443225250525],
          [141.21083579740076, 43.09061438338561],
          [141.21108686454193, 43.09078105700726],
          [141.21134594691887, 43.091114403844756],
          [141.21154957391064, 43.091467873745046],
          [141.21158510144562, 43.091861592526314],
          [141.21145621151572, 43.092255313050856],
          [141.21133100357522, 43.09258528941947],
          [141.21112001260707, 43.09299878990625],
          [141.21075457318625, 43.09390026464847]
        ],
        "type": "LineString"
      }
    },
    {
      "type": "Feature",
      "properties": { "name": "聖火台オーシャンストリーム" },
      "geometry": {
        "coordinates": [
          [141.20693572529623, 43.09893440360972],
          [141.20674219835416, 43.09896101488917],
          [141.20639206021815, 43.098838949281145],
          [141.2062478904985, 43.09904414670305],
          [141.206141816355, 43.09923473667958],
          [141.20609186921865, 43.0994496097467],
          [141.2060851811722, 43.0997547303917],
          [141.2059665, 43.1001075],
          [141.205872376618, 43.100335084420294],
          [141.20561064156183, 43.100721769722085],
          [141.2056661, 43.1009418],
          [141.2057385, 43.1010847],
          [141.2058753, 43.1012003],
          [141.2060791, 43.1013041],
          [141.2064627, 43.1014176],
          [141.2065834, 43.1014666],
          [141.20667760231967, 43.10171074122958],
          [141.20666879721733, 43.10194792459465],
          [141.20653959397163, 43.10229011250276],
          [141.2064493, 43.102624],
          [141.20638089026133, 43.10286699197928],
          [141.2061837, 43.1030862],
          [141.2062696, 43.1031684],
          [141.2063634, 43.1031978],
          [141.2065619, 43.1031332],
          [141.2071279, 43.1026593],
          [141.2072861, 43.102577],
          [141.2074363, 43.102577],
          [141.2076241, 43.1026867],
          [141.2077635, 43.1028668],
          [141.2077153, 43.103094],
          [141.2076348, 43.1033212],
          [141.2075141, 43.1034504],
          [141.2073242, 43.1034701]
        ],
        "type": "LineString"
      }
    },
    {
      "type": "Feature",
      "properties": { "name": "白樺サンダンス" },
      "geometry": {
        "coordinates": [
          [141.2074408, 43.0987908],
          [141.2076858, 43.0987248],
          [141.2078387, 43.0986269],
          [141.2080157, 43.098478],
          [141.2089759, 43.0974615],
          [141.2092388, 43.0971168],
          [141.20933, 43.0969406],
          [141.2094158, 43.0966507],
          [141.2094212, 43.0965077],
          [141.2093344, 43.0964128]
        ],
        "type": "LineString"
      }
    },
    {
      "type": "Feature",
      "properties": { "name": "白樺サンライズ" },
      "geometry": {
        "coordinates": [
          [141.2061833, 43.095559],
          [141.2062776, 43.0954912],
          [141.2065512, 43.0954834],
          [141.206814, 43.0955108],
          [141.2070984, 43.0955637],
          [141.2079781, 43.0958105],
          [141.2086004, 43.0960592],
          [141.2088096, 43.0961807],
          [141.2088901, 43.0962551],
          [141.2089564, 43.0964415]
        ],
        "type": "LineString"
      }
    }
  ]
}
