{"type":"FeatureCollection","features":[{"type":"Feature","properties":{"@id":"way/1080151284","name":"無名_3"},"geometry":{"coordinates":[[141.27240667733096,43.025729971201216],[141.272137230234,43.025677007557185],[141.2723521,43.0259846],[141.2725694,43.0261118],[141.2731338,43.0262801],[141.27349031313483,43.02662749951236],[141.27375948000068,43.026897602860586],[141.27393281094234,43.027216896263795],[141.2740318,43.027291683268494],[141.27425803618607,43.02735208147203],[141.27459653919817,43.02732468984992],[141.27476879238628,43.0276651131831]],"type":"LineString"}},{"type":"Feature","properties":{"@id":"way/1080146811","name":"イーストA"},"geometry":{"coordinates":[[141.2811940011043,43.0263159],[141.2812153,43.0263526],[141.2812589,43.0264206],[141.2814033,43.0265846],[141.2816575,43.0269828],[141.28198174585702,43.02753638950423],[141.28215409574113,43.02774301361353],[141.28228889521293,43.027915419978676],[141.28238009631715,43.02812854351519],[141.28248009650122,43.02843201524956],[141.28269754659507,43.0291124933193],[141.28273289558098,43.029358251795685],[141.28265234861968,43.02943377656871],[141.2825681521165,43.029478333998206],[141.282338299446,43.029648437352705],[141.2821232,43.0297949],[141.28201029926188,43.02993823423228],[141.2819272950288,43.03013562487318]],"type":"LineString"}},{"type":"Feature","properties":{"@id":"way/1080146812","name":"イーストB"},"geometry":{"coordinates":[[141.28099736654912,43.026292613468364],[141.28104939991135,43.026436634014125],[141.28112052852208,43.02655079417996],[141.2812178,43.0267284],[141.28133513102858,43.026891152341015],[141.2813946131807,43.02714055998767],[141.281397471478,43.027373033752816],[141.28138540121003,43.027586727232006],[141.28136818331893,43.02768000329942],[141.2812799,43.0278591],[141.2812226,43.0279689],[141.2811676,43.0282957],[141.28102956905792,43.02864152979233],[141.2810057511645,43.02888440748983],[141.281054,43.0291461],[141.2811871,43.0294405],[141.28157332847147,43.03010049177631]],"type":"LineString"}},{"type":"Feature","properties":{"@id":"way/1080146814","name":"オレンジ連絡"},"geometry":{"coordinates":[[141.2811088211119,43.02627222819041],[141.2809919,43.0261847],[141.2808109,43.0261232],[141.2805321,43.0260445],[141.2802869,43.0260132],[141.2799171,43.0260871],[141.2794961,43.0262456],[141.2792281,43.0264299],[141.2788517,43.0264812],[141.2785009,43.0265115],[141.2779363,43.0265325],[141.2775503,43.0265744],[141.2772313,43.0266584],[141.2766508,43.026754],[141.276284,43.0267283],[141.2760327974802,43.02668062612731]],"type":"LineString"}},{"type":"Feature","properties":{"@id":"way/1080146815","name":"グリーンB"},"geometry":{"coordinates":[[141.27941892213505,43.02660020713616],[141.2793755,43.0267251],[141.2793731712498,43.02687998950633],[141.27942924956625,43.02702349299144],[141.2794605495646,43.0271944556832],[141.27946062831478,43.0273212415826],[141.279440922119,43.02747150913625],[141.27940006815356,43.02774913738543],[141.27940611505562,43.02800143032531],[141.2794498,43.0284939],[141.27950851276265,43.029939142046516]],"type":"LineString"}},{"type":"Feature","properties":{"@id":"way/1080146820","name":"無名_2"},"geometry":{"coordinates":[[141.2796428,43.02904741594617],[141.27992684999998,43.02905702493922],[141.2802109,43.0290704],[141.28078573460638,43.029060237305096]],"type":"LineString"}},{"type":"Feature","properties":{"@id":"way/1080146822","name":"イーストB_2"},"geometry":{"coordinates":[[141.28049220106462,43.02612228091358],[141.28064920106655,43.02634776987211],[141.28087586820743,43.026689895806655],[141.280981,43.0270148],[141.28090848587942,43.02736567758977],[141.28085575124445,43.0280081],[141.28087927033664,43.02856177038796]],"type":"LineString"}},{"type":"Feature","properties":{"@id":"way/1080149139","name":"センターA"},"geometry":{"coordinates":[[141.2783815,43.0269848],[141.27855137749407,43.02720199125312],[141.27859340685072,43.027704482368684],[141.27856443933624,43.02803833712749],[141.27861476438258,43.02876031840073],[141.27868,43.0292865],[141.2787651324854,43.0300456],[141.27872428434642,43.03036590776938]],"type":"LineString"}},{"type":"Feature","properties":{"@id":"way/1080149140","name":"センターB"},"geometry":{"coordinates":[[141.27767474524134,43.02700835672578],[141.27765692872325,43.0273016],[141.2777607712751,43.0276532564682],[141.27784771517332,43.02785901879285],[141.2779561,43.0280489],[141.2780807,43.0284373],[141.2781797,43.029064],[141.2782603,43.0298086],[141.27837067290167,43.03003853584103],[141.27864225257503,43.030252065182076]],"type":"LineString"}},{"type":"Feature","properties":{"@id":"way/1080149141","name":"センターC"},"geometry":{"coordinates":[[141.2778096,43.0269239],[141.2776007,43.026956],[141.2772636,43.0271382],[141.2770937406683,43.027272291118976],[141.2771415410128,43.02733187566322],[141.2773442,43.0276926],[141.27751382542263,43.027969481765595],[141.2775568,43.0282578],[141.2775934,43.0288846],[141.27763,43.0293185],[141.2777913,43.0296693],[141.27807662035406,43.02999340965224]],"type":"LineString"}},{"type":"Feature","properties":{"@id":"way/1080149143","name":"オレンジ"},"geometry":{"coordinates":[[141.27665879658016,43.02412104701568],[141.27689056581175,43.024016459556556],[141.27719287863343,43.024092889346406],[141.27735048290495,43.02425500211327],[141.2774149611118,43.02449646160102],[141.277438182905,43.0248442],[141.27743813504165,43.025134029830774],[141.27733775256337,43.025418568599264],[141.27710300897513,43.02560772838326],[141.27661823504343,43.025901668799044],[141.27618972649506,43.0261632091527],[141.275904,43.0266421],[141.27586424497557,43.026724888870184],[141.2757624,43.0271699],[141.27571898290506,43.02745481975573],[141.27571179505284,43.02780167699347],[141.276054,43.0281707],[141.2766982,43.0286558],[141.2770036,43.0291633],[141.2771979505301,43.02936072575868],[141.27789688326504,43.02991671073165]],"type":"LineString"}},{"type":"Feature","properties":{"@id":"way/1080149144","name":"無名_1"},"geometry":{"coordinates":[[141.27710368631645,43.02413793556205],[141.27711851678154,43.024279049806005],[141.27702243201287,43.02442342100341],[141.27683277968995,43.0246403643931],[141.2766125,43.0248345],[141.2763267,43.0248894],[141.2760061,43.0249309],[141.2758908,43.0249792],[141.2756103380607,43.0250562725812],[141.27526597612413,43.025086826908314],[141.27488633328548,43.02505884059995]],"type":"LineString"}},{"type":"Feature","properties":{"@id":"way/1080149145","name":"スラロームバーン"},"geometry":{"coordinates":[[141.27557621741937,43.025080310735554],[141.27552080469124,43.02692096546]],"type":"LineString"}},{"type":"Feature","properties":{"@id":"way/1080149146","name":"モーグルバーン"},"geometry":{"coordinates":[[141.27491540533063,43.0250512439215],[141.27473442428095,43.02717233803977]],"type":"LineString"}},{"type":"Feature","properties":{"@id":"way/1080149147","name":"くるみ"},"geometry":{"coordinates":[[141.2765513344242,43.02412247926217],[141.27644079800436,43.02431983418697],[141.2761367,43.0245264],[141.2756316,43.0246249],[141.2750045,43.0247541],[141.2745331,43.0247603],[141.27362078674062,43.02456461714842],[141.2736081980022,43.024248658538255],[141.2737418,43.0239049],[141.2739649,43.0235664],[141.2739817,43.0233433],[141.2738681,43.0233049],[141.2735061,43.0236341],[141.2730221,43.0240249],[141.2726306,43.0245049],[141.2724791,43.0250895],[141.272597,43.0253172],[141.2732914,43.0256249],[141.27389826252667,43.025952609898084],[141.27420971343872,43.026287868008815],[141.27290444788332,43.025937430994475],[141.2736842462424,43.02637855171108],[141.27403005927502,43.02675213113844],[141.27453228981847,43.02710098872645]],"type":"LineString"}},{"type":"Feature","properties":{"@id":"way/1080149149","name":"どんぐり"},"geometry":{"coordinates":[[141.27713607480112,43.02396926971069],[141.27697344288092,43.02363997797063],[141.27684147480278,43.02344393388554],[141.2765101075694,43.02310066539909],[141.2762652,43.0229025],[141.2758246121992,43.02280724179614],[141.2756268121992,43.022621502151274],[141.2755526506453,43.02252825883231],[141.27537466506476,43.02253002433186],[141.2751772,43.0226564],[141.2748426,43.022761],[141.2746868,43.0228256],[141.2743775,43.022941],[141.2740618,43.0230779],[141.2738681,43.0233049]],"type":"LineString"}},{"type":"Feature","properties":{"@id":"way/1080149150","name":"きのこ"},"geometry":{"coordinates":[[141.27541118769454,43.02695774896696],[141.2751787754869,43.027184636767146],[141.27497523670624,43.02755927591572],[141.2749648875917,43.02772155763027],[141.275043,43.0282956],[141.2750189445566,43.02850079548035],[141.2750489775879,43.02863412713025],[141.27517281418093,43.0287169323257],[141.27524280989695,43.02883562649697],[141.2753557017284,43.02900370336379],[141.27564530259264,43.029236994880016],[141.27578555526833,43.02927052946878],[141.27589206367202,43.02909780367788],[141.27595734672204,43.02902802659746],[141.27607720287386,43.02905133403809],[141.27657158965857,43.02913451776339],[141.2767896723509,43.0293736652146],[141.2768204504511,43.02952174547535],[141.27696319063244,43.029869061165286],[141.27711638764143,43.03022248185992]],"type":"LineString"}},{"type":"Feature","properties":{"@id":"way/1080151285","name":"ウエスト林間"},"geometry":{"coordinates":[[141.2750797275564,43.02868888475778],[141.2750492,43.0288404],[141.2749884,43.0290825],[141.2746475,43.0292819],[141.2745403,43.0294047],[141.2750663,43.0296058],[141.2752927,43.0298123],[141.2749372,43.0301078],[141.2748179,43.0305937],[141.2749591,43.0309461]],"type":"LineString"}},{"type":"Feature","properties":{"@id":"way/1080151286","name":"ウエストA"},"geometry":{"coordinates":[[141.27488549077339,43.02783382325383],[141.2745968,43.0284405],[141.2744993,43.0288248],[141.2744526,43.0293145],[141.2745952991737,43.02994449169843],[141.27459254455948,43.03017746516899],[141.27464590757737,43.03042801935552],[141.2747640785825,43.03077412077644],[141.2749063,43.0310499],[141.27536494000637,43.03136578214112],[141.27571936155766,43.031652363444344],[141.27578116975315,43.031748491582576],[141.27584297794863,43.031914940753396]],"type":"LineString"}},{"type":"Feature","properties":{"@id":"way/1080151287","name":"ハーフパイプ"},"geometry":{"coordinates":[[141.275118175313,43.029153925862495],[141.2759082,43.0301167],[141.27649909547057,43.03077385818701]],"type":"LineString"}},{"type":"Feature","properties":{"name":"モーグルパーク"},"geometry":{"coordinates":[[141.27551187289004,43.02823510073253],[141.27638581111557,43.029017929288585]],"type":"LineString"}},{"type":"Feature","properties":{"name":"モーグルパーク_2"},"geometry":{"coordinates":[[141.275906410505,43.02934559572043],[141.27672249673793,43.02945191370611]],"type":"LineString"}},{"type":"Feature","properties":{"name":"グリーンA"},"geometry":{"coordinates":[[141.278500984402,43.026982215963216],[141.27908187191923,43.027212597123906],[141.27938396993738,43.027402978400886],[141.27968085936692,43.02746009266869],[141.28012358921802,43.027292557331975],[141.28049860744585,43.02714405976096]],"type":"LineString"}}]}