{"type":"FeatureCollection","features":[{"type":"Feature","properties":{"name":"パノラマ"},"geometry":{"coordinates":[[142.33283429701703,44.26551939024324],[142.33307542677693,44.26508261957616],[142.3334654896223,44.26467631836775],[142.33395484119353,44.264503639503545],[142.33467113841982,44.26447316671016],[142.33553886939075,44.26455950556502],[142.3363686394444,44.26467123889961],[142.33693600358356,44.26475757814893],[142.3375104597759,44.26481852342502],[142.3384820708651,44.26485407480678],[142.33959552348978,44.26493025694333],[142.3405600425275,44.265016595812256],[142.34145364104734,44.2651638794724],[142.3427727627992,44.26538734459314],[142.34350324412873,44.26560572920022]],"type":"LineString"}},{"type":"Feature","properties":{"name":"ファミリー"},"geometry":{"coordinates":[[142.33843997372992,44.26501872777948],[142.33890520997988,44.265398379150014],[142.3398789602748,44.265824515522894],[142.34076074567372,44.266022086699365],[142.34174531541373,44.26621578336119]],"type":"LineString"}},{"type":"Feature","properties":{"name":"スラローム"},"geometry":{"coordinates":[[142.3371375469248,44.26501920708816],[142.33784964945005,44.26566195324364],[142.33818344750915,44.26601253909365],[142.33910324660377,44.26628875677514],[142.34002304569833,44.26658090868003],[142.3406609708769,44.26676151094921],[142.34153682473902,44.266965509118194]],"type":"LineString"}},{"type":"Feature","properties":{"name":"センター"},"geometry":{"coordinates":[[142.33369240175938,44.26489800037794],[142.33479222121235,44.265176758165865],[142.33555838757326,44.265349321847964],[142.3362256937575,44.26551746032396],[142.33694612917657,44.26568811009281],[142.3374404300539,44.26579430226428],[142.33786676456174,44.26586952160309]],"type":"LineString"}},{"type":"Feature","properties":{"name":"ダイナミック"},"geometry":{"coordinates":[[142.33276273781053,44.265773600207524],[142.33374215038532,44.26626233213551],[142.33463573002467,44.266630643115604],[142.33551891920337,44.26694314759223],[142.3362755990749,44.26719675443911],[142.33689902673052,44.26725255839415],[142.3374237450069,44.26737532690936],[142.33793287759215,44.26763574412246],[142.33830836294624,44.267833211209506],[142.3387551527648,44.26803782323745],[142.33900452382704,44.26810106681114],[142.33924869965892,44.26814198908687],[142.3394824850301,44.26811966784891],[142.33970068471007,44.26801922217331],[142.33985654162342,44.26788157411667],[142.34001239854155,44.267729044812455],[142.34009552222972,44.267550473416776],[142.34013708407275,44.26740538375856],[142.3402150125305,44.26731237737897],[142.3403656742135,44.267293776085296],[142.34049035978012,44.2673272583979],[142.34080462799034,44.26741547272633],[142.34107205635695,44.267495753659716],[142.34125388942437,44.26752551562424],[142.34146689387183,44.26752551562424],[142.34162275078512,44.267488313166325],[142.3416695078608,44.26742134868226],[142.34172146016442,44.2673023005224],[142.34175782677698,44.26718697238752]],"type":"LineString"}}]}