{"type":"FeatureCollection","features":[{"type":"Feature","properties":{"name":"一の瀬ダイヤモンドゲレンデ_2"},"geometry":{"coordinates":[[138.5080542374828,36.73949701925278],[138.50910008755335,36.73940259862334],[138.51044780361667,36.73933087206914],[138.51118307149017,36.73932467939522],[138.5118002,36.73944865169405],[138.5121784839347,36.73965461133225],[138.512547,36.73990713217687]],"type":"LineString"}},{"type":"Feature","properties":{"name":"無名_一の瀬ファミリー・ダイヤモンド連絡"},"geometry":{"coordinates":[[138.51322477271702,36.73853120603505],[138.51277183223073,36.73868977978008],[138.5127673587108,36.73887666859606],[138.5127347622691,36.739138646998384],[138.51265366959234,36.7393554557655],[138.51254248976392,36.739496918273375],[138.51249217103603,36.73962352257461],[138.51245406035667,36.73978053615403]],"type":"LineString"}},{"type":"Feature","properties":{"name":"パーフェクター"},"geometry":{"coordinates":[[138.52420417736195,36.73474652256516],[138.5241824226892,36.7348535542222],[138.52414634068896,36.73500651423291],[138.52407606689786,36.735131669977804],[138.52392889207232,36.735233638985164],[138.52376232327975,36.73529035549816],[138.52355744784768,36.73531871375923],[138.52325243862165,36.73530121607335],[138.52293559655257,36.735300324115215],[138.52260194138015,36.735311342128966],[138.522161,36.73534815415916],[138.52178246465675,36.73541690135028],[138.52152703715635,36.73550859484021],[138.521243,36.735692],[138.52091791448385,36.73588758257373],[138.52058371379405,36.73613727035327],[138.52047839034407,36.7362579894596],[138.52037615241488,36.736566072554545],[138.520231,36.736963],[138.5201370482776,36.737239949657834],[138.5200042434488,36.7374214133968],[138.51984640517188,36.73756275446012],[138.5195623698586,36.737690340866074],[138.51931547592775,36.73779547605401]],"type":"LineString"}},{"type":"Feature","properties":{"name":"一の瀬ファミリー・高天ヶ原連絡"},"geometry":{"coordinates":[[138.52209090129423,36.732251709872244],[138.52148748427817,36.731700694709076],[138.52112909114277,36.73139880706472],[138.5207195061102,36.73112036867627],[138.52016728811458,36.730748135296196],[138.5197028398664,36.730425726973365],[138.51923720896207,36.730119418020394],[138.51881301813017,36.72978403894463],[138.5187216260391,36.72974098123501],[138.51863023394804,36.72969792352539],[138.51849782361128,36.729678486498564],[138.5184212137117,36.72971146045512],[138.51841163874644,36.729818825230836],[138.51847499335378,36.72996743058198],[138.51847294789408,36.73000402256757],[138.51843008031886,36.730015877005386],[138.51837040684836,36.72999118066768],[138.51823783355167,36.72989886377995],[138.51805282626495,36.72975488754337],[138.51789344324635,36.72956983737896],[138.51766436214712,36.7294461809566],[138.5172702606153,36.729291284891495],[138.51691767010095,36.72908417854711],[138.5165712288177,36.72901909711958]],"type":"LineString"}},{"type":"Feature","properties":{"name":"無名_一の瀬ファミリー上部連絡"},"geometry":{"coordinates":[[138.521680204248,36.73520528940317],[138.52128182728939,36.73522984806078],[138.52100602778475,36.735183186532765],[138.52074248603293,36.735087407655016],[138.52047281547686,36.73490076131786],[138.52025830480812,36.734768143907715]],"type":"LineString"}},{"type":"Feature","properties":{"name":"蓮池・ジャイアント連絡"},"geometry":{"coordinates":[[138.49698629110688,36.71456295057425],[138.49638862935126,36.71475865035622],[138.49619975338024,36.71485497144278],[138.49604657038998,36.71497172983621],[138.49594164560375,36.714971868762234],[138.49577043384858,36.714955657864216],[138.49563006885325,36.71495521143895],[138.49548680205845,36.71494882329664],[138.49534553996958,36.71493561660145],[138.49522712221608,36.714895258382285],[138.49505583227483,36.71477738862481],[138.4949098945362,36.71468466592302],[138.49474192601352,36.71453498192273],[138.49427617385695,36.71433720742295],[138.4940848365124,36.71427772471683],[138.49402963165778,36.71424006749874],[138.4940560896354,36.71414258631456],[138.49378326885554,36.7141024732246],[138.49368154381736,36.714073789730264],[138.49364602103398,36.714013882827075],[138.4934957644833,36.71399058574751],[138.49323778098355,36.713992788104115],[138.4929797974838,36.71404812804818]],"type":"LineString"}},{"type":"Feature","properties":{"name":"サンバレーB+メイン_2"},"geometry":{"coordinates":[[138.4872271,36.7128725],[138.48748292239307,36.71338753347893],[138.4876934255409,36.7137827608364],[138.4878673,36.7140899],[138.4879131,36.7142953],[138.48780297426316,36.7144371037373],[138.4877075,36.7145378],[138.4874626,36.7147219],[138.4871090084406,36.71485051015181],[138.48677361413687,36.71491690297217],[138.4864895,36.715030275523326],[138.4862159,36.7151965]],"type":"LineString"}},{"type":"Feature","properties":{"name":"丸池C_3"},"geometry":{"coordinates":[[138.49167826220827,36.71489211122683],[138.4916825,36.7155399],[138.4916731806349,36.71573945398228],[138.4916727,36.7158469],[138.49156428063617,36.71598266863532],[138.490717827381,36.71636641845121]],"type":"LineString"}},{"type":"Feature","properties":{"name":"丸池A"},"geometry":{"coordinates":[[138.48939966153145,36.71400143980025],[138.4894171,36.714733779600394],[138.48939191299655,36.716311782776984]],"type":"LineString"}},{"type":"Feature","properties":{"name":"丸池B_2"},"geometry":{"coordinates":[[138.49061913307258,36.715374497844365],[138.49024767399231,36.715550451026076],[138.4898874712474,36.71573993861759],[138.4896398318606,36.715920402555454],[138.48948224316075,36.716272306015355]],"type":"LineString"}},{"type":"Feature","properties":{"name":"蓮池A"},"geometry":{"coordinates":[[138.4916251351315,36.713826374676366],[138.4918268738931,36.714213021662964],[138.4919467,36.7144594],[138.4921902172415,36.714902145278685],[138.4923756,36.7152184],[138.4927734,36.7160389]],"type":"LineString"}},{"type":"Feature","properties":{"name":"蓮池ジュニア"},"geometry":{"coordinates":[[138.49109504835755,36.712702321744054],[138.49100676558425,36.712579915750354],[138.49093585821905,36.71251322535096],[138.490761486415,36.712408763276166],[138.49065661624627,36.71234608798643],[138.4906662141148,36.71228718374513],[138.49073662591593,36.71223524397836],[138.49088782091718,36.71219410655392],[138.49095213887506,36.71219475602809],[138.49109630269905,36.712253988010346],[138.4914229083126,36.71241072267733],[138.49173028394557,36.7126641134384],[138.4920139,36.7129266],[138.49252904690226,36.71362798206495],[138.4928808,36.7140674],[138.49342890328708,36.714832665787384],[138.49358188394314,36.71518467735826],[138.49360126624504,36.71539744268839],[138.4935739646039,36.71559149662563],[138.49348163230073,36.71573940385745],[138.49333141953102,36.7158765111619],[138.4931388,36.7160517]],"type":"LineString"}},{"type":"Feature","properties":{"name":"無名_1"},"geometry":{"coordinates":[[138.49479636117056,36.71680792102594],[138.49506899462597,36.71645283733227],[138.4952746283162,36.7160547874024],[138.49538118310198,36.71561500687595],[138.49555920430583,36.71533993058532],[138.49581698038736,36.71518363680869],[138.4960913333965,36.714928338989],[138.4963562944729,36.71465789696532],[138.4965546450475,36.71421753423428],[138.49687806184926,36.71369123734643]],"type":"LineString"}},{"type":"Feature","properties":{"name":"一の瀬ダイヤモンドゲレンデ_3"},"geometry":{"coordinates":[[138.50753093705387,36.74090220247453],[138.5078881,36.7408825],[138.5086284,36.7408424],[138.50963635967332,36.74060930312457],[138.51042006775697,36.74026942033662]],"type":"LineString"}},{"type":"Feature","properties":{"name":"無名_高天ヶ原・一の瀬ファミリー連絡_2"},"geometry":{"coordinates":[[138.51379043129123,36.73056969178927],[138.51386270395759,36.73096576309454],[138.51398677356337,36.73122970165144],[138.51434033435515,36.731622100898605],[138.51470290395764,36.73206003203029],[138.5148102,36.7323696],[138.5149401,36.7329257],[138.515098,36.7333226],[138.5152207,36.7338105],[138.5151877,36.7341168],[138.515216,36.7343097],[138.51561474712344,36.73462860294192],[138.5159170079154,36.735024831288484],[138.51612917356178,36.73548709351724],[138.51601924316586,36.73586737917384]],"type":"LineString"}},{"type":"Feature","properties":{"name":"西館山初級_上部"},"geometry":{"coordinates":[[138.50422828448228,36.73140168093303],[138.5036623577589,36.73171953477686],[138.503187,36.732237],[138.50282178448361,36.732619780574694],[138.50253728663864,36.73284746340678],[138.502366,36.733057],[138.5021971355015,36.73319628872218],[138.5020294772155,36.73323628869929],[138.501834680026,36.73323776097533],[138.50142749563395,36.73322367494592],[138.50123762366752,36.73315030021687],[138.50110600532759,36.73305347240769],[138.50101938964661,36.7327827254557],[138.5009899528111,36.73254730175219],[138.5010067526626,36.73232299497381],[138.5011813283998,36.73201995059891],[138.50123625058876,36.73181284477921],[138.50118510931873,36.7316166516798],[138.501023,36.73125],[138.50093958106368,36.7309230488857],[138.5008192692287,36.73066322645633],[138.500551,36.73027],[138.50041990088877,36.73007203167589],[138.50031654378736,36.729963],[138.49980707093815,36.729670707834174],[138.49940467941136,36.72913542544837],[138.4992349453251,36.72880827061582],[138.49891525355267,36.7285550767968],[138.49872926760418,36.72843691470403],[138.49857050134128,36.72830660911554],[138.4985745561657,36.7282001518702],[138.4985716754627,36.728026943478994],[138.4985098973798,36.727810463521486],[138.4983283544447,36.72743246697492],[138.49822040457587,36.727302475865955],[138.49801182401453,36.72717847319678],[138.4977099892659,36.726960058805275],[138.49764791819916,36.72684776454682],[138.4977052287394,36.72676801422263],[138.4978860355768,36.72680288180158],[138.49857237827337,36.72712098553809],[138.49893642657673,36.7271678093326],[138.4991724399943,36.72718728744989],[138.4994376901566,36.72734257753204],[138.49965866130867,36.72745169298044],[138.49986,36.72749],[138.49999142486143,36.727405079946394],[138.50003873599982,36.727218641979704],[138.4998589796217,36.726865378615216],[138.49952570562482,36.72642320193842],[138.49936867294028,36.726078947984945],[138.49925774827506,36.72582986516022],[138.4992520665969,36.725508479839704],[138.49936098093673,36.725263374011014],[138.49948860134532,36.72500212225994],[138.49954839090054,36.72466037787913],[138.4996404052681,36.724539674728405]],"type":"LineString"}},{"type":"Feature","properties":{"name":"無名_一の瀬ファミリー・高天ヶ原連絡_2"},"geometry":{"coordinates":[[138.51819553785504,36.73512529424593],[138.5177640244906,36.734822702247484],[138.51733251112483,36.734329907011954],[138.51695493693052,36.73388898227766],[138.51643712089287,36.73343076369375],[138.51583300218215,36.73308493653688],[138.5151317929653,36.73291202237374],[138.51426876623498,36.73274775355874],[138.51363228402266,36.73254025560553],[138.51296343830734,36.732341402874326],[138.51259665194743,36.73217713283783],[138.51180914005732,36.731805362511196],[138.51098926466437,36.73158057027706],[138.51042990271867,36.7314914487626],[138.50943742197933,36.7314828028841],[138.50891960594174,36.73150009464011]],"type":"LineString"}},{"type":"Feature","properties":{"name":"高天ヶ原マンモスゲレンデ_#上部"},"geometry":{"coordinates":[[138.51771061514603,36.72880478859509],[138.51738926815688,36.728845920899154],[138.5172797507763,36.72886217121718],[138.51710023029187,36.72877052590258],[138.51690881222396,36.728660841286555],[138.51665155757294,36.728618946450354],[138.5162991365765,36.728757425854496],[138.5157734567626,36.72893860040627],[138.51459891274754,36.729292004732095],[138.51367895556626,36.72954513061578],[138.5128462690725,36.72978851176409],[138.51216925916887,36.7300010111838],[138.51178752626922,36.73010531954466]],"type":"LineString"}},{"type":"Feature","properties":{"name":"高天ヶ原マンモスゲレンデ_上部_2"},"geometry":{"coordinates":[[138.5177488904169,36.72887806155779],[138.5178230298145,36.72917246416772],[138.5178803193494,36.72942905267776],[138.517907279131,36.72959110813737],[138.5178803193494,36.729639724708704],[138.51700749643805,36.729664032982456],[138.51589653557875,36.729828229084404],[138.51477096471973,36.73005510545238],[138.51392847156336,36.73024146768165],[138.5131895365485,36.7304910728312],[138.5122529885993,36.73072359718185]],"type":"LineString"}},{"type":"Feature","properties":{"name":"東館山オリンピック_#上部"},"geometry":{"coordinates":[[138.51922703375948,36.72888456450317],[138.5184301609697,36.72852819469233],[138.51792024145675,36.72827219451465],[138.5175877542191,36.727982334762515],[138.51708044915623,36.7272259649746],[138.5167726737342,36.7267816310572],[138.5165831864966,36.72654722801338],[138.5162134862074,36.72635085104962],[138.51564695792365,36.72616550947464]],"type":"LineString"}},{"type":"Feature","properties":{"name":"タンネの森オコジョゲレンデ"},"geometry":{"coordinates":[[138.51607076137185,36.730910772832495],[138.515981,36.73117731241824],[138.515937,36.731318],[138.515736,36.731551],[138.515525,36.731781],[138.515272,36.731981],[138.515035,36.732191],[138.514833,36.732426],[138.514621,36.732653],[138.51424119802627,36.73283412492303],[138.51407063279723,36.732917312401355],[138.5138946086283,36.733052999421794],[138.5136095265079,36.73320224938222],[138.51332644438614,36.733344749474185],[138.51298231392937,36.73350712431009],[138.5126847728692,36.7336497492982],[138.51227497089553,36.733792873983894]],"type":"LineString"}},{"type":"Feature","properties":{"name":"ワールドカップ_#上部"},"geometry":{"coordinates":[[138.50408823548835,36.73110318064861],[138.50333137434203,36.73086244042568],[138.5029194570183,36.73074207069892],[138.50259390281784,36.73057069948505],[138.5023976389646,36.730442839600926],[138.50218923667617,36.730253481742125],[138.5021033150939,36.73015239836563],[138.50207734433806,36.73006360641197],[138.50239919613816,36.7297289857598],[138.50264609806914,36.729473809875415],[138.50270874517264,36.729334038979864],[138.50278355304724,36.7289506059728],[138.50285760772454,36.728650001756634],[138.5028581527451,36.72844609363588],[138.50272492927078,36.728139846473205],[138.50226604502103,36.72730522726647],[138.501969751915,36.726654535605256],[138.50174937744612,36.726336234364496],[138.5015252099143,36.72613023051072],[138.50136235466783,36.726049811650334]],"type":"LineString"}},{"type":"Feature","properties":{"name":"一の瀬ファミリー正面ゲレンデ_#上部"},"geometry":{"coordinates":[[138.522836737412,36.73331732223883],[138.522046,36.733678],[138.521434,36.733965],[138.520822,36.734252],[138.520202,36.734528],[138.519576,36.734796],[138.51895,36.735063],[138.5183767521655,36.735320784108]],"type":"LineString"}},{"type":"Feature","properties":{"name":"寺小屋・東館山連絡"},"geometry":{"coordinates":[[138.5288335792563,36.727478507027854],[138.52831988305797,36.72789022774393],[138.52807704485537,36.728077372794345],[138.52771278755148,36.72820463116797],[138.52704965245874,36.72827948893628],[138.52641453715916,36.72829446048101],[138.52544318434877,36.72821960272728],[138.5239114356848,36.728159716471566],[138.52291877164868,36.728097116663974],[138.52261989386216,36.72803723031326]],"type":"LineString"}},{"type":"Feature","properties":{"name":"東館山・一の瀬ファミリー連絡"},"geometry":{"coordinates":[[138.5208835397753,36.729752311259986],[138.52102236825044,36.729812455123806],[138.52110491491118,36.72992071396119],[138.52123623914434,36.730086109111795],[138.52144260579803,36.730266539778285],[138.52166773305407,36.730486063185026],[138.5218515869816,36.73073265037257],[138.5219679027325,36.730916086669495],[138.5219679027325,36.73111155109325],[138.5219876794917,36.73136839871043],[138.52203645706408,36.73163603291114],[138.5220852352041,36.73200251264372],[138.52211900429245,36.73221902398943],[138.52213026065647,36.73227014463485],[138.5223370171854,36.732399304100085],[138.52249879366718,36.732469712905825],[138.5226256714235,36.732656659759],[138.52275146494583,36.73291867707171]],"type":"LineString"}},{"type":"Feature","properties":{"name":"東館山林間_2"},"geometry":{"coordinates":[[138.52110803708695,36.729659488019436],[138.52113633350348,36.72946104983531],[138.521072666568,36.7292285930246],[138.5209736291116,36.729086850720975],[138.5206411462218,36.72900747491694],[138.52028744102137,36.72900747491694],[138.52005399558794,36.72909252041826],[138.51988421709194,36.7291322082866],[138.51957295651465,36.729058502229165],[138.51924754772892,36.7289621172784],[138.51889384252848,36.72896778698413],[138.51848354449487,36.72900180521411],[138.51817228391758,36.72899613551016],[138.51801665362984,36.728979126395785],[138.51790346796514,36.72890542019145],[138.51787517154855,36.728826044199835],[138.51791761617352,36.72871831950877],[138.51823595085494,36.72853121837019],[138.51855428553637,36.728293088988735],[138.5188726202161,36.72799259133404],[138.51900591917058,36.72784775881199],[138.51908373431445,36.72764364614204],[138.51928888333128,36.72745087256693],[138.5196850331567,36.727161711296446],[138.5201943686448,36.72686120921517],[138.52051077199872,36.726695123638194],[138.5206477928848,36.72665851634868],[138.52088967078737,36.726575152085374],[138.52098760490856,36.72652275089219],[138.5210748450374,36.72646567097836],[138.52108908832417,36.726424288013646],[138.5210819666808,36.72636292702548],[138.521046358464,36.726297284984085],[138.52077422491539,36.72612506762192],[138.52049732115984,36.72589272466266],[138.5202377238894,36.725722801754316],[138.52015984470916,36.72568465574393],[138.52007331228418,36.725660381000466],[138.5199564935138,36.72565344535785],[138.51972718259083,36.725698527022914],[138.51946758532262,36.7257852224583],[138.51922962115725,36.72585804654901],[138.51913443549188,36.725903128093975],[138.51903059658417,36.725923934951524],[138.5189613706441,36.72591006371319],[138.51891377781158,36.725878853418706],[138.51864120043837,36.72557715318655],[138.51855899463573,36.72552166796862],[138.51838433596714,36.72548799967001],[138.5182242509843,36.7255157422957],[138.51803387965373,36.72558163099281],[138.517895427776,36.72560590576201],[138.51771803630805,36.725609373585584],[138.51753631821276,36.725616309234184],[138.51736734940602,36.72567413706547],[138.5171813046956,36.725760832528394],[138.5169649736353,36.7257538968948],[138.51678758216747,36.72573308999121],[138.51656692448927,36.72573655780903],[138.5162683876286,36.72578163942532],[138.51606503626596,36.72585099573202],[138.51584437858548,36.725920351951004],[138.5156146607181,36.726037236470404]],"type":"LineString"}},{"type":"Feature","properties":{"name":"ブナ平ゲレンデ"},"geometry":{"coordinates":[[138.50910920449866,36.72371207540566],[138.50918248304288,36.72338730569892],[138.50927731409922,36.72302452940198],[138.50941093967856,36.722848323154295],[138.50955318626546,36.722744672231215],[138.50960060179352,36.72268939168164],[138.50953594425476,36.72254428005007],[138.5094368026946,36.722354252498945],[138.50937645565944,36.72213658399936],[138.50939514232482,36.72189232031016],[138.50835631120134,36.7216746505015],[138.5073735166115,36.721456980076],[138.50590749728804,36.721077770873066],[138.50507557029016,36.7208082719695],[138.5043848190088,36.72064726425208],[138.50333878474976,36.72056341826],[138.50284366186855,36.72056900799572],[138.50206959651655,36.72069198207714],[138.5015884207573,36.72076464848709],[138.50146987020742,36.720820545679075],[138.50144197596,36.72089321196741],[138.50141635059254,36.72099378411748],[138.5013674200914,36.72100555028665],[138.5012646660427,36.720946719423836],[138.50117169809164,36.72081729136738],[138.50108362319202,36.72074277208449],[138.50104937184,36.72072708380492],[138.50100044131023,36.72073492793386],[138.5009123664106,36.720801603091786],[138.5008291845599,36.72093495323446],[138.50075578880933,36.72106830314564],[138.50066282085845,36.72114674416166],[138.50056006680967,36.721150666210434],[138.5004622058073,36.721056536986595],[138.5004034892084,36.72089573262856],[138.50033009345788,36.720821213421246],[138.5002420185558,36.72081729135617],[138.50016372975642,36.72088396644257],[138.5000365104559,36.72104084877107],[138.49995822165403,36.72119773077911],[138.49996800775426,36.721366378580626],[138.50006097570525,36.721601700475674],[138.5000316174045,36.721742893266025],[138.49985401943223,36.72185844450998],[138.49967432436233,36.72187572860629],[138.49932930983198,36.721748978478814],[138.4988980416672,36.72151276177432],[138.49837170558874,36.72131398961581],[138.49786893340405,36.72110964999277],[138.49708289690722,36.720922337066526],[138.49700500139892,36.720865575483145],[138.4969271058888,36.72070664282742],[138.49679964051222,36.720570414575505],[138.49674298923208,36.720570414575505]],"type":"LineString"}},{"type":"Feature","properties":{"name":"ワールドカップ_#下部"},"geometry":{"coordinates":[[138.50136235466783,36.726049811650334],[138.50117276127736,36.72601018501173],[138.50084449457398,36.72597262876556],[138.50065297869594,36.7259238622417],[138.5003520765418,36.72571917572993],[138.5002301407643,36.725430176314305],[138.50016957375004,36.72504779975917],[138.50019796211257,36.724679225739365],[138.50042953748067,36.72422688442708],[138.50054222212808,36.723965130266244],[138.5005631095862,36.72357864258511],[138.50053537412126,36.72340061228826],[138.50033531121454,36.72306143505927],[138.5001194719693,36.72285161207596],[138.49980310838077,36.72258711398145],[138.49939297081914,36.722319984312946],[138.49881682623615,36.721975651312945],[138.4985333545946,36.7218740303359],[138.49770073983848,36.721711077071845]],"type":"LineString"}},{"type":"Feature","properties":{"name":"高天ヶ原マンモスゲレンデ_下部_2"},"geometry":{"coordinates":[[138.51210857019584,36.73075867137153],[138.5117108825168,36.73086046680413],[138.51096306940053,36.7310809774698],[138.5101023788323,36.731267562923094],[138.50944627864533,36.731346720251224],[138.50902298820108,36.73142587749777],[138.50881839781994,36.73146545609045],[138.50866920290684,36.731425525682454],[138.5085180867863,36.73132780017413],[138.50843743642093,36.73123363832903],[138.50832455896904,36.73094527867376],[138.5083033944464,36.73086612093178]],"type":"LineString"}},{"type":"Feature","properties":{"name":"高天ヶ原マンモスゲレンデ_#下部"},"geometry":{"coordinates":[[138.51178752626922,36.73010531954466],[138.51135629623735,36.73023506904576],[138.51048685199981,36.73050182187332],[138.50989590161822,36.73069235903991],[138.50948834963071,36.73076312986696],[138.50925740350579,36.73076312986696],[138.50908079764486,36.730735910325976],[138.50883626645168,36.730627032064845],[138.50865966059092,36.73060525639366],[138.50848984726332,36.7306215881476],[138.50829965633602,36.730708690775344]],"type":"LineString"}},{"type":"Feature","properties":{"name":"高天ヶ原マンモスゲレンデ_上部_3"},"geometry":{"coordinates":[[138.51566015115833,36.72883068377966],[138.5153496283744,36.72874282677125],[138.5151269827631,36.72864672537901],[138.5146860139223,36.728762344114756],[138.51390903911647,36.72896108236924],[138.51305364621544,36.72918198268191],[138.5121805232542,36.72943614987416],[138.5119807639481,36.729569608078165],[138.5118104237792,36.729737619698014]],"type":"LineString"}},{"type":"Feature","properties":{"name":"高天ヶ原マンモスゲレンデ_下部_3"},"geometry":{"coordinates":[[138.51153569414254,36.7298122939672],[138.510188022389,36.730033682894614],[138.50928456875147,36.73020914066447],[138.50830101948975,36.73039027617102]],"type":"LineString"}},{"type":"Feature","properties":{"name":"無名_高天ヶ原・一の瀬ファミリー連絡"},"geometry":{"coordinates":[[138.51171808714486,36.73017796337034],[138.512022395013,36.730579839207735],[138.51266751049548,36.73142377392311],[138.512996555342,36.732028112129015],[138.51322962877646,36.73244565211088],[138.5133667307952,36.73264343341515],[138.5136682017623,36.732874104619455],[138.51377778236053,36.73311297863275],[138.51396626098824,36.733390493098014],[138.514170117809,36.73368808134768],[138.51416701196155,36.73390221555181],[138.5139998073068,36.73403621690521],[138.5139475558509,36.73431259395804],[138.5140416084701,36.73497421983106],[138.51428196516315,36.73546834176375],[138.5145381665855,36.73588858722526],[138.51459041804014,36.73611470852927],[138.51445456425745,36.73666744666896]],"type":"LineString"}},{"type":"Feature","properties":{"name":"西館山初級_下部"},"geometry":{"coordinates":[[138.4990230002452,36.72196240488202],[138.49931523627464,36.721984982302644],[138.49956874222983,36.721984982302644],[138.499681411543,36.72199062665676],[138.49972718345128,36.72197651577069],[138.49964620238205,36.721908783482874]],"type":"LineString"}},{"type":"Feature","properties":{"name":"西館山高天ヶ原ゲレンデ"},"geometry":{"coordinates":[[138.50427582595506,36.73153871895897],[138.50687608933765,36.7313133082621],[138.5070044330801,36.73128629022091],[138.5071617441863,36.73124017884017],[138.50728591856176,36.73120165565186],[138.5075076834675,36.73114241112938],[138.50769376206483,36.731111767392875],[138.50793764797362,36.73105612361064],[138.50822058940292,36.73099075021781]],"type":"LineString"}},{"type":"Feature","properties":{"name":"無名_蓮池・ジャイアント連絡_2"},"geometry":{"coordinates":[[138.49321558298146,36.71629518285245],[138.49332270565708,36.71641574982547],[138.49351740619392,36.71656223393656],[138.49359235341524,36.716604947460254],[138.49363430763725,36.71663528356804],[138.49364123214494,36.71667454283474],[138.493623411501,36.71671213081499],[138.4935316099047,36.7168189205006],[138.49342412617335,36.71697958499004],[138.49335488031696,36.717070923608674],[138.4932967341873,36.717187527886615],[138.4932923553747,36.717228707709026],[138.49331676958712,36.71725962361481],[138.49338823019855,36.717277968785766],[138.49345296989583,36.71729810977385],[138.49346741730668,36.71734589242595],[138.49346394227996,36.71738290017953],[138.49343804505537,36.71749057724471],[138.49342256608602,36.717562670639296],[138.4934350694581,36.71763522699181],[138.49346029882219,36.71766136359672],[138.49352348354483,36.71768547188303],[138.4937590530613,36.71772686063812],[138.4941197521053,36.717774937231795],[138.4943001016273,36.71774623950249],[138.49437762460065,36.717740003857216],[138.49443156823202,36.71785655625962],[138.49448551186342,36.71796499539844],[138.4945223,36.7180608],[138.4944972,36.718148],[138.4945781,36.7181944],[138.494677962438,36.71811436037984],[138.4948474,36.7178601],[138.49503230304856,36.7176414],[138.4951869,36.717399145792406],[138.4953422187803,36.71727434571976],[138.49558665329238,36.7171456],[138.4957858812197,36.717034984534955]],"type":"LineString"}},{"type":"Feature","properties":{"name":"無名_2"},"geometry":{"coordinates":[[138.49231496511135,36.71495829214712],[138.49262431761525,36.71512479485777],[138.492933670119,36.71518679045583],[138.49320987771222,36.715199189569276],[138.49330268346296,36.71518147654926],[138.49332698973217,36.71515313570846],[138.49331594142774,36.71506102790508],[138.4932275549977,36.71485201363291],[138.4931281202646,36.71470853740506],[138.49312370094253,36.71464122747771],[138.4931480072117,36.714584545387666],[138.49320324872986,36.714550890377055]],"type":"LineString"}},{"type":"Feature","properties":{"name":"蓮池B"},"geometry":{"coordinates":[[138.49107422230276,36.71284708648136],[138.49114765528464,36.71313553391931],[138.49141201401807,36.71347107345355],[138.49148544699995,36.71361235281887],[138.49148544699995,36.713694765662595],[138.49146341710713,36.713777178417004],[138.4913385810362,36.71385370446801],[138.49105953570682,36.71395377688036],[138.49089798314714,36.71403030275452],[138.4908318934643,36.71413037493687],[138.49087595325216,36.71426576650546],[138.49127983465252,36.71448356983301],[138.4915809098768,36.714689599438884],[138.4918012088225,36.71498981301855],[138.49196276138224,36.71526059288884],[138.49210962734372,36.71547839339519],[138.49234752879616,36.71584213706481],[138.49251163529033,36.71598877267066],[138.49271109670036,36.71612123786723],[138.49322461591782,36.71623927332874]],"type":"LineString"}},{"type":"Feature","properties":{"name":"丸池第2ゲレンデ"},"geometry":{"coordinates":[[138.48741701680368,36.71625964973555],[138.48776496824053,36.716482492279766],[138.4880003114751,36.71654186021245],[138.48832889282477,36.716552684653685],[138.4887726450796,36.71648679227792]],"type":"LineString"}},{"type":"Feature","properties":{"name":"ジャイアントゲレンデ"},"geometry":{"coordinates":[[138.49663310350434,36.71234556875843],[138.49684244300425,36.71224106668491],[138.4970360312845,36.712063760202135],[138.49711566570718,36.712042636392056],[138.49718668240263,36.71206959103227],[138.49724091044087,36.71220062025857],[138.4974012167238,36.71276684053329],[138.49747181355772,36.7132995834817],[138.49740086455807,36.7137537713888],[138.49716267594937,36.71466946782291],[138.49719243196122,36.715331132802326],[138.4974144738934,36.71664297168243],[138.4974963398748,36.71824508364473],[138.49687487478823,36.720447998617225]],"type":"LineString"}},{"type":"Feature","properties":{"name":"ジャイアント七曲り"},"geometry":{"coordinates":[[138.49680618176293,36.71581520349943],[138.4964631098798,36.71618737891327],[138.49616457423068,36.71651049006259],[138.4959469,36.7167832],[138.4958083,36.7169867],[138.49582660986027,36.71700583076202],[138.49586675048204,36.7170089203148],[138.49602497831398,36.716951159266344],[138.49617711132763,36.71686448430283],[138.4963316884811,36.7167932147722],[138.49611025527616,36.7171062],[138.4958707775411,36.71752178945644],[138.49577058886618,36.717683987434064],[138.49586297773504,36.7176656855166],[138.49607227773498,36.71752498944779],[138.49622593301112,36.71740690572658],[138.49635865508236,36.717377908579365],[138.49635139961484,36.71746830957941],[138.49620412187735,36.71770010970435],[138.49598388886875,36.71814028613382],[138.4960513443362,36.7181903860959],[138.49623460009818,36.71808578816476],[138.49647273339878,36.71797319213982],[138.4967507554699,36.7179770128041],[138.49714935368425,36.71803421093572]],"type":"LineString"}},{"type":"Feature","properties":{"name":"サンバレーA+白熊"},"geometry":{"coordinates":[[138.48708608261168,36.71301301810718],[138.48642422609,36.713677927225014],[138.48576940217748,36.7143053],[138.48515743260918,36.71488036289827],[138.4843960947012,36.71535904969555],[138.4839208284244,36.71555738952388],[138.48330774730647,36.71587874135406],[138.4829666640069,36.71615029265898]],"type":"LineString"}},{"type":"Feature","properties":{"name":"サンバレーB+メイン"},"geometry":{"coordinates":[[138.48720298401796,36.71297819724143],[138.4871204,36.7133314],[138.48684002933408,36.71397213100539],[138.48662987999023,36.714469944729785],[138.48641563494454,36.71482985872136],[138.4860704443483,36.71513318559665],[138.4855938108087,36.715459928461144],[138.48453831032833,36.715996340867214],[138.48353727200984,36.716530629476466]],"type":"LineString"}},{"type":"Feature","properties":{"name":"サンバレー初級"},"geometry":{"coordinates":[[138.4873731892329,36.7161519430158],[138.48715837058458,36.715964706347485],[138.48693033332378,36.71585593801626],[138.48665138430718,36.71576530798738],[138.48623937058468,36.71564177133074],[138.485894877413,36.71562809067128]],"type":"LineString"}},{"type":"Feature","properties":{"name":"丸池C_2"},"geometry":{"coordinates":[[138.48767795422992,36.71297030180034],[138.48794695531598,36.713213768324806],[138.4881465367664,36.71333897938027],[138.4883591343986,36.71343636561542],[138.48854136094064,36.713526795580066],[138.48860361235026,36.71354052342262],[138.48866039565945,36.71351480052382],[138.48869740890686,36.71345458787296],[138.48877001809495,36.71312992258095]],"type":"LineString"}},{"type":"Feature","properties":{"name":"丸池C"},"geometry":{"coordinates":[[138.4873743609946,36.712813474726744],[138.4876810973504,36.71293829504217],[138.48803506568657,36.71290244956373],[138.4883801416419,36.71282383308876],[138.48851896583687,36.712851941426514],[138.48866987231727,36.71285009335579],[138.4888334390732,36.712976773260415],[138.48907596739554,36.71320306674982],[138.48962819325936,36.71348037767417],[138.48993950212304,36.713654701415614],[138.49027478662438,36.71387136565444],[138.49049046709695,36.71408842397611],[138.49070493576318,36.7144145056867],[138.49085686958145,36.71454131977052],[138.49098092515823,36.714629025069186],[138.49111426769508,36.714779889031746],[138.491214044373,36.71498102573079],[138.49122449517557,36.7150945055832],[138.49119075233205,36.715257582432045],[138.49108692077726,36.7156752371198],[138.49087148851027,36.71603993974],[138.4906267720727,36.716410048450854],[138.4898194123378,36.71699718263348],[138.48966397573153,36.717103226626605],[138.48939363564716,36.71720218551822],[138.48919512695008,36.71725172288066],[138.4891026830034,36.717173728623656],[138.4890768922346,36.717003569765524],[138.4890341494274,36.7165853154389]],"type":"LineString"}},{"type":"Feature","properties":{"name":"丸池B"},"geometry":{"coordinates":[[138.48930438532702,36.71383446902533],[138.4895739125264,36.713944844917435],[138.48980633484604,36.714021758366904],[138.4900727120418,36.71405239910722],[138.4902656907841,36.71409604159963],[138.49038392202723,36.714167971085885],[138.49053815833548,36.714528548248076],[138.49070326557722,36.71522898679241],[138.4907887117418,36.71556318819786],[138.49076734283466,36.71571390864961],[138.49058727135716,36.715984769782196],[138.49029426024754,36.71645338622061],[138.49018135050858,36.71653260887014],[138.49004133852446,36.71656510210508],[138.48976625051156,36.71658857223055],[138.4893022736219,36.71662710768298]],"type":"LineString"}},{"type":"Feature","properties":{"name":"東館山林間"},"geometry":{"coordinates":[[138.5210817403814,36.72973227057676],[138.52140989313168,36.729432425835356],[138.5217730530699,36.729136516710355],[138.5219691671238,36.72888242518631],[138.5221652811777,36.72865934653311],[138.5223350642139,36.728154854825775],[138.52242522649814,36.727964814996675],[138.52254634461417,36.72781819370451],[138.52278654729514,36.72760343446173],[138.523042,36.727414],[138.52354787344933,36.727127736727965],[138.52395171985287,36.7269535915983],[138.52421239553348,36.72682286591828],[138.52435698734513,36.72667510920246],[138.5244628843691,36.7266079882541],[138.52463843201258,36.726534664797285],[138.52484483703617,36.72650392841042],[138.52499834277353,36.72648235745518],[138.52511765991002,36.72645606505782],[138.52524471600628,36.72639255602166],[138.52541550373374,36.726316618964304],[138.5255528012325,36.72626617021013],[138.52575639943376,36.726209745192875],[138.52585171057885,36.72615761214565],[138.5258951180902,36.72609923898324],[138.52587540670103,36.72600948478278],[138.52577783985868,36.72588228969397],[138.52571218775597,36.7257708510088],[138.52559982238193,36.72560117075473],[138.52553417027923,36.725369088767515],[138.52541829841226,36.72517192517897],[138.52534738656908,36.72499846068926],[138.52528597882934,36.7248950877497],[138.52521678554606,36.72485619721421],[138.5251159303097,36.724865315357945],[138.52502741433793,36.72491949705221],[138.52494408872968,36.72500071975098],[138.5248919053039,36.72508298249248],[138.52482948104688,36.72515115481967],[138.52474629533393,36.72518188584472],[138.5246730706623,36.725169604887455],[138.52461064640414,36.72514365384723],[138.5245793643278,36.72510522237002],[138.52457410401615,36.72502152427248],[138.52454548706902,36.72494822652931],[138.52450000144026,36.72490092967681],[138.5244045935363,36.72487936130251],[138.5243023907668,36.72491849900662],[138.52421495683797,36.72497550927169],[138.5241249277267,36.725045],[138.5240412813504,36.72506449420876],[138.52390313615922,36.72503614668771],[138.52376439040617,36.7249773715397],[138.52341750690357,36.72482871677935],[138.5232891041052,36.724871712313295],[138.5232136429675,36.72493382204334],[138.52322658122233,36.725082199946],[138.52327245943337,36.72524212479257],[138.52328413880036,36.7253491616252],[138.5231775909163,36.72542009919709],[138.52294133590328,36.72551051177378],[138.52261336733386,36.725522514467684],[138.52226391128787,36.725456157856314],[138.5220005268294,36.72537397329529],[138.5216668286435,36.72536529811684],[138.52142718115718,36.72535034780108],[138.5212814480666,36.72532376694806],[138.52109212615437,36.725302561008746],[138.5209027554327,36.725296254532736],[138.5207835951457,36.725313272644414],[138.52063090499698,36.725332978212634],[138.520384923513,36.725351340050096],[138.5199918042478,36.725331918746825],[138.51959426353145,36.725281918738666],[138.51933469410784,36.72525355035327],[138.51915431689474,36.72526557420679],[138.51878928153388,36.72528727960217],[138.51864962545753,36.7252883168435],[138.51854364635773,36.725274630909176],[138.51838774671174,36.725226180236234],[138.51831144718892,36.725197360483044],[138.51814636291397,36.72516608676773],[138.5179627898513,36.725167626956434],[138.51774548004875,36.725246920757655],[138.5174745633571,36.72532092176023],[138.51729276961197,36.72538246088011],[138.51718294283995,36.72541756544376],[138.51699281589447,36.72542861522051],[138.51678646332297,36.725383309953266],[138.5164219060552,36.725340716139456],[138.51616207652586,36.72531491041583],[138.51601645260138,36.725311800659206],[138.51591970162062,36.725286306770755],[138.5158159687905,36.72519925651582],[138.5157815569979,36.72507179074823],[138.51582394554805,36.724879970489944],[138.5159016559873,36.72463554406467],[138.51593352935933,36.72451892679887],[138.5159257291603,36.724483394189036],[138.51588278376244,36.72448333438925],[138.51572179697715,36.72462592787592],[138.51555036218724,36.72477713453576],[138.51545766294294,36.724869525874624],[138.51541131332073,36.72486255881002],[138.51539861128467,36.724668808821384],[138.51540622396533,36.72454675137567],[138.51539638201984,36.72450303910233],[138.5153498187052,36.724511342943636],[138.5152543824451,36.724653952866305],[138.51512054601545,36.724832937131055],[138.5150815551981,36.7249923799349],[138.51505158701627,36.725088889348285],[138.51502263922663,36.72513434592916],[138.51498023793448,36.72516826626439],[138.5149415826641,36.72511807388808],[138.51492670443022,36.72490218115359],[138.51486130850844,36.72457196011047],[138.5148585446911,36.72431087810729],[138.51486389404693,36.72418158846256],[138.51484468535622,36.72412588979443],[138.5147487802218,36.724085987873465],[138.51461471302676,36.724073929229675],[138.51446407541323,36.72409531128113],[138.5143695237777,36.72414899779683],[138.51423711488837,36.72428588694561],[138.51411241283554,36.72438621378367],[138.51385786580073,36.724479106799365],[138.51369193346977,36.72449391501939],[138.51355483629004,36.72451609766448],[138.51339193762885,36.72470170552043],[138.51300121781563,36.72499858339739]],"type":"LineString"}},{"type":"Feature","properties":{"name":"天狗"},"geometry":{"coordinates":[[138.52318540600533,36.733680404275155],[138.5237253689882,36.734252288467346],[138.52404232621922,36.73450684905333],[138.52441069922935,36.734762434645226],[138.52469006353573,36.734922344389176],[138.52504514808658,36.73505448859851],[138.5254080366106,36.73514063364204],[138.52566963060082,36.735235895264935],[138.52583549310185,36.735351773242265],[138.5258610935817,36.735479694968944],[138.52576692915912,36.73582097734022],[138.5256897907962,36.73616022786504],[138.5257013151965,36.73627365050441],[138.52578221776793,36.73640663705257],[138.52600338236826,36.736487435662596],[138.52653148924855,36.736613399221],[138.52657518026342,36.73665013091005],[138.52654223364357,36.73670508849686],[138.5263735599832,36.7367740379378],[138.52603048255742,36.736908529855995],[138.52588938391375,36.737000170333665],[138.5256788102697,36.73711917368034],[138.525451763168,36.737234782286556],[138.52526213944117,36.73729258662709],[138.52510949144573,36.73733612536604],[138.52496924330023,36.737370091862765],[138.5248473711066,36.73741146934195],[138.52480464309676,36.73745772566404],[138.52481595645474,36.73753487605334],[138.52488249327357,36.737614921464],[138.52518363430056,36.73772812665884],[138.52570698783978,36.737926711605425],[138.52598636047645,36.73809335907009],[138.52615417392644,36.73823531242858],[138.52621403091996,36.73830269322076],[138.52628595665564,36.73844261098918],[138.5265929460137,36.738782875873234],[138.526819,36.739188],[138.52703384971505,36.73951139635166],[138.5271107106306,36.739697573136894],[138.527100872693,36.73976464631565],[138.52703299631662,36.739808817885134],[138.52691650269753,36.73983428868522],[138.52672816612304,36.7398301752651],[138.5264250928513,36.73981203627487],[138.52607834378188,36.73978663013322],[138.52554922043225,36.73968871184181],[138.52523790233897,36.7396281951151],[138.52483778303167,36.73960669593966],[138.52442599558444,36.73963194879531],[138.52401846539294,36.73968048809294],[138.52367468263304,36.739698524140806],[138.52348064098973,36.73969318419981],[138.52310882270262,36.73965730009919],[138.52281595562317,36.739637799646616],[138.52255225888925,36.73959959837903],[138.5222665484908,36.739532530664036],[138.52194283714405,36.73945536150984],[138.52178053504582,36.73941247723831],[138.5214324356607,36.73928973155272],[138.521219492172,36.73916913917271],[138.52098126772043,36.73899556065946],[138.52078773745222,36.738835501232394],[138.52053003242287,36.738631806098226],[138.52034378405264,36.738442288710615],[138.52024699141248,36.73838523733307],[138.52013897247988,36.73835217274747],[138.5198651694755,36.73828175887172],[138.51965052036024,36.73823086445996],[138.5194976911694,36.73817724623703],[138.51939169962833,36.73815880263355],[138.51926483024556,36.7381821866123],[138.5186460123174,36.738544652963604],[138.51833868939428,36.73868936529837],[138.51820882813692,36.738703018786204],[138.51789594566384,36.738657512122444],[138.51771166730256,36.738648701217755],[138.51764736524484,36.738674969124105],[138.51755258068889,36.73872156490748],[138.51749590902006,36.73872897537606],[138.5174144430783,36.73872465886399],[138.51734753005445,36.738715712977154],[138.51728369703608,36.7386944259418],[138.51709716885398,36.73857866652607],[138.51687949641638,36.7384327247362],[138.51667858877343,36.73826439152079],[138.51656010114087,36.73817934540157],[138.51648073136712,36.73813908235931],[138.51635106720366,36.738071949481615],[138.51611858716586,36.73802718725942],[138.51589448952515,36.73799138168485],[138.5153563330195,36.73798119604018],[138.51498666599178,36.73797834237219],[138.51473756742712,36.73797467637659],[138.51452919416732,36.737992995821244],[138.51425934998738,36.7379665320786]],"type":"LineString"}},{"type":"Feature","properties":{"name":"パノラマ"},"geometry":{"coordinates":[[138.52433578319545,36.73486376053036],[138.52454052738165,36.73530486461903],[138.52469330746806,36.73554287382473],[138.52478889650973,36.73588504967157],[138.5247909002034,36.73620639287624],[138.5247601521721,36.736425312005125],[138.52453681072046,36.736638936713774],[138.52411590020347,36.73696505967646],[138.52374519694607,36.73726431130571],[138.5234558616001,36.73752226754823],[138.52328090834345,36.737709392637456],[138.52313731892815,36.73791731709939],[138.52311231689316,36.73811294295889],[138.52313621017623,36.738314918692765],[138.52315335600457,36.738534651579656],[138.52308731485678,36.73867938762396],[138.5229090668248,36.73878530486505],[138.52269516234747,36.73883826346821],[138.52239584023084,36.738835577449834],[138.5220861197421,36.7387453954289],[138.52161270915877,36.73859914343018],[138.5213136136365,36.738463520048725],[138.52104051404407,36.73830289749887],[138.52079690936296,36.738223980438974],[138.5205169103798,36.73818256191818],[138.520274062754,36.738112224457254],[138.51989653426136,36.7379637244655],[138.51954139606573,36.7378978075228],[138.5188813013803,36.73774507443003],[138.51782901125938,36.73743861987142],[138.51721537040453,36.737304878190756],[138.5163978835832,36.73717777475528],[138.5161112159363,36.73715964576173],[138.51578520293026,36.73719932343518]],"type":"LineString"}},{"type":"Feature","properties":{"name":"ラビット"},"geometry":{"coordinates":[[138.5072627447034,36.74039401837801],[138.5074185918681,36.74033556054154],[138.5076337751874,36.74024194537995],[138.50775475804136,36.740103923468254],[138.50782194506542,36.73984175199047],[138.5078355673124,36.73967079609971],[138.50791826290958,36.73952380709672],[138.50812147925336,36.739290968766426],[138.50826708806085,36.738991260383116],[138.50835839500087,36.7387790669237],[138.50925419125048,36.738605714363686],[138.51013,36.73837],[138.51089353501237,36.738162],[138.51144811807774,36.738037734425006],[138.51185226750619,36.73804726330139],[138.51212901201387,36.738141012823874],[138.51228140961146,36.738334411225],[138.51255714804392,36.73867257352315],[138.51257663207716,36.73882827313203],[138.51256181798914,36.739190113809244],[138.5125658226101,36.73932025599963],[138.51255261026571,36.73942682111914]],"type":"LineString"}},{"type":"Feature","properties":{"name":"モンキー"},"geometry":{"coordinates":[[138.5068865694505,36.74109414027801],[138.5071056830458,36.74100219829924],[138.50732571987152,36.740952685947164],[138.50760366792414,36.74095980162791],[138.50795232319535,36.74106607421222],[138.50842783840227,36.74125153269503],[138.50885293440706,36.741506532404124],[138.50920367680465,36.74178590821256],[138.50938093917435,36.74195855076246],[138.50965210553926,36.742114009680876],[138.51002042396718,36.74219051821557],[138.5102871007719,36.742189118954926],[138.51058105038598,36.7420686237799],[138.510875,36.74193042217449],[138.5111364591485,36.74186854127782],[138.5114337435873,36.741873853190185],[138.51165590161168,36.741889788934984],[138.51192344961402,36.741900412764885],[138.51212038640577,36.74186193572473],[138.51222027562721,36.741771447753294],[138.5122152234561,36.74159228786013],[138.51214310434372,36.74144347108683],[138.5120653407848,36.74126266529649],[138.51197622718834,36.74113282624546],[138.5118818191661,36.740932992633155],[138.51190672957424,36.74075440677318],[138.51195655038597,36.740581383970174]],"type":"LineString"}},{"type":"Feature","properties":{"name":"かもしか"},"geometry":{"coordinates":[[138.51205925688672,36.74201755183871],[138.512591099279,36.74219790774944],[138.51285544477162,36.74226361399653],[138.51299029723856,36.74227553724377],[138.51327744388573,36.74228746049101],[138.5136387767283,36.742359920922716],[138.51383016775,36.74244579538373],[138.5140082787931,36.74260646293362],[138.51429449970303,36.7429764524527],[138.5144932209118,36.743232341401395],[138.5147493027178,36.743489920938245],[138.51497339855484,36.743584276222045],[138.51528849380045,36.74367052931612]],"type":"LineString"}},{"type":"Feature","properties":{"name":"LIPS"},"geometry":{"coordinates":[[138.53062725206286,36.7259667106554],[138.53021172836395,36.726648929023966],[138.52995509197086,36.72720940556462],[138.52988299134924,36.72756545298221],[138.529676,36.72790787178998],[138.52937572970544,36.72823727090697],[138.52916863641695,36.72858810523551],[138.52890600000148,36.729004291084884],[138.5286091637005,36.72939281318661],[138.528243,36.729784],[138.528102,36.730008],[138.527957,36.730231],[138.527795,36.730442]],"type":"LineString"}},{"type":"Feature","properties":{"name":"Eternal"},"geometry":{"coordinates":[[138.52986798246485,36.72699996060965],[138.52946948980417,36.72735246360925],[138.52901372327253,36.72765933785106],[138.52843149818176,36.728189146354715],[138.52784,36.728624],[138.527519,36.728967],[138.527277,36.729348],[138.52707,36.729744],[138.5266906311755,36.73029234987031],[138.5262970458123,36.730899062209545]],"type":"LineString"}},{"type":"Feature","properties":{"name":"Philosophy"},"geometry":{"coordinates":[[138.53108405535292,36.725588949737556],[138.530906474449,36.72577119066021],[138.53079851252141,36.72598598158795],[138.53084648020362,36.72631565183778],[138.53109424586327,36.72664879945044],[138.53132483321207,36.72712304875527],[138.53140342055926,36.7276206981373],[138.53142061897776,36.72812569760073],[138.53121761106974,36.728570798062606],[138.530826,36.728934],[138.53030419051188,36.729322746905694],[138.52974357944075,36.729594797318526],[138.529322,36.729848],[138.528816,36.730148],[138.52828080158162,36.73032885297569],[138.52767258734866,36.730597700572666],[138.52725904385687,36.73086809244523],[138.526984738322,36.731166382463535]],"type":"LineString"}},{"type":"Feature","properties":{"name":"一の瀬ダイヤモンドゲレンデ"},"geometry":{"coordinates":[[138.50717353623935,36.740464],[138.507674,36.740425],[138.5080848050029,36.74041094634076],[138.50846223187946,36.74038751415995],[138.50904871936987,36.74032627130274],[138.509822,36.74018],[138.51018,36.740137],[138.510537,36.740094],[138.510894,36.740051],[138.511252,36.740007],[138.511609,36.739964],[138.511967,36.739921],[138.51233803094894,36.739920878547494],[138.51240824842566,36.739924374199624],[138.51250411954842,36.73994157503705],[138.51258716384817,36.739985071354354],[138.51263723721274,36.740032516712475],[138.5126702081479,36.74008681465407]],"type":"LineString"}},{"type":"Feature","properties":{"name":"東館山・寺小屋連絡"},"geometry":{"coordinates":[[138.52172398621343,36.730430331155716],[138.52193039208555,36.73055072716939],[138.52213462892786,36.730643749918514],[138.52224341144455,36.73066211514682],[138.52238814289075,36.73065166889762],[138.52275574837176,36.730576168990595],[138.52325413812366,36.73057691790686],[138.52381918973362,36.73068122928598],[138.52436202021494,36.73070921524132],[138.52518451734403,36.73071961425205],[138.52622507088387,36.73081953529591]],"type":"LineString"}},{"type":"Feature","properties":{"name":"一の瀬ファミリー・寺小屋連絡"},"geometry":{"coordinates":[[138.5234265765805,36.733847146722596],[138.52375814801042,36.73402429904516],[138.52416929658256,36.73430065585319],[138.52450970991754,36.73442820481304],[138.52477496705916,36.734502608275804],[138.5249473842045,36.73452032337461],[138.52516843182372,36.73448843619305],[138.5252789556322,36.734385688516625],[138.52546463563385,36.7342262521947],[138.52558400134728,36.73412704720519],[138.52563705277686,36.73404201425528],[138.5257609061524,36.7336333458902],[138.5258625880582,36.73317983281777],[138.525965939885,36.73276104651521],[138.52597072366228,36.73254850343977],[138.52596415526767,36.73231688058431],[138.52599371304234,36.73213000254343],[138.52607253377545,36.731951020331536],[138.5264072030883,36.73143430359326],[138.526642428356,36.73116127307445]],"type":"LineString"}},{"type":"Feature","properties":{"name":"東館山オリンピック_#中部"},"geometry":{"coordinates":[[138.51564695792365,36.72616550947464],[138.51541168550972,36.72611260994367],[138.5147398050687,36.72606479236788],[138.5141952392338,36.72602594451017],[138.51396997140296,36.72598983388437],[138.51384382141873,36.72592483471436],[138.51350141431936,36.72559261587696],[138.51312296436657,36.72523872901242],[138.5128976964466,36.72503650711725],[138.51276201653957,36.72497129906371],[138.512356534312,36.7249568544878],[138.5119690729851,36.72498574599821],[138.51165820337997,36.72498574598112],[138.5114013980549,36.72492074598698]],"type":"LineString"}},{"type":"Feature","properties":{"name":"東館山オリンピック_中部_2"},"geometry":{"coordinates":[[138.5143129173228,36.72610896988691],[138.51394776022352,36.72621043034633],[138.5137140596745,36.726257258175636],[138.51345095714123,36.72627285058836],[138.51329028801604,36.72624943666726],[138.51288131206525,36.72605041804901],[138.51232140451458,36.725714816858016],[138.51199519750656,36.7254611638224],[138.51174689051186,36.72519970516856],[138.51158135262892,36.725020195749025]],"type":"LineString"}},{"type":"Feature","properties":{"name":"東館山オリンピック_#下部"},"geometry":{"coordinates":[[138.5114013980549,36.72492074598698],[138.51135300908493,36.7248786241412],[138.51131233613955,36.72480617961847],[138.51132589377346,36.72467215706348],[138.5113680113801,36.72448032686748],[138.51136349216262,36.724386148486815],[138.51134541529757,36.724339059253154],[138.51126406940693,36.72431732575102],[138.51110137762333,36.72437890399108],[138.51092390263653,36.724502546304095],[138.51087932470597,36.724477313163334],[138.51088445524675,36.72439339298188],[138.51088606744065,36.72404493718402],[138.51085286155381,36.72391186036684],[138.51077316742698,36.7238799218964],[138.51059486569892,36.723894251704465],[138.5104038245502,36.72388565989568],[138.51023576236906,36.72388075173562],[138.51013793757983,36.72388852383159],[138.5100492791065,36.72392250652091],[138.50992435670787,36.72402175282721],[138.50983634300036,36.72410090104789],[138.5097934094831,36.724102621660066],[138.50976979604815,36.72408197430714],[138.509840636351,36.72395120760581],[138.50994017547623,36.72372440025441],[138.51005602530108,36.72355965398073],[138.51023805047413,36.72337938856981],[138.51032074070932,36.723245772841956],[138.51028552267644,36.72314410495443],[138.5100906172342,36.72310216800831],[138.5098117554937,36.723099015578214],[138.50953747753425,36.72315152776395],[138.5093219986802,36.72326687922107],[138.50894330684184,36.72355256638247],[138.5087746885374,36.72373361615557],[138.5086774476789,36.72379693262171],[138.50848645193133,36.72393280489898],[138.50818141553634,36.72411270876348],[138.5080660518368,36.7242576787374],[138.50786862352004,36.724507117455786]],"type":"LineString"}},{"type":"Feature","properties":{"name":"東館山オリンピック_下部_2"},"geometry":{"coordinates":[[138.51091846570006,36.724513305737034],[138.51082550539024,36.72473981439339],[138.5106693320718,36.72497228310844],[138.51056521652566,36.725082556484296],[138.51052059557645,36.725285220653035],[138.51040532479396,36.72538655253642],[138.5103012092477,36.72547000222275],[138.5102082489379,36.725496825317435],[138.51007438609417,36.72543721842838],[138.50991077594904,36.72528224030141],[138.5096839527954,36.725028909996965],[138.50959471089897,36.724838166628345],[138.50955752677464,36.72464742278521],[138.50959099248553,36.724566952584595],[138.50975088421728,36.72449840382885],[138.5098698734132,36.72444475693344],[138.50998886260913,36.72437322768175],[138.51004463878598,36.724283815974474],[138.51001894949417,36.724178413485404],[138.50992970759773,36.724145629139684],[138.50987764982364,36.72412476636646]],"type":"LineString"}},{"type":"Feature","properties":{"name":"ブナ平ゲレンデ_2"},"geometry":{"coordinates":[[138.50915569481873,36.7232848134648],[138.50884712333954,36.72279930817105],[138.5085663332883,36.722227990167696],[138.50841621064717,36.72191620898951]],"type":"LineString"}},{"type":"Feature","properties":{"name":"西館山中級_上部"},"geometry":{"coordinates":[[138.5040886268306,36.730979553570265],[138.5039305431509,36.73071710827409],[138.503802753876,36.730588200762995],[138.50353815880925,36.7304296635705],[138.503228122135,36.73039252482002],[138.5022970501696,36.73024612761812],[138.50164974776072,36.73009401980556],[138.50076009011565,36.72983265282814],[138.50011012693176,36.72963888210094],[138.499710476705,36.72950254157388]],"type":"LineString"}},{"type":"Feature","properties":{"name":"西館山中級_下部"},"geometry":{"coordinates":[[138.50136923700938,36.72583910270552],[138.50092568976976,36.72565344945478],[138.5006940595444,36.7255349471458],[138.50039343308322,36.7251833892189],[138.50001888208203,36.72480417886436],[138.49981682167316,36.72455137092095],[138.49967882919879,36.72402600175195],[138.4995663860323,36.72353444774376],[138.49950724639223,36.7229774698758],[138.49948482481966,36.722583942333316]],"type":"LineString"}},{"type":"Feature","properties":{"name":"一の瀬ファミリー正面ゲレンデ_#下部"},"geometry":{"coordinates":[[138.5183767521655,36.735320784108],[138.51766570944136,36.735660086664694],[138.51660238220512,36.7362074583325],[138.51513848250926,36.736942001618615],[138.51424081193056,36.73743081306648],[138.51379620627677,36.73772894800892],[138.5135753680159,36.73794865703415],[138.51333200894783,36.7382569874558],[138.51324687169313,36.73846166814543]],"type":"LineString"}},{"type":"Feature","properties":{"name":"丸池第2ゲレンデ_2"},"geometry":{"coordinates":[[138.48727812028451,36.7159974608639],[138.48735308667852,36.715777903382914],[138.48744388135137,36.715659094797275],[138.48760113175953,36.71559376896977],[138.48787067520334,36.71561969372341],[138.48817263975096,36.71562252723946],[138.4883691446707,36.71569718094467],[138.48851668299116,36.71582609427986],[138.4885725300205,36.715973158782745],[138.48863181726557,36.71623525146087],[138.4886821434425,36.716443469632914]],"type":"LineString"}},{"type":"Feature","properties":{"name":"無名_ジャイアント・蓮池連絡"},"geometry":{"coordinates":[[138.4968235,36.7133944],[138.4963888394947,36.71391424721873],[138.49626041974733,36.71404669216585],[138.49619256206262,36.71408645392348],[138.49611465300148,36.714083671276335],[138.4959636575273,36.71401835174598],[138.4958512230357,36.714015301558874],[138.49569261760018,36.714012251372445],[138.4954164971055,36.71401124452396],[138.49497600805125,36.71400431576167],[138.4944845995631,36.713961637983914],[138.49420852765485,36.71402196614814],[138.4940474761496,36.71410658031057],[138.49374545822798,36.71406550151031],[138.49369139230646,36.714048775227965],[138.49342208259046,36.714839115269044]],"type":"LineString"}},{"type":"Feature","properties":{"name":"サンバレーB+メイン_3"},"geometry":{"coordinates":[[138.4891882788146,36.713791106194755],[138.4890159327535,36.71369714584835],[138.48885717536254,36.7136227931336],[138.4886997738868,36.71360559235982],[138.4884518,36.713639],[138.48832283694256,36.713685742750364],[138.488114,36.7138162],[138.48798881428132,36.71398031383936],[138.48792980787942,36.7140899]],"type":"LineString"}}]}