{"type":"FeatureCollection","features":[{"type":"Feature","properties":{"@id":"way/876385961","name":"E5 義経バイパス"},"geometry":{"coordinates":[[140.92748717903993,39.78597288429053],[140.9281400033759,39.78590419104528],[140.9288858857894,39.78593475859507],[140.92973203783316,39.785838191006064],[140.9307022,39.7857386],[140.9316463,39.7856397],[140.93225470685692,39.78552924993302]],"type":"LineString"}},{"type":"Feature","properties":{"@id":"way/876385958","name":"E1 ダウンヒル"},"geometry":{"coordinates":[[140.90473322934875,39.786818916329615],[140.90557166630597,39.786795437339144],[140.9064765,39.7867444],[140.90740544782733,39.78659840474313],[140.90811825869758,39.78650190958648],[140.9085793,39.786563],[140.909502,39.786695],[140.9101886,39.786662],[140.9110568815228,39.786553381121216],[140.9122486,39.7864311],[140.9133858,39.7861014],[140.91453779239157,39.78581258217827],[140.91536471087025,39.78563512287286],[140.91656810544148,39.78538301164753],[140.9178276,39.785145],[140.9190926804379,39.785038451381496],[140.91994672934734,39.78510281658279],[140.92083022065688,39.78516477622435],[140.9215183,39.7852934],[140.9225053,39.7856067],[140.9232778,39.7857551],[140.9238143,39.7859035],[140.9245438,39.785953],[140.92502142934882,39.78588000255454],[140.9253378,39.7857716],[140.9262819,39.7853923],[140.9271187,39.7848647],[140.9277839,39.7844525],[140.928256,39.7841392],[140.92898713695726,39.783870487809104],[140.9307022,39.7837599],[140.93157394884736,39.78383453867866],[140.93210526231044,39.78387701577449],[140.93253982280044,39.78383942239744],[140.93328986319335,39.783752796969694],[140.93420942612903,39.783705371251244],[140.93457824136135,39.783697980907206],[140.93493217152022,39.78362195853655],[140.93520092217915,39.78359001999648],[140.93563340864523,39.783443694544744],[140.93611334693162,39.78346390270216],[140.93647420463674,39.783398320552095],[140.93655968848634,39.783332738387514],[140.93668238502133,39.78328431436258],[140.93682337193894,39.783347989380786],[140.9372095412839,39.7835210940059]],"type":"LineString"}},{"type":"Feature","properties":{"@id":"way/876385957","name":"C2 スラロームバーン"},"geometry":{"coordinates":[[140.90307712892456,39.7854858289823],[140.9034724,39.7850296],[140.90372101385708,39.78485181420748],[140.9040517,39.784681911676884],[140.90444453132204,39.784403076607305],[140.9049315,39.7841556],[140.9055957180708,39.78362221398727],[140.9060220722859,39.78310964864852],[140.90641298192782,39.78250952921962],[140.906830940964,39.78181776077738],[140.9073562,39.7811875],[140.9078283,39.7809896],[140.90831859385648,39.78086440563982]],"type":"LineString"}},{"type":"Feature","properties":{"@id":"way/876385956","name":"C1 ジャイアントスラローム"},"geometry":{"coordinates":[[140.9041112842321,39.78610187219858],[140.903687,39.7857716],[140.9033849,39.7856908],[140.9031934,39.7856397],[140.90285746220295,39.7854893606153],[140.9024920755942,39.78536730830177],[140.90218304017367,39.78514358269943],[140.9022493,39.7848317],[140.9025497,39.784403],[140.90285476101462,39.784149519756156],[140.90315245982433,39.783890381768394],[140.9032149,39.7835126],[140.9032149,39.7829024],[140.90338904643318,39.782534042305656],[140.90368885982446,39.782199057721314],[140.9039659,39.7819955],[140.9041805,39.7817317],[140.9044003476215,39.78132381306591],[140.9046349196508,39.78113092192034],[140.90519399286632,39.78090567954141],[140.90572058423024,39.78072380589099],[140.9063477,39.7805114],[140.90697,39.7804619],[140.90766802614738,39.780708220769306],[140.9082789,39.7808082],[140.9085431,39.7808344],[140.9089441,39.7808742],[140.9098239,39.7807093],[140.9106822,39.7804454],[140.9114546,39.7801651]],"type":"LineString"}},{"type":"Feature","properties":{"@id":"way/876385954","name":"B5 クリスタルバイパス"},"geometry":{"coordinates":[[140.91019777890156,39.786556199380094],[140.91014599537937,39.78611792605854],[140.9099955,39.7857386],[140.9099097,39.7855407],[140.9107036,39.78507192117843],[140.9113259,39.7847657],[140.91180570549406,39.784462532053226],[140.91197008943914,39.78402765090198],[140.91198530996064,39.783626675385655],[140.9119911,39.7831498],[140.91203029916275,39.78275730715549]],"type":"LineString"}},{"type":"Feature","properties":{"@id":"way/876385950","name":"C4 クリスタル"},"geometry":{"coordinates":[[140.90810267565402,39.78632322078447],[140.9083927385681,39.78579239058743],[140.90875543232477,39.785471536177525],[140.9091480767616,39.78515835328261],[140.9094975013581,39.78499313127578],[140.90983565804737,39.784586058307944],[140.9102959,39.7840732],[140.91060411048807,39.78372539414081],[140.91085756292867,39.78351785377186],[140.9116263,39.7829684],[140.9118963,39.7827475],[140.9122915,39.7824242],[140.9130269897513,39.781937067296724],[140.91361132682246,39.78164218651053],[140.9143943,39.7812205]],"type":"LineString"}},{"type":"Feature","properties":{"@id":"way/876385949","name":"C3 サンシャイン"},"geometry":{"coordinates":[[140.90481579999883,39.78638161940913],[140.90530948826097,39.78637170148402],[140.9060473,39.7862663],[140.90684125,39.78612139718007],[140.9076352,39.7858705],[140.90829157449355,39.78553070120333],[140.9084714862325,39.78524749784462],[140.90847584898458,39.784818574308865],[140.9085793,39.7842711],[140.9088154,39.7837434],[140.9094162,39.7831993],[140.9103388,39.7825726],[140.9112401,39.7819295],[140.9119267,39.7813194],[140.91229555357526,39.78096309943402],[140.9126224474627,39.78066964322213]],"type":"LineString"}},{"type":"Feature","properties":{"@id":"way/876385948","name":"B2 クリスタル"},"geometry":{"coordinates":[[140.9143943,39.7812205],[140.9150381,39.7808082],[140.915596,39.7804784],[140.916347,39.7799837],[140.9164757,39.7796044],[140.91667353958064,39.77845268364101]],"type":"LineString"}},{"type":"Feature","properties":{"@id":"way/876385946","name":"B3 EASY PARK"},"geometry":{"coordinates":[[140.9114546,39.7801651],[140.91184767723723,39.779955852495554],[140.9124145445526,39.77959739844087],[140.91319504357958,39.779114931536206],[140.91379584357807,39.77861411464822],[140.9143716782102,39.778324136459],[140.91494761284378,39.77800906527494],[140.91542556012558,39.77798947794173],[140.91592844945603,39.77802606749564],[140.916475498909,39.77805474081374]],"type":"LineString"}},{"type":"Feature","properties":{"@id":"way/876385945","name":"B1 ファミリーゲレンデ"},"geometry":{"coordinates":[[140.91268141495232,39.780633094873856],[140.9133429,39.7802476],[140.91389871777662,39.77982628514546],[140.91456448637604,39.77935109385698],[140.91519093722863,39.77907532053237],[140.9160213211959,39.77868106207612],[140.91645638222337,39.7783468351374],[140.91681330085672,39.77797043190214],[140.9171195,39.7775266],[140.91784072837842,39.77720236410032],[140.9186201284744,39.777134531653196],[140.91906193416966,39.77711323985874]],"type":"LineString"}},{"type":"Feature","properties":{"@id":"way/876385942","name":"A2 プリンスゲレンデ迂回"},"geometry":{"coordinates":[[140.9234817,39.7742324],[140.923589,39.7744139],[140.9236748,39.7746447],[140.9237284,39.7748426],[140.9237499,39.775024],[140.92375562498026,39.77521039990733],[140.92407037478205,39.77521809991294],[140.92429702529654,39.775182400023425],[140.9245487256129,39.77505550064514],[140.9247611010291,39.774703101488306],[140.92498532174184,39.77428271320674]],"type":"LineString"}},{"type":"Feature","properties":{"@id":"way/876385941","name":"A1 プリンスゲレンデ"},"geometry":{"coordinates":[[140.92315777612805,39.77387390552562],[140.92375478090315,39.77385733698047],[140.92479626154707,39.773915818347206],[140.9258002400334,39.773986198701714],[140.92673640007143,39.77402782465076],[140.92760883012542,39.77420059883598],[140.92862861009567,39.77470999368183],[140.9295016499892,39.7753202272444]],"type":"LineString"}},{"type":"Feature","properties":{"@id":"way/876385943","name":"A3 プリンスパノラマ"},"geometry":{"coordinates":[[140.9192438,39.7768834],[140.91924853831873,39.77662877756206],[140.91895048299267,39.77616151007599],[140.9186,39.775795],[140.9184284,39.7753498],[140.9184498,39.774822],[140.91858484161952,39.77417813702812],[140.9186859,39.7735027],[140.91877384648353,39.77289564746469],[140.918879,39.7723812],[140.9192223,39.7715401],[140.91939963054085,39.771366236867706],[140.91955239026984,39.771135718104134],[140.91979156107965,39.77058913298783],[140.92,39.7701382],[140.9202206610797,39.769833580836504],[140.9203596,39.7696765],[140.92064669026996,39.7696016192293],[140.92083948540593,39.769731738267964],[140.9209175,39.7699568],[140.9209175,39.7701382],[140.92096532162705,39.77040763304629],[140.9211258583827,39.77061172918469],[140.92126,39.770847],[140.92144069026992,39.770913301384084],[140.92164290486613,39.77092350628001],[140.9217543,39.7708474],[140.92183078757077,39.77073839398488],[140.92193726107755,39.77069432809122],[140.9221191,39.770666],[140.9227843,39.7708474],[140.92371865721557,39.771194772832864],[140.924179,39.7713422],[140.92464785240406,39.77169706100891],[140.92499696632947,39.77229228431639],[140.9253142855704,39.77256966684632],[140.92572075240577,39.7727591063585],[140.92625523797625,39.77292248284524],[140.9270060475752,39.77324778192216],[140.92726313865361,39.77342124744772],[140.9275984475752,39.77374493032007],[140.92846405946668,39.774429574684525]],"type":"LineString"}},{"type":"Feature","properties":{"@id":"way/876385947","name":"A3 プリンスパノラマ_2"},"geometry":{"coordinates":[[140.91727178436307,39.77733385713894],[140.9175769532652,39.77676149530729],[140.9177011697075,39.77634808000967],[140.91780537601315,39.77592278626314],[140.91800379752164,39.77553465164817],[140.9182524864327,39.77522264579595]],"type":"LineString"}},{"type":"Feature","properties":{"@id":"way/876385952","name":"D2 パラダイス連絡"},"geometry":{"coordinates":[[140.91326225262148,39.78215667932656],[140.9136004,39.7822635],[140.9139008,39.7823377],[140.914183741512,39.78253946771026],[140.9142656,39.7827746],[140.91438285229256,39.782991517078706],[140.91459810297357,39.78306905551337],[140.91490131995093,39.78312649090734],[140.91520059541483,39.78320555260367],[140.91560557546657,39.783323032334366]],"type":"LineString"}},{"type":"Feature","properties":{"@id":"way/876385953","name":"D1 パラダイス"},"geometry":{"coordinates":[[140.91192135860385,39.78454068514958],[140.9121835,39.7846394],[140.9124345028672,39.7846652663003],[140.912639,39.7846411],[140.91297630114738,39.78449038365422],[140.91332047695917,39.78434724433828],[140.9138276976066,39.784115157304186],[140.91458284942505,39.78396956694599],[140.91506880114733,39.78378405984656],[140.9154994,39.7835744],[140.91581631261843,39.783344869124406],[140.91613925745665,39.78304564767876],[140.91646825171978,39.78279519223001],[140.9168694482801,39.78254400114184],[140.91723442528735,39.78244877544755],[140.91765985975132,39.7825108],[140.9183104,39.7827252],[140.91891620458944,39.78288378767578],[140.9193725,39.782956],[140.92015361032367,39.782952209249295]],"type":"LineString"}},{"type":"Feature","properties":{"@id":"way/876385955","name":"D3 ジョイフル"},"geometry":{"coordinates":[[140.9150595,39.7838877],[140.9169049,39.7836774],[140.917613,39.783595],[140.91921161284256,39.783421802134626],[140.92024403325658,39.783333274451444]],"type":"LineString"}},{"type":"Feature","properties":{"@id":"way/876385960","name":"E2 ロマンス"},"geometry":{"coordinates":[[140.92097940842476,39.78465380369059],[140.9215204221445,39.784542051746364],[140.92190512061356,39.78442467903254],[140.92239862061217,39.78408992195745],[140.9229345,39.7837599],[140.92349424352358,39.78352927791656],[140.9240382,39.7832312],[140.92462322938653,39.783083422328744],[140.9252953,39.7830527],[140.9257942206121,39.782922466654455],[140.9262061,39.7828424],[140.92683485076688,39.782815033406514],[140.92737656030528,39.78266224966166],[140.9280744,39.782459],[140.9289532198466,39.782307365757795],[140.92997197938783,39.78239844935936],[140.93084364199117,39.78249789414278],[140.93145962061217,39.78233940461353],[140.93236714199105,39.7824475047715],[140.93322570229788,39.78266180506259],[140.9339546816857,39.782992272241174],[140.93436433969325,39.78322097745122],[140.93466491295428,39.783317466093976],[140.93542637096158,39.78345514272906]],"type":"LineString"}},{"type":"Feature","properties":{"@id":"way/876385962","name":"E4 義経"},"geometry":{"coordinates":[[140.92566979110416,39.785869654055986],[140.926085683321,39.785879115115165],[140.92660507823166,39.785924873659994],[140.92700715227983,39.78605716086014],[140.92743592194225,39.786244151876836],[140.9280629,39.7864311],[140.9287495,39.7864641],[140.92927786781803,39.78648444151595],[140.92957487366988,39.78646375536085],[140.92997100731563,39.78636723509799],[140.9304661,39.7860189],[140.9310253930069,39.785824136236386],[140.93149235682912,39.78593682051495],[140.93190308574555,39.78602028977679],[140.93281687276308,39.785761531433195]],"type":"LineString"}},{"type":"Feature","properties":{"@id":"way/876385963","name":"CATツアー専用コース"},"geometry":{"coordinates":[[140.905704,39.7988131],[140.9064979,39.7985164],[140.9073562,39.7979559],[140.9079356,39.797247],[140.9088368,39.7967194],[140.9097809,39.7962413],[140.9107895,39.7956643],[140.9118623,39.7949553],[140.9130425,39.7941475],[140.9140296,39.7938342],[140.9154672,39.7934385],[140.9165318852907,39.792975647273934],[140.9179349,39.7925482],[140.9186859,39.7923339],[140.9204669,39.7918557],[140.9216256,39.7915095],[140.9225697,39.7910149],[140.9234924,39.7905202],[140.9245438,39.7902894],[140.9258313,39.7902894],[140.9270115,39.7898442],[140.9278912,39.7893331],[140.9287924,39.7888879],[140.9299297,39.7886901],[140.9309811,39.7884922],[140.931539,39.7880965],[140.9320326,39.7876018],[140.9326548,39.7863322],[140.9329552,39.7859365],[140.9334702,39.7855407],[140.933908,39.785454]],"type":"LineString"}},{"type":"Feature","properties":{"name":"B4 クリスタル連絡"},"geometry":{"coordinates":[[140.91286481343565,39.78404928241082],[140.91287010182833,39.78384202176133],[140.91287010182833,39.78347220218967],[140.912856077929,39.78303901264613],[140.91288718154368,39.78273226593225],[140.912892365483,39.78229803772632]],"type":"LineString"}},{"type":"Feature","properties":{"name":"E3 弁慶"},"geometry":{"coordinates":[[140.9317134844158,39.78395102277776],[140.93174561069702,39.784432434194855],[140.93187411581982,39.78471634191283],[140.93230782060812,39.78490149848952],[140.9327254622557,39.78506196711919],[140.93319129332502,39.78522243537461],[140.93357680869138,39.78534587223956],[140.93384451315916,39.78539965333346],[140.93396031183357,39.7854377897944],[140.93418639496122,39.78543355241081],[140.93447864876038,39.785425077640895],[140.93463151452738,39.78542927296721],[140.93480075876977,39.785345366394324],[140.93507373335456,39.785152380888434],[140.9353194652087,39.7849467667194],[140.93560100440857,39.78470366229348],[140.93585163200993,39.78455814525233],[140.93613567670496,39.78448966646883],[140.93650894502446,39.7844725467792],[140.93742024946238,39.78433853895996]],"type":"LineString"}},{"type":"Feature","properties":{"name":"無名_1"},"geometry":{"coordinates":[[140.91902755222787,39.78497623658208],[140.91965333871377,39.784576855137516],[140.91990789620604,39.784250827650254],[140.9200396632437,39.78385935662624],[140.92012451564887,39.7835007226754]],"type":"LineString"}},{"type":"Feature","properties":{"name":"無名_2"},"geometry":{"coordinates":[[140.92025658661004,39.78356565195824],[140.92049719079603,39.783625295932666],[140.92090078491316,39.78366108229224],[140.92158379034367,39.78366108229224],[140.92225127309246,39.78361336707209],[140.92291099424648,39.78356565188932],[140.92318264413439,39.783571616288384]],"type":"LineString"}}]}