{"type":"FeatureCollection","features":[{"type":"Feature","properties":{"@id":"way/506722278","name":"サンシャイン"},"geometry":{"coordinates":[[141.12739319576954,43.144961416806986],[141.12797037030714,43.14524487824326],[141.12847731945288,43.14545951907537],[141.12918232197075,43.14570185744948],[141.1298836234416,43.14587668746846],[141.13049833985139,43.14597919495735],[141.1309793325122,43.146036196017654],[141.13136952831587,43.14607079833151],[141.13171674614338,43.146108397698825],[141.13208243880266,43.146126989507145]],"type":"LineString"}},{"type":"Feature","properties":{"@id":"way/506722279","name":"ツインズ"},"geometry":{"coordinates":[[141.12621900003336,43.143683072415755],[141.12670753603712,43.143791769801],[141.1271899000668,43.143885079244626],[141.12756306798622,43.143944258555216],[141.1278170800209,43.14393469819052],[141.12817091200125,43.143917337823574],[141.12842988799864,43.143874182133914],[141.12897004395023,43.14379107920907]],"type":"LineString"}},{"type":"Feature","properties":{"@id":"way/506722280","name":"ダウンヒル"},"geometry":{"coordinates":[[141.1243851966106,43.141166774247985],[141.12463943820103,43.141219684162124],[141.12481324855176,43.14125069208866],[141.1250858269854,43.14130115942004],[141.12535162920653,43.141366439623056],[141.12555193259428,43.14140452672868],[141.12584802292062,43.14149491893029],[141.12617194651847,43.141614651759355],[141.1263948847195,43.14174236560472],[141.1265866082545,43.14187149259221],[141.1269361032144,43.14215006055407],[141.12718073209018,43.14237022801562],[141.12733536490305,43.142550490785084],[141.12760874227746,43.142784898671074],[141.12779864191677,43.1429448613725],[141.12819386662363,43.14325718771364],[141.12863083019408,43.14353229237895],[141.12943055490746,43.14402836103789]],"type":"LineString"}},{"type":"Feature","properties":{"@id":"way/506722281","name":"ダイビング"},"geometry":{"coordinates":[[141.12592851294258,43.143270368671],[141.12642933843452,43.143144328348995],[141.12666085222145,43.14307088137146],[141.12696055105408,43.14293524548618],[141.12741079392768,43.142791461054756]],"type":"LineString"}},{"type":"Feature","properties":{"@id":"way/506722283","name":"パノラマ"},"geometry":{"coordinates":[[141.12406874005345,43.14126025205012],[141.12462432833541,43.142103576063036],[141.12493262475732,43.14240124195099],[141.1255225198473,43.143020632557],[141.12613420228104,43.14368771533471],[141.12672628734364,43.144309295501024],[141.1271418631732,43.144745931145806],[141.1273572873986,43.14493436547974]],"type":"LineString"}},{"type":"Feature","properties":{"@id":"way/506722285","name":"ファミリー"},"geometry":{"coordinates":[[141.1294833696623,43.144071060660146],[141.13017486544936,43.144472917030065],[141.1308364225372,43.144799692607194],[141.13156426544936,43.14523021703006],[141.13219996544936,43.145600117030064],[141.13246843901103,43.14576172795756]],"type":"LineString"}},{"type":"Feature","properties":{"name":"フォレスト"},"geometry":{"coordinates":[[141.12877625902485,43.145472126670654],[141.1289343233969,43.14513095033183],[141.12911873182122,43.14472730261832],[141.12938217244073,43.1442996253557],[141.12948657179345,43.1441606946008]],"type":"LineString"}},{"type":"Feature","properties":{"name":"ディア"},"geometry":{"coordinates":[[141.12393291589626,43.14116723070225],[141.1238167530546,43.14116157999044],[141.12371995068617,43.1411686433801],[141.12363089250715,43.141196896931405],[141.12361734017583,43.141297196932555],[141.12365412507506,43.1414596543313],[141.12366767740644,43.14159385794429],[141.12367154950113,43.14170969661575],[141.1237335030175,43.14179021848932],[141.1238419216699,43.14192159605577],[141.1239997436362,43.142063018104125],[141.12410429019394,43.1421604913746],[141.12419141232573,43.142208521624326],[141.12432887168802,43.14226785305769],[141.1245166682828,43.14228763018954],[141.12461153460384,43.14229045549348]],"type":"LineString"}},{"type":"Feature","properties":{"name":"オウル"},"geometry":{"coordinates":[[141.12680753079894,43.1454343497594],[141.12704261601272,43.14556750557074],[141.12732100639795,43.14569840422075],[141.12751897289297,43.14582027512631],[141.12773452438284,43.14592912582424],[141.12791211462923,43.14596383270418],[141.12808019111247,43.14597540165943],[141.1282260688153,43.14595689132946],[141.12834974774148,43.145889791335975],[141.1285146529704,43.145790298107784]],"type":"LineString"}},{"type":"Feature","properties":{"name":"無名"},"geometry":{"coordinates":[[141.12453005348,43.14172768500222],[141.1247817113573,43.14173940579491],[141.12494769846302,43.14172117344606],[141.1250994071084,43.14163912781018],[141.12524397652192,43.14152712882725],[141.12536534343883,43.14142945512836]],"type":"LineString"}}]}