{"type":"FeatureCollection","features":[{"type":"Feature","properties":{"@id":"way/454023580","name":"Bゲレンデ"},"geometry":{"coordinates":[[138.76880678212515,35.300362330735865],[138.76901185400837,35.300241352028436],[138.76920460138103,35.30017176018834],[138.76940440179425,35.30012364910291],[138.77004372633618,35.30000952080451],[138.77066401274084,35.29987674754072],[138.77106273306745,35.299792696477574],[138.77128816191257,35.2997402529126],[138.77162654201547,35.2997430366668],[138.77213461084676,35.299823671216046],[138.77257795002132,35.29987323021029],[138.77302050471013,35.2999123812427],[138.77333697272195,35.299897773692045],[138.77402278052782,35.29986762840522],[138.77463539663435,35.299825211549454],[138.77499198426992,35.29982789826387],[138.7751198378287,35.299838235517704],[138.7752667074903,35.299852070425146],[138.77539731498055,35.29994155686319]],"type":"LineString"}},{"type":"Feature","properties":{"@id":"way/454023581","name":"Aゲレンデ"},"geometry":{"coordinates":[[138.76884750692324,35.30060901796659],[138.7690129876921,35.30064342042231],[138.76911539542755,35.30065024046917],[138.76924529811885,35.30064386081615],[138.7695276,35.3006225],[138.7697422,35.3006072],[138.7700459082033,35.30058955058673],[138.77036740726368,35.30057322114426],[138.77084302118385,35.30056004889295],[138.7711065010118,35.300577408417176],[138.77136631328776,35.3006127271815],[138.771719,35.3007167],[138.7722501,35.3008787],[138.7726309,35.3009706],[138.7728751079581,35.301006264000605],[138.77302716903185,35.30101225200067],[138.77316833053678,35.301001404000736],[138.7733825648371,35.30096668599456],[138.77356356903186,35.30091705196241],[138.7737355681672,35.30086948790762],[138.77394212346954,35.30079215640782],[138.77414373788147,35.30071536242306],[138.7743366291306,35.30062269521487],[138.77468898871857,35.3004787580976],[138.7749467754672,35.30039690607973],[138.77532140713217,35.30033171720083],[138.77542692781907,35.300316591096376],[138.77549242604928,35.300283318489164],[138.77551891942355,35.300205885347054],[138.77550823065337,35.30014143188703]],"type":"LineString"}},{"type":"Feature","properties":{"@id":"way/454023578","name":"Dゲレンデ"},"geometry":{"coordinates":[[138.77296373253176,35.303168124434244],[138.77303770464744,35.30306845055082],[138.77317890929478,35.30287828729034],[138.77331457901045,35.302677631811356],[138.77351226971572,35.30239276059741],[138.77366395422362,35.30217081560679],[138.77380671239223,35.30195445974835],[138.77390768295788,35.30182573799659],[138.7740099201396,35.30164281417019],[138.77409502788433,35.301512393091414],[138.7741447635209,35.30138684349501],[138.77416337746294,35.301267798403096],[138.7741765914051,35.30114776749217],[138.77421307901292,35.30102492858465],[138.77424363969354,35.30093077141193],[138.7742694079753,35.30086500575733],[138.77433520370337,35.300789451906184],[138.77442813959098,35.300697503436666]],"type":"LineString"}},{"type":"Feature","properties":{"@id":"way/454023579","name":"Cゲレンデ"},"geometry":{"coordinates":[[138.77292036708127,35.30318168143902],[138.77267264430762,35.30297250040238],[138.77237635084538,35.302644970005645],[138.77227109830915,35.302511480095376],[138.77224364577074,35.302409788321256],[138.77224402277378,35.30228822377898],[138.77229347846603,35.30213068746568],[138.7724430506199,35.30181241075183],[138.77263513269537,35.30140660082749],[138.77273246719096,35.301274698997844],[138.77285373453017,35.30111263606722]],"type":"LineString"}}]}