{
  "type": "FeatureCollection",
  "features": [
    {
      "type": "Feature",
      "properties": { "@id": "way/451773869", "name": "テクノ" },
      "geometry": {
        "coordinates": [
          [132.82558807281927, 33.53789558998228],
          [132.8257079, 33.5380274],
          [132.82610241856318, 33.53834357720693],
          [132.8273441, 33.5392928],
          [132.8287808893937, 33.54047301885772],
          [132.82899953607927, 33.54070998661588],
          [132.82917257016766, 33.540856912138125],
          [132.82942764431468, 33.540954778596465],
          [132.82977577083042, 33.54103127677587],
          [132.83010888872866, 33.54108798237764]
        ],
        "type": "LineString"
      }
    },
    {
      "type": "Feature",
      "properties": { "@id": "way/451773870", "name": "ファミリー" },
      "geometry": {
        "coordinates": [
          [132.8301955298524, 33.54109182221237],
          [132.83056021374966, 33.54121914505354],
          [132.83165836048676, 33.5415979806325],
          [132.83373543794235, 33.54225539209802]
        ],
        "type": "LineString"
      }
    },
    {
      "type": "Feature",
      "properties": { "@id": "way/451773871", "name": "アイデアル" },
      "geometry": {
        "coordinates": [
          [132.82607146391973, 33.53758107287058],
          [132.8267282821135, 33.53800391383376],
          [132.82736659259706, 33.53834282274592],
          [132.82793108098917, 33.5385775734845],
          [132.82843720166542, 33.53880373863894],
          [132.828822235337, 33.5390128165746],
          [132.82908023339496, 33.53906735888108],
          [132.82931232932302, 33.53910445002562],
          [132.82998686651342, 33.53907061914546],
          [132.8305000341345, 33.53904251183065],
          [132.83090003284033, 33.53903392652649],
          [132.8311033673446, 33.5390440779622],
          [132.83130326845543, 33.5391458058908],
          [132.83171696475463, 33.53941025579782],
          [132.83191769750175, 33.53951467839188],
          [132.83216860079963, 33.53971331378602],
          [132.8328597108915, 33.54070122494242],
          [132.8333256962972, 33.541321366443256],
          [132.8337197079771, 33.54187106914726],
          [132.8338893343581, 33.54209771986737],
          [132.83401572141332, 33.54221446805481],
          [132.8342477025421, 33.542312765066185],
          [132.83437932347334, 33.542359732596175]
        ],
        "type": "LineString"
      }
    },
    {
      "type": "Feature",
      "properties": { "name": "モーグル" },
      "geometry": {
        "coordinates": [
          [132.83193814330855, 33.539792345815286],
          [132.83247265789402, 33.54050517349084],
          [132.83290895036873, 33.54110782974519],
          [132.83319590030612, 33.54149237639473]
        ],
        "type": "LineString"
      }
    }
  ]
}
