{"type":"FeatureCollection","features":[{"type":"Feature","properties":{"name":"コスモ"},"geometry":{"coordinates":[[140.39164614096558,40.57237025788362],[140.39120620825526,40.57310190222009],[140.3907431211901,40.573974236934646],[140.3904758694439,40.57454219101609],[140.39028600374849,40.574939658962165],[140.39015633936845,40.575238637719735]],"type":"LineString"}},{"type":"Feature","properties":{"name":"アドベンチャー"},"geometry":{"coordinates":[[140.3921059359132,40.57251964055493],[140.3921290902565,40.572850287794836],[140.39235600291858,40.57311410088806],[140.392643116898,40.57343771019495],[140.39271734767846,40.57363308618963],[140.39267925137437,40.57369826769548],[140.39261533167456,40.57376835287087],[140.39186513062793,40.574130650947666],[140.3913094261514,40.5744014938596],[140.3909806343347,40.574728614356985],[140.39069352035318,40.57510497682145],[140.39059164119863,40.57530898549609]],"type":"LineString"}}]}