{"type":"FeatureCollection","features":[{"type":"Feature","properties":{"@id":"way/1257259816","name":"大松山アルプス"},"geometry":{"coordinates":[[138.3057951555824,36.513524523131316],[138.30586155246556,36.51402167999494],[138.30586505844033,36.514283516144886],[138.30585361477546,36.514393221647225],[138.3058223761338,36.51444989590168],[138.30563803663017,36.51491258434013],[138.30545007450388,36.51536668950126],[138.30532515674685,36.515561455396075],[138.3053156400042,36.51565351989933],[138.30563515222025,36.51580060668665],[138.3061267263797,36.51605406648602],[138.30641052909493,36.51624289020933],[138.30712459474353,36.516971157093835],[138.3074273,36.5173321],[138.30805369594356,36.517685338313704],[138.30884311345991,36.51803857662741],[138.30940611212316,36.51821712739474],[138.3099691107864,36.51839567816207],[138.31028140901765,36.51839159442295],[138.3104841783612,36.51833525337277],[138.31091812746922,36.51798803230492]],"type":"LineString"}},{"type":"Feature","properties":{"@id":"way/1257259818","name":"大松山ポール専用バーン"},"geometry":{"coordinates":[[138.30764331813648,36.51630054253751],[138.3078751266095,36.51639043301712],[138.30957495862697,36.517219062720514],[138.31023544115635,36.517589530749426],[138.31106565608255,36.51785769158661]],"type":"LineString"}},{"type":"Feature","properties":{"@id":"way/1257259828","name":"つばくろチャンピオン"},"geometry":{"coordinates":[[138.2998353228674,36.52582399278355],[138.30090552937793,36.52619460449682],[138.30186436863167,36.526484681626464],[138.30223203370957,36.526569850764304],[138.30255090299664,36.52658250070049],[138.302903579881,36.526581342014936],[138.303158471534,36.52652779776419],[138.30340133510776,36.5264289834257],[138.30378663389624,36.526264903967075],[138.30437279485085,36.52608495547194],[138.30475847806954,36.526130564295784],[138.3049552352213,36.52621281930918],[138.30534646019436,36.52666377665215],[138.3055284726511,36.526971842385464],[138.3056392950474,36.527356274944836],[138.30580217437483,36.52761560487295],[138.3060393423641,36.52783777497909],[138.306386985807,36.52805994491466],[138.3071485579593,36.52848652969543],[138.30810346215276,36.528921991929934],[138.30915779425453,36.52942847266082]],"type":"LineString"}},{"type":"Feature","properties":{"@id":"way/1257259823","name":"つばくろ 連絡路"},"geometry":{"coordinates":[[138.29968502663866,36.52529016967482],[138.29980103319298,36.52517096200192],[138.30007626659648,36.52476503100096],[138.30030408647022,36.52438903703923],[138.30059747663773,36.52396106383604],[138.300857,36.5237236],[138.30135445306755,36.5232826],[138.30154732220842,36.5227171219333],[138.30177245064203,36.52228469535791],[138.30187485481747,36.52186980356301],[138.3020547507702,36.52160792495911],[138.30218045983338,36.52134332484747],[138.30248032684491,36.52089464492872],[138.30271923360561,36.52037520153612],[138.30294503145214,36.52009726066957],[138.30302288819303,36.520039705713735],[138.30301047536858,36.52011579638826],[138.30297630440538,36.52044734548663],[138.302971,36.5206977],[138.3029172,36.521665],[138.3029992414879,36.521711678801466],[138.30365308189928,36.521900389625294],[138.3039435,36.5222378],[138.3039055,36.5225662],[138.3036964,36.5227673],[138.3030185,36.5230193],[138.303047,36.5232764],[138.303329,36.5236608],[138.3033416,36.5238492],[138.3031104,36.5241903],[138.3025846,36.5245925],[138.3023343,36.5249056],[138.3024293,36.5250685],[138.3029583,36.525155],[138.3040111003374,36.52509186311071],[138.3041679581568,36.52505586444901],[138.30429157029516,36.52504694238103],[138.30446601356266,36.52512879301502],[138.30462760620443,36.525198603556994],[138.3048157730621,36.5252645],[138.30501359104105,36.52527280320094],[138.3055051,36.5251041],[138.3061324999551,36.52512372369228],[138.3063019188849,36.52505870503474],[138.30649947057412,36.524927081662796],[138.30669923527586,36.52483148014525],[138.3069876,36.5248699],[138.3076085,36.525323],[138.3081533,36.5258016],[138.3085619,36.5259543],[138.3089611,36.5259976],[138.309338,36.525906],[138.30950905,36.5260027],[138.30959142454256,36.526151224216854],[138.3096005035145,36.52634664222155],[138.3094806,36.5264125],[138.30891492059595,36.52659377656362],[138.3083687,36.5268376],[138.3083244,36.5271609],[138.3087837,36.528034],[138.3087809546577,36.52829551377113],[138.3087191381229,36.528746897131626]],"type":"LineString"}},{"type":"Feature","properties":{"@id":"way/1257259826","name":"大松山 連絡路"},"geometry":{"coordinates":[[138.3060764,36.5166326],[138.3059492,36.5166714],[138.30571894853009,36.51682681795988],[138.3054816539949,36.51698600943225],[138.3053461,36.5172207],[138.3052447254172,36.517614370659516],[138.30517387079905,36.51797030585939],[138.30521977542216,36.51839561188761],[138.30516448163831,36.5185214351714],[138.3050469419365,36.51858389364591],[138.3048990670991,36.51864262742119],[138.30465177565958,36.51875489793216],[138.3044690715783,36.518888403043064],[138.30418156421004,36.51906393143596],[138.3038143673216,36.519251785230864],[138.30361888296392,36.519309891453275],[138.30350593695843,36.519374078152296],[138.30339620672373,36.51946023199382],[138.30337054910063,36.519549073984905],[138.3034274,36.5196274],[138.30376339249332,36.519760811027965],[138.30363155060405,36.51976715858777],[138.30342701501323,36.51979687432419],[138.30325049564505,36.51985723278728],[138.30316223595847,36.519918569542945],[138.3034009384742,36.519900381060594],[138.30382660121657,36.51987017252665],[138.304189415909,36.51979767993577],[138.3048633,36.519301],[138.3051432,36.5192316],[138.3055252,36.5192505],[138.3059569,36.5194418],[138.3060699196019,36.51937424244942],[138.3060857198848,36.51931269496509],[138.30608316874984,36.5190699546031],[138.30610426676185,36.51870652671954],[138.30608797272757,36.51846029632055],[138.3062708,36.5180878],[138.30636945795354,36.517965662676495],[138.3064793335219,36.5179727440445],[138.30675996505508,36.5181900653943],[138.3072126,36.5185336],[138.30738601761493,36.5185768240609],[138.30768008238704,36.51859601393834],[138.30794953352196,36.518789703954475],[138.3086724,36.518809],[138.3091171,36.5190423],[138.3094127,36.5190402],[138.3103414,36.5188763],[138.3111229,36.518576],[138.31124310935922,36.51828487495091],[138.31111910073514,36.51805512012115],[138.31116731871614,36.51788073090147]],"type":"LineString"}},{"type":"Feature","properties":{"@id":"way/1257259817","name":"大松山ホワイトピーク_#上部"},"geometry":{"coordinates":[[138.3057743751217,36.51472559037203],[138.30818544130975,36.51574769912426]],"type":"LineString"}},{"type":"Feature","properties":{"@id":"way/1257259834","name":"大松山"},"geometry":{"coordinates":[[138.31012485711452,36.51354250940571],[138.3105218661221,36.51468246687639],[138.3109099901229,36.51587241044882]],"type":"LineString"}},{"type":"Feature","properties":{"@id":"way/1257259822","name":"大松山GOの原"},"geometry":{"coordinates":[[138.3081337266878,36.514706681746695],[138.30994554523545,36.51557052018278],[138.3113500201072,36.516270777677825],[138.31213760386282,36.516701453879165]],"type":"LineString"}},{"type":"Feature","properties":{"@id":"way/1257259832","name":"大松山新富士見"},"geometry":{"coordinates":[[138.30596108349425,36.514260810366345],[138.3060797682544,36.51396157791439],[138.30622776767686,36.513746770543335],[138.30646807476225,36.5135486543281],[138.306698267413,36.513352320692874],[138.30682692162483,36.5132987624456],[138.3068954123858,36.51329462730624],[138.3068975417775,36.513354509077644],[138.30681831649656,36.51351351089374],[138.30673695307115,36.5136704481463],[138.30673481054524,36.513705036163664],[138.30681616959265,36.51365186305861],[138.30702636520374,36.51351959424051],[138.3072751,36.5134183],[138.30778565720766,36.5132241318442],[138.30836044639608,36.51316676858876],[138.30930176081316,36.5131842657146],[138.31005438855692,36.51322317734899],[138.310186170212,36.513218444194166]],"type":"LineString"}},{"type":"Feature","properties":{"@id":"way/1257259838","name":"大松山SAJ公認グランプリ"},"geometry":{"coordinates":[[138.31088971845867,36.512738171496274],[138.31142944704507,36.51267325833007],[138.31193971061964,36.512425630179436],[138.31248275591508,36.51234486985779],[138.31292670118887,36.51226654509634],[138.31322735072888,36.51217050171391],[138.31386171805593,36.51183666570141],[138.31468055742243,36.51150731658751],[138.315093586282,36.5114334584362],[138.3154294557325,36.51144603770959],[138.31558324471004,36.51148777347738],[138.31575747181097,36.51219693975011],[138.31595724097758,36.5130642666716],[138.3161450506967,36.51424921627725],[138.31671484457996,36.5159200394982]],"type":"LineString"}},{"type":"Feature","properties":{"@id":"way/1257259836","name":"大松山SAJ公認チャンピオン"},"geometry":{"coordinates":[[138.31075064411365,36.51310235778307],[138.31128082548338,36.51394908000019],[138.3116845836563,36.514984502360896],[138.3122306488567,36.51656147656955]],"type":"LineString"}},{"type":"Feature","properties":{"@id":"way/1257259841","name":"大松山アルペン"},"geometry":{"coordinates":[[138.31299270094223,36.51243465450768],[138.31341059874188,36.51313726247834],[138.3140835012592,36.51438641016884],[138.3151550404988,36.51558467785707]],"type":"LineString"}},{"type":"Feature","properties":{"@id":"way/1257259837","name":"大松山ドッグレッグ"},"geometry":{"coordinates":[[138.31183802159478,36.51509868322001],[138.31235028568022,36.51505517271926],[138.3130598520543,36.51493554764947],[138.313306060074,36.514888084291655],[138.31361373024464,36.514978457159685],[138.3142030950645,36.51529101717138],[138.31482187396105,36.51558799950498],[138.31534392556017,36.51576190346236],[138.31581936075096,36.51584214415436],[138.31652424305378,36.51600828893439],[138.31693311573622,36.51611052563614],[138.31710440269913,36.51625095759834],[138.31731876022494,36.51654910268118],[138.31760443434294,36.51697714091425],[138.31760563658386,36.51713957101745],[138.31748347226053,36.51741118985764]],"type":"LineString"}},{"type":"Feature","properties":{"name":"シュナイダーハンネスB"},"geometry":{"coordinates":[[138.34481949712927,36.53498644637206],[138.34461846321148,36.53481695865247],[138.34429655134164,36.534617724400206],[138.3440137909152,36.53454082683173],[138.3435265729488,36.53443247103873],[138.34335691669293,36.53439751752386]],"type":"LineString"}},{"type":"Feature","properties":{"@id":"way/1257259819","name":"大松山 連絡路_2"},"geometry":{"coordinates":[[138.30519621423227,36.51563803139215],[138.30496422474164,36.515845362188585],[138.30467917307055,36.51603137014989],[138.30461071124301,36.51622066994952],[138.30449824449516,36.51675808956967],[138.3043782,36.517287389412544],[138.3043984889929,36.51733624460103],[138.3044794,36.51735464949613],[138.30458907088354,36.517320920307206],[138.30488530058716,36.517035510153605],[138.3050814078676,36.51686438461523],[138.30536633282233,36.51665628885774],[138.30578770315512,36.51651708052881],[138.30630139053903,36.51665269125666],[138.3069134781615,36.51685086744601]],"type":"LineString"}},{"type":"Feature","properties":{"@id":"way/1257259821","name":"大松山チャレンジ"},"geometry":{"coordinates":[[138.3062156,36.5138676],[138.30798274987427,36.5146716362645]],"type":"LineString"}},{"type":"Feature","properties":{"@id":"way/1257259827","name":"つばくろファミリー"},"geometry":{"coordinates":[[138.3066610930332,36.52766638454428],[138.3068518,36.5277651],[138.3088742,36.5290851],[138.3093855,36.5293779],[138.30987074521641,36.52953377807047]],"type":"LineString"}},{"type":"Feature","properties":{"@id":"way/1257259839","name":"大松山ラビット"},"geometry":{"coordinates":[[138.3157254075484,36.51145312884655],[138.3165271530272,36.51146136695022],[138.31706020029617,36.511364843524866],[138.31739628947247,36.51123271281727],[138.31767563892882,36.51120578612502],[138.31787518132865,36.511205017657545],[138.3179104685048,36.51125828506383],[138.31787064502913,36.51132559304456],[138.3176489,36.5115367],[138.3173749184019,36.51222787226354],[138.31719299149546,36.51270530384893],[138.31697015139417,36.51363076704699],[138.3167071325078,36.51485539929432],[138.316909244038,36.51582300358618]],"type":"LineString"}},{"type":"Feature","properties":{"name":"奥ダボス中級"},"geometry":{"coordinates":[[138.36086821232493,36.547114417608896],[138.36088531990626,36.54665035809703],[138.36082789591296,36.54606654587786],[138.36057361346587,36.54554982323491],[138.3599753018284,36.54486485998801],[138.35927228565419,36.544336112278685],[138.35859918506253,36.54367517255611],[138.35822616455937,36.54342130935463],[138.35795835436568,36.54330450797471],[138.35758342009683,36.54323688604191],[138.3571166651887,36.54323073859045]],"type":"LineString"}},{"type":"Feature","properties":{"name":"奥ダボス上級"},"geometry":{"coordinates":[[138.36069839113475,36.5468561739993],[138.35979419415622,36.545974025487794],[138.35844695345475,36.544812644471406],[138.3572472097472,36.543696637111054]],"type":"LineString"}},{"type":"Feature","properties":{"name":"奥ダボス初級①"},"geometry":{"coordinates":[[138.36315536653086,36.54923832210781],[138.36224856572375,36.54834019795413],[138.36152809385118,36.54763167042499],[138.3610187947683,36.54733229064398],[138.3607827781205,36.54727241454809],[138.35992566502955,36.54727241454809],[138.3591182396528,36.54746202202685],[138.35822386077467,36.547611711810745],[138.3578636248376,36.547611711810745],[138.35772698363053,36.54755183592877],[138.35762760819944,36.54741212536415],[138.35737916962256,36.54632437018945],[138.35709346525834,36.545246579322566],[138.35701058493913,36.54436820411732],[138.3569608972228,36.54367959981657],[138.35681183407695,36.54313070793735]],"type":"LineString"}},{"type":"Feature","properties":{"name":"奥ダボス初級②"},"geometry":{"coordinates":[[138.35306160728436,36.543557043120344],[138.35311264825606,36.543439881453935],[138.35323660490008,36.54334029385828],[138.3534152482967,36.54320262855782],[138.3537543061724,36.5431352604906],[138.35446887976627,36.54318212518223],[138.35505949671432,36.543164550901395],[138.35632822941932,36.54300638187523]],"type":"LineString"}},{"type":"Feature","properties":{"name":"奥ダボス初級③","@id":""},"geometry":{"coordinates":[[138.35268940002015,36.54220584729832],[138.353347173156,36.542275885073565],[138.35418722077458,36.542377758088676],[138.35526501771966,36.54254330145126],[138.3561446902267,36.54267700929327]],"type":"LineString"}},{"type":"Feature","properties":{"name":"ダボスイースト"},"geometry":{"coordinates":[[138.3520138018074,36.54099417257875],[138.35106982662228,36.53919045082195],[138.35044190127434,36.53809812407491],[138.34993569973705,36.537082801556295],[138.34952587852803,36.536550370094346],[138.34911501373296,36.536243966015675],[138.3484787397149,36.5359527731723]],"type":"LineString"}},{"type":"Feature","properties":{"name":"ダボスウェスト"},"geometry":{"coordinates":[[138.35153783638407,36.5410433975802],[138.35084180843853,36.540204577848826],[138.34977729510973,36.53856803080403],[138.34884584594687,36.53709593125721],[138.3480679316056,36.53575539175503],[138.34792463173443,36.53523726285678]],"type":"LineString"}},{"type":"Feature","properties":{"name":"表ダモスパノラマ"},"geometry":{"coordinates":[[138.35109512660546,36.54077074372954],[138.35043265295496,36.54066249112975],[138.34969400027364,36.540515198769526],[138.3491045019997,36.54032457622715],[138.34877130732355,36.540159836806794],[138.34832138868222,36.5399906374749],[138.34784028911946,36.53987774978023],[138.34757619680755,36.53981806670076],[138.34722868935404,36.5397003269088],[138.3470690641322,36.53952781737529],[138.34691450869695,36.53924962973525],[138.34686473358374,36.53887817626374],[138.3467131044929,36.538462748474814],[138.34658778741607,36.537918637727316],[138.34650246845013,36.5375440396696],[138.34642721551094,36.53707672336436],[138.34631432026043,36.536231139668416],[138.34639897183717,36.53615442720455],[138.34662999297473,36.536085549459486],[138.3469937596367,36.53597062822446],[138.34733493796926,36.53575197175379],[138.34788784000813,36.53543111374866]],"type":"LineString"}},{"type":"Feature","properties":{"name":"シュナイダーパノラマ"},"geometry":{"coordinates":[[138.34556457043476,36.535540080747],[138.3454770197905,36.53511356542289],[138.34537723881556,36.53480496464797],[138.345246103437,36.53440170949759],[138.3451177483281,36.53411246821045],[138.344948532686,36.5336960451035],[138.34482155362292,36.533359246956636],[138.34468501226863,36.533088968065854],[138.34453452077423,36.53288683565367],[138.34440343603103,36.53279175780694],[138.3442481264853,36.53269347452594],[138.34389455370888,36.53253104254716]],"type":"LineString"}},{"type":"Feature","properties":{"name":"シュナイダーパノラマ初級"},"geometry":{"coordinates":[[138.3452836696116,36.535683341742455],[138.3456020019451,36.53587589414005],[138.34595161022622,36.53594974557184],[138.3461314163253,36.53593665427093],[138.34625679400813,36.53587971162452],[138.34629486077773,36.53567864533643],[138.34627148063475,36.535312324794816],[138.34621303027882,36.5351620389427],[138.34613119977985,36.5348849486365],[138.34595000367472,36.53462194674972],[138.34580972253355,36.53433834008679],[138.34576296224753,36.53409881885456],[138.3457395821061,36.53386399339695],[138.34568697750035,36.533551614029534],[138.3455993019657,36.53336844893751],[138.34545902110926,36.53318997996972],[138.3453713455761,36.53296454489505],[138.3453362753616,36.53279077157622],[138.34528300324496,36.532647257816805],[138.34520287877297,36.53258626485123],[138.3451058859933,36.53254560284631],[138.34499624197986,36.53252188333444],[138.34488238088784,36.53251849483202],[138.34482670514944,36.532481436674004],[138.34485452117224,36.53244120537086],[138.34496300366447,36.532432265078896],[138.3450520149405,36.532416619564415],[138.34506035974704,36.532387563601176],[138.34500194609836,36.53234286209825],[138.3448767739916,36.53228698518234],[138.34476829149105,36.53226463439263],[138.34464590098747,36.53226463439263],[138.3445040392661,36.53232274640055],[138.34436495914787,36.532398738960794],[138.34419806300548,36.532441205358495],[138.3440144772486,36.53241885462572],[138.3439365923822,36.5324099143306]],"type":"LineString"}},{"type":"Feature","properties":{"name":"シュナイダーパノラマ初級_2"},"geometry":{"coordinates":[[138.34594537696626,36.53450264738211],[138.34611743222217,36.53452856852961],[138.34634325474508,36.534718656679686],[138.3466067143545,36.53501242835584],[138.34694544813954,36.53530619891605],[138.3471658939356,36.535483324743936],[138.3473379491902,36.535569727440105],[138.3474024699122,36.535599968360785]],"type":"LineString"}},{"type":"Feature","properties":{"name":"裏ダボスウェーブ"},"geometry":{"coordinates":[[138.3468191823036,36.539479338658026],[138.3456530113129,36.53946422645734],[138.34459029097405,36.539479338658026],[138.34325483709932,36.53950200695422],[138.34112939709092,36.5395171188847],[138.34031119647568,36.53953223107548]],"type":"LineString"}},{"type":"Feature","properties":{"name":"表ダモスパノラマ _2"},"geometry":{"coordinates":[[138.34682261297456,36.53752555827295],[138.34726579861643,36.53761935754622],[138.34769997845734,36.53790279667696],[138.34802018609054,36.538099023158395],[138.34841637519605,36.538260364559406],[138.3488885457723,36.53832141256926],[138.34925759863717,36.53831269142779],[138.3493227256145,36.53831269142779]],"type":"LineString"}},{"type":"Feature","properties":{"@id":"","name":"シュナイダーハンネスA"},"geometry":{"coordinates":[[138.34476043023767,36.53529256285465],[138.34431056205494,36.535165707679454],[138.34391469745788,36.535004922907405],[138.34344052997187,36.53489656776375],[138.34321867179233,36.53485462379662]],"type":"LineString"}},{"type":"Feature","properties":{"name":"シュナイダー・ウェーブ連絡路"},"geometry":{"coordinates":[[138.34465317918517,36.53540549384728],[138.34422090137346,36.5356544518717],[138.34369189006338,36.53603942693297],[138.3432535664065,36.536327247516034],[138.34277585030037,36.53673745666242],[138.34270556985936,36.53675750624306],[138.34267902233785,36.53671047358202],[138.34273641061873,36.53658768325365],[138.3427756613687,36.53636773912578],[138.34291462130523,36.53608329741114],[138.34297470187522,36.53583934730625],[138.34304649626603,36.53548746385145],[138.34339257533972,36.53383810097532],[138.3436077434991,36.53314483637439],[138.3438388823384,36.532503340208606]],"type":"LineString"}},{"type":"Feature","properties":{"@id":"","name":"裏ダボスハートの森"},"geometry":{"coordinates":[[138.34673026439106,36.539419303522706],[138.3459812999701,36.539131798517346],[138.3455652086232,36.53891115441645],[138.34499100256642,36.538630333740684],[138.34454994574048,36.538376257012004],[138.3444001528576,36.53834951204503],[138.34424203814547,36.53842306068256],[138.34400070516483,36.538630333740684],[138.34377601583833,36.53886435104131],[138.34346810824337,36.53909836763364],[138.3431602006462,36.5393256973593],[138.34310194785888,36.53936581430024]],"type":"LineString"}},{"type":"Feature","properties":{"@id":"","name":"裏ダボススカイライン"},"geometry":{"coordinates":[[138.3442957198145,36.53835049337431],[138.34384201152153,36.53838076353108],[138.34349882661928,36.53843437859919],[138.34293638470035,36.53840374142189],[138.34244067317508,36.538166302886864],[138.3423167452944,36.53786758885535],[138.3423500168314,36.5375963725984],[138.34243126467982,36.53736222907665],[138.3425470643994,36.53721209389654],[138.34266023226377,36.53701755210865],[138.34271813210233,36.5368039784949],[138.34268391856068,36.53678283256066],[138.3426444414,36.536774374185114],[138.34256548707606,36.536848384938665],[138.34242863291337,36.537057729256816],[138.34175172476404,36.53745146953429],[138.34145433014322,36.53760794795869],[138.34127273519823,36.53780460282708],[138.34114603271905,36.5379811823738],[138.34098812407103,36.538218012838826],[138.3409196969904,36.53835122965634],[138.34087758801815,36.53856268445148],[138.34084835302366,36.53883214323676],[138.34083782578017,36.53905839843456],[138.34080624405016,36.53931214179964]],"type":"LineString"}},{"type":"Feature","properties":{"@id":"","name":"シュナイダーハンネスC"},"geometry":{"coordinates":[[138.34521744551392,36.535604999134094],[138.34504447331517,36.535044440706656],[138.34490609555672,36.534585798970554],[138.34468772932843,36.53390635827273],[138.34450899138966,36.53342454565005],[138.34437637937123,36.5330956141551],[138.3441515155319,36.53278984557613],[138.34400197888522,36.532619177801976]],"type":"LineString"}},{"type":"Feature","properties":{"@id":"","name":"裏太郎ファミリーイースト"},"geometry":{"coordinates":[[138.33383748852714,36.53750087788488],[138.33605404910594,36.53914888888866],[138.33757586681656,36.54015008268637]],"type":"LineString"}},{"type":"Feature","properties":{"@id":"","name":"裏太郎ファミリーウェスト"},"geometry":{"coordinates":[[138.33347932318924,36.537900856627445],[138.33536324306817,36.53928495705232],[138.33647492551808,36.540178131858355],[138.33699257917925,36.54060767026658]],"type":"LineString"}},{"type":"Feature","properties":{"@id":"","name":"裏太郎かもしか"},"geometry":{"coordinates":[[138.33314068204464,36.53831868781977],[138.33422357228278,36.53934693107375],[138.33514979871666,36.54006086496443],[138.33591547868258,36.5406013413008],[138.33638035580697,36.540860592836296]],"type":"LineString"}},{"type":"Feature","properties":{"@id":"","name":"裏太郎うさぎ"},"geometry":{"coordinates":[[138.3319633302416,36.5392100268467],[138.33211728104675,36.539276578539926],[138.33238130024512,36.539386720775],[138.3328077927926,36.539505021519545],[138.33315812595657,36.53961924275572],[138.3334779953666,36.53976201906431],[138.33373693726872,36.539843605408436],[138.33391464249883,36.53988031923467],[138.33393716324133,36.53991614338189],[138.33390044000498,36.53995056587527],[138.3337066229222,36.53999482334362],[138.33330902764334,36.53993732290692],[138.33313173228788,36.53988611125433],[138.33300992566552,36.539883475747885],[138.33293738962445,36.5399246646762],[138.33302890638998,36.53998183018136],[138.33334172038917,36.54013827789939],[138.33382427452705,36.54037709410473],[138.33408914937593,36.540505455816486],[138.33432038932483,36.54056963659161],[138.3346861688779,36.54063719524562],[138.3349216131886,36.54067097455007],[138.33522012293963,36.540684486268034],[138.33565317229704,36.54073853311557],[138.33608622287858,36.54083987001761],[138.33636371081684,36.540873649233504],[138.33672108164444,36.54085000378417],[138.33712890482525,36.54075542191286]],"type":"LineString"}},{"type":"Feature","properties":{"@id":"","name":"裏太郎シーハイル"},"geometry":{"coordinates":[[138.33440846137398,36.53616706862978],[138.33629214375793,36.537210151791996],[138.33760555653367,36.53799276961033],[138.3382504207741,36.538422266002314]],"type":"LineString"}},{"type":"Feature","properties":{"@id":"","name":"裏太郎チャレンジ"},"geometry":{"coordinates":[[138.336743413078,36.53578965932124],[138.33723705885046,36.53630889152866],[138.33782045839632,36.536820908763445],[138.33823332576623,36.53709494476327],[138.33852951322928,36.537217539501995],[138.33856541474046,36.53728244251944],[138.33854746398487,36.53739061409537],[138.33833205492215,36.53764301385036],[138.3382602518998,36.537705657295234],[138.33816220678926,36.5378044457947],[138.33811289698724,36.53790925841646],[138.33813856458283,36.53800503477213]],"type":"LineString"}},{"type":"Feature","properties":{"@id":"","name":"太郎山・山頂連絡路"},"geometry":{"coordinates":[[138.33450311668912,36.535943618092645],[138.3342351065133,36.53621279483181],[138.3340266541552,36.536637494004594],[138.33372886507243,36.537133970361836],[138.33337721340843,36.53783734625914],[138.33304052564006,36.53837236584695],[138.33267391075367,36.53863085607408],[138.33222499372903,36.53887732370238],[138.33182599318314,36.53910911663178]],"type":"LineString"}},{"type":"Feature","properties":{"@id":"","name":"天狗林間"},"geometry":{"coordinates":[[138.3347944977557,36.53569244749583],[138.3352205770504,36.53576852497244],[138.33553303519943,36.535781204544904],[138.33587074249067,36.53575584539851],[138.3362873533556,36.535705127080135],[138.33669196846097,36.53566962412853],[138.33703914418265,36.535656944538474],[138.33719460771732,36.53565444628195],[138.33731586927325,36.53559198982684],[138.33739049176904,36.53550954722995],[138.33745267719604,36.535424606266744],[138.3375086440675,36.535394627085765],[138.3375583923991,36.53539962361687],[138.33759570364617,36.53542210800269],[138.33758684930933,36.53549317482283],[138.33758063077164,36.53559060699452],[138.33752002211543,36.5356927681364],[138.33741237930485,36.53583023576273],[138.3373885999638,36.535897013568885],[138.33737417318946,36.535936571492726],[138.33737417318946,36.53598111579291],[138.33739094382753,36.53600576046887],[138.33744326650856,36.53600135025491],[138.33752285515988,36.535966068522725],[138.3376930102047,36.53588668456604],[138.3378815027371,36.5357619603092],[138.33805336357648,36.53561941805533],[138.33811157450623,36.53553032901317],[138.33811157450623,36.53546573939329],[138.33809771476018,36.535392240794565],[138.33803060201865,36.53523245903928],[138.3379876740347,36.53511330391515],[138.33797206386947,36.534975334591465],[138.33796816134486,36.534777787168906],[138.33794864862347,36.53457710356888],[138.33788263435537,36.53443709943264],[138.3378150080889,36.53439145579226],[138.33770951111427,36.53437406773206],[138.33754179797586,36.534397976314054],[138.33746335150664,36.53443709943264],[138.33733350907647,36.53444579345643],[138.3372882784766,36.534388873552686],[138.3373686747347,36.53433059756357],[138.3374768767594,36.53424365715384],[138.33762294949503,36.53414802259064],[138.33779066263338,36.53406108197515],[138.3379286202163,36.53403499977165],[138.33810444850747,36.534000223487],[138.33820724043215,36.53396762070548],[138.33816286043412,36.53387586506305],[138.3381218379991,36.53379346068813],[138.3380466302035,36.53376599254389],[138.3379167258297,36.53375500528314],[138.33772528780355,36.53377148617362],[138.337554360993,36.53382092882332],[138.33744109559098,36.53382281694463],[138.33745663750273,36.533761271163144],[138.33753758222295,36.53370829075974],[138.3376371455413,36.53365908666888],[138.33772663011501,36.53359953132032],[138.3377782988104,36.533507338283286],[138.33776103577821,36.53340370521638],[138.3376595094803,36.53333102750139],[138.3374296567897,36.53332026055172],[138.33727427196993,36.53327470626104],[138.33713203132652,36.53314466000306]],"type":"LineString"}},{"type":"Feature","properties":{"@id":"","name":"天狗A"},"geometry":{"coordinates":[[138.3350024711986,36.535690368788266],[138.3363843541989,36.533222942992055],[138.33745915208868,36.53131063385145],[138.33770226113472,36.530776001333166]],"type":"LineString"}},{"type":"Feature","properties":{"@id":"","name":"日の出"},"geometry":{"coordinates":[[138.33450168592373,36.533536990788974],[138.33450168592373,36.53225018873586],[138.33451141861713,36.53135319850446],[138.33447039367428,36.53106497459349],[138.33432238112528,36.53067424653766],[138.33424220395165,36.53035872240409],[138.33429078109788,36.530091288332756],[138.33434911970994,36.52990721220171]],"type":"LineString"}},{"type":"Feature","properties":{"@id":"","name":"日の出林間"},"geometry":{"coordinates":[[138.33556164702958,36.53393045472593],[138.33528375888858,36.53372048035581],[138.33506425655384,36.53359059721647],[138.33481473805466,36.533554788744524],[138.33447907686514,36.533597814452676],[138.3342002881055,36.53365988076506],[138.3340135204935,36.533670388367284],[138.33388036748522,36.53363948031327],[138.3337768040348,36.5335681539874],[138.33362885624842,36.533435011336636],[138.33354600548773,36.533337531750576],[138.33354265185375,36.533310471556845],[138.33356061050733,36.53329123158987],[138.33358216089073,36.53328449760038],[138.33368991280736,36.53333644550513],[138.33381607697436,36.533419583736304],[138.3338484025494,36.53344170966105],[138.33392263164785,36.53345710160549],[138.33395735170933,36.53345806360166],[138.33397291587647,36.53344555764741],[138.33398249382492,36.533424393720395],[138.33396333792803,36.53337725586174],[138.33389030607282,36.53330991601422],[138.33376157874267,36.53320319831782],[138.3336942722429,36.53312057363364],[138.3336475316172,36.53301691708728],[138.33357648586633,36.53286068087098],[138.33345183099567,36.53269066490566],[138.3333937136665,36.53260847588574],[138.33334954449748,36.53255617373675],[138.33334721980498,36.53252255090837],[138.33335419388266,36.53250013568112],[138.3333704667471,36.532487060135495],[138.33342188489394,36.53248747190112],[138.3334776775306,36.532491207773475],[138.33361715911985,36.53259020832296],[138.33373571847096,36.53271535977966],[138.33381708273106,36.53279194489957],[138.333912395149,36.53283117139533],[138.3339728371709,36.53284051103384],[138.33404025327292,36.53282369968332],[138.33408442244183,36.53279194489957],[138.33409604590963,36.532762058032446],[138.33405885081845,36.532704152195066],[138.33389269326767,36.53251863358703],[138.33380946572896,36.532378614097055],[138.3337314399115,36.53223650450468],[138.33375189151428,36.532066485759955],[138.33378422471816,36.53206091851007],[138.33384196258356,36.53211287949698],[138.33387891481783,36.53216112895352],[138.33391586705216,36.532209378379974],[138.3339666763731,36.53221494561964],[138.3340128666635,36.532211234126535],[138.3340451998697,36.53217597493395],[138.3340890806461,36.532109167999025],[138.33415224419832,36.53175607325146]],"type":"LineString"}},{"type":"Feature","properties":{"@id":"","name":"無名_天狗・日の出連絡路"},"geometry":{"coordinates":[[138.3347872629431,36.53213321732018],[138.33534029050344,36.53211570745681],[138.33577893896455,36.532146724306074],[138.3361738992037,36.53219367712211],[138.33593221936795,36.53198037237748],[138.33576427147403,36.53184025311326],[138.33548475893778,36.531587894920065],[138.33516067281602,36.531196851406456],[138.33501007361463,36.53113340329395],[138.33478184781842,36.53107836446789]],"type":"LineString"}},{"type":"Feature","properties":{"@id":"","name":"太郎_#上部"},"geometry":{"coordinates":[[138.33439666243714,36.53562221768313],[138.33426813847103,36.53522768254966],[138.33411071719058,36.53482601719722],[138.334011852601,36.534693621718674],[138.33368559945558,36.5344341259225],[138.33322093588578,36.533962794596505],[138.3330594570558,36.53371918402128]],"type":"LineString"}},{"type":"Feature","properties":{"@id":"","name":"太郎_#下部"},"geometry":{"coordinates":[[138.33304320876044,36.533694045145396],[138.3313689983665,36.53212544865271],[138.33063226487775,36.531465965813226]],"type":"LineString"}},{"type":"Feature","properties":{"@id":"","name":"太郎・日の出連絡路"},"geometry":{"coordinates":[[138.3335317746056,36.5373521406279],[138.33254939458777,36.53709249215895],[138.33212474579074,36.5369087725572],[138.3320284620545,36.536814172885215],[138.3320324420739,36.53671823747837],[138.33208816236044,36.53665907725164],[138.33288732389337,36.53656000623144],[138.33315398525917,36.53654081909622],[138.33325264657014,36.53650579908465],[138.33331304680274,36.5364468643707],[138.33330142502325,36.53627897642464],[138.33321834017244,36.5359118119346],[138.33307986542155,36.53541669342209],[138.33297732085822,36.53471928650366],[138.33295187030177,36.53429495973383],[138.33313236538314,36.533580066797654],[138.33318164707595,36.533355812904716],[138.3331439604067,36.53318051383318],[138.33306204409587,36.53304662837908],[138.33305702182355,36.532986410138946],[138.3330987923519,36.532953067226394],[138.33316858615152,36.5329548356885],[138.3335812625695,36.53326331975373]],"type":"LineString"}},{"type":"Feature","properties":{"@id":"","name":"太郎ロング"},"geometry":{"coordinates":[[138.33293136590976,36.534528578678376],[138.33283873827543,36.534530315358424],[138.3327633710623,36.53457154424403],[138.33274639720844,36.53466701336403],[138.33273791029353,36.53477612078922],[138.33273791029353,36.53486136085576],[138.33272517990423,36.53491250485021],[138.33269547565874,36.53494319123034],[138.3325809021481,36.53494319123034],[138.33253846751325,36.534926143242416],[138.3324960328581,36.534892047243545],[138.33248330246875,36.5348340840318],[138.33247057207723,36.534735205512675],[138.3324748155418,36.53452040001598],[138.33252149363898,36.53441470185416],[138.33256817173617,36.534302184298085],[138.33263606714962,36.53411124503948],[138.33259787608256,36.53391348593654],[138.33261178907725,36.53379811696543],[138.33260754561485,36.53376743013099],[138.3325778413694,36.53375720118312],[138.33252267634526,36.53377083977996],[138.33248872863965,36.53379470731855],[138.3324632678587,36.53386290024366],[138.33247175478573,36.53402656302009],[138.3324335636155,36.53416294840211],[138.33233172049194,36.534323200918266],[138.33220017312738,36.53448686272054],[138.3321110603954,36.53460619923234],[138.33203892151732,36.534623247290796],[138.33200073034703,36.53460278962022],[138.33197951303077,36.53457551271853],[138.33199224342013,36.53449368195491],[138.33205165190884,36.534261827653836],[138.3320643822982,36.53397882807951],[138.3320648307767,36.533788427795656],[138.33202798472814,36.53373555988773],[138.33200692984462,36.533729215736216],[138.33196218821286,36.53372921574973],[138.33189375983847,36.533807460247004],[138.33177795797297,36.533966063714956],[138.3316595242477,36.53407391388792],[138.33159899145573,36.534198681546656],[138.3315384586624,36.534285384377625],[138.3314937170328,36.53431710490132],[138.33144634354318,36.53432344900459],[138.33138581074985,36.534291728483495],[138.3313594921591,36.5342494344258],[138.3313752833214,36.53416061684909],[138.33141476122978,36.5340041284894],[138.33144371169584,36.53385821338243],[138.33142234323316,36.53359793871317],[138.33142760695432,36.53328707412986],[138.33142327873884,36.53324881866466],[138.33138432480604,36.53323838535201],[138.3312804476489,36.53326272974506],[138.33119821156953,36.53333576288003],[138.33107702155507,36.533474873421554],[138.33099478544386,36.5335965949332],[138.33087359542947,36.533697449760695],[138.33078703113404,36.533711360761316],[138.33074807720124,36.533704405261346],[138.33068748219512,36.53366962775287],[138.3306615129058,36.533631372474474],[138.3306528564761,36.53359311717807],[138.3306485282601,36.53353399531868],[138.33065718469584,36.53346791789458],[138.33073076434766,36.533241863117354],[138.3309425592135,36.532814119228945],[138.3309751080792,36.532712928112396],[138.3308872723781,36.53266355720332],[138.33068748166284,36.53284370961269],[138.33041130890385,36.53303397130523],[138.33016143685654,36.533137738836025],[138.32995911075506,36.533172349197955],[138.32981495321312,36.53312747047346],[138.3297305450301,36.53299360994916],[138.32975792251602,36.532887386765765],[138.32993391545003,36.532666722689925],[138.33004971610177,36.53254278969188],[138.32998923935216,36.53239812876076],[138.32990310814188,36.5322739776904],[138.32995033096228,36.53212207987575],[138.3300362488216,36.53199781971114]],"type":"LineString"}},{"type":"Feature","properties":{"@id":"","name":"白金シュワルツ"},"geometry":{"coordinates":[[138.33199497232079,36.536841801704696],[138.33033169226007,36.53646760805866],[138.32890127140644,36.536111231474564],[138.3273932308182,36.535719215334936]],"type":"LineString"}},{"type":"Feature","properties":{"@id":"","name":"白金からまつ"},"geometry":{"coordinates":[[138.33211098209603,36.53697292419744],[138.3320726957503,36.53703103025097],[138.33229390574957,36.537355739745024],[138.33254914805508,36.53769411976721],[138.33266062471526,36.53793397460492],[138.33263595842658,36.53804181195841],[138.3325708754005,36.538121216803916],[138.33219184103535,36.53834401382403],[138.33206325370688,36.53852117366816],[138.33195802252237,36.5387058396978],[138.33180032802426,36.53893095354145],[138.33163904209596,36.53910317843464],[138.33154315336964,36.53915530403083],[138.33148934902755,36.539102766859074],[138.3314669953196,36.53900228399456],[138.33147198438542,36.53868069839261],[138.33158206727558,36.538413473190815],[138.331706079149,36.53827630019549],[138.33173254705918,36.53817405615317],[138.33170816516838,36.538087506443446],[138.33158980449156,36.53801257643799],[138.33143357857807,36.53801188044565],[138.33136443474905,36.5381036409881],[138.33132625924867,36.538214020067144],[138.33127844903117,36.538408648618585],[138.33122745150365,36.53852132805085],[138.33120195273904,36.53854693699033],[138.33110224679447,36.53856455282214],[138.33101187107275,36.53854218770749],[138.3309660891711,36.538464988355585],[138.3308864055325,36.538372796037535],[138.3308640941143,36.538334382539986],[138.33078875688562,36.53826317396063],[138.33066886825225,36.53820450370151],[138.33016096362053,36.53815433771824],[138.32960684222763,36.53807243015788],[138.32906575007775,36.5379086934074],[138.32875448793794,36.537751805496654],[138.3285316859736,36.53758686712575],[138.32835600699264,36.53724245505944],[138.32822249096614,36.536909333732055],[138.3276119623976,36.53617265331246],[138.32714840862667,36.535388117726825]],"type":"LineString"}},{"type":"Feature","properties":{"@id":"","name":"大松山ホリデー"},"geometry":{"coordinates":[[138.3160182399838,36.51886826357783],[138.31769575420884,36.52033363301658],[138.3182938244979,36.52083771368768],[138.31919111388936,36.52149674802827],[138.3204164286284,36.522387665687646],[138.3213500017613,36.523266850688486],[138.32202907157352,36.52385763295183],[138.32215076766414,36.52396939982678]],"type":"LineString"}},{"type":"Feature","properties":{"name":"大松山富士見","@id":""},"geometry":{"coordinates":[[138.30557336781095,36.51374302499177],[138.30576688057874,36.51345241313554],[138.30597688308677,36.51323690209914],[138.30618287843305,36.5131226861375],[138.3063329696259,36.5130125881154],[138.30657724786226,36.51300544230513],[138.30705045326812,36.51300271487898],[138.3079243469225,36.512922096901164],[138.3086371609548,36.512870442320065],[138.30959313758626,36.51287808750017],[138.31033033349678,36.51288955526836],[138.31068228509184,36.51288955526836]],"type":"LineString"}},{"type":"Feature","properties":{"name":"大松山フレンド"},"geometry":{"coordinates":[[138.31048362652905,36.51311632596932],[138.31011714890093,36.51333249435966],[138.3095852496146,36.51359335851981],[138.3091619285414,36.513778138277004],[138.3089028268501,36.513980515599656],[138.3087276595101,36.51415649544954],[138.30849410305547,36.514367670741976],[138.3084539605402,36.514423397459396],[138.30847950577873,36.51444686132794],[138.30864737447945,36.514367670741976],[138.3089935634356,36.51413053911169],[138.30921936445276,36.513998554587346],[138.3095118794065,36.51396968294256],[138.30976847147065,36.513994430067214],[138.30993269039243,36.51407279590988],[138.30991729486823,36.51413053911169],[138.30987624013846,36.51416765971881],[138.309799262519,36.51421302932569],[138.30969149385118,36.51423777637254],[138.30950161572378,36.51431614196878],[138.30941437442146,36.51443162796616],[138.309306605755,36.51460073215134],[138.30923475997685,36.51477808492433],[138.3092476766745,36.51519663789925]],"type":"LineString"}},{"type":"Feature","properties":{"name":"大松山ファミリー"},"geometry":{"coordinates":[[138.31242734618274,36.51668385915032],[138.3156758319535,36.518470269352036],[138.31700669994268,36.5190536701236],[138.31745032260653,36.51919951962934]],"type":"LineString"}},{"type":"Feature","properties":{"@id":"","name":"無名_1"},"geometry":{"coordinates":[[138.30758854964222,36.51625548180023],[138.30732212680329,36.51638852566046],[138.3072962511394,36.516502903170235],[138.30730272005536,36.51662247947637],[138.30735447138147,36.516944814686866],[138.3073447680083,36.51710078285532],[138.30731242342847,36.51715797110461]],"type":"LineString"}},{"type":"Feature","properties":{"@id":"","name":"大松山ホワイトピーク_#下部"},"geometry":{"coordinates":[[138.30827790271348,36.515780128003286],[138.30991478296193,36.51653067699778],[138.31155166321037,36.51728122599228]],"type":"LineString"}},{"type":"Feature","properties":{"name":"つばくろセリーヌ"},"geometry":{"coordinates":[[138.30492379272619,36.52607043444988],[138.30514717678034,36.526004154423475],[138.30525027711332,36.52596549104881],[138.30536712415585,36.52594892102559],[138.30547709784452,36.525937874341],[138.3055561414335,36.526031771108336],[138.30569017186605,36.526274797505025],[138.30598228947497,36.5266089575543],[138.30622285691913,36.52702044191351],[138.30642277873574,36.52736060093763],[138.30662897940158,36.52763400088428]],"type":"LineString"},"id":60},{"type":"Feature","properties":{"name":"つばくろパノラマ"},"geometry":{"coordinates":[[138.3030053331754,36.52664898364526],[138.3030934491412,36.526840925534145],[138.30329269435794,36.527104308214234],[138.30397918480526,36.52753003452446],[138.3047104463696,36.52793777012343],[138.3057625675999,36.52842345241814],[138.30643050519802,36.52870629043453],[138.30855244731046,36.529474200373656],[138.30890777755997,36.529443089823445]],"type":"LineString"},"id":61},{"type":"Feature","properties":{"name":"つばくろパノラマ_2"},"geometry":{"coordinates":[[138.30377698301385,36.5277243724983],[138.30427787852415,36.528349883059434],[138.30473139202599,36.52871974779363],[138.30495087080232,36.52893461897983],[138.3051190740261,36.52908980341452],[138.30526235825323,36.52912234204675],[138.30554892670926,36.52907728855209],[138.30605665125603,36.52902222313463],[138.30630584121712,36.52899469041054]],"type":"LineString"}},{"type":"Feature","properties":{"name":"つばくろホワイトバレー"},"geometry":{"coordinates":[[138.29961021302125,36.52544215282607],[138.299628712404,36.52562351742995],[138.29967311092503,36.525718659346495],[138.29989510352414,36.52587623788986],[138.30008379729856,36.52602489656701],[138.3002957866051,36.52616500870616],[138.30039828681538,36.52625977674373],[138.30045185129393,36.5264093157146],[138.30048712953558,36.526589334170126],[138.30053997671206,36.52689834911695],[138.30057677514225,36.52711775187717],[138.30089827211623,36.52778221051595],[138.30134360293277,36.52807477095659],[138.30164260595265,36.52819636716386],[138.30194160897253,36.528490553358964],[138.30228442350966,36.528836243425175],[138.30261379435132,36.528949672623256],[138.30322548303712,36.529252149720165],[138.30359518498943,36.52934397289016],[138.30399846634344,36.529435427997186],[138.30434136052503,36.52952175359415],[138.30454027574177,36.52961896706728],[138.30467455075373,36.5296691862794],[138.3047390253189,36.52970780104167],[138.30486562506803,36.52973555750739],[138.30529944948773,36.52987198241762],[138.30568808104132,36.52993938173941],[138.30621339002852,36.53003854693924],[138.3065655450635,36.53012947051231],[138.30704282293323,36.53006138357617],[138.30782377931297,36.52977633271228],[138.30853531906087,36.52961678581572]],"type":"LineString"}},{"type":"Feature","properties":{"name":"つばくろ7番"},"geometry":{"coordinates":[[138.3047727708876,36.526290664206],[138.3046810725873,36.52650763197916],[138.30459956298716,36.52674916142645],[138.30453333643726,36.527002971219076],[138.30450277033805,36.52715443795631],[138.30519050758716,36.52749830728659],[138.3059597544363,36.52785854970715]],"type":"LineString"}},{"type":"Feature","properties":{"name":"無名_2"},"geometry":{"coordinates":[[138.30806222913333,36.514904025935124],[138.3080752173272,36.51515455285535],[138.30817912287654,36.515431175388045],[138.30825705203813,36.51565038499446],[138.30820509926264,36.515806962904094],[138.30809469961804,36.5159583212495],[138.3078219475516,36.51613055624762],[138.3076660892267,36.51622450244915]],"type":"LineString"}}]}