{"type":"FeatureCollection","features":[{"type":"Feature","properties":{"@id":"way/627274574","name":"小倉沢"},"geometry":{"coordinates":[[139.5041048,38.0055259],[139.50410215464672,38.00477859468397],[139.5040995092934,38.004215187985636],[139.5041923197714,38.00383793713555],[139.5041531814106,38.003503512258426],[139.5042602221403,38.00320131307518],[139.5044059634403,38.00274181751479],[139.50461954230337,38.002033150889666],[139.5046149200517,38.001952830175355],[139.50455700683318,38.001932499080326],[139.5044816633449,38.0019245685651],[139.50423502746384,38.00205161474398],[139.5036871004002,38.00243903219794],[139.50302602587192,38.00278361182426],[139.50280179297212,38.00292909598289],[139.502613417114,38.003153721308834],[139.5023729221829,38.00337125628235],[139.50201001180545,38.00355690401523],[139.50171112864518,38.003745676075724],[139.50141709841836,38.00412071352816],[139.50109713432326,38.00442422863071],[139.50081115209588,38.004617775209624],[139.50054797468107,38.0047349522164],[139.4999294320161,38.0051009645818],[139.49949629669737,38.00518929378661],[139.4989467749504,38.005286253247064],[139.49837970999926,38.005390155589794],[139.49779077023112,38.00542872120157],[139.49722041046283,38.00546286405825],[139.49650712498132,38.00544958854283]],"type":"LineString"}},{"type":"Feature","properties":{"@id":"way/108306990","name":"鹿ノ俣ゲレンデ_下部_2"},"geometry":{"coordinates":[[139.50126151217657,38.007417744795504],[139.50085135208053,38.00755563221411],[139.5006452537228,38.007669096526286],[139.5003030880344,38.007900493243504],[139.50003916106294,38.00814529137327],[139.4997983437127,38.0082944932887],[139.49927551544585,38.00850299889551],[139.49871471884268,38.00872979267039],[139.49831179125323,38.00894265217269],[139.49803869752736,38.00908878939112],[139.497858671595,38.00908826786262],[139.49756231092016,38.00906855531452],[139.49739654298645,38.0090509522194],[139.49709595129394,38.0089081389599],[139.496877,38.008701],[139.4968157,38.0085938],[139.4967859,38.0084515],[139.496768,38.0082168],[139.4967532,38.008059],[139.496735,38.0079157],[139.4967248,38.007806],[139.4967512,38.0075892],[139.4967418,38.0075001],[139.4966437,38.0073439],[139.4966274364813,38.00724713549202],[139.49667203984188,38.00715367094565],[139.49669033984404,38.00708746381765],[139.49675121552312,38.00698089921455],[139.49689386862843,38.00686650504447],[139.49705540762523,38.006748693143145],[139.49719192833746,38.00666617946046],[139.4972651471399,38.00660561923431],[139.49731612452246,38.006539572693015],[139.4973185,38.00647569601897],[139.4973178528584,38.00642442615395],[139.4972678509533,38.00639007276924],[139.4971953,38.00638534267042],[139.49715207929088,38.00639761936053],[139.49707075476678,38.00643804263475],[139.4969269566734,38.00653664939841],[139.49678888119593,38.006627002774394],[139.49644310762517,38.006844937025114],[139.4963137754775,38.006985325893744],[139.49624876321457,38.00709321384407],[139.49613330885393,38.0072391279753],[139.4960375633232,38.00740302484527]],"type":"LineString"}},{"type":"Feature","properties":{"@id":"way/627274587","name":"鹿ノ俣ゲレンデ_下部"},"geometry":{"coordinates":[[139.50056516861534,38.006972367012196],[139.5000683877953,38.007101887353926],[139.49955253374094,38.00726810256728],[139.49903125021245,38.00747190556055],[139.49861683515476,38.00762925057305],[139.49832508430566,38.00775724796523],[139.49794138805862,38.00800162715779],[139.49757271017705,38.008280566675765],[139.4973165843077,38.008465514198676],[139.49693964703417,38.008651639301064],[139.49682306103006,38.008667187502596],[139.49666225358743,38.0086507964289],[139.49654167263176,38.0085988],[139.49644079583703,38.00845288592001],[139.49634728928362,38.0082169610344],[139.4961226,38.0076985],[139.4960130204973,38.00746855841185],[139.49585553610115,38.00721539671306],[139.49585305717522,38.00703485499917],[139.4958711179388,38.00691191447486],[139.4960305171732,38.00645331906994],[139.49632339284838,38.00568325382442]],"type":"LineString"}},{"type":"Feature","properties":{"name":"鹿ノ俣ゲレンデ_上部_2"},"geometry":{"coordinates":[[139.5033094765917,38.008146152412365],[139.5035407343873,38.008007935266335],[139.5036275445374,38.00792603489327],[139.50367055452273,38.0078498863997],[139.5036912561601,38.00759542863298],[139.5037409400921,38.00739316670143],[139.5037533611262,38.007099559643365],[139.50369125621006,38.00690831796061],[139.50362461507945,38.006761879672915],[139.50351425981742,38.00670729210263],[139.50333726342478,38.00674737450001],[139.5031144130298,38.00681605783212],[139.50285814014205,38.00695342422672],[139.50248726108757,38.00716468886913],[139.5020944025722,38.00727882152229],[139.50139146931025,38.00742017820494]],"type":"LineString"}},{"type":"Feature","properties":{"@id":"way/627274584","name":"チャレンジ"},"geometry":{"coordinates":[[139.49971792027412,38.007063748916636],[139.4993100836099,38.00702067500412],[139.49902632880912,38.0069948543571],[139.49879366653823,38.00696903373976],[139.4985610042675,38.00690870658747],[139.4982882978663,38.006857515465725],[139.4979823127863,38.00672794937926],[139.49768290046453,38.00659011217563],[139.49731839698265,38.0062799686633],[139.4969682966235,38.00614315000006],[139.49671193440952,38.00605908887955],[139.4964147592199,38.00594189681581]],"type":"LineString"}},{"type":"Feature","properties":{"@id":"way/627274585","name":"カモシカゲレンデ"},"geometry":{"coordinates":[[139.50402722719255,38.00850368227666],[139.50443550482692,38.00873810009374],[139.50470076601087,38.00894217377697],[139.50498659517302,38.00924996459777],[139.5051509,38.0095498],[139.5052957,38.0099006],[139.50533158290736,38.01028916684028],[139.5052904,38.0106107],[139.505226,38.0109572],[139.5051616,38.0111347],[139.50492429838286,38.01167566163883],[139.5047539,38.0120857],[139.50459487617874,38.01266635217969],[139.5043999,38.0132565],[139.5040727,38.0142285],[139.5039976,38.014406],[139.50381819603064,38.01469561394663],[139.50354782058972,38.01506486353012],[139.503327,38.0154288],[139.50283773338225,38.01600563543432],[139.50254193028977,38.01632625826219]],"type":"LineString"}},{"type":"Feature","properties":{"@id":"way/108305725","name":"ラピット"},"geometry":{"coordinates":[[139.50068687922428,38.00702491853934],[139.50063563222693,38.007108608426094],[139.50060975985005,38.00716258784807],[139.50064539018587,38.00720165647821],[139.50074218696923,38.00722492225958],[139.50090124213295,38.007221631188244],[139.5010669923728,38.007233085513114],[139.50116983963983,38.00724620852783],[139.5012511181897,38.00726221586372],[139.50130164538058,38.00731922779799],[139.5013296890661,38.00741806270906],[139.50129427646522,38.00754843053436],[139.50120815593093,38.007643362955626],[139.5010652636605,38.007794210465136],[139.50084573073536,38.00796516904383],[139.5006784903208,38.00816759170448],[139.5005057416703,38.00841373476971],[139.50038185729838,38.00859109538643],[139.50023519323676,38.008812507436595],[139.50016144941685,38.00897652324049],[139.50005888488369,38.009220619979125],[139.50001513958662,38.00937479995174],[139.49995422320558,38.00954136046343],[139.49993947034704,38.00973498936936],[139.49995673517432,38.009885617269234],[139.50000512546268,38.00998902321729],[139.50010063010023,38.01006957980595],[139.50022317791286,38.01015622419801],[139.50025624154648,38.01024754696784],[139.50023521883392,38.010326694119556],[139.5001462684292,38.010441098903264],[139.49987911779596,38.010699954198486],[139.49952520629722,38.010934330356676],[139.49917645558642,38.01117390118934],[139.49901226324607,38.0113167408728],[139.4989651303541,38.0114045444841],[139.49895566736194,38.011493820059144],[139.49896621460974,38.011558829714474],[139.49899791703945,38.01166458307139],[139.49914105941204,38.012003165224975],[139.49921145530942,38.01216828905042],[139.49925129372173,38.01221859057273],[139.4993333211239,38.01228400619419],[139.49938513028593,38.01232080866602],[139.49946553631216,38.01234071300033],[139.49957868692258,38.01233921511499],[139.49979883784852,38.01232858556079],[139.5000795455874,38.012401632000476],[139.50031179820394,38.01252152990719],[139.50052410155774,38.01271477631544],[139.50069601758585,38.01292837815126],[139.50089453263337,38.01333058941506],[139.50104884667783,38.01380232754858],[139.50124646463712,38.01419061979682]],"type":"LineString"}},{"type":"Feature","properties":{"@id":"way/108305725","name":"林間"},"geometry":{"coordinates":[[139.49896460223465,38.011886344360995],[139.4990919407579,38.01221259792643],[139.4991815698193,38.01242991274132],[139.49918523963848,38.012504204620726],[139.49916519939893,38.01257920115185],[139.49908987928126,38.01267771148559],[139.49886116982142,38.012830119408555],[139.49866476982027,38.01297372784704],[139.49850188934,38.0130447113146],[139.4982976597583,38.01318351124704],[139.498194,38.0132084],[139.4980955,38.0132181],[139.4979604,38.0131739],[139.497848,38.01303548418208],[139.4974479,38.0126991],[139.49728976922034,38.01263120919865],[139.4972128273704,38.01261624993066],[139.4971307969694,38.01262267276235],[139.49706472598132,38.01268254086048],[139.4969850855221,38.012805218753044],[139.4969270355213,38.01291179574073],[139.49687068170758,38.013023718242906],[139.49688882598304,38.01313002274993],[139.49692732446601,38.013271072868264],[139.49695815802374,38.01335709085236],[139.49705236374825,38.013462772748454],[139.4971431771037,38.01355509093334],[139.49735039236725,38.013857318207],[139.497489,38.014072],[139.4975815,38.0141565],[139.497674,38.014241],[139.497824,38.014348],[139.4983108,38.0146591],[139.4984585,38.0147418],[139.4985847831234,38.01477126138915],[139.49868841139804,38.0147500549999],[139.49878749452137,38.01467612756885],[139.49888499030268,38.014642682297904],[139.4989858185774,38.014634925814185],[139.49914851739095,38.014716969043356],[139.4993411,38.0148297],[139.4993646,38.014948],[139.4993524,38.015251],[139.49941787881352,38.01542842430874],[139.49951425548784,38.01553280406632],[139.49966233743686,38.0156058487576],[139.49991490390883,38.015690111225666],[139.50026359741116,38.01578558256023],[139.50056503680437,38.01577415117188],[139.50075041813176,38.01572140525232],[139.50088109572877,38.015686234345694],[139.50109631310244,38.015717667442175],[139.50122095214243,38.01584900641497],[139.50128520562802,38.01594228598313],[139.50137748126804,38.016102679011325],[139.50148400464153,38.01622093469288],[139.50157845090706,38.01626307203953]],"type":"LineString"}},{"type":"Feature","properties":{"@id":"way/627274586","name":"中央ゲレンデ"},"geometry":{"coordinates":[[139.50333556097098,38.00894559970138],[139.50326109578972,38.008785569822145],[139.50319197118426,38.00862658014971],[139.50315285288085,38.00849503350591],[139.50313611609613,38.008421264616885],[139.50311025713344,38.008408113827855],[139.50308783981205,38.008415301087034],[139.5029920003305,38.00864395010197],[139.50289168168268,38.00888498715382],[139.50279693076948,38.009040774757224],[139.5027157583869,38.009192104499746],[139.50264601103157,38.009359016877795],[139.50256313374416,38.00963671593545],[139.50250510845555,38.010071781079155],[139.5024178370475,38.010680385128154],[139.5023292,38.0112235],[139.50221719073636,38.011628083868494],[139.50202696482918,38.01219700157627],[139.50175703516842,38.012883850650546],[139.50159966779458,38.0133428747345],[139.501487,38.0137974],[139.5014790305134,38.01409099553785],[139.50153240507782,38.01476514129164],[139.5016158,38.0153654],[139.5016533,38.0155429],[139.50171641909168,38.015826000786916],[139.50177218655546,38.01616683930224]],"type":"LineString"}},{"type":"Feature","properties":{"@id":"way/627274577","name":"ダイナミック"},"geometry":{"coordinates":[[139.50012605533607,38.001908522142486],[139.49993917162928,38.00214852061267],[139.49984390744493,38.00232892733562],[139.4998206865173,38.00257135841197],[139.49979118651723,38.0028366758427],[139.49977215814658,38.00302858397674],[139.4996363,38.00324808938525],[139.4995719,38.0033448],[139.49921388974843,38.00366405642177],[139.4988048,38.0040211],[139.49860815814662,38.00416868584094],[139.4984490162913,38.00428769486903],[139.49825799396035,38.00436125255813],[139.4980591,38.00441],[139.49784710884822,38.00441107957632]],"type":"LineString"}},{"type":"Feature","properties":{"@id":"way/627274578","name":"風倉ゲレンデ"},"geometry":{"coordinates":[[139.50305199910807,37.99894955712604],[139.50298274180017,37.99907887147693],[139.50292767160403,37.99924247811351],[139.50290521440198,37.999360375344715],[139.50283564361607,37.99960208472047],[139.50274317708872,37.99977133162026],[139.50267950041007,37.99991189700196],[139.5026404,38.0000518],[139.50258339451733,38.00019838251638],[139.50260300146257,38.00036003322238],[139.5026505847015,38.00046056106993],[139.5026640903585,38.00053271024453],[139.50263716198714,38.00059654750975],[139.50255869797977,38.00065875029576],[139.50246059196962,38.00073041806691],[139.5023168679954,38.00082064740749],[139.50212548792913,38.00090048290245],[139.50191487198177,38.0009787530543],[139.50161478677748,38.001154028287985],[139.5012802406256,38.00132968965265],[139.5010437098455,38.001432275947344],[139.50077264893108,38.00152943056944],[139.50022607508822,38.00179321510868],[139.49968619656784,38.00200019729156],[139.49938916615486,38.00210697250651],[139.4990838,38.0021612],[139.4985259,38.002262645354556],[139.4981879,38.0022626],[139.497782528695,38.00218420802328],[139.49740957159275,38.00218244198784],[139.49708706597917,38.002184172531685],[139.4969756071023,38.00222539432503],[139.49689613402077,38.00229493791291],[139.49689145813346,38.00243322538509],[139.49693135177452,38.00260982553611],[139.4970052106514,38.002801174386306],[139.49708446953042,38.002979256278515],[139.4971166695304,38.00314995936193],[139.49713716742062,38.0033114646907],[139.49714560048832,38.003426714671825],[139.49717068356097,38.00358527536834],[139.49737275884053,38.003866894334465],[139.4976660259528,38.00415877883164],[139.49776671689955,38.00428631543396],[139.49777838151454,38.00438232216749],[139.4976677604183,38.004419808508],[139.49733753274595,38.004362766463345],[139.49705911541378,38.00437161260528],[139.49676765091536,38.0043485992103],[139.49650015080127,38.004299409282616],[139.49631933261287,38.00425356343728],[139.4961575802091,38.004226200763135],[139.49605255400846,38.00421987118279],[139.49597752818562,38.00421422193522],[139.49593798162243,38.004268380111675],[139.4959553647119,38.00440549433014],[139.4960153,38.0047481],[139.4961050210808,38.00510606155482],[139.4961226,38.00528145974235]],"type":"LineString"}},{"type":"Feature","properties":{"@id":"way/627274581","name":"パラダイス"},"geometry":{"coordinates":[[139.5031682247226,37.99874497336529],[139.50339668177133,37.998831893425134],[139.50366686616385,37.99884838791226],[139.5039343998006,37.99885724473615],[139.50418717160446,37.998930203694826],[139.50435322583272,37.99900756100038],[139.50470172560472,37.99909673571546],[139.50493122039282,37.99914022346913],[139.50517157527744,37.99919132860891],[139.50538179848996,37.999151974444096],[139.50556564501602,37.99906254737927],[139.50571897744157,37.998881746620384],[139.50586773731158,37.99877815989343],[139.5060094592207,37.99872891177293],[139.5061585796114,37.99874019085816],[139.5062766660176,37.99881592993119],[139.5064649776624,37.99894206476394],[139.5065943514494,37.999041665877],[139.50672491164474,37.99916695899052],[139.5068739252365,37.999412890442066],[139.50692436261824,37.99969049956292],[139.50682748543173,38.00002309765253],[139.50674942912218,38.00036692097554],[139.5067411533984,38.00072296423888],[139.50669293398232,38.00088919345125],[139.50649140679695,38.00101466459524],[139.50589865284925,38.00127536908674],[139.505108,38.001670555535725],[139.50459055454647,38.00189685599468]],"type":"LineString"}},{"type":"Feature","properties":{"name":"鹿ノ俣ゲレンデ_上部"},"geometry":{"coordinates":[[139.5041198275381,38.00563544732606],[139.50403068679265,38.005886298568555],[139.5039721085891,38.0061371489528],[139.50393390541097,38.006205380109066],[139.50388551472145,38.006227454881156],[139.50335067024588,38.0063037131338],[139.50290304545007,38.00639050918923],[139.502380935369,38.006524964177174],[139.50177477829538,38.006715608886765],[139.50120434930852,38.00683594974868],[139.50063106729698,38.00695239052769]],"type":"LineString"}},{"type":"Feature","properties":{"name":"パラダイス_2"},"geometry":{"coordinates":[[139.50627275443907,37.99809387480131],[139.5063843035578,37.99826325731736],[139.5064518007929,37.9984494214078],[139.5065144767981,37.99860899025623],[139.50668804112064,37.99889393375727],[139.50683749928572,37.999186474600066],[139.50685196298076,37.99928145514204]],"type":"LineString"}},{"type":"Feature","properties":{"name":"高原第1ゲレンデ"},"geometry":{"coordinates":[[139.50979736773547,37.99379283436174],[139.50990879073578,37.993681383181624],[139.51001592823712,37.99365098737624],[139.51008449623345,37.99368813781082],[139.5100930672329,37.993782702455846],[139.50988307773372,37.99416095979505],[139.50968594473147,37.99450881973284],[139.50943738573028,37.994903959603576],[139.50920541468645,37.99520379498297],[139.50910256268628,37.99532199832133],[139.5089354281859,37.99543344700774],[139.50864829968492,37.99555502720092],[139.50853259118566,37.99563270332932],[139.5083354581834,37.99602783714549],[139.50809995419104,37.9965802987044],[139.50790710668997,37.99680994641929],[139.50773568669052,37.996955164456224],[139.5073500885327,37.9972117908228],[139.50706296003818,37.99743468228458],[139.50668020202522,37.99763266186238],[139.50634967140383,37.99789616521714],[139.50607518686462,37.998147457947866],[139.5058773965336,37.99841465433751],[139.5057603369491,37.998602327410396]],"type":"LineString"}}]}