{
  "type": "FeatureCollection",
  "features": [
    {
      "type": "Feature",
      "properties": {
        "@id": "way/452698896",
        "name": "パノラマ"
      },
      "geometry": {
        "coordinates": [
          [136.8487321, 35.997459],
          [136.8487536, 35.9975609],
          [136.8488895, 35.9978435],
          [136.8491908, 35.9980548],
          [136.8494438, 35.9981912],
          [136.8510344, 35.9988217],
          [136.8518097, 35.9990297],
          [136.8521431, 35.9991645],
          [136.8524684, 35.9992896],
          [136.852609, 35.9994066],
          [136.8526813, 35.9995561],
          [136.8526733, 35.9997511],
          [136.8527255, 36.000258],
          [136.8527978, 36.0005992],
          [136.852858, 36.0006642],
          [136.8534686, 36.0009209],
          [136.8540229, 36.0010152],
          [136.8547941, 36.0012426],
          [136.8568426, 36.0020225],
          [136.8573086, 36.00212],
          [136.858136, 36.002445],
          [136.858843, 36.0027634],
          [136.8592045, 36.0029389],
          [136.8595097, 36.0031273],
          [136.8603974, 36.0033889],
          [136.8606251, 36.0034999],
          [136.8609839, 36.0036749],
          [136.8616989, 36.0038211],
          [136.8622853, 36.0039738],
          [136.8628798, 36.0040193],
          [136.8631395, 36.0040805]
        ],
        "type": "LineString"
      }
    },
    {
      "type": "Feature",
      "properties": {
        "@id": "way/452698897",
        "name": "バンブー"
      },
      "geometry": {
        "coordinates": [
          [136.8487321, 35.997459],
          [136.8487489, 35.9972927],
          [136.8488413, 35.997062],
          [136.8493233, 35.996659],
          [136.8502913, 35.996334],
          [136.8509099, 35.9960188],
          [136.85142, 35.9959831],
          [136.8518619, 35.9959571],
          [136.8523559, 35.9960188],
          [136.8528862, 35.9959863],
          [136.85322890292497, 35.995962468797224],
          [136.85336873634063, 35.99596277545239],
          [136.8534244, 35.9960448],
          [136.8531432, 35.9962853],
          [136.8517454, 35.9969742],
          [136.8515928, 35.9970847],
          [136.8516249, 35.9972472],
          [136.8518177, 35.9972667],
          [136.8527576, 35.9971042],
          [136.8532959, 35.9970847],
          [136.8536413, 35.9969417],
          [136.8550288236336, 35.99657604342024],
          [136.8556095, 35.9967175],
          [136.8559308, 35.9967207],
          [136.8571158, 35.9966038],
          [136.8575094, 35.9965631],
          [136.8583851, 35.9965664],
          [136.8585779, 35.9966184],
          [136.8593451, 35.9974243],
          [136.8594977, 35.9975218],
          [136.8600922, 35.9976518],
          [136.8606706, 35.9975868],
          [136.8608634, 35.9976388],
          [136.861, 35.9980158],
          [136.8606625, 35.9986397],
          [136.8605501, 35.9992896],
          [136.8607911, 35.9995691],
          [136.8608794, 35.9998941],
          [136.8610562, 36.0001995],
          [136.8615141, 36.000531],
          [136.8617953, 36.0006155],
          [136.8619399, 36.0007324],
          [136.8620925, 36.0010249],
          [136.8620282, 36.0013499],
          [136.8618676, 36.0014474],
          [136.8616587, 36.0014279],
          [136.8601404, 36.0010054],
          [136.8597467, 36.0009534],
          [136.8596343, 36.0009957],
          [136.8598271, 36.0014701],
          [136.860542, 36.0020355],
          [136.8614369, 36.0029864],
          [136.8617904, 36.003027],
          [136.8624379, 36.0035303],
          [136.8631395, 36.0040805],
          [136.8645909, 36.0042127],
          [136.8648044, 36.0042162],
          [136.8649845, 36.0042192],
          [136.8652907, 36.0040562]
        ],
        "type": "LineString"
      },
      "id": 1
    },
    {
      "type": "Feature",
      "properties": {
        "@id": "way/452698894",
        "name": "ダイヤモンド"
      },
      "geometry": {
        "coordinates": [
          [136.8488413, 35.997062],
          [136.8497893, 35.9973626],
          [136.8503074, 35.9974471],
          [136.8507854, 35.9975608],
          [136.8521511, 35.997642],
          [136.8528098, 35.997642],
          [136.8545531, 35.9978988],
          [136.8557421, 35.998162],
          [136.8570435, 35.9986202],
          [136.8571399, 35.9986592],
          [136.8577263, 35.9991141],
          [136.8587586, 35.9998486],
          [136.8589595, 36.0000273],
          [136.8591442, 36.000219],
          [136.8596343, 36.0009957]
        ],
        "type": "LineString"
      }
    },
    {
      "type": "Feature",
      "properties": {
        "@id": "way/452698886",
        "name": "チャレンジ"
      },
      "geometry": {
        "coordinates": [
          [136.8617872, 35.9972895],
          [136.8622933, 35.9978516],
          [136.8637715, 35.999015],
          [136.8641169, 35.9995317]
        ],
        "type": "LineString"
      }
    },
    {
      "type": "Feature",
      "properties": {
        "@id": "way/452698887",
        "name": "チャンピオン"
      },
      "geometry": {
        "coordinates": [
          [136.8594977, 35.9975218],
          [136.8612008, 35.9974194],
          [136.8617872, 35.9972895],
          [136.8629842, 35.996672],
          [136.8631851, 35.9966265],
          [136.8637876, 35.9966655],
          [136.864856, 35.9965745],
          [136.8654826, 35.9964575],
          [136.86754338220115, 35.9961847213991],
          [136.8679350613857, 35.99620927794405],
          [136.8685837056073, 35.99659866672785],
          [136.869032765675, 35.996756388913816],
          [136.8694512, 35.996815],
          [136.8697886, 35.996997],
          [136.8702384, 35.9975494],
          [136.8704312, 35.9979914]
        ],
        "type": "LineString"
      }
    },
    {
      "type": "Feature",
      "properties": {
        "@id": "way/452698888",
        "name": "エキサイティングB"
      },
      "geometry": {
        "coordinates": [
          [136.8597949, 35.9985715],
          [136.8601564, 35.9987063],
          [136.8605581, 35.9987518],
          [136.8615623, 35.9990898],
          [136.862928, 35.9993562],
          [136.8641169, 35.9995317],
          [136.8657638, 35.9999152],
          [136.8661735, 35.9999087],
          [136.8665671, 35.9998177],
          [136.8670572, 35.9995122],
          [136.8690896, 35.9985048],
          [136.8696199, 35.9982839],
          [136.8703911, 35.9981019],
          [136.8705758, 35.9980759],
          [136.8712024, 35.9981409],
          [136.8717889, 35.9982839],
          [136.8721102, 35.9984788],
          [136.8722709, 35.9988103]
        ],
        "type": "LineString"
      }
    },
    {
      "type": "Feature",
      "properties": {
        "@id": "way/452698889",
        "name": "エキサイティングA"
      },
      "geometry": {
        "coordinates": [
          [136.8629119, 36.0013742],
          [136.8633457, 36.0010428],
          [136.8644624, 36.0006723],
          [136.8650809, 36.0005943],
          [136.8661012, 36.0006983],
          [136.866527, 36.0006918],
          [136.8670893, 36.0005423],
          [136.8680373, 36.0001264],
          [136.8682301, 36.0000809],
          [136.8712346, 35.9997624],
          [136.8715238, 35.9997657]
        ],
        "type": "LineString"
      }
    },
    {
      "type": "Feature",
      "properties": {
        "@id": "way/452698890",
        "name": "スーパー"
      },
      "geometry": {
        "coordinates": [
          [136.8548222, 35.9958254],
          [136.8548704, 35.9960058],
          [136.8548825, 35.9962495],
          [136.85513038146524, 35.99655402303879],
          [136.8552569364708, 35.99670743079871],
          [136.8554528, 35.9971172],
          [136.85551277998238, 35.99730217483176],
          [136.85576290287483, 35.997447723197325],
          [136.8557983, 35.9978679],
          [136.8557421, 35.998162]
        ],
        "type": "LineString"
      }
    },
    {
      "type": "Feature",
      "properties": {
        "@id": "way/452698891",
        "name": "エキスパート"
      },
      "geometry": {
        "coordinates": [
          [136.8573617, 35.99674],
          [136.8574853, 35.9969271],
          [136.8576701, 35.997655],
          [136.8577584, 35.998461],
          [136.8577705, 35.9989874],
          [136.8577263, 35.9991141]
        ],
        "type": "LineString"
      }
    },
    {
      "type": "Feature",
      "properties": {
        "@id": "way/452698892",
        "name": "ダイナミック"
      },
      "geometry": {
        "coordinates": [
          [136.8533762, 35.9959148],
          [136.8540671, 35.9958514],
          [136.8548222, 35.9958254],
          [136.8556336, 35.9959262],
          [136.8571158, 35.9966038],
          [136.8573617, 35.99674],
          [136.8582204, 35.9973301],
          [136.8587586, 35.997811],
          [136.8597949, 35.9985715],
          [136.8603653, 35.9996048],
          [136.8609035, 36.0002873],
          [136.8620925, 36.0010249],
          [136.8629119, 36.0013742],
          [136.8634421, 36.0016521],
          [136.8637554, 36.0018535],
          [136.8640963023877, 36.002130082552895],
          [136.86477475599656, 36.00233218944754],
          [136.86695173245448, 36.00229431706941],
          [136.86844937368215, 36.00175405085676],
          [136.86988096836023, 36.00107015713108],
          [136.87102637634536, 36.00018617673557],
          [136.87192640273543, 35.99899940038988],
          [136.87266793744016, 35.99853428027197],
          [136.87333022630565, 35.9982065500396],
          [136.87379434546244, 35.99764959834192],
          [136.8750237154705, 35.997348364126324],
          [136.8763246872518, 35.997419530247065]
        ],
        "type": "LineString"
      }
    },
    {
      "type": "Feature",
      "properties": {
        "@id": "way/452698893",
        "name": "テクニカル"
      },
      "geometry": {
        "coordinates": [
          [136.8521431, 35.9991645],
          [136.8529223, 35.9986413],
          [136.8538622, 35.9981409],
          [136.8538647, 35.9981397],
          [136.8542117, 35.9979751],
          [136.8545531, 35.9978988]
        ],
        "type": "LineString"
      }
    },
    {
      "type": "Feature",
      "properties": {
        "@id": "way/452698895",
        "name": "ゴールド"
      },
      "geometry": {
        "coordinates": [
          [136.8534686, 36.0009209],
          [136.8542077, 36.0019787],
          [136.855011, 36.0025181],
          [136.8556617, 36.0025311],
          [136.8573086, 36.00212]
        ],
        "type": "LineString"
      }
    },
    {
      "type": "Feature",
      "properties": {
        "@id": "way/452698899",
        "name": "パノラマパーク"
      },
      "geometry": {
        "coordinates": [
          [136.8652907, 36.0040562],
          [136.8654907, 36.0043508],
          [136.8661012, 36.0047862],
          [136.8672098, 36.0051696],
          [136.8684389, 36.0052671],
          [136.8710418, 36.0051696],
          [136.8712426, 36.0051176],
          [136.8730341, 36.0034994],
          [136.8743837, 36.0014652],
          [136.8752433, 36.0005099],
          [136.8764001, 35.9998599],
          [136.876858, 35.9995935],
          [136.877107, 35.9992945],
          [136.8771054, 35.9991595]
        ],
        "type": "LineString"
      }
    },
    {
      "type": "Feature",
      "properties": {
        "@id": "way/452698900",
        "name": "ビギナーズ"
      },
      "geometry": {
        "coordinates": [
          [136.8652907, 36.0040562],
          [136.8662217, 36.0043735],
          [136.8672339, 36.004432],
          [136.8683265, 36.0048414],
          [136.8687121, 36.0049324],
          [136.8697323, 36.0048934],
          [136.8710498, 36.0045035],
          [136.8716845, 36.0041396],
          [136.8721424, 36.0036261],
          [136.8728493, 36.0026968],
          [136.873484, 36.001488],
          [136.8737973, 36.001046],
          [136.8742712, 36.0004741],
          [136.8748898, 35.9998567],
          [136.8755887, 35.9992653],
          [136.8761993, 35.9989273],
          [136.8765968, 35.9986407],
          [136.8771054, 35.9991595]
        ],
        "type": "LineString"
      }
    }
  ]
}
