{"type":"FeatureCollection","features":[{"type":"Feature","properties":{"@id":"way/503099990","name":"フォレスター"},"geometry":{"coordinates":[[139.0911895,36.7910505],[139.0906531,36.7909131],[139.0898967,36.7905393],[139.0886897,36.7896844],[139.0884483,36.7894223],[139.0880996,36.7887736],[139.087708,36.7882108],[139.0867692,36.7872872],[139.0864849,36.7870423],[139.0856375861498,36.78655706326637],[139.0848809,36.7859811],[139.0842158,36.785414],[139.0840763,36.7852293],[139.0834433,36.7846708],[139.0828478,36.7843614],[139.08203623936197,36.78414229978049],[139.08125294329076,36.78378737736063]],"type":"LineString"}},{"type":"Feature","properties":{"@id":"way/503099993","name":"レイクウッド"},"geometry":{"coordinates":[[139.0881243688206,36.79316057227053],[139.0880513,36.7929343],[139.0879353908693,36.79264157062073],[139.08765855048966,36.79235887244915],[139.087252,36.792219],[139.0871394,36.7921503],[139.08626997528114,36.79213158284905],[139.08533895056053,36.79201828922423],[139.0844572,36.7918195],[139.0835345,36.7911493],[139.08288,36.7903589],[139.0824401,36.7891216],[139.0823168,36.7885502],[139.0823221,36.7878285],[139.08238207415823,36.78719093098904],[139.08235062359404,36.78674387703563],[139.0822792,36.7859038]],"type":"LineString"}},{"type":"Feature","properties":{"@id":"way/503099989","name":"マルチユース"},"geometry":{"coordinates":[[139.0843606,36.7825612],[139.0840656,36.7825183],[139.0836471,36.7825441],[139.0829068,36.7826901],[139.0827459,36.7826987],[139.080466,36.7826901],[139.0796882,36.7827417]],"type":"LineString"}},{"type":"Feature","properties":{"@id":"way/503099991","name":"トライアル"},"geometry":{"coordinates":[[139.08694180711714,36.79208678452056],[139.0865546,36.7917379],[139.0863454,36.7915875],[139.0849346,36.7902343],[139.0839282757942,36.78928052489379],[139.08258183009113,36.78808303803001]],"type":"LineString"}},{"type":"Feature","properties":{"@id":"way/503099994","name":"センター"},"geometry":{"coordinates":[[139.0899424,36.7926945],[139.0898323,36.7927603],[139.0897089,36.7928161],[139.0894622,36.792915],[139.0893227,36.792945],[139.0891778,36.7929579],[139.0888989,36.7929536],[139.088406,36.792869],[139.0881479,36.7926873],[139.0879387,36.7925111],[139.08759,36.7918152],[139.0874612,36.7914243],[139.087193,36.7908873],[139.0871394,36.7907756],[139.0869945,36.7905436],[139.0868336,36.7902257],[139.0867102,36.790041],[139.0865493,36.7898434],[139.0862971,36.7895555],[139.0861094,36.789388],[139.0859967,36.7893235],[139.0858626,36.789272],[139.0857232,36.7892419],[139.0850848,36.7889927],[139.08489643430488,36.78897734223839],[139.08471550291472,36.788825048352884],[139.08466095470976,36.788565586823715],[139.08459279193016,36.78824831239058],[139.0843016,36.7878715],[139.0840977,36.7875922],[139.0830409,36.7866599],[139.0826923,36.7862518],[139.0822792,36.7859038],[139.0820968,36.7857663],[139.0812814,36.7851434],[139.0803748,36.7841638],[139.08001243430485,36.783774560498195]],"type":"LineString"}},{"type":"Feature","properties":{"@id":"way/503099995","name":"チャレンジ"},"geometry":{"coordinates":[[139.0865207568614,36.78480829927816],[139.08640015901727,36.78462532535313],[139.08620682157039,36.78461712107216],[139.0858251,36.7847331],[139.0855461,36.7848641],[139.0852457,36.7848727],[139.084956,36.7848469],[139.0845215,36.7847008],[139.0843981,36.7846579],[139.0822309,36.7837771],[139.0812814,36.7835279],[139.0807664,36.7833518],[139.0804607,36.7832057],[139.08020680078886,36.78304919248646]],"type":"LineString"}},{"type":"Feature","properties":{"@id":"way/503099996","name":"ウッディ"},"geometry":{"coordinates":[[139.0899424,36.7926945],[139.0904251,36.7924617],[139.0907308,36.7922362],[139.0909508,36.7919892],[139.0910205,36.7918796],[139.0912244,36.7913878],[139.0911895,36.7910505],[139.0911949,36.7907154],[139.0905029,36.7897317],[139.0904546,36.7895297],[139.0903687,36.7893106],[139.0901434,36.7890271],[139.0890706,36.7879746],[139.0888399,36.7876867],[139.0886682,36.7875106],[139.0876168,36.786763],[139.0872574,36.7864279],[139.0870535,36.7861358],[139.0865976,36.7856503],[139.0864956,36.785573],[139.0861309,36.7854011],[139.0860289,36.7853281],[139.0859431,36.7852293],[139.0858519,36.7850231],[139.0858251,36.7847331],[139.0857285,36.7844774],[139.0855354,36.7840693],[139.085412,36.7838759],[139.0852404,36.7834592],[139.0851009,36.7832659],[139.0848541,36.7830811],[139.0843606,36.7825612],[139.0838724,36.7821746],[139.0836471,36.7820629],[139.0835077,36.7820328],[139.0829283,36.7820285],[139.0826493,36.7819898],[139.0812439,36.7813711],[139.0809435,36.7813325],[139.0795165,36.7813239],[139.0788674,36.7812723],[139.07860401181836,36.78130846165854]],"type":"LineString"}},{"type":"Feature","properties":{"name":"ファミリー"},"geometry":{"coordinates":[[139.0796612657976,36.782704128545944],[139.07931578735082,36.782336282232606],[139.07900688897422,36.78202702954084],[139.07877115074007,36.78166894591783],[139.0784744457202,36.78141828638644],[139.07766561935085,36.78100160385554],[139.077088467122,36.7806044511496],[139.07608454770963,36.77998593063961],[139.07556836226468,36.77981665044564],[139.0751212725079,36.77961156047817],[139.07425961011637,36.77929253147349],[139.0732313036691,36.77885304929602],[139.07312156345648,36.77880421778683]],"type":"LineString"}}]}