{"type":"FeatureCollection","features":[{"type":"Feature","properties":{"@id":"way/505832365","name":"駒ケ岳第3"},"geometry":{"coordinates":[[140.78303166709318,39.759494886293005],[140.782350270863,39.75984488207321],[140.7812655,39.7604615],[140.78028421404596,39.76095404363851],[140.77761928033428,39.761797312733414]],"type":"LineString"}},{"type":"Feature","properties":{"@id":"way/505832371","name":"駒ケ岳第2"},"geometry":{"coordinates":[[140.777505,39.7618306],[140.7765877,39.7620698],[140.7736904110972,39.76289384872832],[140.7726127,39.7632285],[140.76994202415705,39.76393268670035]],"type":"LineString"}},{"type":"Feature","properties":{"@id":"way/505832363","name":"水沢チャンピオン"},"geometry":{"coordinates":[[140.7809114,39.7589605],[140.780611,39.7589151],[140.7801658,39.7588574],[140.7786155,39.758647],[140.7762015,39.7584615],[140.7755363,39.7584244],[140.77380392369346,39.758492648923195],[140.77168362892186,39.75858356048834],[140.77064897630655,39.75870229061609],[140.77020630940493,39.75880950998132],[140.76951461114183,39.75903638007936]],"type":"LineString"}},{"type":"Feature","properties":{"@id":"way/505832366","name":"ぎんれいパラダイス"},"geometry":{"coordinates":[[140.77324280590875,39.761999121398155],[140.77253615986405,39.762000366029824],[140.7719530154408,39.76194956628342],[140.7714458782595,39.761916744203894],[140.77085754927973,39.7619646437502],[140.7701942934222,39.762056982662635],[140.76935749342215,39.76209214911941],[140.76895168026908,39.76209289940036]],"type":"LineString"}},{"type":"Feature","properties":{"@id":"way/505832367","name":"ぎんれい第2"},"geometry":{"coordinates":[[140.77484306225665,39.761178062960944],[140.7713770312753,39.76132848920148],[140.7686162,39.761508584356775],[140.76808670950626,39.76152720974356]],"type":"LineString"}},{"type":"Feature","properties":{"@id":"way/505832368","name":"ユートピア"},"geometry":{"coordinates":[[140.77714551480798,39.76111782940262],[140.7763193296208,39.76119163094494],[140.7760566,39.7612285],[140.77521517365432,39.76138020889676],[140.774458,39.761583425293814],[140.7737498197472,39.761802019638516],[140.77346534443126,39.76195894465968],[140.77300387404978,39.76230123868634],[140.77276264196286,39.762476464959605],[140.77264010126623,39.76255215841429],[140.77224250987354,39.7627008303079],[140.77182410493688,39.762787383088515],[140.77134066107575,39.76279153308762],[140.77089583949203,39.762704528160675],[140.7699519,39.7625069],[140.7696783,39.7624162],[140.76877648217504,39.76217836259777]],"type":"LineString"}},{"type":"Feature","properties":{"@id":"way/505832369","name":"無名_連絡"},"geometry":{"coordinates":[[140.76498653918418,39.76603831637616],[140.7652490844108,39.76603966000678],[140.76551363918628,39.76607328366809],[140.7659662,39.76618396008986],[140.76632032963525,39.76630127434029],[140.767141,39.7658634],[140.7675809,39.7656243],[140.76791719199437,39.76547771543894]],"type":"LineString"}},{"type":"Feature","properties":{"@id":"way/505832372","name":"無名_連絡"},"geometry":{"coordinates":[[140.76931792494065,39.759238938499436],[140.76891300928565,39.759401511761325],[140.76870179125015,39.759653426507434],[140.76833436127907,39.760305958042],[140.76787008250028,39.76094732345101]],"type":"LineString"}},{"type":"Feature","properties":{"@id":"way/505832373","name":"国体_上部"},"geometry":{"coordinates":[[140.78333345090456,39.75955067839029],[140.7829101119887,39.75941759330607],[140.78252541357494,39.75921731353542],[140.7821422305421,39.75905618636766],[140.7818556,39.7590223],[140.7815444,39.7590141],[140.7808408374519,39.759048582446816],[140.7804825879294,39.75910348459543],[140.77659039985897,39.75993919068996]],"type":"LineString"}},{"type":"Feature","properties":{"@id":"way/505832373","name":"国体_下部"},"geometry":{"coordinates":[[140.77659039985897,39.75993919068996],[140.7753164,39.7601564],[140.77424735854692,39.76025377248895],[140.7735233505394,39.76031529084625],[140.7730955,39.7603172],[140.77240343600178,39.76026474593787],[140.7708156,39.76022503985194],[140.77023686581458,39.760266621435775],[140.76972428290844,39.76040570913246],[140.76873027745486,39.7607951849975],[140.76769617308446,39.76119352629383]],"type":"LineString"}},{"type":"Feature","properties":{"@id":"way/505832374","name":"白樺"},"geometry":{"coordinates":[[140.769642,39.7640223],[140.76874241367437,39.763337241511614],[140.76778032390635,39.762383983026375],[140.76674547808108,39.761589857869815],[140.76592500511603,39.76107457608337],[140.76561620678345,39.761000481828],[140.7652858660743,39.7609069],[140.7648396,39.7609275],[140.7632518,39.7609646],[140.7629728,39.760944],[140.7626295,39.7609481],[140.7621092,39.7609935],[140.7618034,39.7609976],[140.7610309,39.761076],[140.76036332880523,39.76114508321656]],"type":"LineString"}},{"type":"Feature","properties":{"@id":"way/505832375","name":"水沢"},"geometry":{"coordinates":[[140.76935885966324,39.75897564220306],[140.76841248403838,39.75915221716963],[140.7673877,39.7593976],[140.766111,39.7597275],[140.764904,39.7599832],[140.763612832622,39.76017208214768],[140.76170409698364,39.760414362028584],[140.7597059,39.7606553],[140.75898182181078,39.76073053096016]],"type":"LineString"}},{"type":"Feature","properties":{"@id":"way/505832376","name":"黒森山"},"geometry":{"coordinates":[[140.76481647262995,39.76599401302302],[140.76447099849702,39.76599293970237],[140.76401128052885,39.76607788226542],[140.763738374409,39.76615344213562],[140.76362882580952,39.76620225169114],[140.76351927721,39.76625106124667],[140.76256818061742,39.764993607237905],[140.76119823367713,39.76338437199871],[140.76076309810196,39.7630183103068]],"type":"LineString"}},{"type":"Feature","properties":{"@id":"way/505832377","name":"かもしか林間"},"geometry":{"coordinates":[[140.7779986,39.7643872],[140.77770944876252,39.764880726188224],[140.77758659008256,39.765070426127146],[140.777420610746,39.76544631299607],[140.77720546942356,39.76577992156677],[140.77694871735645,39.76597507534002],[140.7767427586777,39.76610385586],[140.77622494462813,39.76618723862276],[140.77580200660935,39.76630224713702],[140.7753099950372,39.7664064070242],[140.7746404,39.7665685],[140.7744956,39.7665809],[140.7743561,39.7665685],[140.7739431,39.766482],[140.77362069776498,39.76647260361084],[140.77282880670685,39.76658134927628],[140.77257955167718,39.76660609925989],[140.7722157,39.76656613249242],[140.77169930558938,39.76645656505902],[140.77135864944123,39.76646704577971],[140.77107725055876,39.76650824575541],[140.77089624497117,39.76651599754667],[140.769791,39.7660985]],"type":"LineString"}},{"type":"Feature","properties":{"@id":"way/505832379","name":"かもしか"},"geometry":{"coordinates":[[140.7797177871949,39.76304119449146],[140.7791061442087,39.76304152370319],[140.77839728455547,39.76292650711224],[140.77812889519808,39.76293163473627],[140.77754043735212,39.76310296283481],[140.77464380723973,39.76396857342775],[140.7726859530012,39.764475390557095],[140.77044757984382,39.76497154419313],[140.7680891577305,39.76551718687721]],"type":"LineString"}},{"type":"Feature","properties":{"@id":"way/505832380","name":"かもしかジュニア"},"geometry":{"coordinates":[[140.77979534002213,39.76317419394374],[140.7784706,39.7638141],[140.77760247993376,39.76419335608979],[140.77722476722502,39.764321300021],[140.7757000308792,39.76470299713466],[140.7741201,39.7650841],[140.7720219818296,39.76551827843222],[140.76955181449424,39.765806202693696],[140.76823839621338,39.76594493079179]],"type":"LineString"}},{"type":"Feature","properties":{"name":"スキルアップ"},"geometry":{"coordinates":[[140.77742046057546,39.762499978180244],[140.77622785394487,39.76276808656078],[140.7749789922829,39.76310538271824],[140.77378638564988,39.76343402866681],[140.7728413011485,39.76371078193361],[140.77181460113337,39.76399755617473],[140.77115260604916,39.764217790034536],[140.77085231093588,39.76431710131362]],"type":"LineString"}},{"type":"Feature","properties":{"name":"スノーパーク"},"geometry":{"coordinates":[[140.7655604560133,39.76133710883735],[140.76438699259768,39.76146766992355],[140.76313632763942,39.76155075412305],[140.7619357368003,39.76160416529652],[140.7608471950794,39.761616034450185],[140.76006745952026,39.761627903601834]],"type":"LineString"}},{"type":"Feature","properties":{"name":"無名"},"geometry":{"coordinates":[[140.7693943956251,39.76412967448667],[140.76777844727104,39.76360876929559],[140.76480703651418,39.762710493878785],[140.76393390312916,39.76250012445945],[140.7633076726674,39.7623498604849],[140.76270820795594,39.76218957824156],[140.76193932930295,39.761969189547784],[140.76106619591786,39.76188904802942],[140.7604927948891,39.76186901263512]],"type":"LineString"}}]}