{
  "type": "FeatureCollection",
  "features": [
    {
      "type": "Feature",
      "properties": {
        "@id": "way/452722843",
        "name": "パノラマ_上部"
      },
      "geometry": {
        "coordinates": [
          [136.93133814542796, 35.94212015024576],
          [136.93116596592904, 35.942036451259476],
          [136.93074120438473, 35.94184877199767],
          [136.9305342611147, 35.94173657350458],
          [136.93030248220902, 35.941533073711845],
          [136.93013777667414, 35.94116872556503],
          [136.93003888267003, 35.940928518999016],
          [136.92997013755604, 35.94077493528468],
          [136.92987106684083, 35.94065929610307],
          [136.92975187250929, 35.94058926018126],
          [136.9295387606513, 35.94052704077401],
          [136.92911171374604, 35.940486368961366],
          [136.92871247439814, 35.940465876719614],
          [136.92832150566718, 35.9404543126512],
          [136.92768098195322, 35.94047676981872],
          [136.9272663077286, 35.94059517104344],
          [136.9268879036103, 35.94072293376275],
          [136.92655249639128, 35.94088093237369],
          [136.9262251373678, 35.94104740377939],
          [136.92597394895864, 35.94127554434861],
          [136.9258061984284, 35.941518301205875],
          [136.92555011388572, 35.94184147591451],
          [136.9253893927398, 35.94215837440219],
          [136.9252144262432, 35.94242906639168],
          [136.925044913101, 35.94260236130277],
          [136.92470026480973, 35.9428232595373]
        ],
        "type": "LineString"
      }
    },
    {
      "type": "Feature",
      "properties": {
        "@id": "way/452722841",
        "name": "ラビット_#上部"
      },
      "geometry": {
        "coordinates": [
          [136.92993841850117, 35.941130813533405],
          [136.92941013104445, 35.94115022342092],
          [136.92882197193495, 35.94120047996898],
          [136.9283094, 35.9412587],
          [136.92754352659108, 35.94137898226682],
          [136.926712743737, 35.94150531097103],
          [136.92550545213626, 35.94176972062886]
        ],
        "type": "LineString"
      }
    },
    {
      "type": "Feature",
      "properties": {
        "@id": "way/452722836",
        "name": "ノースバーン_#上部"
      },
      "geometry": {
        "coordinates": [
          [136.9309667163018, 35.94203780382495],
          [136.9304707130591, 35.94208212025683],
          [136.92978916634928, 35.942180476635656],
          [136.92898555442997, 35.94229345241033],
          [136.92814161305915, 35.94241463585525],
          [136.92698719599733, 35.942566864231615],
          [136.92650332372497, 35.942651280043144],
          [136.92582154428683, 35.94275217706507],
          [136.92537372173584, 35.94278096994788],
          [136.92470026480973, 35.9428232595373]
        ],
        "type": "LineString"
      }
    },
    {
      "type": "Feature",
      "properties": {
        "@id": "way/452722837",
        "name": "尾根"
      },
      "geometry": {
        "coordinates": [
          [136.928513, 35.9456591],
          [136.9279307, 35.9457158],
          [136.92755704326964, 35.94563427299708],
          [136.92711047307978, 35.94550135938697],
          [136.9267923649043, 35.94537790019553],
          [136.9264640298086, 35.94523197734887],
          [136.92616489062752, 35.945156963598265],
          [136.92558118305135, 35.94514573179913],
          [136.92483397836517, 35.94507304530942],
          [136.9243232, 35.944962567875905],
          [136.92374819062746, 35.944828453796404],
          [136.92326959182614, 35.944650117663535],
          [136.92274717018978, 35.944389082605724]
        ],
        "type": "LineString"
      }
    },
    {
      "type": "Feature",
      "properties": {
        "@id": "way/452722840",
        "name": "ブナ平"
      },
      "geometry": {
        "coordinates": [
          [136.93480267429666, 35.9450996664312],
          [136.93456590114073, 35.945130477041566],
          [136.93427525761098, 35.9452049],
          [136.934038, 35.9452834],
          [136.9323568, 35.9456662],
          [136.93153554610532, 35.945893],
          [136.93121854999873, 35.94598607064183],
          [136.93083962052754, 35.946032858737894],
          [136.93020141799877, 35.94602874498062],
          [136.9297847974217, 35.94599653809402],
          [136.9293201308384, 35.94588983116353],
          [136.92899755520747, 35.94577060869155],
          [136.92852729231697, 35.94560896034538],
          [136.92812937168796, 35.945393696172275],
          [136.92782973073932, 35.945121409429326],
          [136.9275724679975, 35.94492474975128],
          [136.92730567704768, 35.94462009592981],
          [136.9270114244174, 35.94439830752586],
          [136.9267743410526, 35.94423051642637],
          [136.92645760505516, 35.94404207567876],
          [136.9261007, 35.9438904],
          [136.9258949, 35.9438337],
          [136.9254571, 35.9437912],
          [136.92482412568177, 35.94384202794104],
          [136.9243479231554, 35.94395235812848],
          [136.92385789241854, 35.9441856442675],
          [136.9235788449448, 35.94425299427557],
          [136.92318069484338, 35.9442972025368],
          [136.92257705379063, 35.94424190376819],
          [136.9216790256633, 35.94415529080414],
          [136.9208497778007, 35.944121764429646],
          [136.91999676924868, 35.94409593261542]
        ],
        "type": "LineString"
      }
    },
    {
      "type": "Feature",
      "properties": {
        "@id": "way/452722839",
        "name": "マジカル"
      },
      "geometry": {
        "coordinates": [
          [136.93538035497875, 35.94506752455171],
          [136.9352074636073, 35.94520256669713],
          [136.93499322055948, 35.94535218163629],
          [136.93475819903574, 35.94552687857052],
          [136.93459876746186, 35.945684905638814],
          [136.9343510114738, 35.94591921806808],
          [136.93416733626634, 35.946083297034264],
          [136.9338704929014, 35.94636926107363]
        ],
        "type": "LineString"
      }
    },
    {
      "type": "Feature",
      "properties": {
        "@id": "way/452722838",
        "name": "パラダイス"
      },
      "geometry": {
        "coordinates": [
          [136.94286363689525, 35.94717298287127],
          [136.94259416589523, 35.94713241384158],
          [136.9423355127482, 35.94707152748349],
          [136.94197169925332, 35.94697305975038],
          [136.9416224155624, 35.94685865963911],
          [136.94114783978853, 35.94673563087298],
          [136.94062896280406, 35.946668595672634],
          [136.93984637657672, 35.946595495576275],
          [136.9388859740544, 35.946522531472496],
          [136.93834534558403, 35.9465641996797],
          [136.93706492650296, 35.946630775725964],
          [136.9353305879359, 35.94651677957216],
          [136.93435075024894, 35.9464352826196],
          [136.93391275705847, 35.946428820745396],
          [136.93357578080295, 35.9464781178927],
          [136.93329671266645, 35.94659158123601]
        ],
        "type": "LineString"
      }
    },
    {
      "type": "Feature",
      "properties": {
        "@id": "way/452722833",
        "name": "パークエリア"
      },
      "geometry": {
        "coordinates": [
          [136.93180385622227, 35.94260384037631],
          [136.93098402409373, 35.9427326],
          [136.9301832, 35.9428395],
          [136.9292068389597, 35.9430026],
          [136.92821153694658, 35.943079423639],
          [136.9272683289154, 35.94310984274974],
          [136.9261928419687, 35.943165061833795],
          [136.9255206, 35.9432436],
          [136.9251922, 35.9433003],
          [136.924645, 35.9434385],
          [136.92427135871995, 35.9435424755864],
          [136.9237542025783, 35.94361378729695],
          [136.923441805922, 35.94370519940534],
          [136.9230995151403, 35.94379149667621],
          [136.92235616842615, 35.944025594425085]
        ],
        "type": "LineString"
      }
    },
    {
      "type": "Feature",
      "properties": {
        "@id": "way/452722834",
        "name": "アタック"
      },
      "geometry": {
        "coordinates": [
          [136.93236836070602, 35.94560692474021],
          [136.93198242494813, 35.94555334444901],
          [136.93165039993013, 35.94551504690379],
          [136.93115380353416, 35.94544990609498],
          [136.9309691731113, 35.94538860545178],
          [136.9308498829158, 35.94529244009618],
          [136.9307421534284, 35.94522747229633],
          [136.93059466417026, 35.945195736328806],
          [136.9304388570672, 35.94518668109882],
          [136.93022524642996, 35.94520258438369],
          [136.929929314276, 35.945190433672046],
          [136.92967958572407, 35.94519237690243],
          [136.92941730360397, 35.94515541996649],
          [136.92910025731354, 35.94510480109368],
          [136.92884837137808, 35.94500971486917],
          [136.92869366063616, 35.944913464880734],
          [136.92857809279212, 35.944797607257634],
          [136.92851452851602, 35.94465544426007],
          [136.92842784282809, 35.94452576041227],
          [136.92832415356804, 35.94441032283523],
          [136.92823029639615, 35.94429122177359],
          [136.92805773388812, 35.9441704816543],
          [136.9278081, 35.9440747],
          [136.9271777, 35.9438479],
          [136.92684394636015, 35.94371078191621],
          [136.9264769622929, 35.943574463202076],
          [136.9258358405902, 35.943403610007934]
        ],
        "type": "LineString"
      }
    },
    {
      "type": "Feature",
      "properties": {
        "@id": "way/452722842",
        "name": "ホワイト"
      },
      "geometry": {
        "coordinates": [
          [136.92488353623324, 35.94047481183064],
          [136.9244828929492, 35.94051879616114],
          [136.9239248, 35.9406614],
          [136.92331521347742, 35.94085910967893],
          [136.92294021236077, 35.941006905106946],
          [136.92275398875708, 35.94111649100908],
          [136.9225851, 35.94128578297964],
          [136.92242056854016, 35.94145321842193],
          [136.9222400629196, 35.94156827233392],
          [136.92196179326064, 35.94168519980048],
          [136.921509683135, 35.94184891804354],
          [136.9209082381992, 35.942020581847025],
          [136.9201594954952, 35.942256855280654]
        ],
        "type": "LineString"
      }
    },
    {
      "type": "Feature",
      "properties": {
        "@id": "way/1140721120",
        "name": "ノースウェイ"
      },
      "geometry": {
        "coordinates": [
          [136.94319639415113, 35.9473326653796],
          [136.94304867492582, 35.94717168778987],
          [136.9429670473726, 35.94708379068805],
          [136.94288033964213, 35.94679251076583],
          [136.94279344177454, 35.946503254998916],
          [136.9426872, 35.9462923],
          [136.94254630996164, 35.946115834556146],
          [136.9423893, 35.9459994],
          [136.942192173985, 35.9458967143846],
          [136.9419886, 35.94584231459545],
          [136.94163000406328, 35.94585591184856],
          [136.94129397601665, 35.94589038949324],
          [136.94088840812643, 35.94587497441993],
          [136.9405440959368, 35.94583215383791],
          [136.94012274796842, 35.94573634923611],
          [136.9398298900392, 35.94570764922783],
          [136.9395596, 35.94568677936882],
          [136.93905448800834, 35.945529638508596],
          [136.9385804455392, 35.94537501166045],
          [136.93823380884362, 35.94524745448555],
          [136.9379387558969, 35.94513947273226],
          [136.93779322908856, 35.945106897698224],
          [136.93756234041015, 35.94513019660511],
          [136.9372496957751, 35.945219029762114],
          [136.9370679465181, 35.945248007520945],
          [136.93687166758087, 35.94525640017772],
          [136.93649150662162, 35.94523828353301],
          [136.93626969153166, 35.94521912149561],
          [136.93606042421706, 35.94520808619189],
          [136.93583274653884, 35.9451496381486],
          [136.9354444573299, 35.94504446133575],
          [136.9352990286663, 35.94496319093106],
          [136.93516688503087, 35.94486613850776],
          [136.9350394, 35.944754],
          [136.934931544322, 35.944682448608056],
          [136.93465149765404, 35.944615904654455]
        ],
        "type": "LineString"
      }
    },
    {
      "type": "Feature",
      "properties": {
        "@id": "way/1140721123",
        "name": "イーグル"
      },
      "geometry": {
        "coordinates": [
          [136.93471644582388, 35.944796699623424],
          [136.9345581308364, 35.94470355792135],
          [136.9343663, 35.9445729212865],
          [136.9341201553321, 35.94437121060576],
          [136.93356333198966, 35.94382329458773],
          [136.93303114582267, 35.94330125402894],
          [136.93261366398056, 35.94302825915958],
          [136.9322817778115, 35.94282241776784],
          [136.93182997348862, 35.942506826914226],
          [136.93145130115465, 35.94223871391946]
        ],
        "type": "LineString"
      }
    },
    {
      "type": "Feature",
      "properties": {
        "name": "林間"
      },
      "geometry": {
        "coordinates": [
          [136.93086410829926, 35.945343139712776],
          [136.93048158125453, 35.94546266725375],
          [136.930139320212, 35.9455713284989],
          [136.92988430218162, 35.94560392684302],
          [136.92968968315802, 35.94560392684302],
          [136.92948835313337, 35.94554959626154],
          [136.929233335103, 35.94542463578286],
          [136.92895818406987, 35.945250777397376],
          [136.92870316603944, 35.94503345387744]
        ],
        "type": "LineString"
      }
    },
    {
      "type": "Feature",
      "properties": {
        "name": "パラレル_#上部"
      },
      "geometry": {
        "coordinates": [
          [136.9303550639048, 35.94174459424525],
          [136.9292574726514, 35.94180648853251],
          [136.92819264531522, 35.94181090955122],
          [136.92749368173025, 35.94184627769171],
          [136.9268711721748, 35.941921433350004],
          [136.92602436627618, 35.942082710652386],
          [136.92547820548992, 35.94220463592798]
        ],
        "type": "LineString"
      }
    },
    {
      "type": "Feature",
      "properties": {
        "name": "ノースバーン_#下部"
      },
      "geometry": {
        "coordinates": [
          [136.92470026480973, 35.9428232595373],
          [136.92396699150072, 35.94298821900682],
          [136.92337869083198, 35.94309010574592],
          [136.92274469294995, 35.9431549959499],
          [136.92190416095178, 35.9432729851041],
          [136.9211096726586, 35.943328984468266],
          [136.92045604818657, 35.94336790654529],
          [136.92025155808875, 35.94340368128471]
        ],
        "type": "LineString"
      }
    },
    {
      "type": "Feature",
      "properties": {
        "name": "パラレル_#下部"
      },
      "geometry": {
        "coordinates": [
          [136.92547820548992, 35.94220463592798],
          [136.92471866776037, 35.94248611932353],
          [136.92385987440935, 35.942804520119694],
          [136.92315357707264, 35.942947475162455],
          [136.92243122752546, 35.943031948474996],
          [136.9215399649524, 35.943154169188716],
          [136.92092998089055, 35.94319315678064],
          [136.9202317096602, 35.943251638132026]
        ],
        "type": "LineString"
      }
    },
    {
      "type": "Feature",
      "properties": {
        "name": "ラビット_#下部"
      },
      "geometry": {
        "coordinates": [
          [136.92550545213626, 35.94176972062886],
          [136.9244203241339, 35.942097874267304],
          [136.92336792905007, 35.94231088153096],
          [136.92238513519692, 35.9425521057113],
          [136.9211353148986, 35.94281361040923],
          [136.9202736784232, 35.94303479517336]
        ],
        "type": "LineString"
      }
    },
    {
      "type": "Feature",
      "properties": {
        "name": "パノラマ_下部"
      },
      "geometry": {
        "coordinates": [
          [136.9260947588727, 35.94112017732998],
          [136.92520842132768, 35.94133361619026],
          [136.924126634988, 35.94158753408398],
          [136.9232311176313, 35.941844987192155],
          [136.922603863368, 35.942017944726786],
          [136.9220675155193, 35.942106263320724],
          [136.92150844106732, 35.94217986207458],
          [136.92064937544728, 35.94234177909158],
          [136.92011302759835, 35.942466896559495]
        ],
        "type": "LineString"
      }
    },
    {
      "type": "Feature",
      "properties": {
        "name": "無名_オーロラ第3クワッド連絡路"
      },
      "geometry": {
        "coordinates": [
          [136.93158177136138, 35.946237098999205],
          [136.93212835557097, 35.94645619924286],
          [136.93247859399747, 35.94655930502974],
          [136.93279168592267, 35.946580785385635],
          [136.93324805720363, 35.94654212074158]
        ],
        "type": "LineString"
      }
    }
  ]
}
