{
  "type": "FeatureCollection",
  "features": [
    {
      "type": "Feature",
      "properties": {
        "@id": "way/1140721115",
        "name": "スキップ_2"
      },
      "geometry": {
        "coordinates": [
          [136.93889010685754, 35.949118309770576],
          [136.938730513209, 35.949411728736976],
          [136.93863110101205, 35.949567110354465],
          [136.93853759415458, 35.949597738769384],
          [136.93839099657126, 35.94958851723486],
          [136.93823201512228, 35.9495406578244],
          [136.93806252338433, 35.94947229758272],
          [136.937852868746, 35.949427659121596]
        ],
        "type": "LineString"
      }
    },
    {
      "type": "Feature",
      "properties": {
        "@id": "way/452719459",
        "name": "スキップ"
      },
      "geometry": {
        "coordinates": [
          [136.9378295308544, 35.9491110079877],
          [136.93772647183937, 35.94944322986855],
          [136.9376684266588, 35.949642503611386],
          [136.93762373998737, 35.94984005009375],
          [136.9374286556439, 35.95046466686537],
          [136.93737763766092, 35.950685259330044],
          [136.93740681667936, 35.950857487895234],
          [136.93746486224583, 35.95115400661542],
          [136.93752384445236, 35.95157092016253],
          [136.9375993, 35.951896],
          [136.93764174438616, 35.95224559740627]
        ],
        "type": "LineString"
      }
    },
    {
      "type": "Feature",
      "properties": {
        "@id": "way/1140721110",
        "name": "パノラマウェイ_#下部"
      },
      "geometry": {
        "coordinates": [
          [136.9433046, 35.9476932],
          [136.9431131, 35.9478084],
          [136.9429507469107, 35.947874119070875],
          [136.94279524376174, 35.94788134961594],
          [136.9425566358083, 35.947798504759255],
          [136.94242413083106, 35.947771473302325],
          [136.94231710732657, 35.94778226091715],
          [136.94193492238654, 35.947833198256724],
          [136.9412683223866, 35.94802375084676],
          [136.94060270895167, 35.94813756105583],
          [136.94015154104093, 35.94823966782576],
          [136.93972965074354, 35.9483477],
          [136.93927023731413, 35.94860727161178],
          [136.93904402014965, 35.948766449223086],
          [136.93883976119335, 35.94885155981077],
          [136.93845571354063, 35.94883464017806],
          [136.9381354902325, 35.9488955704333],
          [136.9376829533864, 35.949096050657026],
          [136.937510269146, 35.94920150995247],
          [136.9372728, 35.9493984],
          [136.93711812030824, 35.94963807517558],
          [136.9368689466137, 35.949863242143905],
          [136.93666930677023, 35.9500723693573],
          [136.9365461639271, 35.950166275242985],
          [136.93645098873384, 35.950372979359074],
          [136.9364207379832, 35.950564548986264],
          [136.936336, 35.950708],
          [136.93616798646204, 35.95084235065708],
          [136.93591159622704, 35.950902650673946],
          [136.9356742563811, 35.95091647040499],
          [136.93553974206492, 35.95093862959399],
          [136.9352329, 35.9510622359275],
          [136.9348404, 35.9512732],
          [136.9344336, 35.9514311],
          [136.93431832669194, 35.95150286149175],
          [136.93425945169193, 35.951550771761404],
          [136.93420057669192, 35.95162675085668],
          [136.9340483, 35.9519818],
          [136.93357193660006, 35.95281077229757],
          [136.93288687310394, 35.95346865340568],
          [136.9325692765958, 35.953658687735356],
          [136.93193286530246, 35.95394522293278],
          [136.9314568139661, 35.95411016924257],
          [136.93114216879366, 35.954168397264986],
          [136.9309655026728, 35.954221306636],
          [136.93074304416643, 35.95423280666705],
          [136.93061255986137, 35.95428232816516]
        ],
        "type": "LineString"
      }
    },
    {
      "type": "Feature",
      "properties": {
        "@id": "way/1140721107",
        "name": "センターウェイ"
      },
      "geometry": {
        "coordinates": [
          [136.93999306890868, 35.951224327880425],
          [136.9391190088483, 35.95153602522083],
          [136.93860636963882, 35.95178997704031],
          [136.9378949, 35.9523122],
          [136.9371097548373, 35.95288878510756],
          [136.93627016773812, 35.95368140029672],
          [136.9356272, 35.954407],
          [136.93494538660985, 35.955168215386074]
        ],
        "type": "LineString"
      }
    },
    {
      "type": "Feature",
      "properties": {
        "@id": "way/452719458",
        "name": "ジャンピング"
      },
      "geometry": {
        "coordinates": [
          [136.9362954806539, 35.95078766029123],
          [136.93640406543375, 35.95094909816603],
          [136.93660808108092, 35.951198858743204],
          [136.936742552537, 35.95154553521451],
          [136.9369534433372, 35.95233223166179],
          [136.93703467790345, 35.9527188220471]
        ],
        "type": "LineString"
      }
    },
    {
      "type": "Feature",
      "properties": {
        "@id": "way/452719460",
        "name": "ダンシング"
      },
      "geometry": {
        "coordinates": [
          [136.93938065432337, 35.948684777393126],
          [136.9391762345156, 35.94926081442678],
          [136.9390145269031, 35.94974668544656],
          [136.93891913451714, 35.95012791155026],
          [136.93889135787032, 35.95049219881796],
          [136.9389549730969, 35.950776239616594],
          [136.93918945787038, 35.95143611716634]
        ],
        "type": "LineString"
      }
    },
    {
      "type": "Feature",
      "properties": {
        "@id": "way/452719462",
        "name": "スイング"
      },
      "geometry": {
        "coordinates": [
          [136.94134525054565, 35.948076192462935],
          [136.94114719389157, 35.94880193768557],
          [136.94094258602908, 35.94925155768783],
          [136.94076596877898, 35.94955064085481],
          [136.94067424089462, 35.94978477773388],
          [136.94063563691006, 35.95002445065382],
          [136.9406342981374, 35.95032630173432],
          [136.9407018192169, 35.950828718532456]
        ],
        "type": "LineString"
      }
    },
    {
      "type": "Feature",
      "properties": {
        "@id": "way/452719463",
        "name": "スターコース"
      },
      "geometry": {
        "coordinates": [
          [136.94009834467371, 35.952433989743994],
          [136.9400141642605, 35.95249707009065],
          [136.939915095674, 35.95256789346269],
          [136.93981077608217, 35.95257741405739],
          [136.93958706024068, 35.95257032010825],
          [136.93933602046295, 35.95253119369981],
          [136.93911672391783, 35.9525533429895],
          [136.9387585, 35.9526571],
          [136.9384524046082, 35.95284402605249],
          [136.9381341002771, 35.95304874156723],
          [136.93747788790373, 35.95355010172651],
          [136.93732346542964, 35.95372365695529],
          [136.9371194, 35.9540048],
          [136.9370123, 35.9541609],
          [136.9367595, 35.9543621],
          [136.9363524, 35.9545494],
          [136.9359711367062, 35.95468223108226]
        ],
        "type": "LineString"
      }
    },
    {
      "type": "Feature",
      "properties": {
        "@id": "way/452719464",
        "name": "ブラックベア_上部"
      },
      "geometry": {
        "coordinates": [
          [136.94772523766557, 35.9504984788467],
          [136.9473028379798, 35.95090570853438],
          [136.94700918682682, 35.95123214313527],
          [136.94687416543266, 35.95135110325568],
          [136.9466584953623, 35.95145662203764],
          [136.94637813502845, 35.951630937808694],
          [136.9461002, 35.9518205],
          [136.94592089372645, 35.95200044632742],
          [136.945844869638, 35.95212196175816],
          [136.9456784369005, 35.952299381287595],
          [136.9454935668209, 35.95240685057355],
          [136.94524453799906, 35.952466902141126],
          [136.94493710608995, 35.952459183872364],
          [136.9445543552118, 35.95241662529435],
          [136.94425269439006, 35.95231726782197],
          [136.94388647445146, 35.952235330838086],
          [136.94328784275615, 35.95212070772707],
          [136.94235209307195, 35.95207507611606],
          [136.94187939330473, 35.95203348038007],
          [136.94129239330235, 35.95198173895325],
          [136.9409358088352, 35.95197946973125]
        ],
        "type": "LineString"
      }
    },
    {
      "type": "Feature",
      "properties": {
        "@id": "way/452719465",
        "name": "ダイビング"
      },
      "geometry": {
        "coordinates": [
          [136.9429849202147, 35.9479085],
          [136.94299738245405, 35.948240364813365],
          [136.94300616144372, 35.948443751457575],
          [136.9429688361713, 35.94875288787813],
          [136.9428781, 35.9490092],
          [136.9427496, 35.9492694],
          [136.9425739, 35.9495052],
          [136.9422825, 35.9498868],
          [136.9419312, 35.9502441],
          [136.94158511754608, 35.9505349571024]
        ],
        "type": "LineString"
      }
    },
    {
      "type": "Feature",
      "properties": {
        "@id": "way/452719466",
        "name": "センターB"
      },
      "geometry": {
        "coordinates": [
          [136.9480517873582, 35.949073897243714],
          [136.9478668512988, 35.949186963101106],
          [136.9473942, 35.9494688],
          [136.94691143308373, 35.9497082],
          [136.94637536914436, 35.94997402222589],
          [136.9458440308567, 35.950232193498245]
        ],
        "type": "LineString"
      }
    },
    {
      "type": "Feature",
      "properties": {
        "@id": "way/452719467",
        "name": "センターA"
      },
      "geometry": {
        "coordinates": [
          [136.947653122484, 35.94844524640135],
          [136.94698737162338, 35.94871787942494],
          [136.9467644, 35.9488184],
          [136.9464216, 35.9489502],
          [136.94574697488702, 35.94913756969402],
          [136.9451699807777, 35.94928445985443],
          [136.9446614818644, 35.94942637733135],
          [136.9440264, 35.9496613],
          [136.9438099475969, 35.949748170812384],
          [136.943538, 35.949866],
          [136.94334660589263, 35.9499650975523],
          [136.94322420108657, 35.95009825128657]
        ],
        "type": "LineString"
      }
    },
    {
      "type": "Feature",
      "properties": {
        "@id": "way/1140721106",
        "name": "センターC"
      },
      "geometry": {
        "coordinates": [
          [136.9481005457258, 35.9485930044307],
          [136.94808000872413, 35.94903012064854],
          [136.94800781060277, 35.94956608831409],
          [136.94789632827735, 35.950002830717814],
          [136.94775089344301, 35.950267679956056],
          [136.9476570419349, 35.95046283616632],
          [136.94755610682876, 35.95053380097397],
          [136.94740351060284, 35.95054203449894],
          [136.94701696009037, 35.95047444102653],
          [136.94657915199406, 35.95039974187385],
          [136.94610813785533, 35.950344623803815],
          [136.94569582953287, 35.95028570382788],
          [136.945023815804, 35.95020294010114],
          [136.9441346392373, 35.950221710541626],
          [136.9434288628966, 35.950173127401804],
          [136.94298731847618, 35.95019138894979],
          [136.94228833261698, 35.95043880125881],
          [136.9411104264011, 35.95080653354562],
          [136.94004274457964, 35.9512010919279]
        ],
        "type": "LineString"
      }
    },
    {
      "type": "Feature",
      "properties": {
        "@id": "way/1140721112",
        "name": "パノラマウェイ_#下部_2"
      },
      "geometry": {
        "coordinates": [
          [136.9326974, 35.9536906],
          [136.93255968005437, 35.953853567489105],
          [136.93244899381057, 35.95395963783206],
          [136.93217896066076, 35.95414114171606],
          [136.93186243652048, 35.95431255424741],
          [136.9316162, 35.9544402],
          [136.93130297303966, 35.95460517345941]
        ],
        "type": "LineString"
      }
    },
    {
      "type": "Feature",
      "properties": {
        "name": "ブラックベア_下部"
      },
      "geometry": {
        "coordinates": [
          [136.93995944558912, 35.95237180735056],
          [136.94012585653024, 35.952342171025705],
          [136.9402822828156, 35.952347559449365],
          [136.9404553501949, 35.9523448652468],
          [136.94061510469828, 35.95229367520628],
          [136.9407881720789, 35.95222362562377],
          [136.9409113161753, 35.952132022229364],
          [136.9409113161753, 35.95207813783071],
          [136.94087803398634, 35.95200808805707],
          [136.94068832551392, 35.95193264976972],
          [136.94029226747188, 35.95181140951519],
          [136.9398695836815, 35.95164975554839],
          [136.9394379413847, 35.95150482048915]
        ],
        "type": "LineString"
      }
    },
    {
      "type": "Feature",
      "properties": {
        "name": "ブラックベア_上部_2"
      },
      "geometry": {
        "coordinates": [
          [136.94585040426517, 35.952082150626765],
          [136.9453283633611, 35.95208423238262],
          [136.94432799926312, 35.952113376958565],
          [136.94373956204709, 35.95212930484148]
        ],
        "type": "LineString"
      }
    },
    {
      "type": "Feature",
      "properties": {
        "name": "スイング_2"
      },
      "geometry": {
        "coordinates": [
          [136.94137092844954, 35.94885579737603],
          [136.94141100498655, 35.94937489348182],
          [136.94139382932792, 35.94963907501132],
          [136.94126787449898, 35.949856908240434],
          [136.9410732170383, 35.950139627067],
          [136.94083275782123, 35.95065871473777]
        ],
        "type": "LineString"
      }
    },
    {
      "type": "Feature",
      "properties": {
        "name": "スネークストリート"
      },
      "geometry": {
        "coordinates": [
          [136.93059974825502, 35.95429272730233],
          [136.93059668695685, 35.95438937221601],
          [136.93068546458045, 35.95446867051872],
          [136.93084465204174, 35.95451079770899],
          [136.9311079236129, 35.95456035908151],
          [136.93129772404814, 35.954649569472835],
          [136.9317569186478, 35.95484781442724],
          [136.9319589642726, 35.95498906365283],
          [136.93215794859924, 35.95506588330149],
          [136.93234774903453, 35.95511792237616],
          [136.93244264925136, 35.95512783457643],
          [136.9325191816854, 35.95505597109346],
          [136.9326324496866, 35.95498410754446],
          [136.93271204341727, 35.95496180505005],
          [136.93286204698722, 35.95496676116045],
          [136.932978376285, 35.955003931978],
          [136.93312574897948, 35.95508018217802],
          [136.93322174969384, 35.955108907273896],
          [136.93334770143827, 35.955106951101165],
          [136.93349686097437, 35.95509115746165],
          [136.9337658246343, 35.95505957016034],
          [136.93401753664867, 35.95500233615675],
          [136.93412981044014, 35.95495401308426],
          [136.9342960301426, 35.9549268812077],
          [136.9345136218252, 35.95498885904842],
          [136.9347865844981, 35.9551698272746],
          [136.93525178244778, 35.95550800078148]
        ],
        "type": "LineString"
      }
    },
    {
      "type": "Feature",
      "properties": {
        "name": "パノラマウェイ_#上部"
      },
      "geometry": {
        "coordinates": [
          [136.94802815478891, 35.94854019859801],
          [136.94761651300303, 35.94837357725653],
          [136.94716973110735, 35.94815818816235],
          [136.9468735498486, 35.94797937412926],
          [136.94669784910337, 35.94786558317],
          [136.9465221483582, 35.94780868762891],
          [136.94625608722788, 35.947731472185794],
          [136.94595990597156, 35.947715216293744],
          [136.9456085044813, 35.94774366410306],
          [136.94532738464477, 35.947759919092306],
          [136.94514164385419, 35.94780868673146],
          [136.94491072287485, 35.94789809399197],
          [136.9446848219157, 35.94791028588352],
          [136.94443884087087, 35.94785339037463],
          [136.94417277974304, 35.9477477271776],
          [136.94392177867815, 35.947670511675454],
          [136.94372599775687, 35.94762987182071],
          [136.9435603370519, 35.94761361590719],
          [136.94340471625515, 35.94765019160096],
          [136.9433046, 35.9476932]
        ],
        "type": "LineString"
      }
    }
  ]
}
