{"type":"FeatureCollection","features":[{"type":"Feature","properties":{"@id":"way/452691967","name":"タワーリング・ダウンヒル_下部"},"geometry":{"coordinates":[[136.80850914354735,35.970568909115066],[136.80835401807505,35.970190362603795],[136.8080382,35.9695206],[136.8077681280609,35.96899736542132],[136.80749805612365,35.96860611117582],[136.80716133656398,35.96819629643337],[136.806875918282,35.967985148216684],[136.80625204655078,35.96759603066406],[136.8055869829391,35.96716396008742],[136.8051066332554,35.96690135193639],[136.8046033755944,35.96666757139335],[136.80418206455138,35.966490319711205],[136.8034924852246,35.966266165080334]],"type":"LineString"}},{"type":"Feature","properties":{"@id":"way/257625752","name":"グリーンシェードの小径"},"geometry":{"coordinates":[[136.80861872011022,35.970539680936206],[136.80880890951704,35.97058326254022],[136.80897010946427,35.97065260903882],[136.8091753795705,35.9707279],[136.80930829159996,35.9707764944959],[136.80954368323313,35.97082159731569],[136.8097496947577,35.97082806118655],[136.8098628245964,35.970819802931196],[136.80993775208424,35.97073839592217],[136.8100640947577,35.97056782195533],[136.8101060573246,35.970359027757986],[136.81002300171372,35.97012457786535],[136.80983457337027,35.96980523968851],[136.80959105732617,35.96939376139037],[136.80928898770222,35.969030674885985],[136.80895949411848,35.96868272280629],[136.8084831,35.9681921],[136.8081489,35.9676226],[136.8077443,35.9671567],[136.8074389108219,35.96679013101138],[136.80712002152706,35.96651195519968],[136.8068405161177,35.966291735145674],[136.80654024735293,35.966119043850206],[136.80620775541016,35.965989819662425],[136.8053278821177,35.965969171619555],[136.80463063859986,35.96600911092911],[136.80355796423686,35.9662212780749]],"type":"LineString"}},{"type":"Feature","properties":{"@id":"way/257625753","name":"アトリウム・ゲレンデ"},"geometry":{"coordinates":[[136.8082245,35.9732534],[136.80711064387282,35.97141206348443],[136.80652036180888,35.97047005489213],[136.8063554047412,35.97005763932543],[136.80618745849713,35.96960943870564],[136.8059973901169,35.96926727907177],[136.8056785691651,35.96890685938691],[136.80497938774704,35.96840436055581],[136.80463960375664,35.968111629808554],[136.8043656513844,35.9678188986979],[136.8037424806347,35.96712317868546],[136.80317085612725,35.96653190254161],[136.80299667075153,35.96635852382785]],"type":"LineString"}},{"type":"Feature","properties":{"@id":"way/452691965","name":"ビアンコ・ガーデン"},"geometry":{"coordinates":[[136.81054028473025,35.97649968255049],[136.8105049810903,35.97554090483619],[136.81043550487232,35.973980391183396],[136.8104224716379,35.973559882588944]],"type":"LineString"}},{"type":"Feature","properties":{"@id":"way/452691966","name":"シャンデリアの丘"},"geometry":{"coordinates":[[136.80728166642015,35.97552609084185],[136.80714277785995,35.97441200002582],[136.80711191144243,35.97300166234552],[136.8071184223249,35.97194568081111]],"type":"LineString"}},{"type":"Feature","properties":{"@id":"way/452691963","name":"ロンド・サーキット"},"geometry":{"coordinates":[[136.8045684397105,35.97283168838861],[136.80451238276098,35.972677414349896],[136.8044732604664,35.97231247005381],[136.8044578969334,35.972085998021974],[136.8044574769631,35.971835338234],[136.80446568290148,35.97160735388852],[136.80444151112042,35.971415651186575],[136.80436386347256,35.971267066384556],[136.8042450478153,35.971034189182745],[136.80399071888482,35.97064945689229],[136.80392601768068,35.97037421450394],[136.80383843937454,35.96969662099252],[136.80367723937454,35.96842082099253],[136.80367794208158,35.96798548262181],[136.8036351717421,35.96735859864035]],"type":"LineString"}},{"type":"Feature","properties":{"@id":"way/257625750","name":"スカイフロント_2"},"geometry":{"coordinates":[[136.80604785489533,35.975231160634955],[136.8060638197086,35.97501336029589],[136.8060342718252,35.97459828960668],[136.80592607379356,35.97432828215463],[136.80579801059548,35.974127173775756],[136.80543509390327,35.97377886687012],[136.80469016066507,35.97312624350804]],"type":"LineString"}},{"type":"Feature","properties":{"@id":"way/257625747","name":"スカイフロント"},"geometry":{"coordinates":[[136.81879270206448,35.980961068177265],[136.8184525,35.9809814],[136.81793933505475,35.98093443182006],[136.81717794054376,35.98082657726515],[136.81668796288005,35.980682634123276],[136.81628511013517,35.980557435040055],[136.81590856804348,35.980357717181505],[136.81526595326133,35.9800111],[136.81484509380363,35.97963559330667],[136.81420712711918,35.979183908110016],[136.81378195177766,35.97890441963589],[136.81315837511528,35.97857406372465],[136.81267090046273,35.97829421791414],[136.81209851542707,35.977938244446435],[136.81183284351528,35.977720263011236],[136.81150736671904,35.97739403496426],[136.81133400505297,35.97717020779526],[136.81099926916795,35.97687304191588],[136.8107316472992,35.976697633778564],[136.8104383288165,35.97656911353848],[136.81016760567434,35.97648558892034],[136.80994365369395,35.976396657167534],[136.80972306664773,35.976289164285674],[136.80944233763657,35.97618437184318],[136.8089544,35.9760532],[136.80839337564817,35.975832393082094],[136.8078730703534,35.975672421499105],[136.807353,35.97558955555803],[136.80675676117772,35.97557173406096],[136.80654606776412,35.97555267515769],[136.80639175458793,35.97549812881062],[136.80613160658854,35.97534999294683],[136.8059139941172,35.975199588098185],[136.80565120141125,35.97495826509885],[136.80541587435317,35.97476234253327],[136.80502503188308,35.974482015227885],[136.80472624688178,35.97427087560945],[136.80458094141224,35.974130711931636],[136.80447935388352,35.974006980893],[136.8044195282354,35.97387320623522],[136.80439843552946,35.97372149725644],[136.80459190658848,35.97317592133208],[136.8046985,35.9729312],[136.80504705297824,35.972147086935315],[136.80523580882203,35.971741480164106],[136.80553049852125,35.971257239811976],[136.80576660882207,35.970894155394966],[136.80605573824565,35.970536374026835],[136.8062725264662,35.97030065788918]],"type":"LineString"}},{"type":"Feature","properties":{"@id":"way/257625743","name":"タワーリング・ダウンヒル_中部"},"geometry":{"coordinates":[[136.81498671127068,35.97724597825652],[136.8148153792724,35.977052252695195],[136.81459175090765,35.97684909269472],[136.81401400181673,35.976463107358136],[136.81360585036973,35.976167744553585],[136.8131469306406,35.97587113761278],[136.812915067563,35.975657007415954],[136.81262753002906,35.97537713248976],[136.81240514093895,35.97514107313507],[136.81217935560062,35.974939806174326],[136.81199616078106,35.97477569691007],[136.81188566836286,35.974644682981435],[136.81178282492846,35.9744733357481],[136.8117005519368,35.97432639285834],[136.81159555944885,35.974201513629254],[136.81142882525597,35.97407118775756],[136.81116928314887,35.973918314937315],[136.8108503859053,35.973724577349266],[136.81048599627886,35.973542722043774],[136.8101847502541,35.97337456593844],[136.8099572323541,35.97307012122125],[136.80966405709043,35.97271477931121],[136.80915546834518,35.97209714496747],[136.80886474730244,35.971561870506555],[136.80867854557013,35.97109754304965],[136.8085485046379,35.970662207984496]],"type":"LineString"}},{"type":"Feature","properties":{"@id":"way/452691968","name":"タワーリング・ダウンヒル_上部"},"geometry":{"coordinates":[[136.81818351822784,35.98086208362126],[136.81731771311908,35.97998791855336],[136.81674779270156,35.979450488301666],[136.81613239784784,35.97877322063614],[136.81559964964106,35.97806054645507],[136.8150331036404,35.97734377153472]],"type":"LineString"}},{"type":"Feature","properties":{"name":"第2駐車場への帰路"},"geometry":{"coordinates":[[136.8101822436472,35.97025957364612],[136.8103008266242,35.97002469492003],[136.8103257914609,35.969921146012396],[136.81029770601964,35.96974940606076],[136.81027343319056,35.969454197777864],[136.81022662412175,35.96925214954271],[136.81017357384246,35.96915365084],[136.81010119038854,35.96908425238753],[136.81002880693444,35.96902078320606],[136.80996462750164,35.96890800858429],[136.8099174120676,35.96879666105198],[136.80986151337834,35.96868388610794],[136.8098022038065,35.96859798643496],[136.8097648726373,35.96842117029013],[136.8097350229047,35.968271767171956],[136.80969147369424,35.96801837111826],[136.80968567656737,35.96767331164892],[136.8097118343916,35.967349847260664],[136.80978203631173,35.96699073551768],[136.80980190212404,35.96688624744605],[136.8097429410707,35.966804398014574],[136.80955580681746,35.966732364384534],[136.8092381664282,35.96663922351918],[136.80881681411353,35.9666566408843],[136.8083138782203,35.966762769060594],[136.8077106953022,35.96687317447049]],"type":"LineString"}},{"type":"Feature","properties":{"@id":"way/257625748","name":"クルージング"},"geometry":{"coordinates":[[136.81916425977326,35.98071205539618],[136.81901140651553,35.98034095524827],[136.81873254164492,35.97985827331853],[136.81843645269197,35.97953007825787],[136.81810374926295,35.97924762926151],[136.8178893882233,35.97900390950218],[136.81771958910235,35.97877016983441],[136.81754571422462,35.97853254267581],[136.8172407508965,35.97812466723348],[136.81698103454858,35.97772881728645],[136.8167365067124,35.97735863615351],[136.81638766078714,35.97690344049408],[136.8161683751698,35.97658633628259],[136.81606427191542,35.97637622271157],[136.81599543270244,35.97603706433199],[136.81592329483385,35.975767866862185],[136.81579835174904,35.97553853756729],[136.81564222741233,35.97530213614891],[136.81549024579994,35.97509764434138],[136.81527517586227,35.97477629207362],[136.81500816020773,35.97435984771501],[136.81472225991894,35.974002784715175],[136.81457024238824,35.97381363780162],[136.8144395783672,35.97370513594789],[136.81406690161234,35.97341475552221],[136.81379876420436,35.9731848277611],[136.81351978908782,35.97293443457884],[136.8132796393637,35.97261309262479],[136.812935896597,35.972200896312394],[136.8125468017506,35.971805640175866],[136.81224603348053,35.97135187662105],[136.81204886105095,35.97096564268641],[136.8119443179425,35.97069378722114],[136.81174445995384,35.97037564779509],[136.81154178554706,35.97004791322124],[136.8114148593337,35.9698359],[136.81121480210317,35.96971625522811],[136.81104316227848,35.969619306561654],[136.81091159388905,35.96945054655085],[136.81075816227133,35.96928463644154],[136.81058755717888,35.969132625645706],[136.81034997858944,35.96896365878986],[136.81019029505177,35.968844634732555],[136.8100557772007,35.96863904865691],[136.80980246714648,35.96821082921106]],"type":"LineString"}},{"type":"Feature","properties":{"@id":"way/257625742","name":"無名_1"},"geometry":{"coordinates":[[136.81148634114047,35.977268445949754],[136.81155324248653,35.97711741763728],[136.81162612600912,35.9770396249114],[136.81174764652718,35.976998316965464],[136.8118749164239,35.97697766298697],[136.81204717813338,35.977021913358634],[136.81225111922168,35.977085070928865],[136.8124042,35.9771229],[136.81268065471704,35.97714150728971],[136.81306578352263,35.97713750182007],[136.81333775191737,35.97714578667243],[136.8136733902596,35.977180809135895],[136.81405651896435,35.97724451469798],[136.81433852865337,35.97727394496761],[136.81457359036224,35.97731445644997],[136.8147935630575,35.977338292434766],[136.81487029458543,35.977332797133776],[136.81494702611334,35.97729247525663]],"type":"LineString"}},{"type":"Feature","properties":{"@id":"way/257625749","name":"ダイビング"},"geometry":{"coordinates":[[136.8100403007847,35.97636306825556],[136.80980360551945,35.97587959560478],[136.80942823722737,35.97522094891024],[136.80920081967463,35.97488158803682],[136.808973402121,35.97457216513088],[136.808828179426,35.97438247547162],[136.80871538788347,35.97419044404422],[136.8086425531412,35.974001302200904],[136.80853216039873,35.97367391459099],[136.808405328685,35.97320683629359]],"type":"LineString"}},{"type":"Feature","properties":{"@id":"way/547539315","name":"無名_2"},"geometry":{"coordinates":[[136.80915613563866,35.97231436588451],[136.80899794228188,35.97250769878817],[136.80891462032213,35.97264710934978],[136.80882225596383,35.972781785375034],[136.80871058192312,35.97290896469511],[136.80862516793127,35.9729845226],[136.80855077132313,35.973044528257745],[136.80850493099956,35.97307374246071],[136.80848846363594,35.97307500392513],[136.8084806,35.9730635],[136.8085249067196,35.97298318573107],[136.80860506231613,35.97281815555782],[136.8086717,35.9725135],[136.8087353999993,35.97228866491328],[136.80874730316384,35.972140270787776],[136.80870232494462,35.97199717285458],[136.80859951872702,35.971753460950325],[136.8085104234363,35.97127056108961],[136.80850676254593,35.971072247188786]],"type":"LineString"}},{"type":"Feature","properties":{"name":"無名_3"},"geometry":{"coordinates":[[136.80828583797847,35.970188449582125],[136.8081584377865,35.97007061187714],[136.80804013760797,35.97000432819138],[136.8077989872442,35.9698975375764],[136.8075032367973,35.96979442922273],[136.80715288626664,35.96968763835879],[136.80642033516182,35.96944459646315]],"type":"LineString"}}]}