{"type":"FeatureCollection","features":[{"type":"Feature","properties":{"@id":"way/309911066","name":"Hakuba47 Line-8"},"geometry":{"coordinates":[[137.82776231119777,36.68460195660671],[137.8166647,36.6764872]],"type":"LineString"}},{"type":"Feature","properties":{"@id":"way/309911067","name":"Hakuba47 Line-A"},"geometry":{"coordinates":[[137.82203574302017,36.679884126309],[137.8176971858981,36.67606886088934]],"type":"LineString"}},{"type":"Feature","properties":{"@id":"way/309911068","name":"Hakuba47 Line-C"},"geometry":{"coordinates":[[137.82293995481982,36.67955572079861],[137.8192791,36.6697621]],"type":"LineString"}},{"type":"Feature","properties":{"@id":"way/309911069","name":"Hakuba47 Line-E"},"geometry":{"coordinates":[[137.81756756964285,36.669101468126534],[137.81123770893058,36.6615436]],"type":"LineString"}},{"type":"Feature","properties":{"@id":"way/309911070","name":"アルプス第1ペア"},"geometry":{"coordinates":[[137.8146743,36.6651643],[137.8113299,36.6605529]],"type":"LineString"}},{"type":"Feature","properties":{"@id":"way/309911071","name":"五竜テレキャビン"},"geometry":{"coordinates":[[137.83510867917298,36.66368395287623],[137.81449056642055,36.663578505772136]],"type":"LineString"}},{"type":"Feature","properties":{"@id":"way/309911072","name":"とおみ第1ペア"},"geometry":{"coordinates":[[137.83558659829183,36.663134259838614],[137.83171041184602,36.6635572800247]],"type":"LineString"}},{"type":"Feature","properties":{"@id":"way/309911073","name":"とおみ第2ペア"},"geometry":{"coordinates":[[137.8323784,36.6633714],[137.82443537581463,36.66448808669347]],"type":"LineString"}},{"type":"Feature","properties":{"@id":"way/309911074","name":"とおみスカイフォー"},"geometry":{"coordinates":[[137.8362247,36.6620417],[137.8263655370281,36.66338351800564]],"type":"LineString"}},{"type":"Feature","properties":{"@id":"way/309911075","name":"コスモフォー"},"geometry":{"coordinates":[[137.8353692669255,36.6695140618579],[137.82635776614902,36.66701662015619]],"type":"LineString"}},{"type":"Feature","properties":{"@id":"way/309911076","name":"ミルキーフォー"},"geometry":{"coordinates":[[137.83620346161854,36.66908654598333],[137.83291471586338,36.66534476523374]],"type":"LineString"}},{"type":"Feature","properties":{"@id":"way/309911077","name":"いいもり第6ペアA"},"geometry":{"coordinates":[[137.83540412158635,36.66498343898278],[137.8285269380928,36.66409477751613]],"type":"LineString"}},{"type":"Feature","properties":{"@id":"way/309911078","name":"いいもり第1高速ペア"},"geometry":{"coordinates":[[137.8389474,36.6685834],[137.8345404,36.6654137]],"type":"LineString"}},{"type":"Feature","properties":{"@id":"way/309911079","name":"アルプス第4ペア"},"geometry":{"coordinates":[[137.8186227261787,36.661028623171354],[137.81120195031895,36.65915710635582]],"type":"LineString"}},{"type":"Feature","properties":{"@id":"way/309911080","name":"アルプス第2ペア"},"geometry":{"coordinates":[[137.8185888959863,36.6610701520173],[137.81283794630522,36.65963956150192]],"type":"LineString"}},{"type":"Feature","properties":{"@id":"way/309911081","name":"アルプス第3ペア"},"geometry":{"coordinates":[[137.8187615,36.6619757],[137.81194212766167,36.660810558082744]],"type":"LineString"}},{"type":"Feature","properties":{"@id":"way/383933117","name":"Hakuba47 Line-D"},"geometry":{"coordinates":[[137.8280643,36.6842146],[137.8237695,36.676855]],"type":"LineString"}},{"type":"Feature","properties":{"name":"Hakuba47 Line-B"},"geometry":{"coordinates":[[137.82199765733708,36.67993212883843],[137.81763759080093,36.67611195374042]],"type":"LineString"}},{"type":"Feature","properties":{"name":"いいもり第6ペアB"},"geometry":{"coordinates":[[137.8353951991379,36.66503675528136],[137.82850482851734,36.664164765515]],"type":"LineString"}}]}