{"type":"FeatureCollection","features":[{"type":"Feature","properties":{"@id":"way/319806450","name":"オレンジライン"},"geometry":{"coordinates":[[140.31916111418838,37.62179697520461],[140.32455561933116,37.62286698372704]],"type":"LineString"}},{"type":"Feature","properties":{"@id":"way/319806455","name":"バイオレットライン"},"geometry":{"coordinates":[[140.3160625,37.6216797],[140.3197771642669,37.62421398885471]],"type":"LineString"}},{"type":"Feature","properties":{"@id":"way/319806456","name":"ブルーライン"},"geometry":{"coordinates":[[140.32032284883098,37.62391744437165],[140.3240433943912,37.62328759175396]],"type":"LineString"}}]}