{"type":"FeatureCollection","features":[{"type":"Feature","properties":{"@id":"way/319842650","name":"スカイロード1"},"geometry":{"coordinates":[[139.6159906,37.1080824],[139.6327997,37.1140401]],"type":"LineString"}},{"type":"Feature","properties":{"@id":"way/319842651","name":"スカイロード2"},"geometry":{"coordinates":[[139.61687918125665,37.10768344310092],[139.626194567305,37.11151861740436]],"type":"LineString"}},{"type":"Feature","properties":{"@id":"way/319842652","name":"トリプル1"},"geometry":{"coordinates":[[139.6248766436487,37.11372616009733],[139.6324588679571,37.114160113394966]],"type":"LineString"}},{"type":"Feature","properties":{"@id":"way/319842669","name":"第1ペア"},"geometry":{"coordinates":[[139.61700241777882,37.1104209790429],[139.6252335,37.1149598]],"type":"LineString"}},{"type":"Feature","properties":{"@id":"way/319842670","name":"第2ペア"},"geometry":{"coordinates":[[139.62500017013707,37.11531641994005],[139.63249539013833,37.1149613]],"type":"LineString"}},{"type":"Feature","properties":{"@id":"way/319842671","name":"第3ペア"},"geometry":{"coordinates":[[139.6317502955437,37.11778064691964],[139.64294401798543,37.119745702239115]],"type":"LineString"}},{"type":"Feature","properties":{"@id":"way/319842672","name":"第4ペア"},"geometry":{"coordinates":[[139.632327,37.1169898],[139.63728,37.1152327]],"type":"LineString"}},{"type":"Feature","properties":{"@id":"way/319842673","name":"第6シングル"},"geometry":{"coordinates":[[139.6411413,37.1198939],[139.648837,37.1242167]],"type":"LineString"}}]}