{"type":"FeatureCollection","features":[{"type":"Feature","properties":{"@id":"way/1144295327","name":"第5ペア"},"geometry":{"coordinates":[[139.5642895,37.2578193],[139.5699432,37.2562356]],"type":"LineString"}},{"type":"Feature","properties":{"@id":"way/1144295328","name":"第1ペア"},"geometry":{"coordinates":[[139.5458946,37.2664125],[139.55214384335753,37.26134005818566]],"type":"LineString"}},{"type":"Feature","properties":{"@id":"way/1144295329","name":"第3ペア","midstation":[139.5590326373919,37.25892081630079]},"geometry":{"coordinates":[[139.551773,37.2608623],[139.5633727,37.2577583]],"type":"LineString"}}]}