{"type":"FeatureCollection","features":[{"type":"Feature","properties":{"@id":"way/505927671","name":"アスペン・ペア"},"geometry":{"coordinates":[[140.27553702312585,40.680898711047796],[140.28324165843708,40.67422794133169]],"type":"LineString"}},{"type":"Feature","properties":{"@id":"way/505927675","name":"ダイアモンド・ペア"},"geometry":{"coordinates":[[140.29121518207663,40.6860387336257],[140.29457259245933,40.67661995943688]],"type":"LineString"}},{"type":"Feature","properties":{"@id":"way/505927678","name":"クワッド2"},"geometry":{"coordinates":[[140.28438056073867,40.695781624164205],[140.2848646928404,40.68300092971118]],"type":"LineString"}},{"type":"Feature","properties":{"@id":"way/505927680","name":"ゴンドラ"},"geometry":{"coordinates":[[140.28218386404347,40.69504602123942],[140.28691501090984,40.66909278655529]],"type":"LineString"}},{"type":"Feature","properties":{"@id":"way/505927682","name":"クワッド1"},"geometry":{"coordinates":[[140.2771731,40.6917516],[140.2813819,40.677136]],"type":"LineString"}}]}