{
  "type": "FeatureCollection",
  "features": [
    {
      "type": "Feature",
      "properties": { "@id": "way/455174788", "name": "第2ペア" },
      "geometry": {
        "coordinates": [
          [138.07047004636755, 37.002554944004096],
          [138.0705235, 37.0023436],
          [138.0705918, 37.0020596],
          [138.0707398, 37.0014445],
          [138.0708874, 37.0008312],
          [138.0710248, 37.0002603],
          [138.0710776, 37.0000405],
          [138.0712084, 36.9994972],
          [138.0713051, 36.999095],
          [138.0714567, 36.9984652],
          [138.0715473, 36.9980885],
          [138.0716412, 36.9976981],
          [138.07170453350383, 36.99743395753737]
        ],
        "type": "LineString"
      }
    },
    {
      "type": "Feature",
      "properties": { "@id": "way/455174786", "name": "第1クワッド" },
      "geometry": {
        "coordinates": [
          [138.06958987655435, 37.002085192298814],
          [138.06380723696782, 36.99146451959661]
        ],
        "type": "LineString"
      }
    },
    {
      "type": "Feature",
      "properties": { "@id": "way/455174787", "name": "第3ペア" },
      "geometry": {
        "coordinates": [
          [138.0714221, 36.9971911],
          [138.070796, 36.9966878],
          [138.0700369, 36.9960775],
          [138.0696263, 36.9957475],
          [138.0690143, 36.9952555],
          [138.0681859, 36.9945895],
          [138.0679535, 36.9944027],
          [138.0676518, 36.9941601],
          [138.066828, 36.9934978],
          [138.066144, 36.992948],
          [138.065369, 36.9923249],
          [138.0645778, 36.9916888],
          [138.0642575, 36.9914313],
          [138.0640913, 36.9912977]
        ],
        "type": "LineString"
      }
    }
  ]
}
