{"type":"FeatureCollection","features":[{"type":"Feature","properties":{"@id":"way/215956472","name":"アルペン"},"geometry":{"coordinates":[[138.4983637050246,35.93034225327968],[138.5049964867496,35.93257411321951]],"type":"LineString"}},{"type":"Feature","properties":{"@id":"way/215956474","name":"バレー"},"geometry":{"coordinates":[[138.4953574620909,35.93026435488532],[138.50248734681736,35.927502583188854]],"type":"LineString"}},{"type":"Feature","properties":{"@id":"way/215956481","name":"ホーン"},"geometry":{"coordinates":[[138.49507414088518,35.93016644901541],[138.49688980834532,35.927736391624926]],"type":"LineString"}}]}