{"type":"FeatureCollection","features":[{"type":"Feature","properties":{"@id":"way/454070893","name":"第3ペア"},"geometry":{"coordinates":[[138.399928,36.051608],[138.3950948361235,36.05078842864824]],"type":"LineString"}},{"type":"Feature","properties":{"@id":"way/454070894","name":"第5ペア"},"geometry":{"coordinates":[[138.4109605,36.0544946],[138.4074271879374,36.04971695620592]],"type":"LineString"}},{"type":"Feature","properties":{"@id":"way/454070896","name":"第4ペア"},"geometry":{"coordinates":[[138.4122245,36.0578376],[138.40721740059425,36.054951289342995]],"type":"LineString"}},{"type":"Feature","properties":{"@id":"way/454070897","name":"第1クワッド"},"geometry":{"coordinates":[[138.4122915,36.0577348],[138.40066632512756,36.051022720464154]],"type":"LineString"}},{"type":"Feature","properties":{"name":"第2ペア"},"geometry":{"coordinates":[[138.41234224125344,36.05689814176816],[138.40839171838945,36.05386067001707]],"type":"LineString"}},{"type":"Feature","properties":{"name":"ケーブルカー"},"geometry":{"coordinates":[[138.41310464511264,36.057369444351124],[138.41385318260433,36.056193787565235]],"type":"LineString"}}]}