{"type":"FeatureCollection","features":[{"type":"Feature","properties":{"name":"第1クワッド"},"geometry":{"coordinates":[[138.48435076855526,37.054185764714745],[138.49063045605686,37.04117273472369]],"type":"LineString"}},{"type":"Feature","properties":{"name":"第3ペア"},"geometry":{"coordinates":[[138.48531652993353,37.05431068530639],[138.48706281663863,37.050468250178184]],"type":"LineString"}},{"type":"Feature","properties":{"name":"第2クワッド"},"geometry":{"coordinates":[[138.490945,37.047786],[138.49329394632497,37.03557171997049]],"type":"LineString"}}]}