{"type":"FeatureCollection","features":[{"type":"Feature","properties":{"@id":"way/365228906","name":"から松ビギナー"},"geometry":{"coordinates":[[136.8671074,35.9906065],[136.8631271,35.9914084]],"type":"LineString"}},{"type":"Feature","properties":{"@id":"way/365228909","name":"αライナー"},"geometry":{"coordinates":[[136.87079363886647,35.98976563240693],[136.8562718623761,35.99142859419158]],"type":"LineString"}},{"type":"Feature","properties":{"@id":"way/365228910","name":"βライナー"},"geometry":{"coordinates":[[136.8671858,35.9917331],[136.8551878789112,35.995490703826654]],"type":"LineString"}},{"type":"Feature","properties":{"@id":"way/365228911","name":"γライナー"},"geometry":{"coordinates":[[136.86756456386357,35.987834359921216],[136.85884055575212,35.98981579044205]],"type":"LineString"}},{"type":"Feature","properties":{"@id":"way/365228915","name":"第1ペア"},"geometry":{"coordinates":[[136.8657915406683,35.989128615925544],[136.87095282070996,35.98964282884013]],"type":"LineString"}}]}