{"type":"FeatureCollection","features":[{"type":"Feature","properties":{"@id":"way/303769182","name":"北の峰第1高速"},"geometry":{"coordinates":[[142.3591237,43.3425297],[142.358364,43.3425097],[142.3574913,43.3424867],[142.3566638,43.3424648],[142.3558447,43.3424432],[142.3554606,43.3424331],[142.354902,43.3424221],[142.3540529,43.3424055],[142.3530913,43.3423866],[142.3518215,43.3423617],[142.3507832,43.3423464],[142.3500372,43.3423355],[142.349248,43.3423239],[142.3481287,43.3423074],[142.3472716,43.3422948],[142.3465176,43.3422837]],"type":"LineString"}},{"type":"Feature","properties":{"@id":"way/475418178","name":"北の峰ゴンドラ"},"geometry":{"coordinates":[[142.3601123,43.3439024],[142.3592664,43.3437283],[142.3578113,43.3434287],[142.3562035,43.3430977],[142.3544735,43.3427416],[142.3530853,43.3424558],[142.3519635,43.3422248],[142.3506406,43.3419525],[142.3498846,43.3417969],[142.3482656,43.3414636],[142.3473654,43.3412782],[142.3466604,43.3411331],[142.3457556,43.3409468],[142.3439141,43.3405677],[142.3428585,43.3403504],[142.3419893,43.3401715],[142.3412828,43.340026],[142.3403296,43.3398298],[142.3396822,43.3396965],[142.3373246,43.3392111],[142.3364956,43.3390404],[142.3357223,43.3388812],[142.3341948,43.3385667],[142.3318387,43.3380816],[142.3307674,43.3378611],[142.3296124,43.3376233],[142.3276771,43.3372248],[142.3269143,43.3370678],[142.3264971,43.3369819]],"type":"LineString"}},{"type":"Feature","properties":{"@id":"way/475418179","name":"連絡"},"geometry":{"coordinates":[[142.3392596,43.3380527],[142.3388566,43.3375819],[142.3386086,43.3372922],[142.3380149,43.3365986],[142.3374951,43.3359913],[142.3371321,43.3355672],[142.3367333,43.3351014],[142.3365222,43.3348547],[142.3361591,43.3344305],[142.3354775,43.3336342],[142.3352086,43.3333201],[142.3349356,43.3330012],[142.334497,43.3324887],[142.3340211,43.3319327],[142.3337021,43.33156]],"type":"LineString"}},{"type":"Feature","properties":{"@id":"way/475431614","name":"富良野ロープウェー"},"geometry":{"coordinates":[[142.3534443,43.3254678],[142.351986,43.3255881],[142.3476437,43.3259462],[142.3399434,43.3265813],[142.3337287,43.3270939],[142.3267973,43.3276656],[142.3252586,43.3277925]],"type":"LineString"}},{"type":"Feature","properties":{"@id":"way/475431615","name":"富良野ダウンヒル第3ロマンス"},"geometry":{"coordinates":[[142.324808,43.3268988],[142.324215,43.3266232],[142.3237047,43.3263859],[142.3232865,43.3261915],[142.3224809,43.3258171],[142.3220014,43.3255942],[142.3216391,43.3254258],[142.3209067,43.3250853],[142.3202528,43.3247813],[142.3197539,43.3245495],[142.3192504,43.3243154]],"type":"LineString"}},{"type":"Feature","properties":{"@id":"way/475619375","name":"北の峰第2ロマンス"},"geometry":{"coordinates":[[142.3454539,43.342258],[142.3448621,43.3421865],[142.3440835,43.3420925],[142.3436424,43.3420393],[142.3431786,43.3419833],[142.3422819,43.341875],[142.3411427,43.3417375],[142.3405666,43.3416679],[142.3398415,43.3415804],[142.3389935,43.341478],[142.3387155,43.3414444],[142.3375227,43.3413004],[142.3372786,43.3412709]],"type":"LineString"}},{"type":"Feature","properties":{"@id":"way/507273148","name":"富良野ダウンヒル第2ロマンス"},"geometry":{"coordinates":[[142.3337173,43.3272089],[142.3333528,43.3272505],[142.3329857,43.3272924],[142.3329038,43.3273017],[142.3321731,43.327385],[142.3319874,43.3274061],[142.3315572,43.3274552],[142.3307624,43.3275458],[142.3305459,43.3275705],[142.3303283,43.3275953],[142.3296241,43.3276756],[142.3289021,43.3277579],[142.3284795,43.3278061],[142.3278962,43.3278726],[142.3269391,43.3279817],[142.325987,43.3280903],[142.3252575,43.3281734],[142.3245281,43.3282566]],"type":"LineString"}},{"type":"Feature","properties":{"@id":"way/507273151","name":"プリンスロマンス"},"geometry":{"coordinates":[[142.353453,43.3239757],[142.3529965,43.3238992],[142.3514261,43.3236358],[142.34628768047966,43.32282348879466]],"type":"LineString"}},{"type":"Feature","properties":{"@id":"way/507273152","name":"富良野ダウンヒル第1高速"},"geometry":{"coordinates":[[142.354652,43.324286],[142.3528665,43.3244457],[142.3520508,43.3245187],[142.3515408,43.3245644],[142.3503101,43.3246745],[142.3497626,43.3247234],[142.3491009,43.3247826],[142.3469942,43.3249711],[142.3467432,43.3249936],[142.3458065,43.3250774],[142.344518,43.3251927],[142.3432432,43.3253067],[142.3420545,43.3254131],[142.3405782,43.3255451],[142.3401926,43.3255796],[142.3389139,43.325694],[142.3380393,43.3257723],[142.3371203,43.3258545],[142.3370278,43.3258628],[142.3357181,43.3259799],[142.3351561,43.3260302],[142.3339927,43.3261343],[142.3333036,43.3261959],[142.332756,43.3262449],[142.3322263,43.3262923],[142.3318398,43.3263269]],"type":"LineString"}}]}