{
  "type": "FeatureCollection",
  "features": [
    {
      "type": "Feature",
      "properties": { "@id": "way/408003186", "name": "ソーシャブル" },
      "geometry": {
        "coordinates": [
          [138.7825409, 36.9512125],
          [138.7822655, 36.951138],
          [138.7819513, 36.951053],
          [138.7816757, 36.9509784],
          [138.7812004, 36.9508498],
          [138.7800615, 36.9505416],
          [138.779758, 36.9504595],
          [138.7792104, 36.9503113],
          [138.7780815, 36.9500059],
          [138.7774416, 36.9498327],
          [138.7766112, 36.949608],
          [138.7759409, 36.9494361],
          [138.775057, 36.9491937],
          [138.7746719, 36.9490881],
          [138.7743915, 36.9490112]
        ],
        "type": "LineString"
      }
    },
    {
      "type": "Feature",
      "properties": { "@id": "way/408003181", "name": "バルーシュ" },
      "geometry": {
        "coordinates": [
          [138.782491, 36.9513717],
          [138.7821913, 36.9513319],
          [138.7818161, 36.951282],
          [138.7809336, 36.9511648],
          [138.7805337, 36.9511116],
          [138.7802178, 36.9510697],
          [138.7792249, 36.9509377],
          [138.7785889, 36.9508532],
          [138.7780265, 36.9507785],
          [138.7770816, 36.9506529],
          [138.7764359, 36.9505671],
          [138.7758705, 36.950492],
          [138.7750139, 36.9503782],
          [138.774938, 36.9503681],
          [138.7746799, 36.9503338],
          [138.7742458, 36.9502761],
          [138.7741865, 36.9502683],
          [138.7738765, 36.9502335]
        ],
        "type": "LineString"
      }
    },
    {
      "type": "Feature",
      "properties": { "@id": "way/408003182", "name": "ディリジャンス" },
      "geometry": {
        "coordinates": [
          [138.7992846, 36.951122],
          [138.7989828, 36.9511353],
          [138.7984935, 36.9511568],
          [138.7975233, 36.9511994],
          [138.7957621, 36.9512769],
          [138.7946937, 36.9513238],
          [138.7933814, 36.9513815],
          [138.7916285, 36.9514586],
          [138.7904508, 36.9515104],
          [138.7903811, 36.9515134],
          [138.7896444, 36.9515458],
          [138.7875663, 36.9516372],
          [138.7859289, 36.9517092],
          [138.7842553, 36.9517827],
          [138.7836008, 36.9518115]
        ],
        "type": "LineString"
      }
    },
    {
      "type": "Feature",
      "properties": { "@id": "way/408003185", "name": "フェートン" },
      "geometry": {
        "coordinates": [
          [138.7833804, 36.9508406],
          [138.7832525, 36.950442],
          [138.7831047, 36.9499816],
          [138.7829824, 36.9496005],
          [138.7828017, 36.9490375],
          [138.782691, 36.9486924],
          [138.7825857, 36.9483644]
        ],
        "type": "LineString"
      }
    },
    {
      "type": "Feature",
      "properties": { "@id": "way/504457835", "name": "シャリオ" },
      "geometry": {
        "coordinates": [
          [138.7775799, 36.9562845],
          [138.7778156, 36.9561999],
          [138.7782105, 36.9560583],
          [138.7787948, 36.9558487],
          [138.7791496, 36.9557214],
          [138.7798337, 36.955476],
          [138.7802857, 36.9553138]
        ],
        "type": "LineString"
      }
    },
    {
      "type": "Feature",
      "properties": { "@id": "way/504457836", "name": "バギー" },
      "geometry": {
        "coordinates": [
          [138.78169825440142, 36.96087134248631],
          [138.7810412689883, 36.95951480356485]
        ],
        "type": "LineString"
      }
    },
    {
      "type": "Feature",
      "properties": { "@id": "way/504457837", "name": "ティルバリー" },
      "geometry": {
        "coordinates": [
          [138.7780604, 36.9565664],
          [138.7784671, 36.9568665],
          [138.7788986, 36.9571847],
          [138.779557, 36.9576704],
          [138.779903, 36.9579257],
          [138.7803904, 36.9582852],
          [138.7806918, 36.9585075],
          [138.7810502, 36.9587719],
          [138.7814802, 36.9590891]
        ],
        "type": "LineString"
      }
    },
    {
      "type": "Feature",
      "properties": { "@id": "way/504457839", "name": "ワゴネット" },
      "geometry": {
        "coordinates": [
          [138.7790072, 36.9400395],
          [138.7783535, 36.9401833],
          [138.7776765, 36.9403323],
          [138.7772392, 36.9404285],
          [138.7765401, 36.9405823],
          [138.7755638, 36.940797],
          [138.775318, 36.9408511],
          [138.7747495, 36.9409762],
          [138.7741246, 36.9411137],
          [138.7735007, 36.9412509],
          [138.7725855, 36.9414523],
          [138.77208463862846, 36.941566857282936]
        ],
        "type": "LineString"
      }
    },
    {
      "type": "Feature",
      "properties": { "@id": "way/504457840", "name": "ランドー" },
      "geometry": {
        "coordinates": [
          [138.7902137927016, 36.938621933485415],
          [138.7797433, 36.9404332]
        ],
        "type": "LineString"
      }
    },
    {
      "type": "Feature",
      "properties": { "@id": "way/504457841", "name": "ビクトリア" },
      "geometry": {
        "coordinates": [
          [138.7766622, 36.9562406],
          [138.7764476, 36.9558373],
          [138.7760898, 36.9551834],
          [138.7759379, 36.9549058],
          [138.7755945, 36.9542783],
          [138.7755526, 36.9542018],
          [138.7752236, 36.9536006],
          [138.7750274, 36.9532419],
          [138.7747275, 36.9526939],
          [138.7744569, 36.9521994],
          [138.7741652, 36.9516664],
          [138.7739754, 36.9513195],
          [138.7738145, 36.951015]
        ],
        "type": "LineString"
      }
    },
    {
      "type": "Feature",
      "properties": { "@id": "way/504457843", "name": "コーチ" },
      "geometry": {
        "coordinates": [
          [138.7737627972983, 36.948346375941206],
          [138.7735488, 36.9481299],
          [138.7733037, 36.9478838],
          [138.772883, 36.9474614],
          [138.7727707, 36.9473487],
          [138.7723045, 36.9468805],
          [138.7718018, 36.9463758],
          [138.7713122, 36.9458842],
          [138.7708209, 36.9453909],
          [138.7705534, 36.9451224],
          [138.7700879, 36.944655],
          [138.769623, 36.9441882],
          [138.7693727, 36.9439369]
        ],
        "type": "LineString"
      }
    }
  ]
}
