{"type":"FeatureCollection","features":[{"type":"Feature","properties":{"@id":"way/82725405","name":"第1ゴンドラ"},"geometry":{"coordinates":[[140.8875427,39.2317528],[140.8889116,39.2321815],[140.8895295,39.232375],[140.8904947,39.2326772],[140.8913092,39.2329323],[140.8926259,39.2333446],[140.8928402,39.2334117],[140.8934061,39.2335889],[140.8940527,39.2337914],[140.8951222,39.2341263],[140.8953301,39.2341914],[140.8966303,39.2345986],[140.8980336,39.235038],[140.8989058,39.2353111],[140.900105,39.2356866],[140.9020659,39.2363006],[140.9026737,39.236491],[140.9036553,39.2367983],[140.9044768,39.2370556],[140.9056577,39.2374063]],"type":"LineString"}},{"type":"Feature","properties":{"@id":"way/960908317","name":"第2ゴンドラ"},"geometry":{"coordinates":[[140.90374738301384,39.23822510524146],[140.9025194,39.2382706],[140.9016099,39.2383031],[140.9015139,39.2383066],[140.9002545,39.2383516],[140.8991608,39.2383848],[140.8982565,39.2384177],[140.8958575,39.238505],[140.8943674,39.2385593],[140.8941597,39.2385669],[140.8931895,39.2386022],[140.8919415,39.2386476],[140.8908134,39.2386887],[140.89025030916014,39.238713864048066]],"type":"LineString"}},{"type":"Feature","properties":{"@id":"way/960909547","name":"クワッド"},"geometry":{"coordinates":[[140.8935190362652,39.24244122901631],[140.8973594,39.2416747],[140.8978109,39.2415835],[140.8983469,39.2414753],[140.899273,39.2412883],[140.8998376,39.2411742],[140.9000251,39.2411364],[140.9008163,39.2409766],[140.9017417,39.2407897],[140.9019428,39.2407491],[140.9025144,39.2406336],[140.9029592,39.2405438],[140.9034231,39.2404467]],"type":"LineString"}},{"type":"Feature","properties":{"@id":"way/1130595117","name":"第2ペア"},"geometry":{"coordinates":[[140.9044349,39.2367182],[140.9039752,39.2364514],[140.9034682,39.2361572],[140.9030298,39.2359028],[140.9025348,39.2356155],[140.9020939,39.2353597],[140.9016612,39.2351085],[140.9009207,39.2346788],[140.900466,39.2344149]],"type":"LineString"}},{"type":"Feature","properties":{"@id":"way/1130595118","name":"第1ペア"},"geometry":{"coordinates":[[140.9048016,39.2361575],[140.9045149,39.235848],[140.9040398,39.2353351],[140.9036877,39.234955],[140.9033219,39.23456],[140.9028237,39.2340221],[140.9025921,39.2337721],[140.902372,39.2335344],[140.9020147,39.2331486],[140.9016067,39.2327082],[140.9011988,39.2322678]],"type":"LineString"}}]}