{"type":"FeatureCollection","features":[{"type":"Feature","properties":{"@id":"way/254086263","name":"ゴンドラ"},"geometry":{"coordinates":[[140.132934,37.6960004],[140.1328958,37.6961375],[140.1327576,37.6966342],[140.13256,37.6973441],[140.1323375,37.6981435],[140.1321246,37.6989082],[140.1318231,37.6999917],[140.1316136,37.7007443],[140.1313956,37.7015274],[140.1311254,37.7024981],[140.130906,37.7032862],[140.1307253,37.7039354],[140.1303898,37.7051406],[140.1300829,37.7062434],[140.1298724,37.7069995],[140.1295121,37.7082937],[140.129474,37.7084306],[140.1293161,37.7089978],[140.1290682,37.7098882],[140.1287124,37.7111663],[140.1283876,37.712333],[140.1282642,37.7127764],[140.1278088,37.7144123],[140.127543,37.715367],[140.1274024,37.715872],[140.1272803,37.7163105]],"type":"LineString"}},{"type":"Feature","properties":{"@id":"way/254086283","name":"第一クワッド"},"geometry":{"coordinates":[[140.1320698,37.6961633],[140.1320096,37.6962883],[140.1318486,37.6965769],[140.1316692,37.6969156],[140.131443,37.6973833],[140.1312697,37.6977832],[140.1310252,37.6981897],[140.1307357,37.6987009],[140.1299638,37.7001932],[140.1295603,37.7009686],[140.1293556,37.7013563],[140.1289434,37.7020701],[140.1286898,37.7026426],[140.1284505,37.7031009],[140.1282545,37.7034521],[140.1278712,37.7041819],[140.1276319,37.7047019],[140.1272659,37.7054202],[140.1269257,37.7060519],[140.1259457,37.7079561],[140.1257814,37.7082343]],"type":"LineString"}},{"type":"Feature","properties":{"@id":"way/254086285","name":"第二クワッド"},"geometry":{"coordinates":[[140.12398366909366,37.70815126724066],[140.12609499988253,37.716976597319295]],"type":"LineString"}},{"type":"Feature","properties":{"@id":"way/254086286","name":"第三クワッド"},"geometry":{"coordinates":[[140.12249306686454,37.71373518894962],[140.12538012853946,37.7233176]],"type":"LineString"}}]}