{"type":"FeatureCollection","features":[{"type":"Feature","properties":{"@id":"way/331661403","name":"コルチナ第1ペア"},"geometry":{"coordinates":[[137.88727266412056,36.77633019490318],[137.88183613533255,36.77661627688602]],"type":"LineString"}},{"type":"Feature","properties":{"@id":"way/454962195","name":"アルプス第1ペア"},"geometry":{"coordinates":[[137.87588001670474,36.76340302333685],[137.8682048,36.761249]],"type":"LineString"}},{"type":"Feature","properties":{"@id":"way/454962197","name":"アルプス第3高速ペア"},"geometry":{"coordinates":[[137.87560541618893,36.764431722345456],[137.8657987,36.7676816]],"type":"LineString"}},{"type":"Feature","properties":{"@id":"way/454962198","name":"アルプス第4ペア"},"geometry":{"coordinates":[[137.8760449,36.7648224],[137.8695673,36.767837]],"type":"LineString"}},{"type":"Feature","properties":{"@id":"way/454962199","name":"アルプス第5高速ペア"},"geometry":{"coordinates":[[137.8769085,36.7655981],[137.8664332,36.7704666]],"type":"LineString"}},{"type":"Feature","properties":{"@id":"way/454962207","name":"アルプス第6高速ペア"},"geometry":{"coordinates":[[137.8769756,36.7656798],[137.8710063,36.7706957]],"type":"LineString"}},{"type":"Feature","properties":{"@id":"way/454962208","name":"アルプス第10ペア"},"geometry":{"coordinates":[[137.87278610909368,36.77423526170383],[137.8749264,36.7775912]],"type":"LineString"}},{"type":"Feature","properties":{"@id":"way/454962210","name":"アルプス第8ペア"},"geometry":{"coordinates":[[137.8835282,36.7688404],[137.8788078,36.7714785]],"type":"LineString"}},{"type":"Feature","properties":{"@id":"way/454962212","name":"アルプス第9ペア"},"geometry":{"coordinates":[[137.8791683,36.769254],[137.8735606,36.7732879]],"type":"LineString"}},{"type":"Feature","properties":{"@id":"way/454962227","name":"コルチナ第6ペア"},"geometry":{"coordinates":[[137.88501685310763,36.77044772710454],[137.8819421,36.7761732]],"type":"LineString"}},{"type":"Feature","properties":{"@id":"way/454962228","name":"コルチナ第5ペア"},"geometry":{"coordinates":[[137.87970025511282,36.78143054767039],[137.8797435,36.7865543]],"type":"LineString"}},{"type":"Feature","properties":{"@id":"way/454962229","name":"コルチナ第3クワッド"},"geometry":{"coordinates":[[137.88837949280602,36.777221481273024],[137.8871128,36.7840911]],"type":"LineString"}},{"type":"Feature","properties":{"@id":"way/454962230","name":"コルチナ第4ペア"},"geometry":{"coordinates":[[137.87703297937364,36.78206075147361],[137.87027352762695,36.783017789093854]],"type":"LineString"}},{"type":"Feature","properties":{"@id":"way/454962231","name":"コルチナ第2クワッド"},"geometry":{"coordinates":[[137.88741621340714,36.7764730908666],[137.87745270293877,36.78181709528221]],"type":"LineString"}},{"type":"Feature","properties":{"@id":"way/1162746902","name":"アルプス第11ペア"},"geometry":{"coordinates":[[137.8658595,36.7697895],[137.8574499,36.777239]],"type":"LineString"}}]}