{"type":"FeatureCollection","features":[{"type":"Feature","properties":{"@id":"way/31895855","name":"名木山第3トリプルA"},"geometry":{"coordinates":[[137.83862895586998,36.698290502345856],[137.8322581636627,36.69743919842282]],"type":"LineString"}},{"type":"Feature","properties":{"@id":"way/31895856","name":"八方尾根ゴンドラ「アダム」"},"geometry":{"coordinates":[[137.83700389630675,36.70183751443556],[137.81600017998483,36.69759457518192]],"type":"LineString"}},{"type":"Feature","properties":{"@id":"way/31895857","name":"アルペンクワッド"},"geometry":{"coordinates":[[137.81441484819607,36.697945084796075],[137.80637624553077,36.698315844380026]],"type":"LineString"}},{"type":"Feature","properties":{"@id":"way/237507764","name":"兎平ペア"},"geometry":{"coordinates":[[137.81455532880528,36.69816211692871],[137.80908233341484,36.698419412581366]],"type":"LineString"}},{"type":"Feature","properties":{"@id":"way/237507766","name":"黒菱第2クワッド"},"geometry":{"coordinates":[[137.81056741548372,36.70107878483316],[137.80932595190959,36.69895514971165]],"type":"LineString"}},{"type":"Feature","properties":{"@id":"way/237507767","name":"黒菱第3ペア"},"geometry":{"coordinates":[[137.80888306136046,36.70103578503641],[137.80559076915253,36.69919936813587]],"type":"LineString"}},{"type":"Feature","properties":{"@id":"way/309906541","name":"名木山第2ペア"},"geometry":{"coordinates":[[137.83873107213867,36.69928575865331],[137.83599953623803,36.699114448711754]],"type":"LineString"}},{"type":"Feature","properties":{"@id":"way/309906542","name":"八方リーゼンクワッド"},"geometry":{"coordinates":[[137.83254851699039,36.69617485288352],[137.8150003,36.6965832]],"type":"LineString"}},{"type":"Feature","properties":{"@id":"way/309906543","name":"国際第3ペアA"},"geometry":{"coordinates":[[137.82134338358455,36.70228166411655],[137.81660321370106,36.69791988756479]],"type":"LineString"}},{"type":"Feature","properties":{"@id":"way/309906544","name":"パノラマペア"},"geometry":{"coordinates":[[137.82014304891814,36.70272985955058],[137.815338154236,36.69802767632268]],"type":"LineString"}},{"type":"Feature","properties":{"@id":"way/309906545","name":"白樺第1ペア"},"geometry":{"coordinates":[[137.83629774606422,36.70276641764558],[137.83219192959123,36.701601587505394]],"type":"LineString"}},{"type":"Feature","properties":{"@id":"way/309906546","name":"白樺第2ペア"},"geometry":{"coordinates":[[137.83497777981717,36.70370753208026],[137.83204372968493,36.70246253328095]],"type":"LineString"}},{"type":"Feature","properties":{"@id":"way/309906548","name":"国際第1ペア"},"geometry":{"coordinates":[[137.83425636520167,36.70654680563748],[137.82158166946192,36.70205878432295]],"type":"LineString"}},{"type":"Feature","properties":{"@id":"way/309906549","name":"咲花第2ペア"},"geometry":{"coordinates":[[137.8329122,36.7086634],[137.82678012516467,36.70860141329588]],"type":"LineString"}},{"type":"Feature","properties":{"@id":"way/309906550","name":"咲花第3トリプル"},"geometry":{"coordinates":[[137.8312036,36.709917],[137.82733281154438,36.709768562098354]],"type":"LineString"}},{"type":"Feature","properties":{"@id":"way/309906551","name":"咲花北尾根クワッド"},"geometry":{"coordinates":[[137.831032,36.71054464178301],[137.8196167807023,36.71003100176844]],"type":"LineString"}},{"type":"Feature","properties":{"@id":"way/309906552","name":"北尾根第3ペア"},"geometry":{"coordinates":[[137.82203188175777,36.713261366142234],[137.81906703528688,36.710073707343646]],"type":"LineString"}},{"type":"Feature","properties":{"@id":"way/309906553","name":"スカイライン第2ペア"},"geometry":{"coordinates":[[137.81652187421648,36.70788695032227],[137.8105843969982,36.701496223854505]],"type":"LineString"}},{"type":"Feature","properties":{"@id":"way/697290292","name":"グラートクワッドリフト"},"geometry":{"coordinates":[[137.8053701,36.6974059],[137.7992746,36.6969699]],"type":"LineString"}},{"type":"Feature","properties":{"name":"名木山第3トリプルB"},"geometry":{"coordinates":[[137.83862932830363,36.698371762609085],[137.83224667815125,36.69752201903748]],"type":"LineString"}},{"type":"Feature","properties":{"name":"国際第3ペアB"},"geometry":{"coordinates":[[137.8212844432079,36.7023168222112],[137.81655383620836,36.69797218410871]],"type":"LineString"}}]}