{"type":"FeatureCollection","features":[{"type":"Feature","properties":{"@id":"way/452715373","name":"第3ペア"},"geometry":{"coordinates":[[136.90838370716463,36.00567283904249],[136.91131820716467,36.006259392777196]],"type":"LineString"}},{"type":"Feature","properties":{"@id":"way/452715374","name":"第1クワッド"},"geometry":{"coordinates":[[136.9087134192715,36.0051516],[136.9186565718059,36.006414653582674]],"type":"LineString"}},{"type":"Feature","properties":{"name":"第2ペア","@id":""},"geometry":{"coordinates":[[136.90840707055406,36.00562198268274],[136.91133440291367,36.006222855489995]],"type":"LineString"}}]}