{"type":"FeatureCollection","features":[{"type":"Feature","properties":{"@id":"way/303766870","name":"雲海ゴンドラ"},"geometry":{"coordinates":[[142.6232633,43.0650021],[142.5986329821106,43.07689397558804]],"type":"LineString"}},{"type":"Feature","properties":{"@id":"way/441157575","name":"タワーエキスプレス"},"geometry":{"coordinates":[[142.6308493454147,43.06410212650648],[142.6302921288547,43.07322491287391]],"type":"LineString"}},{"type":"Feature","properties":{"@id":"way/441161650","name":"ニポチェア"},"geometry":{"coordinates":[[142.6317176454148,43.06397902551726],[142.6327605160927,43.068708314361054]],"type":"LineString"}},{"type":"Feature","properties":{"@id":"way/441161653","name":"ロマンスチェア"},"geometry":{"coordinates":[[142.623456,43.0653188],[142.62791987969305,43.0698512]],"type":"LineString"}},{"type":"Feature","properties":{"@id":"way/441164003","name":"パウダーエキスプレス"},"geometry":{"coordinates":[[142.615771,43.071348],[142.597287,43.078214]],"type":"LineString"}},{"type":"Feature","properties":{"@id":"way/441164004","name":"トマムエキスプレス"},"geometry":{"coordinates":[[142.6220363,43.0651482],[142.6064382971667,43.06930375551854]],"type":"LineString"}}]}