{
  "type": "FeatureCollection",
  "features": [
    {
      "type": "Feature",
      "properties": {
        "@id": "way/253675282",
        "name": "霧氷チェア"
      },
      "geometry": {
        "coordinates": [
          [140.0432546, 37.6069333],
          [140.0432346, 37.6069766],
          [140.0430917, 37.6072851],
          [140.0428522, 37.6078023],
          [140.0425697, 37.6084124],
          [140.042238, 37.6091288],
          [140.0420104, 37.6096203],
          [140.04184, 37.6099883],
          [140.041662, 37.6103727],
          [140.041482, 37.6107615],
          [140.0412949, 37.6111654],
          [140.0411008, 37.6115846],
          [140.0408767, 37.6120687],
          [140.0407134, 37.6124212]
        ],
        "type": "LineString"
      }
    },
    {
      "type": "Feature",
      "properties": {
        "@id": "way/253521128",
        "name": "バトウチェア"
      },
      "geometry": {
        "coordinates": [
          [140.0252595, 37.5899279],
          [140.0260465, 37.5895028],
          [140.0273604, 37.5887931],
          [140.0280486, 37.5884214],
          [140.0283857, 37.5882393],
          [140.0292507, 37.5877721],
          [140.0301335, 37.5872953],
          [140.0311035, 37.5867714],
          [140.0315795, 37.5865142],
          [140.0319638, 37.5863067]
        ],
        "type": "LineString"
      }
    },
    {
      "type": "Feature",
      "properties": {
        "@id": "way/253521131",
        "name": "ファーストチェア"
      },
      "geometry": {
        "coordinates": [
          [140.0348266, 37.5929283],
          [140.0348169, 37.5926144],
          [140.0347984, 37.5920177],
          [140.0347787, 37.5913831],
          [140.0347623, 37.5908554],
          [140.0347423, 37.5902107],
          [140.0347198, 37.5894847],
          [140.0347091, 37.5891403],
          [140.034688, 37.5884598],
          [140.0346795, 37.588187],
          [140.0346717, 37.5879363],
          [140.0346512, 37.587274],
          [140.0346389, 37.5868764]
        ],
        "type": "LineString"
      }
    },
    {
      "type": "Feature",
      "properties": {
        "@id": "way/253521132",
        "name": "ホワイトバレーチェア"
      },
      "geometry": {
        "coordinates": [
          [140.0367618, 37.601302],
          [140.0367194, 37.6013275],
          [140.0364065, 37.6015153],
          [140.0355027, 37.6020578],
          [140.0351851, 37.6022485],
          [140.0345294, 37.602642],
          [140.0342215, 37.6028269],
          [140.0336323, 37.6031805],
          [140.0325132, 37.6038523],
          [140.0312761, 37.6045949],
          [140.0306097, 37.6049949],
          [140.0302945, 37.6051841]
        ],
        "type": "LineString"
      }
    },
    {
      "type": "Feature",
      "properties": {
        "@id": "way/253521130",
        "name": "アルツエクスプレス"
      },
      "geometry": {
        "coordinates": [
          [140.03399935454746, 37.5868346001532],
          [140.0337855, 37.5879914],
          [140.0336911, 37.5885],
          [140.0336209, 37.5888782],
          [140.0333542, 37.5903149],
          [140.0332477, 37.5908885],
          [140.0331795, 37.5912561],
          [140.0330014, 37.592216],
          [140.0329091, 37.592713],
          [140.0328777, 37.5928822],
          [140.0326968, 37.593857],
          [140.0326535, 37.5940903],
          [140.0325184, 37.5948179],
          [140.032373, 37.5956012],
          [140.0322442, 37.5962952],
          [140.032141, 37.596851],
          [140.0320701, 37.5972333],
          [140.0319369, 37.5979504],
          [140.0318376, 37.5984857],
          [140.0317638, 37.5988832],
          [140.031654, 37.5994749],
          [140.0314721, 37.6004545],
          [140.0313668, 37.601022],
          [140.03126, 37.6015973],
          [140.031143, 37.6022272],
          [140.0310774, 37.6025808],
          [140.0310102, 37.6029431],
          [140.030977, 37.6031219]
        ],
        "type": "LineString"
      }
    },
    {
      "type": "Feature",
      "properties": {
        "@id": "way/253521133",
        "name": "ブラックバレーエクスプレス"
      },
      "geometry": {
        "coordinates": [
          [140.0371143, 37.6032597],
          [140.0369539, 37.6036773],
          [140.0367515, 37.6042043],
          [140.0365099, 37.6048336],
          [140.0359267, 37.6063522],
          [140.0354343, 37.6076342],
          [140.0352321, 37.6081606],
          [140.0348072, 37.6092672],
          [140.0347706, 37.6093624]
        ],
        "type": "LineString"
      }
    },
    {
      "type": "Feature",
      "properties": {
        "@id": "way/253974768",
        "name": "フレンドリーキャットエクスプレス"
      },
      "geometry": {
        "coordinates": [
          [140.0375907784233, 37.6263488],
          [140.03510691566294, 37.61955974598597]
        ],
        "type": "LineString"
      }
    },
    {
      "type": "Feature",
      "properties": {
        "@id": "way/253974769",
        "name": "エキサイトキャットチェア"
      },
      "geometry": {
        "coordinates": [
          [140.0380134506849, 37.623437091157825],
          [140.03827615060464, 37.61757152287286]
        ],
        "type": "LineString"
      }
    },
    {
      "type": "Feature",
      "properties": {
        "@id": "way/253974770",
        "name": "フレンドリーキャットチェア"
      },
      "geometry": {
        "coordinates": [
          [140.03843556950972, 37.6265889331678],
          [140.03862506188304, 37.62336649895282]
        ],
        "type": "LineString"
      }
    },
    {
      "type": "Feature",
      "properties": {
        "@id": "way/253974784",
        "name": "ディープキャットチェア"
      },
      "geometry": {
        "coordinates": [
          [140.03380596999372, 37.620109299321506],
          [140.02776292379292, 37.61447602589288]
        ],
        "type": "LineString"
      }
    },
    {
      "type": "Feature",
      "properties": {
        "@id": "way/253974786",
        "name": "デビルキャットチェア"
      },
      "geometry": {
        "coordinates": [
          [140.03684691618562, 37.62702346124225],
          [140.0298620758102, 37.624669320331996]
        ],
        "type": "LineString"
      }
    },
    {
      "type": "Feature",
      "properties": {
        "@id": "way/253974787",
        "name": "フォレストキャットチェア"
      },
      "geometry": {
        "coordinates": [
          [140.0374338476502, 37.626521926449996],
          [140.03228454257243, 37.62227366658501]
        ],
        "type": "LineString"
      }
    },
    {
      "type": "Feature",
      "properties": {
        "@id": "way/967615742",
        "name": "ロックチェア"
      },
      "geometry": {
        "coordinates": [
          [140.0424003, 37.6062966],
          [140.0372966, 37.608023]
        ],
        "type": "LineString"
      }
    },
    {
      "type": "Feature",
      "properties": {
        "name": "ニャルツチェア"
      },
      "geometry": {
        "coordinates": [
          [140.03599827490285, 37.61028421369201],
          [140.0384974732379, 37.61736482003171]
        ],
        "type": "LineString"
      }
    }
  ]
}
