{"type":"FeatureCollection","features":[{"type":"Feature","properties":{"@id":"way/397896336","name":"アルペンブリック第1ペア"},"geometry":{"coordinates":[[138.1671898,36.8697269],[138.15549426890055,36.8732172939246]],"type":"LineString"}},{"type":"Feature","properties":{"@id":"way/397896400","name":"池の平クワッド"},"geometry":{"coordinates":[[138.1575354,36.8736389],[138.14082084237927,36.87789287146048]],"type":"LineString"}},{"type":"Feature","properties":{"@id":"way/397896563","name":"しらかばカプセルペア"},"geometry":{"coordinates":[[138.1719223,36.8725882],[138.153124,36.8757617]],"type":"LineString"}},{"type":"Feature","properties":{"@id":"way/397896603","name":"アルペンブリック第2ペア"},"geometry":{"coordinates":[[138.15491838531213,36.871621840705274],[138.14342093541717,36.87562971588102]],"type":"LineString"}},{"type":"Feature","properties":{"@id":"way/397904737","name":"カラマツペア"},"geometry":{"coordinates":[[138.171639,36.8720704],[138.1661733,36.8726493]],"type":"LineString"}}]}