{"type":"FeatureCollection","features":[{"type":"Feature","properties":{"@id":"way/505920493","name":"第3ペア"},"geometry":{"coordinates":[[140.3335364,40.6304181],[140.3262355,40.6369549]],"type":"LineString"}},{"type":"Feature","properties":{"@id":"way/505920494","name":"第1ペア"},"geometry":{"coordinates":[[140.33115949413988,40.628016550238655],[140.32552405895427,40.63656063309177]],"type":"LineString"}},{"type":"Feature","properties":{"@id":"way/505920496","name":"第2ペア"},"geometry":{"coordinates":[[140.3256956,40.6366742],[140.3198938,40.6414781]],"type":"LineString"}}]}