{"type":"FeatureCollection","features":[{"type":"Feature","properties":{"@id":"way/737877704","name":"高速ペア"},"geometry":{"coordinates":[[140.96284042865827,39.81621466167044],[140.9643477,39.8262124]],"type":"LineString"}},{"type":"Feature","properties":{"@id":"way/737877705","name":"第4ペア"},"geometry":{"coordinates":[[140.9616387,39.8256521],[140.9657586,39.8312095]],"type":"LineString"}},{"type":"Feature","properties":{"@id":"way/737877706","name":"第3ペア"},"geometry":{"coordinates":[[140.9691516,39.8181391],[140.9698784,39.8248281]],"type":"LineString"}},{"type":"Feature","properties":{"@id":"way/737877707","name":"第2ペア"},"geometry":{"coordinates":[[140.9660844,39.8145142],[140.9664667,39.8212643]],"type":"LineString"}},{"type":"Feature","properties":{"@id":"way/737877708","name":"第1ペア パラレルA"},"geometry":{"coordinates":[[140.96696562054063,39.81398189291315],[140.97017281193058,39.818921620445785]],"type":"LineString"}},{"type":"Feature","properties":{"@id":"way/737877710","name":"ゴンドラ"},"geometry":{"coordinates":[[140.9648842,39.8150962],[140.9668341,39.8315741]],"type":"LineString"}},{"type":"Feature","properties":{"@id":"","name":"第1ペア パラレルB"},"geometry":{"coordinates":[[140.96706184321465,39.81395467569382],[140.97024520647545,39.81889795297869]],"type":"LineString"}}]}