{"type":"FeatureCollection","features":[{"type":"Feature","properties":{"@id":"way/504561406","name":"パノラマ第3ロマンス"},"geometry":{"coordinates":[[138.7892786,37.0442858],[138.7923796,37.0363591]],"type":"LineString"}},{"type":"Feature","properties":{"@id":"way/504561407","name":"パノラマ第2ロマンス"},"geometry":{"coordinates":[[138.7894235,37.0447391],[138.7982946,37.0414457]],"type":"LineString"}},{"type":"Feature","properties":{"@id":"way/504561408","name":"パノラマクワッド"},"geometry":{"coordinates":[[138.8089497,37.0379],[138.7980491,37.0409538]],"type":"LineString"}},{"type":"Feature","properties":{"@id":"way/504561412","name":"美奈第1トリプル"},"geometry":{"coordinates":[[138.8137529,37.035495],[138.8096503156344,37.03825825075787]],"type":"LineString"}},{"type":"Feature","properties":{"@id":"way/504561413","name":"長峰クワッド"},"geometry":{"coordinates":[[138.8195156,37.0336758],[138.8097861,37.0385225]],"type":"LineString"}},{"type":"Feature","properties":{"@id":"way/504561415","name":"大別当トリプル"},"geometry":{"coordinates":[[138.8134124,37.0348911],[138.8064367,37.034452]],"type":"LineString"}},{"type":"Feature","properties":{"@id":"way/504561416","name":"大沢第1トリプル"},"geometry":{"coordinates":[[138.8064462,37.0250707],[138.8040858,37.0345608]],"type":"LineString"}},{"type":"Feature","properties":{"@id":"way/566123213","name":"ホテル前ロマンス"},"geometry":{"coordinates":[[138.82046133644437,37.0336695457034],[138.82126700105994,37.03315814648644]],"type":"LineString"}},{"type":"Feature","properties":{"@id":"way/566123214","name":"リーゼン第2ロマンスB線"},"geometry":{"coordinates":[[138.8275718,37.0300778],[138.8216403,37.0329168]],"type":"LineString"}},{"type":"Feature","properties":{"@id":"way/566123216","name":"リーゼン第2ロマンスA線"},"geometry":{"coordinates":[[138.8275402,37.0300321],[138.821592,37.0328631]],"type":"LineString"}},{"type":"Feature","properties":{"@id":"way/566123217","name":"長峰第2ロマンスB線"},"geometry":{"coordinates":[[138.8193841,37.0335625],[138.8152228,37.03563]],"type":"LineString"}},{"type":"Feature","properties":{"@id":"way/566123218","name":"長峰第2ロマンスA線"},"geometry":{"coordinates":[[138.8193516,37.0335096],[138.8151821,37.0355789]],"type":"LineString"}},{"type":"Feature","properties":{"@id":"way/566123220","name":"当間第4クワッド"},"geometry":{"coordinates":[[138.781885,37.0284516],[138.7715776,37.0176718]],"type":"LineString"}},{"type":"Feature","properties":{"@id":"way/566123221","name":"当間第3ロマンス"},"geometry":{"coordinates":[[138.7719203,37.0236723],[138.7727304,37.0281311]],"type":"LineString"}},{"type":"Feature","properties":{"@id":"way/566123222","name":"当間第2ロマンス"},"geometry":{"coordinates":[[138.7675774,37.0359466],[138.7722688,37.0284648]],"type":"LineString"}},{"type":"Feature","properties":{"@id":"way/566123224","name":"当間第6ロマンス"},"geometry":{"coordinates":[[138.7872177,37.0299482],[138.7917134,37.0316993]],"type":"LineString"}},{"type":"Feature","properties":{"@id":"way/566123225","name":"パノラマ第4ロマンス"},"geometry":{"coordinates":[[138.7931454,37.0361572],[138.7920159,37.032009]],"type":"LineString"}},{"type":"Feature","properties":{"@id":"way/566123228","name":"当間第5ロマンス"},"geometry":{"coordinates":[[138.7817759,37.0289702],[138.7866089,37.0297654]],"type":"LineString"}},{"type":"Feature","properties":{"@id":"way/566123230","name":"当間第1ロマンス"},"geometry":{"coordinates":[[138.7630948,37.04354],[138.7704553,37.0376752]],"type":"LineString"}}]}