{"type":"FeatureCollection","features":[{"type":"Feature","properties":{"@id":"way/92592820","name":"みつまた第3ロマンス","start_date":"1988-12-24"},"geometry":{"coordinates":[[138.75490823320024,36.888912402520006],[138.75859850059902,36.889234308153526]],"type":"LineString"}},{"type":"Feature","properties":{"@id":"way/92592823","name":"みつまた第2ロマンス"},"geometry":{"coordinates":[[138.7552209896018,36.888017350042716],[138.7599171,36.8880674]],"type":"LineString"}},{"type":"Feature","properties":{"@id":"way/92592826","name":"かぐらゴンドラ"},"geometry":{"coordinates":[[138.75429718960174,36.88859152400377],[138.7276991,36.8708651]],"type":"LineString"}},{"type":"Feature","properties":{"@id":"way/92592834","name":"かぐら第1高速リフト","start_date":"1992-11-28"},"geometry":{"coordinates":[[138.73087149194478,36.86921006323459],[138.72177458388964,36.86214292525106]],"type":"LineString"}},{"type":"Feature","properties":{"@id":"way/92592847","name":"みつまたロープウェー"},"geometry":{"coordinates":[[138.77512756238247,36.89312026495625],[138.76611354093103,36.894303574006194]],"type":"LineString"}},{"type":"Feature","properties":{"@id":"way/92592851","name":"みつまた第2高速","start_date":"1992-12-19"},"geometry":{"coordinates":[[138.7664532,36.8937088],[138.7634602,36.8872368]],"type":"LineString"}},{"type":"Feature","properties":{"@id":"way/92592855","name":"みつまた第1高速","start_date":"1987-12-05"},"geometry":{"coordinates":[[138.7652215,36.8961636],[138.761942,36.8872848]],"type":"LineString"}},{"type":"Feature","properties":{"@id":"way/203603477","name":"田代第1高速","start_date":"2000-12-16"},"geometry":{"coordinates":[[138.7394058,36.8525348],[138.72947138841013,36.843315130942194]],"type":"LineString"}},{"type":"Feature","properties":{"@id":"way/203603480","name":"田代第2高速","start_date":"2001-12-17"},"geometry":{"coordinates":[[138.7476619,36.8431617],[138.7377207,36.8424262]],"type":"LineString"}},{"type":"Feature","properties":{"@id":"way/203603481","name":"田代第6ロマンス","start_date":"1984-12-31"},"geometry":{"coordinates":[[138.73185,36.8525371],[138.7253123,36.8512880850465]],"type":"LineString"}},{"type":"Feature","properties":{"@id":"way/337518373","name":"かぐら第5ロマンス"},"geometry":{"coordinates":[[138.7181054617991,36.861776199568176],[138.7142898101135,36.85705100085122]],"type":"LineString"}},{"type":"Feature","properties":{"@id":"way/337580964","name":"かぐら第4ロマンス"},"geometry":{"coordinates":[[138.7314885694221,36.85997341308127],[138.72487674308525,36.86255226302325]],"type":"LineString"}},{"type":"Feature","properties":{"@id":"way/337583473","name":"田代第8ロマンス","start_date":"1987-12-19"},"geometry":{"coordinates":[[138.72577691502815,36.85495714432229],[138.72273458497196,36.85615085788393]],"type":"LineString"}},{"type":"Feature","properties":{"@id":"way/390007386","name":"田代ロープウェー","start_date":"1983-12-10"},"geometry":{"coordinates":[[138.775676,36.8464132],[138.7524462,36.8475952]],"type":"LineString"}},{"type":"Feature","properties":{"@id":"way/390181227","name":"ドラゴンドラ","start_date":"2001-12-21"},"geometry":{"coordinates":[[138.7806553,36.80252],[138.7485471,36.8426318]],"type":"LineString"}},{"type":"Feature","properties":{"@id":"way/504305350","name":"かぐら第1ロマンス"},"geometry":{"coordinates":[[138.72834311677963,36.869806218319255],[138.7258782937924,36.86588216994585]],"type":"LineString"}},{"type":"Feature","properties":{"@id":"way/504305380","name":"田代第2ロマンス","start_date":"1983-12-18"},"geometry":{"coordinates":[[138.7481221,36.8474004],[138.7379953,36.8427272]],"type":"LineString"}},{"type":"Feature","properties":{"@id":"way/504305383","name":"田代第1ロマンス","start_date":"1983-12-18"},"geometry":{"coordinates":[[138.74851673876347,36.84836318087554],[138.75231980646092,36.84806435352231]],"type":"LineString"}}]}