{"type":"FeatureCollection","features":[{"type":"Feature","properties":{"@id":"way/264453834","name":"キロロゴンドラ"},"geometry":{"coordinates":[[141.0266955,43.0566659],[141.0263403,43.056783],[141.0253886,43.05707],[141.0246153,43.0573032],[141.0236636,43.0575902],[141.0214904,43.0582456],[141.0197695,43.0587646],[141.0186215,43.0591108],[141.0144393,43.060372],[141.0131104,43.0607728],[141.0122293,43.0610385],[141.0106533,43.0615137],[141.0097119,43.0617976],[141.0074608,43.0624765],[141.0055089,43.0630651],[141.0054318,43.0630883],[141.0040608,43.0635017],[141.0035492,43.063656],[141.0034363,43.0636901],[141.0028375,43.0638706],[141.0013616,43.0643156],[141.0001052,43.0646945],[140.9985613,43.0651601],[140.9967847,43.0656958],[140.9957291,43.0660141],[140.9949064,43.0662622],[140.9944862,43.0663889],[140.9926096,43.0669953],[140.9910805,43.0674269],[140.9906969557125,43.067538745848545]],"type":"LineString"}},{"type":"Feature","properties":{"@id":"way/264453842","name":"センターエクスプレス"},"geometry":{"coordinates":[[141.0030628,43.0626789],[141.0026846,43.0628075],[141.0026091,43.0628332],[141.0015963,43.0631775],[141.0006704,43.0634922],[141.0000872,43.0636905],[140.9994952,43.0638917],[140.9986366,43.0641836],[140.997232,43.0646611],[140.9957899,43.0651513],[140.9951289,43.065376],[140.9944302,43.0656135],[140.9939599,43.0657734],[140.9938956,43.0657952],[140.9932559,43.0660127],[140.991731,43.066531],[140.991117,43.0667341]],"type":"LineString"}},{"type":"Feature","properties":{"@id":"way/264453844","name":"余市第１エクスプレス"},"geometry":{"coordinates":[[140.9900512,43.0665494],[140.990519,43.0661439],[140.9912421,43.0655171],[140.9923364,43.0645685],[140.9929081,43.0640729],[140.9937825,43.0633149],[140.994821,43.0624146],[140.9957092,43.0616446],[140.9963035,43.0611294],[140.9966312,43.0608453],[140.9969374,43.0605799],[140.9973386,43.0602321],[140.9977786,43.0598506],[140.9982362,43.0594539],[140.9987134,43.0590402],[140.9990743,43.0587273],[140.9996814,43.058201],[140.9999179,43.0579959],[141.0003376,43.0576321],[141.0005479,43.0574427],[141.0014436,43.0566359],[141.0018818,43.0562411],[141.0023802,43.0557922],[141.0028548,43.0553647],[141.0034594,43.0548201]],"type":"LineString"}},{"type":"Feature","properties":{"@id":"way/278755617","name":"朝里第２エクスプレス"},"geometry":{"coordinates":[[141.0157264,43.0529197],[141.0162407,43.0530751],[141.0172247,43.0533723],[141.0184274,43.0537357],[141.0184303,43.0537366],[141.019524,43.054067],[141.0207825,43.0544472],[141.021503,43.0546648],[141.0219847,43.0548104],[141.0226481,43.0550108],[141.0230873,43.0551435],[141.0235448,43.0552817],[141.0239225,43.0553958],[141.0245645,43.0555897],[141.0256427,43.0559155],[141.0258174,43.0559682],[141.0259669,43.0560134],[141.0262069,43.0560774]],"type":"LineString"}},{"type":"Feature","properties":{"@id":"way/278755619","name":"余市第２"},"geometry":{"coordinates":[[141.0043239,43.0545022],[141.0048089,43.053771],[141.0052129,43.0531515],[141.0056744,43.0524438],[141.0061332,43.0517404],[141.006392,43.0513384]],"type":"LineString"}},{"type":"Feature","properties":{"@id":"way/278755624","name":"朝里第１"},"geometry":{"coordinates":[[141.0077181,43.051948],[141.0082635,43.0522197],[141.0093143,43.0527385],[141.0103011,43.0532257],[141.0109864,43.053564],[141.0118377,43.0539842],[141.012079,43.0541034],[141.0126545,43.0543875],[141.0134245,43.0547676],[141.0140207,43.0550619]],"type":"LineString"}},{"type":"Feature","properties":{"@id":"way/327029525","name":"ファミリー"},"geometry":{"coordinates":[[140.9886899,43.0665963],[140.9889939,43.066152],[140.989229,43.0658084],[140.9895611,43.065323],[140.9899041,43.0648218]],"type":"LineString"}},{"type":"Feature","properties":{"@id":"way/1037700107","name":"ゲートウェイエクスプレス"},"geometry":{"coordinates":[[140.9843785,43.0745097],[140.9849136,43.0732284],[140.9855942,43.0718695],[140.9860738,43.0708598],[140.9862903,43.0704016],[140.986509,43.0699604],[140.9873794,43.0682475],[140.9877824,43.0674421],[140.9880905,43.066891]],"type":"LineString"}},{"type":"Feature","properties":{"@id":"","name":"長峰第1エクスプレス"},"geometry":{"coordinates":[[140.99087136959417,43.06779506742575],[141.00789348372314,43.0733286633469]],"type":"LineString"}},{"type":"Feature","properties":{"name":"長峰第2エクスプレス"},"geometry":{"coordinates":[[141.00769417062088,43.071378295754954],[141.01946247124778,43.07239070536781]],"type":"LineString"}}]}