{"type":"FeatureCollection","features":[{"type":"Feature","properties":{"@id":"way/1065572763","name":"West Express"},"geometry":{"coordinates":[[140.5385335460108,38.437894069356354],[140.54419865664786,38.430674035817276]],"type":"LineString"}},{"type":"Feature","properties":{"@id":"way/1065572764","name":"Jungle Pair"},"geometry":{"coordinates":[[140.53959389368384,38.43826737056024],[140.54166035819424,38.435145193976886]],"type":"LineString"}},{"type":"Feature","properties":{"@id":"way/1065572765","name":"East Express"},"geometry":{"coordinates":[[140.54187660673935,38.439819496041345],[140.5504913306298,38.43124356367712]],"type":"LineString"}}]}