{"type":"FeatureCollection","features":[{"type":"Feature","properties":{"@id":"way/473555208","name":"第2クワッド"},"geometry":{"coordinates":[[138.283438869143,36.850977852203165],[138.27999306847974,36.84642603425491]],"type":"LineString"}},{"type":"Feature","properties":{"@id":"way/993979149","name":"スーパークワッド"},"geometry":{"coordinates":[[138.28474485852124,36.85044952378044],[138.27874387044025,36.84349952808308]],"type":"LineString"}},{"type":"Feature","properties":{"@id":"way/993979151","name":"第1トリプルC線"},"geometry":{"coordinates":[[138.2850025222222,36.8515101630054],[138.28977905717238,36.85278936867298]],"type":"LineString"}},{"type":"Feature","properties":{"@id":"way/993979152","name":"第3ペア","midstation":[138.2776815114267,36.84423766301421,1166]},"geometry":{"coordinates":[[138.2792912,36.8460322],[138.27622479966445,36.842613283361025]],"type":"LineString"}},{"type":"Feature","properties":{"@id":"way/993979153","name":"第5トリプル"},"geometry":{"coordinates":[[138.2857674,36.8500401],[138.2838433,36.84563363322331]],"type":"LineString"}},{"type":"Feature","properties":{"@id":"way/993979190","name":"第13"},"geometry":{"coordinates":[[138.2748846,36.8462183],[138.2752976487778,36.84142034276613]],"type":"LineString"}},{"type":"Feature","properties":{"@id":"way/993979191","name":"第11トリプルB線"},"geometry":{"coordinates":[[138.2787044,36.8535068],[138.275326910242,36.85021119660391]],"type":"LineString"}},{"type":"Feature","properties":{"@id":"way/993979192","name":"第12ペア"},"geometry":{"coordinates":[[138.2753147,36.8497965],[138.27383017138052,36.84610929364031]],"type":"LineString"}},{"type":"Feature","properties":{"@id":"way/993979193","name":"第15トリプル"},"geometry":{"coordinates":[[138.27504891057154,36.84977794263484],[138.27071354606275,36.84768437726877]],"type":"LineString"}},{"type":"Feature","properties":{"name":"第1ペアB線"},"geometry":{"coordinates":[[138.2851607027551,36.85144637855959],[138.2898074043609,36.852675041587034]],"type":"LineString"}}]}