{"type":"FeatureCollection","features":[{"type":"Feature","properties":{"@id":"way/503232566","name":"第1ペア"},"geometry":{"coordinates":[[139.3304506,36.8158213],[139.3310481,36.8157503],[139.3317024,36.8156726],[139.3338909,36.8154125],[139.334623,36.8153255],[139.3360825,36.8151521],[139.3364285,36.815111],[139.336951,36.8150489],[139.3375487,36.8149779],[139.3382209,36.814898]],"type":"LineString"}},{"type":"Feature","properties":{"@id":"way/357211516","name":"日光白根山ロープウェイ"},"geometry":{"coordinates":[[139.3298759,36.8143153],[139.3301443,36.8142352],[139.3320008,36.81368],[139.3334793,36.8132379],[139.3347879,36.8128465],[139.3351089,36.8127505],[139.3364624,36.8123458],[139.3375712,36.8120142],[139.3376293,36.8119968],[139.338959,36.8115992],[139.339724,36.8113704],[139.3409122,36.811015],[139.3416179,36.810804],[139.3427981,36.810451],[139.3428792,36.8104268],[139.3438947,36.8101231],[139.3443608,36.8099837],[139.3444111,36.8099686],[139.3444887,36.8099454],[139.3454459,36.8096592],[139.3454976,36.8096437],[139.3462493,36.8094189],[139.3462964,36.8094048],[139.346348,36.8093894],[139.3479476,36.808911],[139.3496148,36.8084124],[139.3508361,36.8080471],[139.3512297,36.8079294],[139.3529384,36.8074184],[139.3544946,36.8069772],[139.3548339,36.8068813],[139.3551001,36.8068]],"type":"LineString"}},{"type":"Feature","properties":{"@id":"way/503232564","name":"第8ペア"},"geometry":{"coordinates":[[139.344525148779,36.813710142128144],[139.34671545207195,36.81159428981343]],"type":"LineString"}},{"type":"Feature","properties":{"@id":"way/503232565","name":"第2ペア"},"geometry":{"coordinates":[[139.3376791,36.8140863],[139.3379138,36.814024],[139.3383355,36.813912],[139.3389265,36.8137551],[139.3393199,36.8136507],[139.3409607,36.8132151],[139.341664,36.8130283],[139.3419917,36.8129413],[139.3423904,36.8128355],[139.343166,36.8126295],[139.3439877,36.8124114]],"type":"LineString"}},{"type":"Feature","properties":{"@id":"way/503232567","name":"第5スーパーツイン"},"geometry":{"coordinates":[[139.3355709,36.8139102],[139.336269,36.8137016],[139.3369671,36.8134929],[139.3376909,36.8132766],[139.3382073,36.8131223],[139.3385981,36.8130055],[139.3392578,36.8128083],[139.3398197,36.8126404],[139.3401724,36.812535],[139.3410259,36.8122799],[139.3412943,36.8121997],[139.341889,36.8120219],[139.3422476,36.8119147],[139.3431294,36.8116512]],"type":"LineString"}},{"type":"Feature","properties":{"@id":"way/503232568","name":"第3ペア"},"geometry":{"coordinates":[[139.3444759,36.8129869],[139.3445677,36.8126198],[139.3446519,36.812283],[139.3447505,36.8118887],[139.3448984,36.8112972],[139.3450303,36.8107695],[139.345216,36.8100269],[139.3453106,36.8096482],[139.3454878,36.8089395],[139.3456238,36.8083956]],"type":"LineString"}},{"type":"Feature","properties":{"@id":"way/503232569","name":"中央ペア"},"geometry":{"coordinates":[[139.3309951,36.8148679],[139.3316494,36.8147861],[139.3321114,36.8147284],[139.3325716,36.8146708],[139.333003,36.8146169],[139.3334232,36.8145644],[139.333857,36.8145101],[139.334266,36.814459],[139.3347319,36.8144008],[139.3352035,36.8143418]],"type":"LineString"}},{"type":"Feature","properties":{"@id":"way/503232570","name":"第4スーパーツイン"},"geometry":{"coordinates":[[139.3312338,36.8127335],[139.3321002,36.8127375],[139.3325379,36.8127395],[139.3341363,36.8127468],[139.3359574,36.8127552],[139.3363213,36.8127568],[139.3368718,36.8127593],[139.3375295,36.8127624],[139.3377784,36.8127635]],"type":"LineString"}}]}