{"type":"FeatureCollection","features":[{"type":"Feature","properties":{"@id":"way/327025713","name":"ダンサーズ4"},"geometry":{"coordinates":[[141.97729052409724,43.04997976487287],[141.98282611580817,43.04468286195993]],"type":"LineString"}},{"type":"Feature","properties":{"@id":"way/327025717","name":"ビギナーズ4"},"geometry":{"coordinates":[[141.97042756846517,43.05149575280861],[141.9770251117505,43.04968184368843]],"type":"LineString"}},{"type":"Feature","properties":{"@id":"way/327026441","name":"シャトル6"},"geometry":{"coordinates":[[141.96965628273546,43.05081261373482],[141.9895124646776,43.04530998560996]],"type":"LineString"}},{"type":"Feature","properties":{"name":"スウィンガーズ2"},"geometry":{"coordinates":[[141.96969806949863,43.050542363592996],[141.97790939815565,43.045032338542796]],"type":"LineString"}}]}