{"type":"FeatureCollection","features":[{"type":"Feature","properties":{"@id":"way/513101461","name":"第1ペア"},"geometry":{"coordinates":[[142.5147874,44.4026702],[142.5127203,44.4084679]],"type":"LineString"}},{"type":"Feature","properties":{"@id":"way/513101462","name":"第2ペア"},"geometry":{"coordinates":[[142.5122607,44.4084247],[142.51092575513286,44.41175801247254]],"type":"LineString"}},{"type":"Feature","properties":{"@id":"way/513101463","name":"第3ペア"},"geometry":{"coordinates":[[142.5099292,44.4101067],[142.5085576,44.4153481]],"type":"LineString"},"id":2}]}