{"type":"FeatureCollection","features":[{"type":"Feature","properties":{"@id":"way/453532978","name":"スカイラビット"},"geometry":{"coordinates":[[137.72642835160323,36.04934800650525],[137.73734755553608,36.04714286065511]],"type":"LineString"}},{"type":"Feature","properties":{"@id":"way/453532979","name":"第1ペア"},"geometry":{"coordinates":[[137.70928433970008,36.04837578847811],[137.7160520411181,36.0484437202385]],"type":"LineString"}},{"type":"Feature","properties":{"@id":"way/453532980","name":"第5ペア"},"geometry":{"coordinates":[[137.70810217664223,36.049092264229664],[137.7113058183739,36.0495255311338]],"type":"LineString"}},{"type":"Feature","properties":{"@id":"way/453532981","name":"スカイライナー"},"geometry":{"coordinates":[[137.7093219444791,36.04844011040713],[137.72597124571732,36.048627224281724]],"type":"LineString"}}]}