{"type":"FeatureCollection","features":[{"type":"Feature","properties":{"@id":"way/92537242","name":"第2ペア"},"geometry":{"coordinates":[[138.941651146152,36.74297881912139],[138.93840111476473,36.74155120357032]],"type":"LineString"}},{"type":"Feature","properties":{"@id":"way/92537244","name":"第3クワッド"},"geometry":{"coordinates":[[138.9418285,36.7424228],[138.93377244013635,36.7380425456429]],"type":"LineString"}},{"type":"Feature","properties":{"@id":"way/92537246","name":"第4ペア","midstation":[138.92883757328212,36.741979125442754]},"geometry":{"coordinates":[[138.9331365148029,36.74022949241444],[138.92621508728084,36.74304668079664]],"type":"LineString"}},{"type":"Feature","properties":{"@id":"way/92537248","name":"第1クワッド"},"geometry":{"coordinates":[[138.94153535348389,36.74374606575104],[138.9259827394376,36.74328868159965]],"type":"LineString"}}]}