{
  "type": "FeatureCollection",
  "features": [
    {
      "type": "Feature",
      "properties": { "@id": "way/91657924", "name": "やまびこ第2フォー" },
      "geometry": {
        "coordinates": [
          [138.4826263, 36.9056903],
          [138.48598884204367, 36.90003605535293]
        ],
        "type": "LineString"
      }
    },
    {
      "type": "Feature",
      "properties": { "@id": "way/91657925", "name": "やまびこフォー" },
      "geometry": {
        "coordinates": [
          [138.4940793, 36.9051069],
          [138.4935946, 36.9046708],
          [138.4931878, 36.9043048],
          [138.4925301, 36.9037131],
          [138.4921141, 36.9033388],
          [138.4915656, 36.9028453],
          [138.4912038, 36.9025199],
          [138.4907637, 36.9021239],
          [138.4902621, 36.9016726],
          [138.4898915, 36.9013391],
          [138.4893578, 36.900859],
          [138.4888259, 36.9003804],
          [138.4881002, 36.8997274],
          [138.4873, 36.8990075],
          [138.4861648, 36.8979861]
        ],
        "type": "LineString"
      }
    },
    {
      "type": "Feature",
      "properties": { "@id": "way/91657926", "name": "スカイライン連絡ペア" },
      "geometry": {
        "coordinates": [
          [138.4811457, 36.9065955],
          [138.4806675, 36.9062084],
          [138.4799339, 36.9056148],
          [138.4797157, 36.9054382],
          [138.4795927, 36.9053386]
        ],
        "type": "LineString"
      }
    },
    {
      "type": "Feature",
      "properties": { "@id": "way/91658171", "name": "上ノ平フォー" },
      "geometry": {
        "coordinates": [
          [138.47809049843843, 36.922238801551806],
          [138.4823575671114, 36.907038773066716]
        ],
        "type": "LineString"
      }
    },
    {
      "type": "Feature",
      "properties": { "@id": "way/91658172", "name": "長坂ゴンドラ連絡ペア" },
      "geometry": {
        "coordinates": [
          [138.4435894, 36.915339],
          [138.4438529, 36.9153749],
          [138.4443394, 36.9154411],
          [138.4449958, 36.9155305],
          [138.4454748, 36.9155958],
          [138.4463819, 36.9157193],
          [138.4467795, 36.9157734],
          [138.4479829, 36.9159373]
        ],
        "type": "LineString"
      }
    },
    {
      "type": "Feature",
      "properties": { "@id": "way/309721885", "name": "日陰ゴンドラ" },
      "geometry": {
        "coordinates": [
          [138.4533811, 36.9258445],
          [138.4547337, 36.9255679],
          [138.4550791, 36.9254973],
          [138.4566897, 36.9251733],
          [138.4581832, 36.9248729],
          [138.4589811, 36.9247115],
          [138.4595278, 36.9246152],
          [138.4608961, 36.9243416],
          [138.4625714, 36.9239966],
          [138.4647199, 36.9235646],
          [138.4655944, 36.923433],
          [138.4667578, 36.9232405],
          [138.4676133, 36.9231024],
          [138.4682906, 36.9229908],
          [138.4688199, 36.9229001],
          [138.4694348, 36.9227859],
          [138.4706998, 36.9225404],
          [138.4725544, 36.9221698],
          [138.4737173, 36.9219643],
          [138.4750931, 36.9217018],
          [138.4762713, 36.9214956],
          [138.4767699, 36.921423]
        ],
        "type": "LineString"
      }
    },
    {
      "type": "Feature",
      "properties": { "@id": "way/309721886", "name": "日陰フォー" },
      "geometry": {
        "coordinates": [
          [138.4541965, 36.9251969],
          [138.454783, 36.9251048],
          [138.455387, 36.92501],
          [138.4560668, 36.9249034],
          [138.4568414, 36.9247818],
          [138.4575778, 36.9246662],
          [138.4583031, 36.9245524],
          [138.4592147, 36.9244093],
          [138.4595851, 36.9243512],
          [138.4598802, 36.9243011]
        ],
        "type": "LineString"
      }
    },
    {
      "type": "Feature",
      "properties": { "@id": "way/309721887", "name": "日陰トリプル" },
      "geometry": {
        "coordinates": [
          [138.4536896, 36.9244196],
          [138.4538146, 36.9238295],
          [138.4538905, 36.923471],
          [138.453959, 36.9231476],
          [138.4540275, 36.9228243]
        ],
        "type": "LineString"
      }
    },
    {
      "type": "Feature",
      "properties": { "@id": "way/309721888", "name": "パラダイスフォー" },
      "geometry": {
        "coordinates": [
          [138.4679267, 36.9254397],
          [138.4689266, 36.9250353],
          [138.4694224, 36.9248347],
          [138.4700968, 36.9245619],
          [138.4707986, 36.9242781],
          [138.4712067, 36.924113],
          [138.4716925, 36.9239165],
          [138.4726901, 36.923513],
          [138.4745332, 36.9227675],
          [138.4751451, 36.92252],
          [138.4761436, 36.922116],
          [138.477007, 36.92178]
        ],
        "type": "LineString"
      }
    },
    {
      "type": "Feature",
      "properties": { "@id": "way/309721889", "name": "カンダハーペア" },
      "geometry": {
        "coordinates": [
          [138.4560351, 36.9280229],
          [138.4560404, 36.9284488],
          [138.4560463, 36.9289287],
          [138.4560558, 36.9296933],
          [138.4560621, 36.9302087],
          [138.4560722, 36.9310236],
          [138.456084, 36.9319738],
          [138.4560932, 36.932721],
          [138.4560998, 36.9332492],
          [138.4561133, 36.9343418],
          [138.4561223, 36.9350745],
          [138.4561263, 36.9353941]
        ],
        "type": "LineString"
      }
    },
    {
      "type": "Feature",
      "properties": { "@id": "way/309721890", "name": "ユートピアペア" },
      "geometry": {
        "coordinates": [
          [138.4557883, 36.9270324],
          [138.456186, 36.9272365],
          [138.4567494, 36.9275256],
          [138.4568468, 36.9275755],
          [138.4570992, 36.927705],
          [138.4575206, 36.9279213],
          [138.4580194, 36.9281772],
          [138.4594656, 36.9289192]
        ],
        "type": "LineString"
      }
    },
    {
      "type": "Feature",
      "properties": { "@id": "way/309721891", "name": "チャレンジペア" },
      "geometry": {
        "coordinates": [
          [138.4606619, 36.9287412],
          [138.4611077, 36.9286078],
          [138.4620277, 36.9283323],
          [138.4626442, 36.9281478],
          [138.4634618, 36.927903],
          [138.464079, 36.9277183],
          [138.4646782, 36.9275389],
          [138.4658261, 36.9271953],
          [138.4663976, 36.9270241],
          [138.4672421, 36.9267713],
          [138.4676514, 36.9266488],
          [138.4679682, 36.926554],
          [138.4687485, 36.9263204],
          [138.4691653, 36.9261956],
          [138.4696442, 36.9260522],
          [138.4703323, 36.9258462],
          [138.4709943, 36.9256481],
          [138.4714431, 36.9255137],
          [138.472665, 36.9251479]
        ],
        "type": "LineString"
      }
    },
    {
      "type": "Feature",
      "properties": { "@id": "way/309721894", "name": "長坂トリプル" },
      "geometry": {
        "coordinates": [
          [138.4525104, 36.9207622],
          [138.4528836, 36.9210647],
          [138.4532095, 36.9213473],
          [138.4537523, 36.9218343],
          [138.4543226, 36.9223715]
        ],
        "type": "LineString"
      }
    },
    {
      "type": "Feature",
      "properties": { "@id": "way/309721895", "name": "長坂フォー" },
      "geometry": {
        "coordinates": [
          [138.4521861, 36.9197059],
          [138.4525797, 36.9195353],
          [138.4530947, 36.9193121],
          [138.4536206, 36.9190841],
          [138.453926, 36.9189518],
          [138.4542061, 36.9188304],
          [138.4549322, 36.9185156],
          [138.455334, 36.9183415],
          [138.455864, 36.9181118],
          [138.4564922, 36.9178395],
          [138.4571999, 36.9175328],
          [138.4575737, 36.9173707],
          [138.4580141, 36.9171799],
          [138.4584544, 36.916989]
        ],
        "type": "LineString"
      }
    },
    {
      "type": "Feature",
      "properties": { "@id": "way/895339572", "name": "長坂ゴンドラ" },
      "geometry": {
        "coordinates": [
          [138.4520284, 36.92014],
          [138.48156506794192, 36.906687743388005]
        ],
        "type": "LineString"
      }
    }
  ]
}
