{"type":"FeatureCollection","features":[{"type":"Feature","properties":{"@id":"way/233173945","name":"山頂ペアリフト"},"geometry":{"coordinates":[[139.2282101,37.1575845],[139.2284453,37.1573266],[139.2288081,37.1569399],[139.2289561,37.1567755],[139.2291539,37.1565566],[139.2295623,37.1561256],[139.2299778,37.1556709],[139.2303251,37.1552954]],"type":"LineString"}},{"type":"Feature","properties":{"@id":"way/627205981","name":"第2ペアA線"},"geometry":{"coordinates":[[139.2376153,37.1608841],[139.236504,37.1604343],[139.2361353,37.1602851],[139.2353737,37.1599769],[139.2343943,37.1595805],[139.2339579,37.1594039],[139.2330967,37.1590553],[139.2325106,37.1588181],[139.2317309,37.1585026],[139.2312563,37.1583105],[139.2302473,37.1579021]],"type":"LineString"}},{"type":"Feature","properties":{"@id":"way/627205982","name":"第2ペアB線"},"geometry":{"coordinates":[[139.2375684,37.1609279],[139.2364786,37.1604868],[139.2361363,37.1603483],[139.2351118,37.1599337],[139.2343868,37.1596403],[139.2339439,37.159461],[139.2330728,37.1591085],[139.2324981,37.1588759],[139.2317127,37.158558],[139.2310275,37.1582807],[139.2302003,37.1579459]],"type":"LineString"}},{"type":"Feature","properties":{"@id":"way/627205983","name":"第1ペアA線"},"geometry":{"coordinates":[[139.2468917,37.1617936],[139.2462432,37.1617221],[139.2454929,37.1616394],[139.2448614,37.1615697],[139.2442998,37.1615078],[139.2437499,37.1614472],[139.2428134,37.1613439],[139.2419475,37.1612484],[139.2413008,37.1611771],[139.2402806,37.1610646],[139.2394416,37.1609721],[139.2387276,37.1608933],[139.2380136,37.1608146]],"type":"LineString"}},{"type":"Feature","properties":{"@id":"way/627205984","name":"第1ペアB線"},"geometry":{"coordinates":[[139.2468837,37.1618428],[139.2462254,37.1617702],[139.2454669,37.1616866],[139.2442921,37.161557],[139.2437643,37.1614988],[139.2428085,37.1613934],[139.2419286,37.1612964],[139.241274,37.1612242],[139.2402648,37.1611129],[139.2394299,37.1610209],[139.2386896,37.1609392],[139.2380056,37.1608638]],"type":"LineString"}}]}