{"type":"FeatureCollection","features":[{"type":"Feature","properties":{"@id":"way/451793195","name":"立山第3トリプル"},"geometry":{"coordinates":[[132.1428765,34.5990161],[132.13877270710677,34.59931313607212]],"type":"LineString"}},{"type":"Feature","properties":{"@id":"way/451793198","name":"立山第2ペア"},"geometry":{"coordinates":[[132.14083971442489,34.597879497676004],[132.1368037034704,34.59841239184511]],"type":"LineString"}},{"type":"Feature","properties":{"@id":"way/451793199","name":"ブナ坂第3ペア"},"geometry":{"coordinates":[[132.1394259,34.595101],[132.13156709694775,34.5954244]],"type":"LineString"}},{"type":"Feature","properties":{"@id":"way/451793200","name":"ヒエ畑第1ペア"},"geometry":{"coordinates":[[132.14494107631398,34.59492704899511],[132.13953259672797,34.59537356536336]],"type":"LineString"}},{"type":"Feature","properties":{"@id":"way/451793201","name":"立山第1A線ペア"},"geometry":{"coordinates":[[132.1463017,34.5958368],[132.14028037130274,34.598559723778415]],"type":"LineString"}},{"type":"Feature","properties":{"@id":"way/451793202","name":"ブナ坂第1ペア"},"geometry":{"coordinates":[[132.14490674978538,34.59482421430761],[132.13941567631224,34.59528251633869]],"type":"LineString"}},{"type":"Feature","properties":{"@id":"way/451793203","name":"立山第1B線ペア"},"geometry":{"coordinates":[[132.1463527,34.5958909],[132.1403445,34.5986088]],"type":"LineString"}},{"type":"Feature","properties":{"@id":"way/451793207","name":"かやばたAペア"},"geometry":{"coordinates":[[132.1419016,34.6013691],[132.13411783555796,34.5994881]],"type":"LineString"}}]}