{"type":"FeatureCollection","features":[{"type":"Feature","properties":{"@id":"way/92183472","name":"嬬恋ゴンドラ"},"geometry":{"coordinates":[[138.46391008759625,36.55708123289476],[138.42968979281022,36.5628902]],"type":"LineString"}},{"type":"Feature","properties":{"@id":"way/92183473","name":"第1高速"},"geometry":{"coordinates":[[138.4640126,36.557619],[138.4506228,36.5604942]],"type":"LineString"}},{"type":"Feature","properties":{"@id":"way/92183474","name":"第2高速"},"geometry":{"coordinates":[[138.43670598713982,36.56151013270161],[138.42758390796905,36.560379893384685]],"type":"LineString"}},{"type":"Feature","properties":{"@id":"way/92183476","name":"第3ペア"},"geometry":{"coordinates":[[138.4579394,36.556698],[138.4430984,36.5587056]],"type":"LineString"}}]}