{"type":"FeatureCollection","features":[{"type":"Feature","properties":{"@id":"way/434262274","name":"第1"},"geometry":{"coordinates":[[138.56449303250034,36.99603216714887],[138.55914349156052,37.001934762150384]],"type":"LineString"}},{"type":"Feature","properties":{"@id":"way/434262275","name":"第3"},"geometry":{"coordinates":[[138.56397940601803,36.995349985561596],[138.5601098754947,36.9973530555266]],"type":"LineString"}},{"type":"Feature","properties":{"@id":"way/434262276","name":"第2"},"geometry":{"coordinates":[[138.55812516968052,37.000938340741214],[138.55481191953604,37.004689274079624]],"type":"LineString"}}]}