{"type":"FeatureCollection","features":[{"type":"Feature","properties":{"@id":"way/342421951","name":"白樺第2"},"geometry":{"coordinates":[[141.2089564,43.0964415],[141.2087792,43.0963851],[141.2083433,43.0962464],[141.2080287,43.0961463],[141.2077468,43.0960566],[141.2071849,43.0958777],[141.2066393,43.0957041],[141.2061833,43.095559]],"type":"LineString"}},{"type":"Feature","properties":{"@id":"way/342422238","name":"白樺第1リフトB線"},"geometry":{"coordinates":[[141.2098302,43.0958294],[141.2095626,43.0954706],[141.2091974,43.094981],[141.2088018,43.0944507],[141.2087199,43.094341],[141.2085384,43.0940976],[141.208111,43.0935246],[141.2077027,43.0929773],[141.2073925,43.0925613],[141.2070352,43.0920823]],"type":"LineString"}},{"type":"Feature","properties":{"@id":"way/331943619","name":"パノラマ1号"},"geometry":{"coordinates":[[141.2078404,43.0699071],[141.2072178,43.0701368],[141.2065588,43.0703799],[141.2059103,43.0706191],[141.2051589,43.0708963],[141.204484,43.0711453],[141.2037685,43.0714092],[141.2027675,43.0717784],[141.2017755,43.0721444],[141.2013989,43.0722833],[141.2003131,43.0726838],[141.1991769,43.073103],[141.1982407,43.0734483],[141.1978407,43.0735958],[141.1969833,43.0739121]],"type":"LineString"}},{"type":"Feature","properties":{"@id":"way/331945091","name":"サミットエクスプレス"},"geometry":{"coordinates":[[141.2042436,43.0840509],[141.2039068,43.0836554],[141.203303,43.0829462],[141.2026947,43.0822318],[141.202168,43.0816132],[141.2011893,43.0804638],[141.2004936,43.0796467],[141.199543,43.0785302],[141.1991404,43.0780574],[141.1988871,43.0777599],[141.1984338,43.0772275],[141.1979613,43.0766724],[141.1976086,43.0762582],[141.1970763,43.0756329],[141.1970412,43.0755917],[141.1968381,43.0753532]],"type":"LineString"}},{"type":"Feature","properties":{"@id":"way/331945092","name":"パノラマ2号"},"geometry":{"coordinates":[[141.208683,43.0772672],[141.2077779,43.0770604],[141.2069535,43.076872],[141.2063484,43.0767338],[141.2057944,43.0766072],[141.2052339,43.0764791],[141.2043469,43.0762765],[141.2036839,43.076125],[141.2032894,43.0760349],[141.2014571,43.0756162],[141.2004857,43.0753943],[141.1997902,43.0752354],[141.1991836,43.0750968],[141.1985943,43.0749621],[141.1981776,43.0748669],[141.1973189,43.0746707]],"type":"LineString"}},{"type":"Feature","properties":{"@id":"way/342421879","name":"白樺第3"},"geometry":{"coordinates":[[141.2093344,43.0964128],[141.2090012,43.0968313],[141.2086888,43.0972235],[141.2079794,43.0981145],[141.2077354,43.0984208],[141.20751686438743,43.0986920613757]],"type":"LineString"}},{"type":"Feature","properties":{"@id":"way/342422045","name":"エイトゴンドラ"},"geometry":{"coordinates":[[141.2110749,43.0950865],[141.2104136,43.0941782],[141.2092794,43.0926204],[141.2086882,43.0918083],[141.2076613,43.0903977],[141.2062698,43.0884864],[141.2051446,43.0869408],[141.2039956,43.0853624],[141.2034471,43.0846089],[141.2027845,43.0836987]],"type":"LineString"}},{"type":"Feature","properties":{"@id":"way/342422195","name":"聖火台第1"},"geometry":{"coordinates":[[141.2073242,43.1034701],[141.2073081,43.103022],[141.2072818,43.1022878],[141.2072676,43.1018934],[141.2072522,43.1014612],[141.207216,43.1004528],[141.2072044,43.1001275],[141.2071913,43.0997635],[141.2071859,43.0996137],[141.2071666,43.0990742]],"type":"LineString"}},{"type":"Feature","properties":{"@id":"way/342422237","name":"白樺第1リフトA線"},"geometry":{"coordinates":[[141.2097509,43.0958642],[141.2094871,43.0955088],[141.2091211,43.0950156],[141.2087302,43.094489],[141.2086392,43.0943664],[141.2084536,43.0941163],[141.2080357,43.0935532],[141.2076377,43.093017],[141.2073265,43.0925977],[141.2069611,43.0921053]],"type":"LineString"}},{"type":"Feature","properties":{"@id":"way/506729406","name":"パラダイス"},"geometry":{"coordinates":[[141.2068382,43.0846025],[141.2065645,43.0842052],[141.2062907,43.083808],[141.206013,43.083405],[141.2055933,43.0827959],[141.2048665,43.0817411],[141.204573,43.0813151],[141.2042552,43.0808539]],"type":"LineString"}}]}