{"type":"FeatureCollection","features":[{"type":"Feature","properties":{"@id":"way/264880746","name":"イーストペア"},"geometry":{"coordinates":[[141.2818564,43.0301164],[141.28114523658982,43.02633940204258]],"type":"LineString"}},{"type":"Feature","properties":{"@id":"way/264880748","name":"ウエストペア"},"geometry":{"coordinates":[[141.27598892070063,43.03190938666238],[141.27251199011144,43.02581737192498]],"type":"LineString"}},{"type":"Feature","properties":{"@id":"way/264880749","name":"オレンジペア"},"geometry":{"coordinates":[[141.2773490844527,43.03019455418103],[141.2766575,43.0242836]],"type":"LineString"}},{"type":"Feature","properties":{"@id":"way/264880751","name":"センタートリプル"},"geometry":{"coordinates":[[141.2785264,43.030446],[141.27803796169766,43.02704259603001]],"type":"LineString"}}]}