{"type":"FeatureCollection","features":[{"type":"Feature","properties":{"@id":"way/279650750","name":"メルヘンクワッド"},"geometry":{"coordinates":[[141.0815714,43.0726761],[141.0812891,43.0727824],[141.0810067,43.0728887],[141.0805414,43.0730638],[141.0801389,43.0732154],[141.0796105,43.0734143],[141.0791284,43.0735958],[141.0784333,43.0738574],[141.0774517,43.0742269],[141.0758337,43.074836],[141.0751434,43.0750958],[141.0748379,43.0752108],[141.074588,43.0753049],[141.0741807,43.0754582],[141.073235,43.0758142],[141.0722754,43.0761754],[141.0720293,43.076268],[141.0716837,43.0763981],[141.0713187,43.0765356],[141.0709391,43.0766784],[141.0703355,43.0769056],[141.0697901,43.0771109],[141.0692674,43.0773077],[141.0687839,43.0774897],[141.0683441,43.0776552],[141.067832,43.077848]],"type":"LineString"}},{"type":"Feature","properties":{"@id":"way/279650752","name":"スカイキャビン８"},"geometry":{"coordinates":[[141.0822223,43.0715958],[141.0815903,43.0715218],[141.0795343,43.0712811],[141.0786996,43.0711833],[141.0769148,43.0709744],[141.0755934,43.0708197],[141.0754305,43.0708006],[141.0734704,43.0705711],[141.0712079,43.0703062],[141.069959,43.07016],[141.0682941,43.069965],[141.0671339,43.0698292],[141.0656032,43.0696499],[141.0644821,43.0695187],[141.0634281,43.0693953],[141.0591128,43.06889]],"type":"LineString"}},{"type":"Feature","properties":{"@id":"way/279650753","name":"ウッディーペアリフト"},"geometry":{"coordinates":[[141.0624275,43.0759174],[141.0622716,43.0756228],[141.0616736,43.0744931],[141.0614146,43.0740038],[141.0612882,43.073765],[141.0611974,43.0735934],[141.0609709,43.0731655],[141.060769,43.072784],[141.0606234,43.0725089],[141.0604707,43.0722204],[141.060279,43.0718582],[141.0601717,43.0716555],[141.0599465,43.07123],[141.0596913,43.0707479],[141.0594293,43.0702528],[141.0591488,43.0697228],[141.058925,43.0693]],"type":"LineString"}},{"type":"Feature","properties":{"@id":"way/1084139721","name":"エコークワッド"},"geometry":{"coordinates":[[141.0708136,43.0741848],[141.0700804,43.0738732],[141.0693471,43.0735616],[141.068805,43.0733312],[141.0673141,43.0726977],[141.0670065,43.072567],[141.0661489,43.0722026],[141.0652554,43.0718229],[141.0641934,43.0713715],[141.0631986,43.0709488],[141.062613,43.0706999],[141.0618215,43.0703636],[141.0614398,43.0702013],[141.0607525,43.0699093],[141.0598331,43.0695186],[141.0594085,43.0693381]],"type":"LineString"}}]}