{"type":"FeatureCollection","features":[{"type":"Feature","properties":{"@id":"way/91658523","name":"東館山ゴンドラ"},"geometry":{"coordinates":[[138.50704628499676,36.72440967597536],[138.52056584530868,36.7295180564557]],"type":"LineString"}},{"type":"Feature","properties":{"@id":"way/92190486","name":"一の瀬クワッド"},"geometry":{"coordinates":[[138.5134629669749,36.738804741176125],[138.52301155765863,36.73377132202219]],"type":"LineString"}},{"type":"Feature","properties":{"@id":"way/92190487","name":"一の瀬第3クワッド"},"geometry":{"coordinates":[[138.5132624490855,36.737125545284286],[138.5222787,36.7326326]],"type":"LineString"}},{"type":"Feature","properties":{"@id":"way/92190489","name":"一の瀬第2ペアB線"},"geometry":{"coordinates":[[138.51346828879673,36.73863782826096],[138.51911144389513,36.735737132034956]],"type":"LineString"}},{"type":"Feature","properties":{"@id":"way/92190490","name":"一の瀬第2ペアA線"},"geometry":{"coordinates":[[138.5134268100943,36.738588554380094],[138.51707010974718,36.736725117320546]],"type":"LineString"}},{"type":"Feature","properties":{"@id":"way/92190491","name":"ブナ平ゴンドラ"},"geometry":{"coordinates":[[138.4979765,36.7214952],[138.50894406258968,36.72372266877763]],"type":"LineString"}},{"type":"Feature","properties":{"@id":"way/92190492","name":"高天ヶ原クワッド"},"geometry":{"coordinates":[[138.50877442323196,36.731245557008975],[138.51755529411957,36.728964281419444]],"type":"LineString"}},{"type":"Feature","properties":{"@id":"way/92190494","name":"高天ヶ原第3ペア"},"geometry":{"coordinates":[[138.50882455880094,36.73131030394862],[138.51237785554767,36.73040063916474]],"type":"LineString"}},{"type":"Feature","properties":{"@id":"way/92190495","name":"高天ヶ原第2トリプル"},"geometry":{"coordinates":[[138.50806753844432,36.73012321608866],[138.5115430971994,36.729509359791294]],"type":"LineString"}},{"type":"Feature","properties":{"@id":"way/92190496","name":"一の瀬第8クワッド"},"geometry":{"coordinates":[[138.5119934,36.7335343],[138.51585853070742,36.730946315155805]],"type":"LineString"}},{"type":"Feature","properties":{"@id":"way/255524053","name":"寺小屋クワッド"},"geometry":{"coordinates":[[138.5267132975332,36.73096475470852],[138.5312835806825,36.72580430152563]],"type":"LineString"}},{"type":"Feature","properties":{"@id":"way/255524054","name":"寺小屋第1ペア"},"geometry":{"coordinates":[[138.5258144,36.7304125],[138.52150981477538,36.730117479806495]],"type":"LineString"}},{"type":"Feature","properties":{"@id":"way/255524077","name":"西館山クワッド"},"geometry":{"coordinates":[[138.49743305630923,36.72183517504694],[138.50178055251973,36.72561797423725]],"type":"LineString"}},{"type":"Feature","properties":{"@id":"way/255524078","name":"西館第1フーディークワッド"},"geometry":{"coordinates":[[138.49961040182612,36.72556367114572],[138.5043364663608,36.73091480634175]],"type":"LineString"}},{"type":"Feature","properties":{"@id":"way/255524079","name":"西館第2トリプル"},"geometry":{"coordinates":[[138.50715239765628,36.73152528560849],[138.50468451206106,36.73206150985382]],"type":"LineString"}},{"type":"Feature","properties":{"@id":"way/309503822","name":"一の瀬ダイヤモンドクワッド"},"geometry":{"coordinates":[[138.51257735470173,36.74041171645948],[138.50727070103176,36.740634313342774]],"type":"LineString"}},{"type":"Feature","properties":{"@id":"way/309503823","name":"一の瀬山の神第2"},"geometry":{"coordinates":[[138.5142374722379,36.74327572292594],[138.50687267543364,36.74120080736197]],"type":"LineString"}},{"type":"Feature","properties":{"@id":"way/309503826","name":"ジャイアントペア"},"geometry":{"coordinates":[[138.49628315606125,36.7205043495332],[138.4965902,36.7125178]],"type":"LineString"}},{"type":"Feature","properties":{"@id":"way/309503827","name":"蓮池トリプル"},"geometry":{"coordinates":[[138.4934085278436,36.716213408586086],[138.4912683005663,36.71277845115633]],"type":"LineString"}},{"type":"Feature","properties":{"@id":"way/309503828","name":"丸池第1トリプル"},"geometry":{"coordinates":[[138.48904920796636,36.71612073587581],[138.4892179,36.7140385]],"type":"LineString"}},{"type":"Feature","properties":{"@id":"way/309503829","name":"丸池第2ペア"},"geometry":{"coordinates":[[138.4888840222484,36.71621260619495],[138.4874871369265,36.71617678022493]],"type":"LineString"}},{"type":"Feature","properties":{"@id":"way/309503830","name":"法坂第1クワッド"},"geometry":{"coordinates":[[138.48344245942204,36.71607066503093],[138.48711280438155,36.71282660219142]],"type":"LineString"}},{"type":"Feature","properties":{"@id":"way/917853912","name":"志賀高原リゾートゴンドラ"},"geometry":{"coordinates":[[138.49625115683438,36.720632961480376],[138.49213093756373,36.72014218705095]],"type":"LineString"}},{"type":"Feature","properties":{"@id":"way/917853913","name":"一の瀬ダイヤモンドペア"},"geometry":{"coordinates":[[138.51215235491014,36.73949453910541],[138.51273508211378,36.73872619586238]],"type":"LineString"}}]}