{"type":"FeatureCollection","features":[{"type":"Feature","properties":{"@id":"way/737877713","name":"プリンスロマンス"},"geometry":{"coordinates":[[140.92377353376506,39.77432260814024],[140.92960875013506,39.7755953912773]],"type":"LineString"}},{"type":"Feature","properties":{"@id":"way/737877714","name":"サンシャイン"},"geometry":{"coordinates":[[140.912227,39.7805454],[140.9043145,39.7861519]],"type":"LineString"}},{"type":"Feature","properties":{"@id":"way/737877715","name":"初級ロマンス"},"geometry":{"coordinates":[[140.9190398,39.7774864],[140.913198,39.7810092]],"type":"LineString"}},{"type":"Feature","properties":{"@id":"way/737877716","name":"パラダイス"},"geometry":{"coordinates":[[140.9203058,39.7831014],[140.9129512,39.7840907]],"type":"LineString"}},{"type":"Feature","properties":{"@id":"way/737877718","name":"雫石ロープウェー"},"geometry":{"coordinates":[[140.9297875,39.7757198],[140.9192973,39.7770783]],"type":"LineString"}},{"type":"Feature","properties":{"@id":"way/737877727","name":"雫石高速"},"geometry":{"coordinates":[[140.9359941,39.7832106],[140.9208278647564,39.784424511354786]],"type":"LineString"}}]}