{"type":"FeatureCollection","features":[{"type":"Feature","properties":{"@id":"way/242589438","name":"第3ペア"},"geometry":{"coordinates":[[138.7751291,35.300582],[138.77305878597662,35.303219777720265]],"type":"LineString"}},{"type":"Feature","properties":{"@id":"way/242589439","name":"第2ペア"},"geometry":{"coordinates":[[138.7752103,35.2999973],[138.7691821,35.3003679]],"type":"LineString"}},{"type":"Feature","properties":{"@id":"way/242589440","name":"第1クワッド"},"geometry":{"coordinates":[[138.77533129744143,35.30011938286792],[138.76894589743927,35.300499577962555]],"type":"LineString"}}]}