{"type":"FeatureCollection","features":[{"type":"Feature","properties":{"@id":"way/610873282","name":"シュナイダートリプル"},"geometry":{"coordinates":[[138.34423639589838,36.53216020211861],[138.3454131,36.5355984]],"type":"LineString"}},{"type":"Feature","properties":{"@id":"way/610873281","name":"ビート"},"geometry":{"coordinates":[[138.34836800919572,36.53529176423378],[138.35180821191486,36.54101760851146]],"type":"LineString"}},{"type":"Feature","properties":{"@id":"way/610873279","name":"奥ダボス第2トリプル"},"geometry":{"coordinates":[[138.35626855826547,36.542528100444635],[138.35285062411924,36.5421137]],"type":"LineString"}},{"type":"Feature","properties":{"@id":"way/610873280","name":"奥ダボス第1トリプル"},"geometry":{"coordinates":[[138.35689429415325,36.54260701217377],[138.36362709998969,36.54918156974366]],"type":"LineString"}},{"type":"Feature","properties":{"@id":"way/610873283","name":"ウェーブ"},"geometry":{"coordinates":[[138.3403798,36.5398607],[138.3467111439887,36.539682283391215]],"type":"LineString"}},{"type":"Feature","properties":{"@id":"way/610873284","name":"奥ダボス第3ペア"},"geometry":{"coordinates":[[138.3564217751033,36.54311740026028],[138.35310746307275,36.54378414332286]],"type":"LineString"}},{"type":"Feature","properties":{"@id":"way/610873285","name":"天狗クワッド"},"geometry":{"coordinates":[[138.33714820537546,36.53082004314737],[138.3345943,36.5355432]],"type":"LineString"}},{"type":"Feature","properties":{"@id":"way/610873286","name":"日の出ペア"},"geometry":{"coordinates":[[138.33473075478622,36.52978789831758],[138.33485456825383,36.5334566445168]],"type":"LineString"}},{"type":"Feature","properties":{"@id":"way/610873287","name":"グラン"},"geometry":{"coordinates":[[138.3301606,36.5318864],[138.3342077,36.53558]],"type":"LineString"}},{"type":"Feature","properties":{"@id":"way/610873288","name":"ステージ1"},"geometry":{"coordinates":[[138.33857867706266,36.53805068573053],[138.3348296536859,36.53596856731127]],"type":"LineString"}},{"type":"Feature","properties":{"@id":"way/610873289","name":"ステージ3"},"geometry":{"coordinates":[[138.33721704961812,36.54040121539686],[138.3337461992362,36.53772731948287]],"type":"LineString"}},{"type":"Feature","properties":{"@id":"way/610873291","name":"マック"},"geometry":{"coordinates":[[138.32729174971732,36.5351428521901],[138.33332189541414,36.537003100157044]],"type":"LineString"}},{"type":"Feature","properties":{"@id": "way/610873292","name": "オオマツ第5ペア","midstation": [138.30808455408652, 36.515046690013676]},"geometry":{"coordinates":[[138.3124412,36.5172866],[138.3056784,36.5138108]],"type":"LineString"}},{"type":"Feature","properties":{"@id":"way/610873293","name":"オオマツ第1クワッド"},"geometry":{"coordinates":[[138.317128,36.5173472],[138.3109826,36.5128743]],"type":"LineString"}},{"type":"Feature","properties":{"@id":"way/610873294","name":"つばくろ第1ペア", "midstation": [138.30276134882956, 36.526708923456454]},"geometry":{"coordinates":[[138.3093225,36.5296299],[138.2998088,36.5253977]],"type":"LineString"}},{"type":"Feature","properties":{"@id":"way/610873295","name":"つばくろ第2ペア"},"geometry":{"coordinates":[[138.3099375,36.5294969],[138.3070199,36.5274317]],"type":"LineString"}},{"type":"Feature","properties":{"@id":"way/610873296","name":"オオマツ第6ペア"},"geometry":{"coordinates":[[138.3221105,36.5240329],[138.315867,36.5190646]],"type":"LineString"}},{"type":"Feature","properties":{"@id":"way/610873297","name":"オオマツ第3ペア"},"geometry":{"coordinates":[[138.3176509,36.5189729],[138.3131137,36.5166614]],"type":"LineString"}}]}