{"type":"FeatureCollection","features":[{"type":"Feature","properties":{"@id":"way/365228908","name":"SPゴンドラ"},"geometry":{"coordinates":[[136.8759619,35.9978285],[136.8752087,35.9978183],[136.8746301,35.9978104],[136.8734025,35.9977938],[136.8715472,35.9977686],[136.8707844,35.9977582],[136.8698952,35.9977462],[136.8683876,35.9977257],[136.8678442,35.9977183],[136.8675811,35.9977148],[136.8663342,35.9976979],[136.8648998,35.9976784],[136.8637748,35.9976631],[136.8628643,35.9976508],[136.8617785,35.997636],[136.8606931,35.9976213],[136.8596259,35.9976068],[136.8582851,35.9975886],[136.8575934,35.9975792],[136.8567838,35.9975683],[136.8562544,35.9975611],[136.8551303,35.9975458],[136.8547091,35.9975401],[136.8533071,35.9975211],[136.8510749,35.9974908],[136.8492151,35.9974656],[136.8487321,35.997459]],"type":"LineString"}},{"type":"Feature","properties":{"@id":"way/365228912","name":"ダイヤモンドクワッド"},"geometry":{"coordinates":[[136.8652451,36.00317],[136.8647191,36.0029911],[136.8641132,36.002785],[136.8633353,36.0025205],[136.8620188,36.0020727],[136.8618579,36.002018],[136.8615629,36.0019176],[136.860799,36.0016578],[136.8603898,36.0015186],[136.8594924,36.0012134],[136.8594096,36.0011853],[136.8587065,36.0009461],[136.8579924,36.0007033],[136.8573537,36.000486],[136.8564653,36.0001839],[136.8557983,35.999957],[136.8550951,35.9997178],[136.8541192,35.9993859],[136.8529832,35.9989995],[136.8521124,35.9987033],[136.8513845,35.9984557],[136.8505647,35.9981769],[136.8501917,35.9980501],[136.8487536,35.9975609]],"type":"LineString"}},{"type":"Feature","properties":{"@id":"way/365228913","name":"チャンピオンクワッド"},"geometry":{"coordinates":[[136.8750726,35.9970483],[136.8745922,35.9970399],[136.8741961,35.997033],[136.8735546,35.9970219],[136.8717689,35.9969908],[136.8706995,35.9969722],[136.8694718,35.9969508],[136.867826,35.9969222],[136.8666115,35.996901],[136.8654045,35.99688],[136.864396,35.9968624],[136.8630586,35.9968392],[136.8622685,35.9968254],[136.8609739,35.9968029],[136.8600152,35.9967862],[136.859071,35.9967698],[136.8580328,35.9967517],[136.8573617,35.99674]],"type":"LineString"}},{"type":"Feature","properties":{"@id":"way/365228914","name":"パノラマクワッド"},"geometry":{"coordinates":[[136.8771054,35.9991595],[136.8764228,35.9994424],[136.8759202,35.9996507],[136.8750206,36.0000236],[136.8740338,36.0004326],[136.8732792,36.0007453],[136.8725671,36.0010405],[136.8718157,36.0013519],[136.8714944,36.0014851],[136.870688,36.0018193],[136.8703768,36.0019482],[136.8690733,36.0024885],[136.8686034,36.0026832],[136.8672131,36.0032595],[136.8659292,36.0037916],[136.8652907,36.0040562]],"type":"LineString"}}]}