{"type":"FeatureCollection","features":[{"type":"Feature","properties":{"@id":"way/293704317","name":"第1・B"},"geometry":{"coordinates":[[139.073272,36.7792768],[139.0735307,36.7794268],[139.0739919,36.7796941],[139.0744049,36.7799336],[139.0748115,36.7801692],[139.0753151,36.7804612],[139.0757728,36.7807265],[139.0762131,36.7809818],[139.0764157,36.7810992],[139.0768362,36.781343],[139.0772268,36.7815694],[139.0776526,36.7818162],[139.0780459,36.7820442],[139.0784877,36.7823003],[139.0788936,36.7825356],[139.0793492,36.7827997]],"type":"LineString"},"id":0},{"type":"Feature","properties":{"@id":"way/293704330","name":"第2高速"},"geometry":{"coordinates":[[139.08031557840636,36.78361546326721],[139.0898600529899,36.79266913687017]],"type":"LineString"}},{"type":"Feature","properties":{"@id":"way/293704345","name":"第3"},"geometry":{"coordinates":[[139.0803688,36.7829433],[139.0812248,36.7832382],[139.0821625,36.7835612],[139.0824034,36.7836442],[139.0827241,36.7837547],[139.083674,36.7840819],[139.0845134,36.7843711],[139.0859242,36.7848571],[139.0865847,36.7850846]],"type":"LineString"}},{"type":"Feature","properties":{"@id":"way/293704346","name":"第4"},"geometry":{"coordinates":[[139.0825611,36.7882818],[139.0828274,36.7885245],[139.0832145,36.7888773],[139.0835193,36.7891549],[139.0837909,36.7894025],[139.0843791,36.7899384],[139.084793,36.7903156],[139.0854062,36.7908744],[139.085787,36.7912214],[139.0861209,36.7915257],[139.0864092,36.7917884],[139.0868106,36.7921542],[139.0872455,36.7925505],[139.0879523,36.7931945]],"type":"LineString"}},{"type":"Feature","properties":{"@id":"way/293704347","name":"第5"},"geometry":{"coordinates":[[139.080005,36.7841199],[139.0801006,36.7842119],[139.0804168,36.7845164],[139.0808125,36.7848976],[139.0812608,36.7853292],[139.0817779,36.7858272],[139.0821042,36.7861415],[139.0826591,36.7866758],[139.0830959,36.7870965],[139.0835091,36.7874944],[139.0838119,36.787786],[139.084215,36.7881742],[139.0843297,36.7882846]],"type":"LineString"}},{"type":"Feature","properties":{"@id":"way/293704349","name":"第1・A"},"geometry":{"coordinates":[[139.0733199,36.7792222],[139.0735789,36.7793722],[139.0742844,36.7797809],[139.074948,36.7801653],[139.0758376,36.7806807],[139.076478,36.7810517],[139.0772604,36.7815049],[139.0787255,36.7823536],[139.0794046,36.782747]],"type":"LineString"},"id":5}]}