{"type":"FeatureCollection","features":[{"type":"Feature","properties":{"@id":"way/457372116","name":"ぎんれいクワッド"},"geometry":{"coordinates":[[140.7597565497,39.76140607956653],[140.77738553964488,39.760955355396995]],"type":"LineString"}},{"type":"Feature","properties":{"@id":"way/457372120","name":"ぎんれい第3"},"geometry":{"coordinates":[[140.7743669,39.7606603],[140.7834369,39.7596196]],"type":"LineString"}},{"type":"Feature","properties":{"@id":"way/457375711","name":"ぎんれい第1"},"geometry":{"coordinates":[[140.7606957,39.762262],[140.769642,39.7640223]],"type":"LineString"}},{"type":"Feature","properties":{"@id":"way/457375717","name":"かもしかクワッド"},"geometry":{"coordinates":[[140.7679982423828,39.7656764364723],[140.7797373,39.7627934]],"type":"LineString"}},{"type":"Feature","properties":{"@id":"way/457400732","name":"水沢"},"geometry":{"coordinates":[[140.7588965,39.76056],[140.7695045,39.7587152]],"type":"LineString"}},{"type":"Feature","properties":{"@id":"way/457401046","name":"黒森山"},"geometry":{"coordinates":[[140.7606637,39.76287021776272],[140.76489560282414,39.7659788460498]],"type":"LineString"}}]}