{"type":"FeatureCollection","features":[{"type":"Feature","properties":{"@id":"way/452719470","name":"オーロラ第3クワッド"},"geometry":{"coordinates":[[136.93366569014853,35.94672040253819],[136.9430431,35.9473191]],"type":"LineString"}},{"type":"Feature","properties":{"@id":"way/452722844","name":"レインボー第2ペア"},"geometry":{"coordinates":[[136.92032245321326,35.9425824549383],[136.92899593974403,35.940903861654995]],"type":"LineString"}},{"type":"Feature","properties":{"@id":"way/452722846","name":"レインボー第1クワッド"},"geometry":{"coordinates":[[136.92044891537904,35.943591337011384],[136.9310780551921,35.94221489669403]],"type":"LineString"}},{"type":"Feature","properties":{"@id":"way/452722848","name":"レインボー第2クワッド"},"geometry":{"coordinates":[[136.9195983,35.9444017],[136.9346531,35.9450033]],"type":"LineString"}}]}