{"type":"FeatureCollection","features":[{"type":"Feature","properties":{"@id":"way/452719468","name":"デルタペア"},"geometry":{"coordinates":[[136.9404501580674,35.951462287878726],[136.947827,35.9485375]],"type":"LineString"}},{"type":"Feature","properties":{"@id":"way/452719469","name":"エコーペア"},"geometry":{"coordinates":[[136.9354936174035,35.95535708997849],[136.93987327426805,35.952441931343756]],"type":"LineString"}},{"type":"Feature","properties":{"@id":"way/452719471","name":"ブラボークワッド"},"geometry":{"coordinates":[[136.9345757,35.9547762],[136.9428738,35.9477518]],"type":"LineString"}},{"type":"Feature","properties":{"@id":"way/452719472","name":"アルファクワッド"},"geometry":{"coordinates":[[136.93556160289486,35.95554444667765],[136.94791011778887,35.94867432545876]],"type":"LineString"}}]}