{"type":"FeatureCollection","features":[{"type":"Feature","properties":{"@id":"way/257625744","name":"ゴンドラ"},"geometry":{"coordinates":[[136.8034428,35.9656785],[136.81895185957538,35.980846150441636]],"type":"LineString"}},{"type":"Feature","properties":{"@id":"way/257625745","name":"第1クワッド"},"geometry":{"coordinates":[[136.802806781461,35.9666039392045],[136.80786497185935,35.973329344154614]],"type":"LineString"}},{"type":"Feature","properties":{"@id":"way/257625746","name":"第2クワッド"},"geometry":{"coordinates":[[136.80592551199342,35.968556420382285],[136.81261414177584,35.977882514564456]],"type":"LineString"}},{"type":"Feature","properties":{"@id":"way/452691964","name":"ペア"},"geometry":{"coordinates":[[136.8079995,35.9718907],[136.8102954,35.9763288]],"type":"LineString"}}]}