{"type":"FeatureCollection","features":[{"type":"Feature","properties":{"@id":"way/453536380","name":"丸山ファミリーペア"},"geometry":{"coordinates":[[137.74138079748346,35.96482117335712],[137.737405,35.965364]],"type":"LineString"}},{"type":"Feature","properties":{"@id":"way/453536381","name":"さつきクワッド"},"geometry":{"coordinates":[[137.7378451,35.9660731],[137.7307921,35.9630682]],"type":"LineString"}},{"type":"Feature","properties":{"@id":"way/453536382","name":"国設第3ペア"},"geometry":{"coordinates":[[137.72425159152178,35.95258118115649],[137.7240025,35.9493233]],"type":"LineString"}},{"type":"Feature","properties":{"@id":"way/453536383","name":"国設第2ペア"},"geometry":{"coordinates":[[137.7247435752238,35.95794115293105],[137.7233025,35.9528556]],"type":"LineString"}},{"type":"Feature","properties":{"@id":"way/453536384","name":"やぶはら中央ペア"},"geometry":{"coordinates":[[137.73002182157362,35.963257733869646],[137.7298322,35.9566646]],"type":"LineString"}},{"type":"Feature","properties":{"@id":"way/453536385","name":"国設第1ペア"},"geometry":{"coordinates":[[137.7289002,35.9630777],[137.7254284,35.9586828]],"type":"LineString"}}]}