{
  "type": "FeatureCollection",
  "features": [
    {
      "type": "Feature",
      "geometry": {
        "type": "LineString",
        "coordinates": [
          [
            138.76880678212515,
            35.300362330735865,
            1424.4
          ],
          [
            138.76889602400934,
            35.30030968398768,
            1423.0
          ],
          [
            138.7689852658935,
            35.3002570372395,
            1422.8
          ],
          [
            138.76908249603036,
            35.30021584657936,
            1422.6
          ],
          [
            138.7691831161082,
            35.30017951749082,
            1422.4
          ],
          [
            138.76928756608356,
            35.300151782642615,
            1421.5
          ],
          [
            138.7693930558845,
            35.300126381149475,
            1419.2
          ],
          [
            138.76950027601006,
            35.30010653422558,
            1417.7
          ],
          [
            138.7696077046686,
            35.30008735671995,
            1415.4
          ],
          [
            138.76971513332714,
            35.30006817921433,
            1414.2
          ],
          [
            138.76982256198568,
            35.3000490017087,
            1412.8
          ],
          [
            138.76992999064421,
            35.30002982420308,
            1411.9
          ],
          [
            138.77003741930275,
            35.30001064669745,
            1410.5
          ],
          [
            138.7701438604443,
            35.29998808694387,
            1409.5
          ],
          [
            138.7702502399937,
            35.29996531623688,
            1408.1
          ],
          [
            138.77035661954304,
            35.299942545529895,
            1407.0
          ],
          [
            138.77046299909242,
            35.299919774822904,
            1405.8
          ],
          [
            138.77056937864177,
            35.29989700411592,
            1405.4
          ],
          [
            138.77067576948642,
            35.299874269194625,
            1404.8
          ],
          [
            138.77078225133812,
            35.29985182260175,
            1404.3
          ],
          [
            138.77088873318985,
            35.29982937600887,
            1402.5
          ],
          [
            138.77099521504158,
            35.299806929416,
            1400.5
          ],
          [
            138.77110143621084,
            35.2997836926129,
            1397.2
          ],
          [
            138.77120720565946,
            35.29975908650294,
            1395.9
          ],
          [
            138.77131395353533,
            35.29974046509274,
            1394.8
          ],
          [
            138.7714238936564,
            35.29974136953798,
            1394.0
          ],
          [
            138.77153383377743,
            35.29974227398322,
            1392.7
          ],
          [
            138.77164346065177,
            35.29974572178843,
            1392.0
          ],
          [
            138.771751402246,
            35.29976285297472,
            1391.0
          ],
          [
            138.77185934384022,
            35.299779984161006,
            1389.6
          ],
          [
            138.77196728543444,
            35.299797115347296,
            1387.7
          ],
          [
            138.77207522702867,
            35.29981424653358,
            1386.0
          ],
          [
            138.77218361673025,
            35.29982914937462,
            1383.6
          ],
          [
            138.77229255444556,
            35.29984132705689,
            1382.1
          ],
          [
            138.77240149216087,
            35.299853504739154,
            1380.7
          ],
          [
            138.77251042987618,
            35.29986568242143,
            1379.5
          ],
          [
            138.772619509606,
            35.299876906819506,
            1378.4
          ],
          [
            138.77272882085205,
            35.29988657714556,
            1377.6
          ],
          [
            138.77283813209812,
            35.29989624747161,
            1375.5
          ],
          [
            138.77294744334415,
            35.29990591779766,
            1373.7
          ],
          [
            138.77305690739223,
            35.29991070096538,
            1372.0
          ],
          [
            138.77316667941167,
            35.29990563410151,
            1370.0
          ],
          [
            138.7732764514311,
            35.29990056723764,
            1368.8
          ],
          [
            138.77338623068687,
            35.29989560851476,
            1366.9
          ],
          [
            138.773496018835,
            35.2998907826799,
            1365.6
          ],
          [
            138.7736058069831,
            35.299885956845046,
            1364.5
          ],
          [
            138.77371559513125,
            35.29988113101019,
            1363.6
          ],
          [
            138.77382538327936,
            35.29987630517533,
            1362.4
          ],
          [
            138.7739351714275,
            35.299871479340474,
            1360.2
          ],
          [
            138.77404491262803,
            35.299866096003285,
            1358.8
          ],
          [
            138.77415446838177,
            35.29985851048512,
            1356.3
          ],
          [
            138.77426402413548,
            35.29985092496696,
            1354.9
          ],
          [
            138.77437357988921,
            35.2998433394488,
            1354.1
          ],
          [
            138.77448313564292,
            35.29983575393063,
            1353.9
          ],
          [
            138.77459269139666,
            35.29982816841247,
            1353.9
          ],
          [
            138.77470248230443,
            35.29982571700735,
            1353.1
          ],
          [
            138.77481242343256,
            35.29982654536028,
            1350.8
          ],
          [
            138.7749223645607,
            35.29982737371322,
            1348.7
          ],
          [
            138.7750321127085,
            35.29983114274028,
            1347.6
          ],
          [
            138.77514149041625,
            35.2998402751598,
            1346.9
          ],
          [
            138.7752507175196,
            35.29985056419328,
            1346.6
          ],
          [
            138.77533871966796,
            35.2999014099635,
            1346.4
          ],
          [
            138.77539731498055,
            35.29994155686319,
            1346.3
          ]
        ]
      },
      "properties": {
        "name": "Bゲレンデ",
        "slope_deg": [
          2.862405226111748,
          2.862405226111748,
          2.862405226111748,
          2.147585428298503,
          5.142764557884112,
          6.983937460085098,
          9.926245506651705,
          10.342657140474548,
          9.09027692082245,
          8.250387228905435,
          6.98393746008542,
          6.701525844729548,
          6.701525844729548,
          6.98393746008542,
          6.701525844729548,
          5.852378988915493,
          4.7162212343382155,
          3.8616074096751394,
          4.7162212343382155,
          6.98393746008542,
          10.757967088389877,
          11.85977912094779,
          10.896152141141194,
          9.22988624372772,
          6.418786730238786,
          5.568737077976766,
          5.4268124985727555,
          6.277298489597683,
          7.125016348901798,
          8.530765609948133,
          10.481218144131045,
          10.619655276155134,
          9.926245506651705,
          9.22988624372772,
          7.406912128494972,
          6.418786730238786,
          7.406912128495294,
          8.250387228905435,
          9.09027692082245,
          10.757967088389877,
          9.50877195829791,
          9.648045316098093,
          9.09027692082245,
          7.829076510059608,
          7.406912128495294,
          6.418786730238786,
          7.688447769902681,
          8.11004782941916,
          10.342657140474548,
          10.619655276155134,
          8.670801453591151,
          6.983937460085098,
          3.4336303624503275,
          2.5765718302690908,
          4.7162212343382155,
          7.406912128495294,
          8.950558656231918,
          8.810732985984655,
          5.994092949108534,
          3.290883686067228,
          3.290883686067228,
          3.290883686067228,
          3.290883686067228
        ],
        "horizontal_dist_map": 616,
        "slope_dist_map": 623,
        "elevation_diff_map": 78.1,
        "avg_slope_deg_map": 7.1,
        "max_slope_deg_map": 11.9,
        "resort": "snow-park-yeti",
        "level": "初・中級",
        "distance": 1000,
        "maxWidth": "",
        "minWidth": "",
        "avg": 11,
        "max": "",
        "piste": "○",
        "snowboard": "○",
        "night": "○",
        "note": "晴れた日にはゲレンデ上部から富士山や駿河湾を望める絶好のフォトスポットです！\n初心者から中級者向けで、滑走路の上半分にはムービングベルト（動く歩道）があり、滑りの練習に最適です。\n中盤以降は高底の起伏が多く、広いゲレンデでダイナミックな滑りを自由自在に楽しめます。",
        "image": "https://www.yeti-resort.com/guide/img/img_b02.jpg",
        "searchWord": "イエティ　Bゲレンデ",
        "status": "×",
        "update": null,
        "latest_note": "11月下旬open予定"
      }
    },
    {
      "type": "Feature",
      "geometry": {
        "type": "LineString",
        "coordinates": [
          [
            138.76884750692324,
            35.30060901796659,
            1425.5
          ],
          [
            138.7689540803388,
            35.30063117393816,
            1425.6
          ],
          [
            138.76906200110997,
            35.30064668456838,
            1425.5
          ],
          [
            138.76917167120715,
            35.30064747670851,
            1425.2
          ],
          [
            138.76928133291682,
            35.30064113418645,
            1424.9
          ],
          [
            138.7693908144218,
            35.300632850096065,
            1424.4
          ],
          [
            138.76950029592678,
            35.30062456600567,
            1423.8
          ],
          [
            138.76960981638396,
            35.30061663834728,
            1422.2
          ],
          [
            138.76971934978326,
            35.30060882911611,
            1420.9
          ],
          [
            138.7698289925607,
            35.300602156218645,
            1418.7
          ],
          [
            138.76993866417084,
            35.300595782865706,
            1417.2
          ],
          [
            138.77004833721463,
            35.300589427213424,
            1415.0
          ],
          [
            138.7701580735918,
            35.30058385353039,
            1413.3
          ],
          [
            138.770267809969,
            35.300578279847365,
            1412.7
          ],
          [
            138.77037755999362,
            35.30057293996176,
            1411.9
          ],
          [
            138.77048744407847,
            35.30056989669343,
            1411.2
          ],
          [
            138.7705973281633,
            35.3005668534251,
            1409.6
          ],
          [
            138.77070721224814,
            35.300563810156774,
            1408.2
          ],
          [
            138.770817096333,
            35.30056076688844,
            1406.3
          ],
          [
            138.770926758321,
            35.30056556596373,
            1405.0
          ],
          [
            138.77103635173017,
            35.30057278659029,
            1403.2
          ],
          [
            138.7711455392609,
            35.30058271525927,
            1401.9
          ],
          [
            138.77125400495848,
            35.300597460037565,
            1401.2
          ],
          [
            138.77136247065604,
            35.30061220481587,
            1400.2
          ],
          [
            138.7714661086462,
            35.300642147072665,
            1399.6
          ],
          [
            138.77156956932262,
            35.300672647507646,
            1398.9
          ],
          [
            138.77167302999908,
            35.30070314794263,
            1397.7
          ],
          [
            138.7717762598624,
            35.30073416582133,
            1396.7
          ],
          [
            138.77187930516567,
            35.300765597452155,
            1395.6
          ],
          [
            138.77198235046896,
            35.300797029082986,
            1394.5
          ],
          [
            138.77208539577225,
            35.30082846071381,
            1393.6
          ],
          [
            138.77218844107554,
            35.30085989234463,
            1391.9
          ],
          [
            138.77229246101263,
            35.30088892315404,
            1390.8
          ],
          [
            138.77239793299438,
            35.300914377132834,
            1389.2
          ],
          [
            138.77250340497616,
            35.30093983111163,
            1388.3
          ],
          [
            138.77260887695792,
            35.30096528509043,
            1387.0
          ],
          [
            138.7727165415348,
            35.300983107044296,
            1386.2
          ],
          [
            138.77282478476033,
            35.30099891482751,
            1385.0
          ],
          [
            138.77293387210273,
            35.301008578068846,
            1384.3
          ],
          [
            138.77304363969014,
            35.30101098626111,
            1383.0
          ],
          [
            138.7731531071426,
            35.30100257389035,
            1382.2
          ],
          [
            138.77326119076466,
            35.30098635542093,
            1380.9
          ],
          [
            138.77336905085434,
            35.30096887601985,
            1380.0
          ],
          [
            138.77347376961922,
            35.30094167629192,
            1378.5
          ],
          [
            138.77357802605368,
            35.30091305406686,
            1377.4
          ],
          [
            138.77368220570477,
            35.30088424458115,
            1375.9
          ],
          [
            138.77378435217094,
            35.3008512238392,
            1374.7
          ],
          [
            138.77388436361628,
            35.30081378091241,
            1373.3
          ],
          [
            138.77398424774105,
            35.30077611147019,
            1371.4
          ],
          [
            138.77408395781282,
            35.30073813237109,
            1370.1
          ],
          [
            138.77418172518932,
            35.30069711287685,
            1369.0
          ],
          [
            138.77427658411486,
            35.30065154154149,
            1366.5
          ],
          [
            138.77437274507338,
            35.30060794203411,
            1364.8
          ],
          [
            138.77447115170304,
            35.30056774342146,
            1362.9
          ],
          [
            138.77456955833267,
            35.30052754480881,
            1360.9
          ],
          [
            138.77466796496233,
            35.30048734619615,
            1358.1
          ],
          [
            138.77476961027136,
            35.300453159276806,
            1356.1
          ],
          [
            138.77487213548062,
            35.3004206056436,
            1354.1
          ],
          [
            138.77497602747457,
            35.300391815998616,
            1351.8
          ],
          [
            138.77508357792192,
            35.300373101368365,
            1351.0
          ],
          [
            138.7751911283693,
            35.300354386738114,
            1349.9
          ],
          [
            138.77529867881665,
            35.30033567210786,
            1348.4
          ],
          [
            138.77540682296245,
            35.30031947307308,
            1346.7
          ],
          [
            138.7754957972588,
            35.30027346533331,
            1346.4
          ],
          [
            138.77551564182411,
            35.300186121368625,
            1346.4
          ],
          [
            138.77550823065337,
            35.30014143188703,
            1346.3
          ]
        ]
      },
      "properties": {
        "name": "Aゲレンデ",
        "slope_deg": [
          0.8593722436445507,
          0.8593722436445507,
          0.8593722436445507,
          1.718358001655197,
          2.433606100720186,
          4.289153328819018,
          5.710593137499643,
          8.11004782941916,
          9.369385096487358,
          10.203973721731748,
          10.757967088390194,
          8.530765609948133,
          7.547725773843047,
          5.4268124985727555,
          5.2848210925090795,
          6.418786730238786,
          7.969610394321551,
          8.810732985984973,
          9.090276920822133,
          8.9505586562316,
          7.266008446995867,
          6.842773412630876,
          5.142764557884436,
          4.289153328819018,
          5.000644597558433,
          5.000644597558433,
          5.710593137499643,
          6.277298489597683,
          5.852378988915814,
          6.842773412630876,
          6.842773412630876,
          7.547725773843047,
          7.547725773843047,
          6.98393746008542,
          6.56019640057118,
          5.994092949108534,
          5.710593137499643,
          5.710593137499643,
          5.710593137499643,
          5.852378988915493,
          6.135733340186728,
          6.418786730238786,
          6.842773412630876,
          7.125016348901798,
          7.547725773843047,
          7.406912128495294,
          8.530765609948133,
          8.250387228905753,
          8.11004782941916,
          9.648045316098093,
          9.369385096487674,
          10.203973721731431,
          11.44759626368548,
          11.859779120948104,
          12.270720357815385,
          12.407418527400994,
          12.816647648997623,
          10.065169352759717,
          8.810732985984655,
          8.110047829418843,
          7.266008446995867,
          6.56019640057118,
          5.000644597558433,
          5.000644597558433,
          5.000644597558433,
          5.000644597558433
        ],
        "horizontal_dist_map": 645,
        "slope_dist_map": 651,
        "elevation_diff_map": 79.2,
        "avg_slope_deg_map": 6.9,
        "max_slope_deg_map": 12.8,
        "resort": "snow-park-yeti",
        "level": "初・中級",
        "distance": 1000,
        "maxWidth": "",
        "minWidth": "",
        "avg": 11,
        "max": "",
        "piste": "○",
        "snowboard": "○",
        "night": "○",
        "note": "初めてスキーをする方に最適！\n毎年10月下旬に最速オープンし、シーズンを通して利用でき、イエティのメインコースです。\n初級者から中級者向けのコースで、前半はなだらかなゲレンデ、ムービングベルト（動く歩道）やクワッドリフト（4席）を完備。",
        "image": "https://www.yeti-resort.com/guide/img/img_a01.jpg",
        "searchWord": "イエティ　Aゲレンデ",
        "status": "○",
        "update": null,
        "latest_note": "積雪量10-70cm、幅5-10m　※ムービングベルト:終日運休"
      }
    },
    {
      "type": "Feature",
      "geometry": {
        "type": "LineString",
        "coordinates": [
          [
            138.77296373253176,
            35.303168124434244,
            1439.8
          ],
          [
            138.773020879509,
            35.303091121619126,
            1438.3
          ],
          [
            138.77307804244109,
            35.30301412679798,
            1435.4
          ],
          [
            138.77313521203067,
            35.302937135312504,
            1432.6
          ],
          [
            138.77319147025162,
            35.302859709638,
            1431.3
          ],
          [
            138.7732447724635,
            35.30278087567862,
            1429.8
          ],
          [
            138.77329807467535,
            35.30270204171924,
            1427.6
          ],
          [
            138.7733521123995,
            35.30262354640513,
            1425.7
          ],
          [
            138.77340648001064,
            35.302545202977896,
            1422.9
          ],
          [
            138.77346084762175,
            35.30246685955067,
            1420.4
          ],
          [
            138.77351518126912,
            35.30238850040829,
            1418.2
          ],
          [
            138.7735689219854,
            35.30230986691475,
            1416.0
          ],
          [
            138.77362266270168,
            35.30223123342121,
            1412.9
          ],
          [
            138.7736760721304,
            35.30215245042215,
            1410.2
          ],
          [
            138.77372838274366,
            35.30207317154275,
            1407.7
          ],
          [
            138.77378069335688,
            35.301993892663354,
            1405.7
          ],
          [
            138.7738366012062,
            35.30191635616373,
            1402.4
          ],
          [
            138.77389606900212,
            35.3018405439821,
            1399.4
          ],
          [
            138.77394453667074,
            35.30175979895112,
            1397.1
          ],
          [
            138.77399033464786,
            35.301677856735246,
            1394.7
          ],
          [
            138.77403960396552,
            35.301597325988,
            1390.7
          ],
          [
            138.77409146700563,
            35.30151784986439,
            1387.7
          ],
          [
            138.7741266562316,
            35.3014325524277,
            1385.1
          ],
          [
            138.77415128899435,
            35.30134510996078,
            1381.2
          ],
          [
            138.77416471397353,
            35.301255658000024,
            1378.4
          ],
          [
            138.77417459645005,
            35.30116588897862,
            1376.7
          ],
          [
            138.7741973531351,
            35.301077871207326,
            1373.9
          ],
          [
            138.77422425908395,
            35.300990482889766,
            1372.6
          ],
          [
            138.77425421363486,
            35.30090378466211,
            1370.8
          ],
          [
            138.77430442327062,
            35.300824797365564,
            1369.4
          ],
          [
            138.77437155358805,
            35.30075348822898,
            1367.2
          ],
          [
            138.77442813959098,
            35.300697503436666,
            1365.9
          ]
        ]
      },
      "properties": {
        "name": "Dゲレンデ",
        "slope_deg": [
          11.996899307923577,
          11.996899307923577,
          11.996899307923577,
          11.996899307923577,
          11.034209003250501,
          9.787203664655925,
          11.85977912094779,
          13.224551192213344,
          13.224551192213344,
          13.631094443421603,
          14.036243467926479,
          14.305551846622015,
          14.708303899682749,
          14.439965121002654,
          14.708303899682749,
          15.109575122340402,
          14.842227057911282,
          15.37625124882619,
          16.304198003832376,
          16.304198003832376,
          16.69924423399362,
          18.64953875405141,
          17.092662950267425,
          15.37625124882619,
          15.642246457208486,
          12.133880170633535,
          10.757967088390194,
          10.342657140474548,
          9.50877195829791,
          9.50877195829791,
          9.50877195829791,
          9.50877195829791
        ],
        "horizontal_dist_map": 308,
        "slope_dist_map": 317,
        "elevation_diff_map": 73.9,
        "avg_slope_deg_map": 13.1,
        "max_slope_deg_map": 18.6,
        "resort": "snow-park-yeti",
        "level": "中・上級",
        "distance": 500,
        "maxWidth": "",
        "minWidth": "",
        "avg": 16,
        "max": 25,
        "piste": "○",
        "snowboard": "○",
        "night": "○",
        "note": "中級者から上級者向けの、イエティで最も難易度の高いゲレンデです。",
        "image": "https://www.yeti-resort.com/guide/img/img_d01.jpg",
        "searchWord": "イエティ　Dゲレンデ",
        "status": "×",
        "update": null,
        "latest_note": "1月中旬open予定"
      }
    },
    {
      "type": "Feature",
      "geometry": {
        "type": "LineString",
        "coordinates": [
          [
            138.77292036708127,
            35.30318168143902,
            1439.8
          ],
          [
            138.77284378036978,
            35.303117010405884,
            1439.7
          ],
          [
            138.77276719365827,
            35.30305233937275,
            1438.7
          ],
          [
            138.77269060694678,
            35.30298766833961,
            1437.7
          ],
          [
            138.77262251159263,
            35.30291708241272,
            1435.9
          ],
          [
            138.77255701802275,
            35.30284468413985,
            1433.6
          ],
          [
            138.77249152445285,
            35.30277228586697,
            1432.0
          ],
          [
            138.77242603088297,
            35.3026998875941,
            1430.3
          ],
          [
            138.77236193977174,
            35.30262669269854,
            1428.9
          ],
          [
            138.7723022546463,
            35.302550995120825,
            1427.1
          ],
          [
            138.77225974247668,
            35.30246941495979,
            1425.8
          ],
          [
            138.772243735907,
            35.30238072390054,
            1424.5
          ],
          [
            138.7722440154344,
            35.302290590351575,
            1421.4
          ],
          [
            138.77227070625003,
            35.30220322615218,
            1418.7
          ],
          [
            138.7723001578794,
            35.30211647424689,
            1415.4
          ],
          [
            138.77233968395745,
            35.30203236614321,
            1412.8
          ],
          [
            138.7723792100355,
            35.30194825803952,
            1409.0
          ],
          [
            138.7724187361135,
            35.301864149935845,
            1406.3
          ],
          [
            138.77245835749795,
            35.30178007206011,
            1402.4
          ],
          [
            138.77249813122222,
            35.301696042501405,
            1399.8
          ],
          [
            138.7725379049465,
            35.30161201294269,
            1397.1
          ],
          [
            138.77257767867076,
            35.301527983383984,
            1393.2
          ],
          [
            138.77261745239505,
            35.30144395382527,
            1390.7
          ],
          [
            138.77266674466514,
            35.30136376219534,
            1388.6
          ],
          [
            138.77272365416786,
            35.30128664187447,
            1387.0
          ],
          [
            138.77278105433612,
            35.30120976663281,
            1386.0
          ],
          [
            138.77283854441217,
            35.30113293629857,
            1385.4
          ],
          [
            138.77285373453017,
            35.30111263606722,
            1385.2
          ]
        ]
      },
      "properties": {
        "name": "Cゲレンデ",
        "slope_deg": [
          5.568737077976444,
          5.568737077976444,
          5.568737077976444,
          8.670801453591151,
          9.50877195829791,
          10.481218144131045,
          9.926245506651705,
          9.22988624372772,
          8.810732985984973,
          8.250387228905435,
          10.619655276155134,
          11.85977912094779,
          14.574216198038554,
          16.304198003832376,
          17.223436191131583,
          17.223436191131583,
          18.00416160591338,
          18.00416160591338,
          16.567741642975037,
          18.133621430820266,
          16.304198003832376,
          15.642246457208788,
          14.17097756293297,
          10.203973721731748,
          7.547725773843047,
          7.547725773843047,
          7.547725773843047,
          7.547725773843047
        ],
        "horizontal_dist_map": 262,
        "slope_dist_map": 269,
        "elevation_diff_map": 54.6,
        "avg_slope_deg_map": 11.5,
        "max_slope_deg_map": 18.1,
        "resort": "snow-park-yeti",
        "level": "中・上級",
        "distance": 500,
        "maxWidth": "",
        "minWidth": "",
        "avg": 16,
        "max": "",
        "piste": "○",
        "snowboard": "○",
        "night": "○",
        "note": "中級者から上級者向けのコースで、中盤は傾斜がきつく、変化に富んだゲレンデになっています。\nバッジテストのスキー検定1級も開催されるので、レベルアップしたいスキーヤー・スノーボーダーにおすすめです。",
        "image": "https://www.yeti-resort.com/guide/img/img_c01.jpg",
        "searchWord": "イエティ　Cゲレンデ",
        "status": "×",
        "update": null,
        "latest_note": "1月上旬open予定"
      }
    }
  ]
}