{
  "type": "FeatureCollection",
  "features": [
    {
      "type": "Feature",
      "properties": {
        "name": "Hakuba47 Line-8",
        "horizontal_dist_map": 1339,
        "slope_dist_map": 1445,
        "elevation_diff_map": 350.0
      },
      "geometry": {
        "type": "LineString",
        "coordinates": [
          [
            137.82776231119777,
            36.68460195660671,
            819.9
          ],
          [
            137.82759664050846,
            36.684480815462315,
            819.3
          ],
          [
            137.82743096981915,
            36.68435967431791,
            819.4
          ],
          [
            137.82726529912983,
            36.68423853317351,
            820.5
          ],
          [
            137.82709962844055,
            36.68411739202911,
            826.8
          ],
          [
            137.82693395775124,
            36.68399625088471,
            834.5
          ],
          [
            137.82676828706192,
            36.68387510974031,
            847.2
          ],
          [
            137.8266026163726,
            36.68375396859591,
            863.6
          ],
          [
            137.8264369456833,
            36.68363282745151,
            876.4
          ],
          [
            137.82627127499399,
            36.68351168630711,
            891.7
          ],
          [
            137.82610560430467,
            36.68339054516271,
            907.2
          ],
          [
            137.82593993361536,
            36.68326940401831,
            923.6
          ],
          [
            137.82577426292607,
            36.68314826287391,
            950.3
          ],
          [
            137.82560859223676,
            36.68302712172951,
            965.3
          ],
          [
            137.82544292154745,
            36.682905980585105,
            981.9
          ],
          [
            137.82527725085814,
            36.68278483944071,
            991.8
          ],
          [
            137.82511158016882,
            36.6826636982963,
            1005.3
          ],
          [
            137.8249459094795,
            36.682542557151905,
            1015.7
          ],
          [
            137.8247802387902,
            36.68242141600751,
            1022.8
          ],
          [
            137.8246145681009,
            36.6823002748631,
            1024.4
          ],
          [
            137.8244488974116,
            36.682179133718705,
            1028.4
          ],
          [
            137.8242832267223,
            36.6820579925743,
            1031.6
          ],
          [
            137.82411755603297,
            36.6819368514299,
            1042.8
          ],
          [
            137.82395188534366,
            36.681815710285505,
            1047.1
          ],
          [
            137.82378621465435,
            36.6816945691411,
            1045.2
          ],
          [
            137.82362054396503,
            36.6815734279967,
            1038.5
          ],
          [
            137.82345487327572,
            36.6814522868523,
            1036.2
          ],
          [
            137.82328920258644,
            36.6813311457079,
            1038.6
          ],
          [
            137.82312353189712,
            36.6812100045635,
            1027.0
          ],
          [
            137.8229578612078,
            36.6810888634191,
            1013.8
          ],
          [
            137.8227921905185,
            36.6809677222747,
            1000.8
          ],
          [
            137.82262651982919,
            36.6808465811303,
            1005.9
          ],
          [
            137.82246084913987,
            36.6807254399859,
            1014.1
          ],
          [
            137.82229517845056,
            36.6806042988415,
            1022.1
          ],
          [
            137.82212950776128,
            36.6804831576971,
            1029.1
          ],
          [
            137.82196383707196,
            36.6803620165527,
            1039.4
          ],
          [
            137.82179816638265,
            36.680240875408295,
            1044.2
          ],
          [
            137.82163249569334,
            36.6801197342639,
            1048.0
          ],
          [
            137.82146682500402,
            36.6799985931195,
            1051.1
          ],
          [
            137.8213011543147,
            36.679877451975095,
            1056.3
          ],
          [
            137.8211354836254,
            36.6797563108307,
            1060.0
          ],
          [
            137.82096981293608,
            36.67963516968629,
            1062.9
          ],
          [
            137.8208041422468,
            36.679514028541895,
            1063.3
          ],
          [
            137.8206384715575,
            36.6793928873975,
            1068.5
          ],
          [
            137.82047280086817,
            36.67927174625309,
            1073.1
          ],
          [
            137.82030713017886,
            36.679150605108696,
            1076.5
          ],
          [
            137.82014145948955,
            36.67902946396429,
            1079.8
          ],
          [
            137.81997578880024,
            36.67890832281989,
            1082.0
          ],
          [
            137.81981011811092,
            36.67878718167549,
            1083.6
          ],
          [
            137.81964444742164,
            36.67866604053109,
            1086.2
          ],
          [
            137.81947877673232,
            36.678544899386694,
            1088.6
          ],
          [
            137.819313106043,
            36.67842375824229,
            1093.7
          ],
          [
            137.8191474353537,
            36.67830261709789,
            1097.5
          ],
          [
            137.8189817646644,
            36.67818147595349,
            1101.5
          ],
          [
            137.81881609397507,
            36.67806033480909,
            1105.6
          ],
          [
            137.81865042328576,
            36.67793919366469,
            1110.6
          ],
          [
            137.81848475259648,
            36.67781805252029,
            1115.0
          ],
          [
            137.81831908190716,
            36.67769691137589,
            1120.4
          ],
          [
            137.81815341121785,
            36.677575770231485,
            1124.7
          ],
          [
            137.81798774052854,
            36.67745462908709,
            1130.6
          ],
          [
            137.81782206983922,
            36.67733348794269,
            1135.7
          ],
          [
            137.8176563991499,
            36.677212346798285,
            1140.7
          ],
          [
            137.8174907284606,
            36.67709120565389,
            1146.6
          ],
          [
            137.81732505777128,
            36.67697006450948,
            1152.1
          ],
          [
            137.817159387082,
            36.676848923365085,
            1159.0
          ],
          [
            137.8169937163927,
            36.67672778222069,
            1166.0
          ],
          [
            137.81682804570337,
            36.67660664107628,
            1169.7
          ],
          [
            137.8166647,
            36.6764872,
            1169.9
          ]
        ]
      }
    },
    {
      "type": "Feature",
      "properties": {
        "name": "Hakuba47 Line-A",
        "horizontal_dist_map": 574,
        "slope_dist_map": 590,
        "elevation_diff_map": 125.8
      },
      "geometry": {
        "type": "LineString",
        "coordinates": [
          [
            137.82203574302017,
            36.679884126309,
            1049.9
          ],
          [
            137.8218846132981,
            36.67975122498114,
            1049.6
          ],
          [
            137.82173348357603,
            36.67961832365328,
            1056.1
          ],
          [
            137.82158235385396,
            36.67948542232542,
            1064.5
          ],
          [
            137.82143122413186,
            36.67935252099756,
            1069.3
          ],
          [
            137.8212800944098,
            36.6792196196697,
            1074.2
          ],
          [
            137.82112896468772,
            36.67908671834184,
            1077.5
          ],
          [
            137.82097783496565,
            36.67895381701398,
            1080.1
          ],
          [
            137.82082670524358,
            36.678820915686124,
            1082.7
          ],
          [
            137.8206755755215,
            36.67868801435827,
            1085.5
          ],
          [
            137.82052444579944,
            36.67855511303041,
            1088.6
          ],
          [
            137.82037331607734,
            36.678422211702554,
            1091.5
          ],
          [
            137.82022218635527,
            36.678289310374694,
            1094.3
          ],
          [
            137.8200710566332,
            36.678156409046835,
            1096.7
          ],
          [
            137.81991992691113,
            36.678023507718976,
            1099.0
          ],
          [
            137.81976879718906,
            36.67789060639112,
            1101.5
          ],
          [
            137.81961766746699,
            36.67775770506326,
            1104.2
          ],
          [
            137.81946653774492,
            36.6776248037354,
            1108.1
          ],
          [
            137.81931540802285,
            36.67749190240754,
            1115.5
          ],
          [
            137.81916427830075,
            36.67735900107968,
            1121.3
          ],
          [
            137.81901314857868,
            36.67722609975182,
            1127.7
          ],
          [
            137.8188620188566,
            36.67709319842396,
            1132.6
          ],
          [
            137.81871088913454,
            36.6769602970961,
            1139.2
          ],
          [
            137.81855975941247,
            36.67682739576824,
            1144.9
          ],
          [
            137.8184086296904,
            36.67669449444038,
            1151.6
          ],
          [
            137.81825749996833,
            36.67656159311253,
            1157.2
          ],
          [
            137.81810637024623,
            36.67642869178467,
            1159.6
          ],
          [
            137.81795524052416,
            36.67629579045681,
            1165.6
          ],
          [
            137.8178041108021,
            36.67616288912895,
            1173.0
          ],
          [
            137.8176971858981,
            36.67606886088934,
            1175.7
          ]
        ]
      }
    },
    {
      "type": "Feature",
      "properties": {
        "name": "Hakuba47 Line-C",
        "horizontal_dist_map": 1135,
        "slope_dist_map": 1226,
        "elevation_diff_map": 395.7
      },
      "geometry": {
        "type": "LineString",
        "coordinates": [
          [
            137.82293995481982,
            36.67955572079861,
            1054.8
          ],
          [
            137.82287544700227,
            36.67938314768806,
            1053.8
          ],
          [
            137.82281093918473,
            36.679210574577496,
            1056.4
          ],
          [
            137.8227464313672,
            36.67903800146694,
            1059.7
          ],
          [
            137.82268192354965,
            36.67886542835639,
            1062.3
          ],
          [
            137.8226174157321,
            36.678692855245835,
            1068.6
          ],
          [
            137.82255290791457,
            36.678520282135274,
            1070.5
          ],
          [
            137.82248840009703,
            36.67834770902472,
            1072.6
          ],
          [
            137.8224238922795,
            36.67817513591417,
            1074.8
          ],
          [
            137.82235938446195,
            36.678002562803606,
            1079.0
          ],
          [
            137.8222948766444,
            36.67782998969305,
            1086.4
          ],
          [
            137.82223036882687,
            36.6776574165825,
            1091.7
          ],
          [
            137.82216586100932,
            36.677484843471944,
            1097.7
          ],
          [
            137.82210135319178,
            36.677312270361384,
            1102.5
          ],
          [
            137.82203684537424,
            36.67713969725083,
            1107.6
          ],
          [
            137.8219723375567,
            36.676967124140276,
            1112.7
          ],
          [
            137.82190782973916,
            36.676794551029715,
            1117.1
          ],
          [
            137.8218433219216,
            36.67662197791916,
            1116.0
          ],
          [
            137.82177881410405,
            36.67644940480861,
            1118.7
          ],
          [
            137.8217143062865,
            36.67627683169805,
            1122.1
          ],
          [
            137.82164979846897,
            36.67610425858749,
            1125.7
          ],
          [
            137.82158529065143,
            36.67593168547694,
            1128.2
          ],
          [
            137.8215207828339,
            36.675759112366386,
            1133.7
          ],
          [
            137.82145627501635,
            36.675586539255825,
            1142.7
          ],
          [
            137.8213917671988,
            36.67541396614527,
            1155.0
          ],
          [
            137.82132725938126,
            36.67524139303472,
            1170.7
          ],
          [
            137.82126275156372,
            36.67506881992416,
            1177.5
          ],
          [
            137.82119824374618,
            36.6748962468136,
            1183.3
          ],
          [
            137.82113373592864,
            36.67472367370305,
            1185.9
          ],
          [
            137.8210692281111,
            36.674551100592495,
            1187.8
          ],
          [
            137.82100472029356,
            36.674378527481934,
            1190.1
          ],
          [
            137.82094021247602,
            36.67420595437138,
            1202.0
          ],
          [
            137.82087570465848,
            36.67403338126083,
            1221.2
          ],
          [
            137.82081119684094,
            36.673860808150266,
            1236.1
          ],
          [
            137.8207466890234,
            36.67368823503971,
            1241.1
          ],
          [
            137.82068218120585,
            36.67351566192916,
            1253.4
          ],
          [
            137.8206176733883,
            36.673343088818605,
            1263.7
          ],
          [
            137.82055316557077,
            36.673170515708044,
            1273.4
          ],
          [
            137.82048865775323,
            36.67299794259749,
            1282.5
          ],
          [
            137.8204241499357,
            36.67282536948694,
            1293.6
          ],
          [
            137.82035964211815,
            36.672652796376376,
            1305.7
          ],
          [
            137.8202951343006,
            36.67248022326582,
            1326.7
          ],
          [
            137.82023062648307,
            36.67230765015527,
            1338.3
          ],
          [
            137.82016611866553,
            36.672135077044715,
            1352.3
          ],
          [
            137.82010161084798,
            36.671962503934154,
            1366.8
          ],
          [
            137.82003710303044,
            36.6717899308236,
            1378.3
          ],
          [
            137.8199725952129,
            36.671617357713046,
            1385.0
          ],
          [
            137.81990808739536,
            36.671444784602485,
            1390.5
          ],
          [
            137.81984357957782,
            36.67127221149193,
            1399.4
          ],
          [
            137.81977907176025,
            36.67109963838138,
            1409.8
          ],
          [
            137.8197145639427,
            36.670927065270824,
            1416.4
          ],
          [
            137.81965005612517,
            36.67075449216026,
            1422.6
          ],
          [
            137.81958554830763,
            36.67058191904971,
            1427.3
          ],
          [
            137.8195210404901,
            36.670409345939156,
            1434.4
          ],
          [
            137.81945653267255,
            36.670236772828595,
            1437.7
          ],
          [
            137.819392024855,
            36.67006419971804,
            1443.3
          ],
          [
            137.81932751703746,
            36.66989162660749,
            1446.6
          ],
          [
            137.8192791,
            36.6697621,
            1450.5
          ]
        ]
      }
    },
    {
      "type": "Feature",
      "properties": {
        "name": "Hakuba47 Line-E",
        "horizontal_dist_map": 1011,
        "slope_dist_map": 1035,
        "elevation_diff_map": 177.1
      },
      "geometry": {
        "type": "LineString",
        "coordinates": [
          [
            137.81756756964285,
            36.669101468126534,
            1433.4
          ],
          [
            137.817442444161,
            36.66895206801586,
            1431.9
          ],
          [
            137.8173173186792,
            36.66880266790518,
            1434.0
          ],
          [
            137.81719219319734,
            36.66865326779451,
            1440.7
          ],
          [
            137.81706706771553,
            36.66850386768384,
            1446.4
          ],
          [
            137.81694194223368,
            36.66835446757316,
            1450.7
          ],
          [
            137.81681681675184,
            36.66820506746249,
            1454.0
          ],
          [
            137.81669169127002,
            36.668055667351815,
            1457.4
          ],
          [
            137.81656656578818,
            36.66790626724114,
            1460.0
          ],
          [
            137.81644144030633,
            36.667756867130464,
            1462.2
          ],
          [
            137.81631631482452,
            36.66760746701979,
            1464.3
          ],
          [
            137.81619118934267,
            36.66745806690912,
            1465.8
          ],
          [
            137.81606606386086,
            36.66730866679844,
            1469.4
          ],
          [
            137.81594093837901,
            36.66715926668777,
            1472.6
          ],
          [
            137.81581581289717,
            36.6670098665771,
            1476.4
          ],
          [
            137.81569068741535,
            36.66686046646642,
            1481.1
          ],
          [
            137.8155655619335,
            36.666711066355745,
            1484.9
          ],
          [
            137.81544043645167,
            36.66656166624507,
            1488.7
          ],
          [
            137.81531531096985,
            36.666412266134394,
            1492.9
          ],
          [
            137.815190185488,
            36.66626286602372,
            1498.3
          ],
          [
            137.8150650600062,
            36.66611346591305,
            1505.3
          ],
          [
            137.81493993452435,
            36.66596406580238,
            1509.8
          ],
          [
            137.8148148090425,
            36.6658146656917,
            1508.9
          ],
          [
            137.8146896835607,
            36.665665265581026,
            1507.1
          ],
          [
            137.81456455807884,
            36.665515865470354,
            1504.4
          ],
          [
            137.814439432597,
            36.665366465359675,
            1506.0
          ],
          [
            137.81431430711518,
            36.665217065249,
            1507.9
          ],
          [
            137.81418918163334,
            36.66506766513833,
            1511.0
          ],
          [
            137.81406405615152,
            36.66491826502765,
            1514.3
          ],
          [
            137.81393893066968,
            36.66476886491698,
            1520.0
          ],
          [
            137.81381380518783,
            36.66461946480631,
            1523.2
          ],
          [
            137.81368867970602,
            36.66447006469563,
            1524.8
          ],
          [
            137.81356355422417,
            36.664320664584956,
            1527.8
          ],
          [
            137.81343842874233,
            36.664171264474284,
            1531.1
          ],
          [
            137.81331330326051,
            36.66402186436361,
            1533.6
          ],
          [
            137.81318817777867,
            36.66387246425293,
            1535.8
          ],
          [
            137.81306305229685,
            36.66372306414226,
            1538.8
          ],
          [
            137.812937926815,
            36.66357366403159,
            1543.7
          ],
          [
            137.81281280133317,
            36.66342426392091,
            1546.9
          ],
          [
            137.81268767585135,
            36.66327486381024,
            1553.2
          ],
          [
            137.8125625503695,
            36.663125463699565,
            1557.1
          ],
          [
            137.81243742488766,
            36.662976063588886,
            1558.4
          ],
          [
            137.81231229940585,
            36.662826663478214,
            1558.9
          ],
          [
            137.812187173924,
            36.66267726336754,
            1557.6
          ],
          [
            137.8120620484422,
            36.66252786325686,
            1565.0
          ],
          [
            137.81193692296034,
            36.66237846314619,
            1569.6
          ],
          [
            137.8118117974785,
            36.66222906303552,
            1575.3
          ],
          [
            137.81168667199668,
            36.662079662924846,
            1582.2
          ],
          [
            137.81156154651484,
            36.66193026281417,
            1587.8
          ],
          [
            137.81143642103302,
            36.661780862703495,
            1598.3
          ],
          [
            137.81131129555118,
            36.66163146259282,
            1607.4
          ],
          [
            137.81123770893058,
            36.6615436,
            1610.5
          ]
        ]
      }
    },
    {
      "type": "Feature",
      "properties": {
        "name": "アルプス第1ペア",
        "horizontal_dist_map": 592,
        "slope_dist_map": 609,
        "elevation_diff_map": 132.4
      },
      "geometry": {
        "type": "LineString",
        "coordinates": [
          [
            137.8146743,
            36.6651643,
            1507.9
          ],
          [
            137.81456144349585,
            36.665008688684594,
            1508.4
          ],
          [
            137.81444858699172,
            36.66485307736919,
            1512.0
          ],
          [
            137.81433573048756,
            36.66469746605378,
            1516.3
          ],
          [
            137.8142228739834,
            36.66454185473838,
            1519.3
          ],
          [
            137.81411001747924,
            36.664386243422975,
            1523.8
          ],
          [
            137.8139971609751,
            36.66423063210757,
            1526.8
          ],
          [
            137.81388430447095,
            36.66407502079216,
            1531.4
          ],
          [
            137.8137714479668,
            36.663919409476755,
            1535.1
          ],
          [
            137.81365859146266,
            36.66376379816135,
            1539.5
          ],
          [
            137.8135457349585,
            36.66360818684594,
            1543.0
          ],
          [
            137.81343287845434,
            36.663452575530535,
            1547.3
          ],
          [
            137.8133200219502,
            36.663296964215135,
            1550.9
          ],
          [
            137.81320716544604,
            36.66314135289973,
            1556.3
          ],
          [
            137.81309430894188,
            36.66298574158432,
            1561.7
          ],
          [
            137.81298145243773,
            36.662830130268915,
            1568.2
          ],
          [
            137.8128685959336,
            36.66267451895351,
            1572.8
          ],
          [
            137.81275573942943,
            36.6625189076381,
            1578.5
          ],
          [
            137.81264288292527,
            36.662363296322695,
            1582.5
          ],
          [
            137.81253002642114,
            36.662207685007296,
            1588.1
          ],
          [
            137.81241716991698,
            36.66205207369189,
            1592.6
          ],
          [
            137.81230431341282,
            36.66189646237648,
            1598.0
          ],
          [
            137.8121914569087,
            36.661740851061076,
            1602.9
          ],
          [
            137.81207860040453,
            36.66158523974567,
            1604.3
          ],
          [
            137.81196574390037,
            36.66142962843026,
            1607.4
          ],
          [
            137.8118528873962,
            36.661274017114856,
            1610.3
          ],
          [
            137.81174003089208,
            36.66111840579945,
            1614.5
          ],
          [
            137.81162717438792,
            36.66096279448405,
            1618.9
          ],
          [
            137.81151431788376,
            36.66080718316864,
            1625.9
          ],
          [
            137.81140146137963,
            36.660651571853236,
            1635.1
          ],
          [
            137.8113299,
            36.6605529,
            1640.3
          ]
        ]
      }
    },
    {
      "type": "Feature",
      "properties": {
        "name": "五竜テレキャビン",
        "horizontal_dist_map": 1843,
        "slope_dist_map": 2004,
        "elevation_diff_map": 699.5
      },
      "geometry": {
        "type": "LineString",
        "coordinates": [
          [
            137.83510867917298,
            36.66368395287623,
            832.8
          ],
          [
            137.8348849756044,
            36.663682808790256,
            833.7
          ],
          [
            137.83466127203582,
            36.66368166470429,
            838.8
          ],
          [
            137.83443756846725,
            36.66368052061832,
            842.6
          ],
          [
            137.83421386489866,
            36.66367937653236,
            846.5
          ],
          [
            137.8339901613301,
            36.66367823244639,
            850.3
          ],
          [
            137.8337664577615,
            36.66367708836042,
            853.6
          ],
          [
            137.83354275419293,
            36.66367594427445,
            856.4
          ],
          [
            137.83331905062437,
            36.66367480018849,
            859.8
          ],
          [
            137.83309534705577,
            36.66367365610252,
            864.1
          ],
          [
            137.8328716434872,
            36.66367251201655,
            867.8
          ],
          [
            137.83264793991862,
            36.66367136793058,
            871.9
          ],
          [
            137.83242423635005,
            36.66367022384461,
            877.1
          ],
          [
            137.83220053278146,
            36.66366907975865,
            881.8
          ],
          [
            137.8319768292129,
            36.66366793567268,
            887.9
          ],
          [
            137.83175312564433,
            36.663666791586714,
            891.0
          ],
          [
            137.83152942207573,
            36.66366564750074,
            893.6
          ],
          [
            137.83130571850717,
            36.66366450341477,
            896.8
          ],
          [
            137.83108201493857,
            36.66366335932881,
            901.1
          ],
          [
            137.83085831137,
            36.66366221524284,
            904.9
          ],
          [
            137.83063460780141,
            36.663661071156874,
            907.9
          ],
          [
            137.83041090423285,
            36.6636599270709,
            912.9
          ],
          [
            137.83018720066428,
            36.66365878298494,
            917.3
          ],
          [
            137.8299634970957,
            36.66365763889897,
            923.0
          ],
          [
            137.82973979352712,
            36.663656494813004,
            927.6
          ],
          [
            137.82951608995853,
            36.66365535072703,
            932.0
          ],
          [
            137.82929238638997,
            36.66365420664106,
            936.9
          ],
          [
            137.82906868282137,
            36.6636530625551,
            940.3
          ],
          [
            137.8288449792528,
            36.66365191846913,
            946.4
          ],
          [
            137.82862127568424,
            36.663650774383164,
            951.3
          ],
          [
            137.82839757211565,
            36.66364963029719,
            956.4
          ],
          [
            137.82817386854708,
            36.66364848621123,
            961.6
          ],
          [
            137.8279501649785,
            36.66364734212526,
            966.0
          ],
          [
            137.82772646140992,
            36.66364619803929,
            970.8
          ],
          [
            137.82750275784133,
            36.663645053953324,
            975.8
          ],
          [
            137.82727905427276,
            36.66364390986735,
            981.0
          ],
          [
            137.8270553507042,
            36.66364276578139,
            986.5
          ],
          [
            137.8268316471356,
            36.66364162169542,
            992.2
          ],
          [
            137.82660794356704,
            36.663640477609455,
            997.4
          ],
          [
            137.82638423999845,
            36.663639333523484,
            1001.7
          ],
          [
            137.82616053642988,
            36.66363818943752,
            1008.8
          ],
          [
            137.8259368328613,
            36.66363704535155,
            1014.8
          ],
          [
            137.82571312929272,
            36.66363590126558,
            1022.1
          ],
          [
            137.82548942572416,
            36.663634757179615,
            1027.6
          ],
          [
            137.82526572215556,
            36.663633613093644,
            1032.5
          ],
          [
            137.825042018587,
            36.66363246900768,
            1035.9
          ],
          [
            137.8248183150184,
            36.66363132492171,
            1045.2
          ],
          [
            137.82459461144984,
            36.663630180835746,
            1054.0
          ],
          [
            137.82437090788125,
            36.663629036749775,
            1061.4
          ],
          [
            137.82414720431268,
            36.66362789266381,
            1071.8
          ],
          [
            137.82392350074412,
            36.66362674857784,
            1085.6
          ],
          [
            137.82369979717552,
            36.66362560449187,
            1097.4
          ],
          [
            137.82347609360696,
            36.663624460405906,
            1105.2
          ],
          [
            137.82325239003836,
            36.663623316319935,
            1118.6
          ],
          [
            137.8230286864698,
            36.66362217223397,
            1130.5
          ],
          [
            137.8228049829012,
            36.663621028148,
            1136.9
          ],
          [
            137.82258127933264,
            36.66361988406204,
            1152.7
          ],
          [
            137.82235757576407,
            36.663618739976066,
            1161.2
          ],
          [
            137.82213387219548,
            36.663617595890095,
            1174.7
          ],
          [
            137.8219101686269,
            36.66361645180413,
            1185.0
          ],
          [
            137.82168646505832,
            36.66361530771816,
            1193.2
          ],
          [
            137.82146276148976,
            36.6636141636322,
            1203.7
          ],
          [
            137.82123905792116,
            36.663613019546226,
            1210.3
          ],
          [
            137.8210153543526,
            36.66361187546026,
            1216.9
          ],
          [
            137.82079165078403,
            36.66361073137429,
            1221.4
          ],
          [
            137.82056794721544,
            36.66360958728833,
            1222.5
          ],
          [
            137.82034424364687,
            36.66360844320236,
            1226.0
          ],
          [
            137.82012054007828,
            36.663607299116386,
            1232.6
          ],
          [
            137.8198968365097,
            36.66360615503042,
            1239.7
          ],
          [
            137.81967313294112,
            36.66360501094445,
            1253.9
          ],
          [
            137.81944942937255,
            36.66360386685849,
            1279.0
          ],
          [
            137.819225725804,
            36.66360272277252,
            1292.9
          ],
          [
            137.8190020222354,
            36.66360157868655,
            1303.5
          ],
          [
            137.81877831866683,
            36.66360043460058,
            1316.4
          ],
          [
            137.81855461509824,
            36.66359929051461,
            1324.8
          ],
          [
            137.81833091152967,
            36.66359814642865,
            1335.1
          ],
          [
            137.81810720796108,
            36.66359700234268,
            1345.7
          ],
          [
            137.8178835043925,
            36.66359585825671,
            1366.7
          ],
          [
            137.81765980082395,
            36.66359471417074,
            1377.1
          ],
          [
            137.81743609725535,
            36.66359357008478,
            1389.4
          ],
          [
            137.8172123936868,
            36.66359242599881,
            1401.5
          ],
          [
            137.8169886901182,
            36.663591281912844,
            1415.2
          ],
          [
            137.81676498654963,
            36.66359013782687,
            1427.7
          ],
          [
            137.81654128298104,
            36.6635889937409,
            1440.5
          ],
          [
            137.81631757941247,
            36.66358784965494,
            1454.4
          ],
          [
            137.8160938758439,
            36.66358670556897,
            1467.4
          ],
          [
            137.8158701722753,
            36.663585561483,
            1479.7
          ],
          [
            137.81564646870675,
            36.66358441739703,
            1491.0
          ],
          [
            137.81542276513815,
            36.66358327331107,
            1504.2
          ],
          [
            137.8151990615696,
            36.6635821292251,
            1514.8
          ],
          [
            137.814975358001,
            36.663580985139134,
            1522.1
          ],
          [
            137.81475165443243,
            36.66357984105316,
            1530.1
          ],
          [
            137.81452795086386,
            36.66357869696719,
            1532.5
          ],
          [
            137.81449056642055,
            36.663578505772136,
            1532.3
          ]
        ]
      }
    },
    {
      "type": "Feature",
      "properties": {
        "name": "とおみ第1ペア",
        "horizontal_dist_map": 349,
        "slope_dist_map": 355,
        "elevation_diff_map": 61.2
      },
      "geometry": {
        "type": "LineString",
        "coordinates": [
          [
            137.83558659829183,
            36.663134259838614,
            832.0
          ],
          [
            137.8353649157273,
            36.663158452740845,
            834.8
          ],
          [
            137.83514323316277,
            36.66318264564307,
            838.3
          ],
          [
            137.83492155059824,
            36.6632068385453,
            841.9
          ],
          [
            137.8346998680337,
            36.66323103144752,
            844.8
          ],
          [
            137.83447818546918,
            36.663255224349754,
            847.9
          ],
          [
            137.83425650290465,
            36.66327941725198,
            851.3
          ],
          [
            137.83403482034012,
            36.66330361015421,
            854.5
          ],
          [
            137.8338131377756,
            36.66332780305643,
            857.1
          ],
          [
            137.83359145521106,
            36.663351995958664,
            859.8
          ],
          [
            137.83336977264653,
            36.66337618886089,
            862.4
          ],
          [
            137.833148090082,
            36.66340038176312,
            865.8
          ],
          [
            137.83292640751745,
            36.66342457466534,
            869.3
          ],
          [
            137.83270472495292,
            36.66344876756757,
            873.2
          ],
          [
            137.8324830423884,
            36.6634729604698,
            877.5
          ],
          [
            137.83226135982386,
            36.66349715337203,
            881.8
          ],
          [
            137.83203967725933,
            36.66352134627425,
            886.7
          ],
          [
            137.8318179946948,
            36.66354553917648,
            891.2
          ],
          [
            137.83171041184602,
            36.6635572800247,
            893.2
          ]
        ]
      }
    },
    {
      "type": "Feature",
      "properties": {
        "name": "とおみ第2ペア",
        "horizontal_dist_map": 720,
        "slope_dist_map": 748,
        "elevation_diff_map": 188.7
      },
      "geometry": {
        "type": "LineString",
        "coordinates": [
          [
            137.8323784,
            36.6633714,
            880.7
          ],
          [
            137.8321580214083,
            36.66340238238595,
            881.6
          ],
          [
            137.83193764281663,
            36.66343336477189,
            889.5
          ],
          [
            137.83171726422492,
            36.663464347157834,
            893.2
          ],
          [
            137.83149688563324,
            36.66349532954378,
            896.0
          ],
          [
            137.83127650704154,
            36.66352631192972,
            898.6
          ],
          [
            137.83105612844983,
            36.663557294315666,
            902.1
          ],
          [
            137.83083574985815,
            36.66358827670161,
            905.6
          ],
          [
            137.83061537126645,
            36.663619259087554,
            908.4
          ],
          [
            137.83039499267477,
            36.66365024147349,
            913.6
          ],
          [
            137.83017461408306,
            36.663681223859435,
            918.1
          ],
          [
            137.82995423549136,
            36.66371220624538,
            922.8
          ],
          [
            137.82973385689968,
            36.66374318863132,
            927.9
          ],
          [
            137.82951347830797,
            36.663774171017266,
            932.8
          ],
          [
            137.8292930997163,
            36.66380515340321,
            937.7
          ],
          [
            137.8290727211246,
            36.663836135789154,
            942.2
          ],
          [
            137.82885234253288,
            36.6638671181751,
            948.3
          ],
          [
            137.8286319639412,
            36.66389810056104,
            954.8
          ],
          [
            137.8284115853495,
            36.663929082946986,
            958.4
          ],
          [
            137.82819120675782,
            36.66396006533293,
            966.4
          ],
          [
            137.82797082816612,
            36.66399104771887,
            972.9
          ],
          [
            137.8277504495744,
            36.66402203010482,
            977.5
          ],
          [
            137.82753007098273,
            36.66405301249076,
            985.2
          ],
          [
            137.82730969239103,
            36.664083994876705,
            988.0
          ],
          [
            137.82708931379935,
            36.66411497726265,
            989.2
          ],
          [
            137.82686893520764,
            36.66414595964859,
            995.2
          ],
          [
            137.82664855661594,
            36.66417694203453,
            1001.8
          ],
          [
            137.82642817802426,
            36.664207924420474,
            1010.5
          ],
          [
            137.82620779943255,
            36.66423890680642,
            1016.9
          ],
          [
            137.82598742084087,
            36.66426988919236,
            1021.4
          ],
          [
            137.82576704224917,
            36.664300871578305,
            1028.6
          ],
          [
            137.82554666365746,
            36.66433185396425,
            1035.4
          ],
          [
            137.82532628506578,
            36.66436283635019,
            1046.5
          ],
          [
            137.82510590647408,
            36.66439381873614,
            1052.4
          ],
          [
            137.8248855278824,
            36.66442480112208,
            1056.6
          ],
          [
            137.8246651492907,
            36.664455783508025,
            1062.4
          ],
          [
            137.82444477069902,
            36.66448676589397,
            1069.4
          ],
          [
            137.82443537581463,
            36.66448808669347,
            1069.4
          ]
        ]
      }
    },
    {
      "type": "Feature",
      "properties": {
        "name": "とおみスカイフォー",
        "horizontal_dist_map": 893,
        "slope_dist_map": 913,
        "elevation_diff_map": 181.1
      },
      "geometry": {
        "type": "LineString",
        "coordinates": [
          [
            137.8362247,
            36.6620417,
            821.8
          ],
          [
            137.83600411988672,
            36.66207172063852,
            822.2
          ],
          [
            137.83578353977344,
            36.66210174127704,
            826.2
          ],
          [
            137.83556295966017,
            36.66213176191556,
            830.2
          ],
          [
            137.8353423795469,
            36.66216178255408,
            835.1
          ],
          [
            137.8351217994336,
            36.6621918031926,
            838.5
          ],
          [
            137.83490121932036,
            36.66222182383112,
            841.8
          ],
          [
            137.83468063920708,
            36.66225184446964,
            844.7
          ],
          [
            137.8344600590938,
            36.662281865108156,
            848.0
          ],
          [
            137.83423947898052,
            36.662311885746675,
            851.0
          ],
          [
            137.83401889886724,
            36.662341906385194,
            854.2
          ],
          [
            137.83379831875396,
            36.66237192702371,
            857.6
          ],
          [
            137.83357773864068,
            36.66240194766223,
            861.0
          ],
          [
            137.8333571585274,
            36.66243196830075,
            864.3
          ],
          [
            137.83313657841413,
            36.66246198893927,
            867.1
          ],
          [
            137.83291599830085,
            36.66249200957779,
            869.9
          ],
          [
            137.8326954181876,
            36.66252203021631,
            873.6
          ],
          [
            137.83247483807432,
            36.66255205085483,
            878.0
          ],
          [
            137.83225425796104,
            36.66258207149335,
            882.7
          ],
          [
            137.83203367784776,
            36.662612092131866,
            886.5
          ],
          [
            137.83181309773448,
            36.662642112770385,
            890.0
          ],
          [
            137.8315925176212,
            36.662672133408904,
            893.7
          ],
          [
            137.83137193750792,
            36.66270215404742,
            896.2
          ],
          [
            137.83115135739465,
            36.662732174685935,
            899.8
          ],
          [
            137.83093077728137,
            36.662762195324454,
            900.5
          ],
          [
            137.8307101971681,
            36.66279221596297,
            906.9
          ],
          [
            137.8304896170548,
            36.66282223660149,
            912.3
          ],
          [
            137.83026903694156,
            36.66285225724001,
            918.2
          ],
          [
            137.83004845682828,
            36.66288227787853,
            922.1
          ],
          [
            137.829827876715,
            36.66291229851705,
            926.9
          ],
          [
            137.82960729660172,
            36.66294231915557,
            932.1
          ],
          [
            137.82938671648844,
            36.66297233979409,
            935.3
          ],
          [
            137.82916613637516,
            36.66300236043261,
            940.8
          ],
          [
            137.82894555626189,
            36.663032381071126,
            945.4
          ],
          [
            137.8287249761486,
            36.663062401709645,
            949.8
          ],
          [
            137.82850439603533,
            36.663092422348164,
            955.1
          ],
          [
            137.82828381592205,
            36.66312244298668,
            959.5
          ],
          [
            137.8280632358088,
            36.6631524636252,
            964.3
          ],
          [
            137.82784265569552,
            36.66318248426372,
            969.2
          ],
          [
            137.82762207558224,
            36.66321250490224,
            973.3
          ],
          [
            137.82740149546896,
            36.66324252554076,
            978.4
          ],
          [
            137.82718091535568,
            36.66327254617928,
            983.7
          ],
          [
            137.8269603352424,
            36.6633025668178,
            989.7
          ],
          [
            137.82673975512913,
            36.66333258745632,
            994.6
          ],
          [
            137.82651917501585,
            36.663362608094836,
            1001.5
          ],
          [
            137.8263655370281,
            36.66338351800564,
            1002.9
          ]
        ]
      }
    },
    {
      "type": "Feature",
      "properties": {
        "name": "コスモフォー",
        "horizontal_dist_map": 851,
        "slope_dist_map": 928,
        "elevation_diff_map": 352.7
      },
      "geometry": {
        "type": "LineString",
        "coordinates": [
          [
            137.8353692669255,
            36.6695140618579,
            764.3
          ],
          [
            137.83515771425635,
            36.669455432283186,
            764.0
          ],
          [
            137.8349461615872,
            36.66939680270847,
            767.6
          ],
          [
            137.834734608918,
            36.66933817313376,
            772.3
          ],
          [
            137.83452305624886,
            36.66927954355904,
            777.3
          ],
          [
            137.8343115035797,
            36.669220913984326,
            781.9
          ],
          [
            137.83409995091054,
            36.66916228440961,
            786.4
          ],
          [
            137.83388839824138,
            36.66910365483489,
            792.2
          ],
          [
            137.83367684557223,
            36.66904502526018,
            799.0
          ],
          [
            137.83346529290304,
            36.668986395685465,
            805.1
          ],
          [
            137.83325374023389,
            36.66892776611075,
            812.9
          ],
          [
            137.83304218756473,
            36.66886913653603,
            824.1
          ],
          [
            137.83283063489557,
            36.668810506961314,
            833.7
          ],
          [
            137.83261908222642,
            36.668751877386605,
            843.5
          ],
          [
            137.83240752955723,
            36.66869324781189,
            853.6
          ],
          [
            137.83219597688807,
            36.66863461823717,
            863.6
          ],
          [
            137.83198442421892,
            36.668575988662454,
            872.9
          ],
          [
            137.83177287154976,
            36.66851735908774,
            883.9
          ],
          [
            137.8315613188806,
            36.66845872951303,
            893.8
          ],
          [
            137.83134976621142,
            36.66840009993831,
            905.0
          ],
          [
            137.83113821354226,
            36.66834147036359,
            914.2
          ],
          [
            137.8309266608731,
            36.668282840788876,
            924.7
          ],
          [
            137.83071510820395,
            36.66822421121416,
            934.1
          ],
          [
            137.8305035555348,
            36.66816558163945,
            943.9
          ],
          [
            137.83029200286563,
            36.66810695206473,
            954.7
          ],
          [
            137.83008045019645,
            36.668048322490016,
            964.9
          ],
          [
            137.8298688975273,
            36.6679896929153,
            975.5
          ],
          [
            137.82965734485813,
            36.66793106334058,
            984.1
          ],
          [
            137.82944579218898,
            36.66787243376587,
            988.7
          ],
          [
            137.82923423951982,
            36.667813804191155,
            1000.7
          ],
          [
            137.82902268685064,
            36.66775517461644,
            1011.7
          ],
          [
            137.82881113418148,
            36.66769654504172,
            1023.0
          ],
          [
            137.82859958151232,
            36.667637915467004,
            1031.1
          ],
          [
            137.82838802884316,
            36.667579285892295,
            1041.2
          ],
          [
            137.828176476174,
            36.66752065631758,
            1048.4
          ],
          [
            137.82796492350485,
            36.66746202674286,
            1056.8
          ],
          [
            137.82775337083567,
            36.667403397168144,
            1067.3
          ],
          [
            137.8275418181665,
            36.66734476759343,
            1074.8
          ],
          [
            137.82733026549735,
            36.66728613801872,
            1082.7
          ],
          [
            137.8271187128282,
            36.667227508444,
            1089.2
          ],
          [
            137.82690716015904,
            36.66716887886928,
            1097.0
          ],
          [
            137.82669560748985,
            36.667110249294566,
            1107.9
          ],
          [
            137.8264840548207,
            36.66705161971985,
            1116.0
          ],
          [
            137.82635776614902,
            36.66701662015619,
            1117.0
          ]
        ]
      }
    },
    {
      "type": "Feature",
      "properties": {
        "name": "ミルキーフォー",
        "horizontal_dist_map": 508,
        "slope_dist_map": 516,
        "elevation_diff_map": 85.4
      },
      "geometry": {
        "type": "LineString",
        "coordinates": [
          [
            137.83620346161854,
            36.66908654598333,
            763.2
          ],
          [
            137.83607418191383,
            36.66893945759571,
            763.7
          ],
          [
            137.8359449022091,
            36.66879236920809,
            769.1
          ],
          [
            137.83581562250438,
            36.66864528082047,
            772.0
          ],
          [
            137.83568634279968,
            36.66849819243285,
            774.5
          ],
          [
            137.83555706309497,
            36.668351104045236,
            777.8
          ],
          [
            137.83542778339023,
            36.668204015657615,
            781.4
          ],
          [
            137.83529850368552,
            36.668056927269994,
            784.2
          ],
          [
            137.8351692239808,
            36.66790983888237,
            786.8
          ],
          [
            137.8350399442761,
            36.66776275049475,
            789.9
          ],
          [
            137.83491066457137,
            36.66761566210713,
            792.5
          ],
          [
            137.83478138486666,
            36.66746857371951,
            795.2
          ],
          [
            137.83465210516195,
            36.66732148533189,
            798.5
          ],
          [
            137.83452282545724,
            36.66717439694427,
            802.6
          ],
          [
            137.8343935457525,
            36.667027308556655,
            806.8
          ],
          [
            137.8342642660478,
            36.666880220169034,
            810.0
          ],
          [
            137.8341349863431,
            36.66673313178141,
            813.1
          ],
          [
            137.83400570663838,
            36.66658604339379,
            816.7
          ],
          [
            137.83387642693364,
            36.66643895500617,
            819.7
          ],
          [
            137.83374714722893,
            36.66629186661855,
            823.2
          ],
          [
            137.83361786752423,
            36.66614477823093,
            827.7
          ],
          [
            137.83348858781952,
            36.66599768984331,
            831.9
          ],
          [
            137.83335930811478,
            36.66585060145569,
            835.8
          ],
          [
            137.83323002841007,
            36.665703513068074,
            838.9
          ],
          [
            137.83310074870536,
            36.66555642468045,
            842.7
          ],
          [
            137.83297146900065,
            36.66540933629283,
            846.7
          ],
          [
            137.83291471586338,
            36.66534476523374,
            848.6
          ]
        ]
      }
    },
    {
      "type": "Feature",
      "properties": {
        "name": "いいもり第6ペアA",
        "horizontal_dist_map": 622,
        "slope_dist_map": 638,
        "elevation_diff_map": 136.1
      },
      "geometry": {
        "type": "LineString",
        "coordinates": [
          [
            137.83540412158635,
            36.66498343898278,
            822.7
          ],
          [
            137.83518323420967,
            36.66495489617884,
            823.0
          ],
          [
            137.834962346833,
            36.6649263533749,
            826.4
          ],
          [
            137.83474145945632,
            36.664897810570956,
            829.8
          ],
          [
            137.83452057207967,
            36.66486926776702,
            832.6
          ],
          [
            137.83429968470298,
            36.66484072496308,
            835.5
          ],
          [
            137.83407879732633,
            36.66481218215914,
            838.7
          ],
          [
            137.83385790994964,
            36.6647836393552,
            842.2
          ],
          [
            137.833637022573,
            36.664755096551254,
            845.9
          ],
          [
            137.8334161351963,
            36.664726553747315,
            849.2
          ],
          [
            137.83319524781962,
            36.664698010943376,
            852.8
          ],
          [
            137.83297436044296,
            36.66466946813944,
            855.8
          ],
          [
            137.83275347306628,
            36.6646409253355,
            860.0
          ],
          [
            137.83253258568962,
            36.66461238253155,
            864.0
          ],
          [
            137.83231169831294,
            36.66458383972761,
            868.2
          ],
          [
            137.83209081093628,
            36.66455529692367,
            872.2
          ],
          [
            137.8318699235596,
            36.664526754119734,
            876.3
          ],
          [
            137.83164903618294,
            36.664498211315795,
            880.4
          ],
          [
            137.83142814880625,
            36.66446966851185,
            885.2
          ],
          [
            137.83120726142957,
            36.66444112570791,
            891.3
          ],
          [
            137.8309863740529,
            36.66441258290397,
            896.7
          ],
          [
            137.83076548667623,
            36.66438404010003,
            902.0
          ],
          [
            137.83054459929957,
            36.66435549729609,
            907.6
          ],
          [
            137.8303237119229,
            36.664326954492154,
            913.3
          ],
          [
            137.83010282454623,
            36.66429841168821,
            918.5
          ],
          [
            137.82988193716955,
            36.66426986888427,
            924.5
          ],
          [
            137.8296610497929,
            36.66424132608033,
            931.2
          ],
          [
            137.8294401624162,
            36.66421278327639,
            936.7
          ],
          [
            137.82921927503955,
            36.66418424047245,
            941.8
          ],
          [
            137.82899838766286,
            36.664155697668505,
            946.9
          ],
          [
            137.82877750028618,
            36.664127154864566,
            952.5
          ],
          [
            137.82855661290952,
            36.66409861206063,
            959.4
          ],
          [
            137.8285269380928,
            36.66409477751613,
            958.8
          ]
        ]
      }
    },
    {
      "type": "Feature",
      "properties": {
        "name": "いいもり第1高速ペア",
        "horizontal_dist_map": 528,
        "slope_dist_map": 533,
        "elevation_diff_map": 73.0
      },
      "geometry": {
        "type": "LineString",
        "coordinates": [
          [
            137.8389474,
            36.6685834,
            753.3
          ],
          [
            137.83878051616148,
            36.668463370115056,
            753.3
          ],
          [
            137.83861363232296,
            36.66834334023011,
            757.7
          ],
          [
            137.83844674848442,
            36.668223310345155,
            760.0
          ],
          [
            137.8382798646459,
            36.66810328046021,
            762.9
          ],
          [
            137.83811298080738,
            36.66798325057526,
            765.3
          ],
          [
            137.83794609696886,
            36.667863220690315,
            768.1
          ],
          [
            137.83777921313035,
            36.66774319080537,
            770.3
          ],
          [
            137.83761232929183,
            36.66762316092042,
            773.0
          ],
          [
            137.83744544545328,
            36.66750313103547,
            775.4
          ],
          [
            137.83727856161477,
            36.66738310115052,
            778.0
          ],
          [
            137.83711167777625,
            36.66726307126557,
            780.2
          ],
          [
            137.83694479393773,
            36.667143041380626,
            783.0
          ],
          [
            137.83677791009922,
            36.66702301149568,
            785.6
          ],
          [
            137.83661102626067,
            36.666902981610725,
            788.8
          ],
          [
            137.83644414242215,
            36.66678295172578,
            791.8
          ],
          [
            137.83627725858364,
            36.66666292184083,
            794.6
          ],
          [
            137.83611037474512,
            36.666542891955885,
            797.2
          ],
          [
            137.8359434909066,
            36.66642286207094,
            799.6
          ],
          [
            137.83577660706806,
            36.66630283218599,
            802.4
          ],
          [
            137.83560972322954,
            36.66618280230104,
            804.9
          ],
          [
            137.83544283939102,
            36.66606277241609,
            808.2
          ],
          [
            137.8352759555525,
            36.66594274253114,
            811.6
          ],
          [
            137.835109071714,
            36.6658227126462,
            814.8
          ],
          [
            137.83494218787547,
            36.66570268276125,
            818.0
          ],
          [
            137.83477530403692,
            36.665582652876296,
            821.1
          ],
          [
            137.8346084201984,
            36.66546262299135,
            824.2
          ],
          [
            137.8345404,
            36.6654137,
            826.3
          ]
        ]
      }
    },
    {
      "type": "Feature",
      "properties": {
        "name": "アルプス第4ペア",
        "horizontal_dist_map": 695,
        "slope_dist_map": 741,
        "elevation_diff_map": 233.6
      },
      "geometry": {
        "type": "LineString",
        "coordinates": [
          [
            137.8186227261787,
            36.661028623171354,
            1404.4
          ],
          [
            137.81840924334688,
            36.660974782883336,
            1404.3
          ],
          [
            137.81819576051504,
            36.660920942595325,
            1409.6
          ],
          [
            137.81798227768323,
            36.66086710230731,
            1416.7
          ],
          [
            137.8177687948514,
            36.660813262019296,
            1422.6
          ],
          [
            137.81755531201958,
            36.66075942173128,
            1429.6
          ],
          [
            137.81734182918774,
            36.66070558144327,
            1434.0
          ],
          [
            137.81712834635593,
            36.66065174115525,
            1437.7
          ],
          [
            137.81691486352412,
            36.66059790086723,
            1445.0
          ],
          [
            137.81670138069228,
            36.66054406057922,
            1451.1
          ],
          [
            137.81648789786047,
            36.6604902202912,
            1464.8
          ],
          [
            137.81627441502863,
            36.66043638000319,
            1472.8
          ],
          [
            137.81606093219682,
            36.66038253971517,
            1479.0
          ],
          [
            137.81584744936498,
            36.66032869942716,
            1486.2
          ],
          [
            137.81563396653317,
            36.66027485913914,
            1496.4
          ],
          [
            137.81542048370136,
            36.660221018851125,
            1505.5
          ],
          [
            137.81520700086952,
            36.660167178563114,
            1514.0
          ],
          [
            137.8149935180377,
            36.660113338275096,
            1523.5
          ],
          [
            137.81478003520587,
            36.660059497987085,
            1531.8
          ],
          [
            137.81456655237406,
            36.66000565769907,
            1542.0
          ],
          [
            137.81435306954222,
            36.659951817411056,
            1548.9
          ],
          [
            137.8141395867104,
            36.65989797712304,
            1556.0
          ],
          [
            137.8139261038786,
            36.65984413683502,
            1561.4
          ],
          [
            137.81371262104676,
            36.65979029654701,
            1568.2
          ],
          [
            137.81349913821495,
            36.65973645625899,
            1576.4
          ],
          [
            137.8132856553831,
            36.65968261597098,
            1584.1
          ],
          [
            137.8130721725513,
            36.65962877568296,
            1591.7
          ],
          [
            137.81285868971946,
            36.65957493539495,
            1601.2
          ],
          [
            137.81264520688765,
            36.65952109510693,
            1600.0
          ],
          [
            137.81243172405584,
            36.659467254818914,
            1600.9
          ],
          [
            137.812218241224,
            36.6594134145309,
            1602.3
          ],
          [
            137.8120047583922,
            36.659359574242885,
            1605.2
          ],
          [
            137.81179127556035,
            36.659305733954874,
            1614.0
          ],
          [
            137.81157779272854,
            36.659251893666855,
            1622.1
          ],
          [
            137.8113643098967,
            36.659198053378844,
            1634.9
          ],
          [
            137.81120195031895,
            36.65915710635582,
            1638.0
          ]
        ]
      }
    },
    {
      "type": "Feature",
      "properties": {
        "name": "アルプス第2ペア",
        "horizontal_dist_map": 538,
        "slope_dist_map": 574,
        "elevation_diff_map": 194.9
      },
      "geometry": {
        "type": "LineString",
        "coordinates": [
          [
            137.8185888959863,
            36.6610701520173,
            1404.6
          ],
          [
            137.81837515375355,
            36.66101698208401,
            1404.7
          ],
          [
            137.8181614115208,
            36.66096381215072,
            1411.4
          ],
          [
            137.81794766928806,
            36.660910642217424,
            1417.8
          ],
          [
            137.8177339270553,
            36.660857472284135,
            1424.1
          ],
          [
            137.81752018482254,
            36.66080430235084,
            1430.2
          ],
          [
            137.8173064425898,
            36.66075113241755,
            1434.9
          ],
          [
            137.81709270035705,
            36.66069796248426,
            1438.4
          ],
          [
            137.8168789581243,
            36.66064479255097,
            1447.2
          ],
          [
            137.81666521589156,
            36.66059162261767,
            1452.9
          ],
          [
            137.8164514736588,
            36.660538452684385,
            1463.8
          ],
          [
            137.81623773142604,
            36.66048528275109,
            1472.3
          ],
          [
            137.8160239891933,
            36.6604321128178,
            1478.9
          ],
          [
            137.81581024696055,
            36.660378942884506,
            1487.2
          ],
          [
            137.8155965047278,
            36.66032577295122,
            1496.6
          ],
          [
            137.81538276249506,
            36.66027260301792,
            1504.0
          ],
          [
            137.81516902026232,
            36.66021943308463,
            1513.6
          ],
          [
            137.81495527802954,
            36.66016626315134,
            1521.2
          ],
          [
            137.8147415357968,
            36.660113093218044,
            1531.3
          ],
          [
            137.81452779356405,
            36.660059923284756,
            1539.5
          ],
          [
            137.8143140513313,
            36.66000675335146,
            1548.0
          ],
          [
            137.81410030909856,
            36.65995358341817,
            1553.4
          ],
          [
            137.81388656686582,
            36.65990041348488,
            1561.2
          ],
          [
            137.81367282463307,
            36.65984724355159,
            1568.1
          ],
          [
            137.8134590824003,
            36.65979407361829,
            1576.3
          ],
          [
            137.81324534016755,
            36.659740903685005,
            1584.9
          ],
          [
            137.8130315979348,
            36.65968773375171,
            1592.5
          ],
          [
            137.81283794630522,
            36.65963956150192,
            1599.5
          ]
        ]
      }
    },
    {
      "type": "Feature",
      "properties": {
        "name": "アルプス第3ペア",
        "horizontal_dist_map": 623,
        "slope_dist_map": 672,
        "elevation_diff_map": 234.3
      },
      "geometry": {
        "type": "LineString",
        "coordinates": [
          [
            137.8187615,
            36.6619757,
            1381.5
          ],
          [
            137.81854266529518,
            36.66193831041708,
            1381.9
          ],
          [
            137.81832383059037,
            36.66190092083416,
            1389.9
          ],
          [
            137.81810499588556,
            36.661863531251235,
            1401.7
          ],
          [
            137.81788616118075,
            36.66182614166831,
            1410.2
          ],
          [
            137.81766732647594,
            36.661788752085386,
            1416.1
          ],
          [
            137.81744849177116,
            36.661751362502464,
            1423.3
          ],
          [
            137.81722965706635,
            36.66171397291954,
            1431.1
          ],
          [
            137.81701082236154,
            36.66167658333662,
            1439.6
          ],
          [
            137.81679198765673,
            36.6616391937537,
            1451.9
          ],
          [
            137.81657315295192,
            36.66160180417078,
            1464.6
          ],
          [
            137.8163543182471,
            36.66156441458786,
            1468.7
          ],
          [
            137.8161354835423,
            36.66152702500493,
            1485.2
          ],
          [
            137.8159166488375,
            36.66148963542201,
            1498.0
          ],
          [
            137.81569781413268,
            36.66145224583909,
            1501.8
          ],
          [
            137.81547897942787,
            36.661414856256165,
            1503.3
          ],
          [
            137.81526014472306,
            36.661377466673244,
            1509.6
          ],
          [
            137.81504131001827,
            36.66134007709032,
            1516.1
          ],
          [
            137.81482247531346,
            36.6613026875074,
            1522.1
          ],
          [
            137.81460364060865,
            36.66126529792447,
            1528.4
          ],
          [
            137.81438480590384,
            36.66122790834155,
            1535.4
          ],
          [
            137.81416597119903,
            36.66119051875863,
            1539.0
          ],
          [
            137.81394713649422,
            36.66115312917571,
            1548.2
          ],
          [
            137.8137283017894,
            36.66111573959279,
            1557.6
          ],
          [
            137.8135094670846,
            36.661078350009866,
            1565.2
          ],
          [
            137.8132906323798,
            36.661040960426945,
            1573.9
          ],
          [
            137.81307179767498,
            36.661003570844024,
            1582.6
          ],
          [
            137.81285296297017,
            36.660966181261095,
            1589.6
          ],
          [
            137.8126341282654,
            36.660928791678174,
            1597.2
          ],
          [
            137.81241529356058,
            36.66089140209525,
            1603.2
          ],
          [
            137.81219645885577,
            36.66085401251233,
            1609.9
          ],
          [
            137.81197762415096,
            36.66081662292941,
            1614.4
          ],
          [
            137.81194212766167,
            36.660810558082744,
            1615.8
          ]
        ]
      }
    },
    {
      "type": "Feature",
      "properties": {
        "name": "Hakuba47 Line-D",
        "horizontal_dist_map": 902,
        "slope_dist_map": 989,
        "elevation_diff_map": 282.2
      },
      "geometry": {
        "type": "LineString",
        "coordinates": [
          [
            137.8280643,
            36.6842146,
            819.7
          ],
          [
            137.82796911669723,
            36.68405149321157,
            821.3
          ],
          [
            137.8278739333945,
            36.68388838642315,
            834.2
          ],
          [
            137.82777875009174,
            36.68372527963472,
            848.9
          ],
          [
            137.82768356678898,
            36.6835621728463,
            858.9
          ],
          [
            137.82758838348624,
            36.68339906605787,
            868.4
          ],
          [
            137.82749320018348,
            36.68323595926945,
            877.7
          ],
          [
            137.82739801688075,
            36.683072852481025,
            889.7
          ],
          [
            137.827302833578,
            36.682909745692605,
            900.1
          ],
          [
            137.82720765027523,
            36.68274663890418,
            916.4
          ],
          [
            137.8271124669725,
            36.68258353211575,
            931.4
          ],
          [
            137.82701728366973,
            36.68242042532733,
            948.1
          ],
          [
            137.82692210036697,
            36.6822573185389,
            965.9
          ],
          [
            137.82682691706424,
            36.68209421175048,
            985.4
          ],
          [
            137.82673173376148,
            36.681931104962054,
            1000.1
          ],
          [
            137.82663655045874,
            36.68176799817363,
            1012.4
          ],
          [
            137.82654136715598,
            36.681604891385206,
            1025.5
          ],
          [
            137.82644618385322,
            36.681441784596785,
            1038.8
          ],
          [
            137.8263510005505,
            36.68127867780836,
            1055.0
          ],
          [
            137.82625581724773,
            36.68111557101994,
            1067.8
          ],
          [
            137.82616063394497,
            36.68095246423151,
            1073.6
          ],
          [
            137.82606545064223,
            36.68078935744308,
            1077.9
          ],
          [
            137.82597026733947,
            36.68062625065466,
            1078.9
          ],
          [
            137.82587508403674,
            36.680463143866234,
            1075.6
          ],
          [
            137.82577990073398,
            36.680300037077814,
            1074.7
          ],
          [
            137.82568471743122,
            36.680136930289386,
            1076.6
          ],
          [
            137.82558953412848,
            36.679973823500966,
            1077.2
          ],
          [
            137.82549435082572,
            36.67981071671254,
            1078.5
          ],
          [
            137.82539916752296,
            36.67964760992412,
            1080.9
          ],
          [
            137.82530398422023,
            36.67948450313569,
            1081.5
          ],
          [
            137.82520880091747,
            36.67932139634726,
            1081.9
          ],
          [
            137.8251136176147,
            36.67915828955884,
            1074.2
          ],
          [
            137.82501843431197,
            36.678995182770414,
            1068.0
          ],
          [
            137.8249232510092,
            36.678832075981994,
            1072.0
          ],
          [
            137.82482806770648,
            36.678668969193566,
            1076.5
          ],
          [
            137.82473288440372,
            36.678505862405146,
            1078.9
          ],
          [
            137.82463770110095,
            36.67834275561672,
            1082.3
          ],
          [
            137.82454251779822,
            36.6781796488283,
            1084.7
          ],
          [
            137.82444733449546,
            36.67801654203987,
            1085.6
          ],
          [
            137.8243521511927,
            36.67785343525144,
            1083.3
          ],
          [
            137.82425696788997,
            36.67769032846302,
            1080.6
          ],
          [
            137.8241617845872,
            36.677527221674595,
            1080.9
          ],
          [
            137.82406660128447,
            36.677364114886174,
            1083.5
          ],
          [
            137.8239714179817,
            36.67720100809775,
            1087.8
          ],
          [
            137.82387623467895,
            36.677037901309326,
            1094.1
          ],
          [
            137.82378105137622,
            36.6768747945209,
            1101.9
          ],
          [
            137.8237695,
            36.676855,
            1101.9
          ]
        ]
      }
    },
    {
      "type": "Feature",
      "properties": {
        "name": "Hakuba47 Line-B",
        "horizontal_dist_map": 575,
        "slope_dist_map": 592,
        "elevation_diff_map": 126.3
      },
      "geometry": {
        "type": "LineString",
        "coordinates": [
          [
            137.82199765733708,
            36.67993212883843,
            1049.8
          ],
          [
            137.82184622703966,
            36.679799449612894,
            1049.6
          ],
          [
            137.82169479674224,
            36.67966677038736,
            1055.5
          ],
          [
            137.8215433664448,
            36.67953409116182,
            1063.3
          ],
          [
            137.8213919361474,
            36.67940141193628,
            1066.9
          ],
          [
            137.82124050584994,
            36.679268732710746,
            1071.4
          ],
          [
            137.82108907555252,
            36.67913605348521,
            1075.3
          ],
          [
            137.8209376452551,
            36.67900337425967,
            1078.1
          ],
          [
            137.82078621495768,
            36.678870695034135,
            1082.6
          ],
          [
            137.82063478466026,
            36.67873801580859,
            1084.1
          ],
          [
            137.82048335436284,
            36.678605336583054,
            1087.8
          ],
          [
            137.8203319240654,
            36.67847265735752,
            1088.8
          ],
          [
            137.820180493768,
            36.67833997813198,
            1090.9
          ],
          [
            137.82002906347054,
            36.67820729890644,
            1094.4
          ],
          [
            137.81987763317312,
            36.678074619680906,
            1096.9
          ],
          [
            137.8197262028757,
            36.67794194045537,
            1100.0
          ],
          [
            137.81957477257828,
            36.67780926122983,
            1102.9
          ],
          [
            137.81942334228086,
            36.677676582004295,
            1107.9
          ],
          [
            137.81927191198344,
            36.67754390277876,
            1111.5
          ],
          [
            137.819120481686,
            36.67741122355322,
            1118.1
          ],
          [
            137.8189690513886,
            36.677278544327685,
            1124.1
          ],
          [
            137.81881762109114,
            36.67714586510215,
            1130.8
          ],
          [
            137.81866619079372,
            36.67701318587661,
            1136.7
          ],
          [
            137.8185147604963,
            36.676880506651074,
            1143.4
          ],
          [
            137.81836333019888,
            36.67674782742554,
            1149.3
          ],
          [
            137.81821189990146,
            36.6766151482,
            1154.4
          ],
          [
            137.81806046960403,
            36.67648246897446,
            1160.0
          ],
          [
            137.8179090393066,
            36.67634978974892,
            1162.4
          ],
          [
            137.8177576090092,
            36.67621711052338,
            1172.1
          ],
          [
            137.81763759080093,
            36.67611195374042,
            1176.1
          ]
        ]
      }
    },
    {
      "type": "Feature",
      "properties": {
        "name": "いいもり第6ペアB",
        "horizontal_dist_map": 623,
        "slope_dist_map": 639,
        "elevation_diff_map": 135.6
      },
      "geometry": {
        "type": "LineString",
        "coordinates": [
          [
            137.8353951991379,
            36.66503675528136,
            822.8
          ],
          [
            137.8351741983411,
            36.66500878720188,
            822.9
          ],
          [
            137.83495319754428,
            36.6649808191224,
            825.9
          ],
          [
            137.83473219674747,
            36.66495285104291,
            828.8
          ],
          [
            137.83451119595065,
            36.66492488296343,
            832.1
          ],
          [
            137.83429019515384,
            36.66489691488395,
            835.0
          ],
          [
            137.834069194357,
            36.66486894680447,
            838.3
          ],
          [
            137.8338481935602,
            36.66484097872498,
            841.4
          ],
          [
            137.83362719276337,
            36.6648130106455,
            845.1
          ],
          [
            137.83340619196656,
            36.66478504256602,
            848.3
          ],
          [
            137.83318519116975,
            36.66475707448654,
            852.5
          ],
          [
            137.83296419037293,
            36.66472910640705,
            856.1
          ],
          [
            137.83274318957612,
            36.66470113832757,
            859.7
          ],
          [
            137.8325221887793,
            36.664673170248086,
            863.5
          ],
          [
            137.8323011879825,
            36.66464520216861,
            867.7
          ],
          [
            137.83208018718568,
            36.66461723408912,
            871.9
          ],
          [
            137.83185918638887,
            36.664589266009635,
            876.1
          ],
          [
            137.83163818559203,
            36.664561297930156,
            881.2
          ],
          [
            137.8314171847952,
            36.66453332985067,
            886.0
          ],
          [
            137.8311961839984,
            36.66450536177119,
            891.1
          ],
          [
            137.8309751832016,
            36.664477393691705,
            896.4
          ],
          [
            137.83075418240477,
            36.664449425612226,
            901.9
          ],
          [
            137.83053318160796,
            36.66442145753274,
            907.6
          ],
          [
            137.83031218081115,
            36.66439348945326,
            913.4
          ],
          [
            137.83009118001434,
            36.664365521373774,
            920.0
          ],
          [
            137.82987017921752,
            36.664337553294295,
            925.7
          ],
          [
            137.8296491784207,
            36.66430958521481,
            931.8
          ],
          [
            137.8294281776239,
            36.66428161713533,
            936.9
          ],
          [
            137.82920717682705,
            36.664253649055844,
            942.0
          ],
          [
            137.82898617603024,
            36.66422568097636,
            947.5
          ],
          [
            137.82876517523343,
            36.66419771289688,
            952.6
          ],
          [
            137.82854417443662,
            36.66416974481739,
            959.1
          ],
          [
            137.82850482851734,
            36.664164765515,
            958.4
          ]
        ]
      }
    }
  ]
}