{
  "type": "FeatureCollection",
  "features": [
    {
      "type": "Feature",
      "properties": {
        "name": "第5ペア",
        "horizontal_dist_map": 531,
        "slope_dist_map": 562,
        "elevation_diff_map": 142.0,
        "midstation": null
      },
      "geometry": {
        "type": "LineString",
        "coordinates": [
          [
            139.5642895,
            37.2578193,
            848.0
          ],
          [
            139.56450226424425,
            37.25775970102347,
            848.0
          ],
          [
            139.5647150284885,
            37.25770010204694,
            849.0
          ],
          [
            139.56492779273273,
            37.257640503070405,
            849.0
          ],
          [
            139.56514055697698,
            37.25758090409388,
            857.0
          ],
          [
            139.56535332122124,
            37.25752130511734,
            871.0
          ],
          [
            139.5655660854655,
            37.257461706140816,
            878.0
          ],
          [
            139.56577884970972,
            37.25740210716428,
            891.0
          ],
          [
            139.56599161395397,
            37.257342508187755,
            900.0
          ],
          [
            139.56620437819822,
            37.25728290921122,
            907.0
          ],
          [
            139.56641714244248,
            37.25722331023469,
            909.0
          ],
          [
            139.5666299066867,
            37.25716371125816,
            909.0
          ],
          [
            139.56684267093095,
            37.25710411228163,
            911.0
          ],
          [
            139.5670554351752,
            37.2570445133051,
            916.0
          ],
          [
            139.56726819941946,
            37.25698491432857,
            919.0
          ],
          [
            139.56748096366368,
            37.256925315352035,
            927.0
          ],
          [
            139.56769372790794,
            37.25686571637551,
            930.0
          ],
          [
            139.5679064921522,
            37.25680611739897,
            931.0
          ],
          [
            139.56811925639644,
            37.256746518422446,
            932.0
          ],
          [
            139.56833202064067,
            37.25668691944591,
            934.0
          ],
          [
            139.56854478488492,
            37.256627320469384,
            936.0
          ],
          [
            139.56875754912917,
            37.25656772149285,
            938.0
          ],
          [
            139.56897031337343,
            37.25650812251632,
            940.0
          ],
          [
            139.56918307761765,
            37.25644852353979,
            946.0
          ],
          [
            139.5693958418619,
            37.25638892456326,
            959.0
          ],
          [
            139.56960860610616,
            37.25632932558673,
            969.0
          ],
          [
            139.5698213703504,
            37.2562697266102,
            984.0
          ],
          [
            139.5699432,
            37.2562356,
            990.0
          ]
        ]
      }
    },
    {
      "type": "Feature",
      "properties": {
        "name": "第1ペア",
        "horizontal_dist_map": 790,
        "slope_dist_map": 816,
        "elevation_diff_map": 172.2,
        "midstation": null
      },
      "geometry": {
        "type": "LineString",
        "coordinates": [
          [
            139.5458946,
            37.2664125,
            516.8
          ],
          [
            139.54605279668576,
            37.26628409349736,
            517.8
          ],
          [
            139.54621099337152,
            37.266155686994715,
            521.1
          ],
          [
            139.54636919005725,
            37.266027280492075,
            523.7
          ],
          [
            139.546527386743,
            37.26589887398943,
            525.4
          ],
          [
            139.54668558342877,
            37.26577046748679,
            526.9
          ],
          [
            139.54684378011453,
            37.26564206098414,
            528.9
          ],
          [
            139.54700197680026,
            37.2655136544815,
            530.7
          ],
          [
            139.54716017348602,
            37.265385247978855,
            532.9
          ],
          [
            139.54731837017178,
            37.265256841476216,
            535.9
          ],
          [
            139.54747656685754,
            37.265128434973576,
            538.2
          ],
          [
            139.54763476354327,
            37.26500002847093,
            539.8
          ],
          [
            139.54779296022903,
            37.26487162196829,
            542.7
          ],
          [
            139.5479511569148,
            37.26474321546564,
            550.3
          ],
          [
            139.54810935360055,
            37.264614808963,
            558.9
          ],
          [
            139.54826755028628,
            37.264486402460356,
            567.4
          ],
          [
            139.54842574697204,
            37.26435799595772,
            574.0
          ],
          [
            139.5485839436578,
            37.26422958945508,
            580.1
          ],
          [
            139.54874214034356,
            37.26410118295243,
            586.8
          ],
          [
            139.5489003370293,
            37.26397277644979,
            592.6
          ],
          [
            139.54905853371505,
            37.263844369947144,
            595.9
          ],
          [
            139.54921673040081,
            37.263715963444504,
            600.2
          ],
          [
            139.54937492708657,
            37.26358755694186,
            605.2
          ],
          [
            139.5495331237723,
            37.26345915043922,
            610.2
          ],
          [
            139.54969132045807,
            37.26333074393657,
            616.9
          ],
          [
            139.54984951714383,
            37.26320233743393,
            626.0
          ],
          [
            139.5500077138296,
            37.26307393093129,
            632.4
          ],
          [
            139.55016591051532,
            37.262945524428645,
            641.5
          ],
          [
            139.55032410720108,
            37.262817117926005,
            648.4
          ],
          [
            139.55048230388684,
            37.26268871142336,
            653.8
          ],
          [
            139.5506405005726,
            37.26256030492072,
            658.4
          ],
          [
            139.55079869725833,
            37.26243189841807,
            660.8
          ],
          [
            139.5509568939441,
            37.26230349191543,
            662.5
          ],
          [
            139.55111509062985,
            37.26217508541279,
            664.5
          ],
          [
            139.5512732873156,
            37.262046678910146,
            665.7
          ],
          [
            139.55143148400134,
            37.261918272407506,
            665.9
          ],
          [
            139.5515896806871,
            37.26178986590486,
            681.0
          ],
          [
            139.55174787737286,
            37.26166145940222,
            683.0
          ],
          [
            139.55190607405862,
            37.26153305289957,
            685.0
          ],
          [
            139.55206427074435,
            37.26140464639693,
            688.0
          ],
          [
            139.55214384335753,
            37.26134005818566,
            689.0
          ]
        ]
      }
    },
    {
      "type": "Feature",
      "properties": {
        "name": "第3ペア",
        "horizontal_dist_map": 1085,
        "slope_dist_map": 1102,
        "elevation_diff_map": 168.0,
        "midstation": [
          37.25892081630079,
          139.5590326373919,
          772.0
        ]
      },
      "geometry": {
        "type": "LineString",
        "coordinates": [
          [
            139.551773,
            37.2608623,
            683.0
          ],
          [
            139.55198679462302,
            37.2608050900282,
            687.0
          ],
          [
            139.55220058924604,
            37.26074788005641,
            687.0
          ],
          [
            139.55241438386906,
            37.26069067008461,
            686.0
          ],
          [
            139.55262817849209,
            37.26063346011281,
            686.0
          ],
          [
            139.5528419731151,
            37.26057625014101,
            689.0
          ],
          [
            139.55305576773813,
            37.260519040169214,
            691.0
          ],
          [
            139.55326956236115,
            37.260461830197414,
            693.0
          ],
          [
            139.55348335698417,
            37.260404620225614,
            696.0
          ],
          [
            139.55369715160722,
            37.260347410253814,
            700.0
          ],
          [
            139.55391094623025,
            37.26029020028202,
            704.0
          ],
          [
            139.55412474085327,
            37.26023299031022,
            708.0
          ],
          [
            139.5543385354763,
            37.26017578033842,
            710.0
          ],
          [
            139.5545523300993,
            37.26011857036662,
            710.0
          ],
          [
            139.55476612472233,
            37.26006136039483,
            713.0
          ],
          [
            139.55497991934536,
            37.26000415042303,
            715.0
          ],
          [
            139.55519371396838,
            37.25994694045123,
            717.0
          ],
          [
            139.5554075085914,
            37.259889730479436,
            717.0
          ],
          [
            139.55562130321442,
            37.259832520507636,
            718.0
          ],
          [
            139.55583509783744,
            37.25977531053584,
            719.0
          ],
          [
            139.55604889246047,
            37.25971810056404,
            719.0
          ],
          [
            139.5562626870835,
            37.259660890592244,
            723.0
          ],
          [
            139.5564764817065,
            37.259603680620444,
            728.0
          ],
          [
            139.55669027632953,
            37.259546470648644,
            733.0
          ],
          [
            139.55690407095256,
            37.259489260676844,
            736.0
          ],
          [
            139.55711786557558,
            37.25943205070505,
            740.0
          ],
          [
            139.55733166019863,
            37.25937484073325,
            746.0
          ],
          [
            139.55754545482165,
            37.25931763076145,
            755.0
          ],
          [
            139.55775924944467,
            37.25926042078966,
            760.0
          ],
          [
            139.5579730440677,
            37.25920321081786,
            763.0
          ],
          [
            139.55818683869072,
            37.25914600084606,
            764.0
          ],
          [
            139.55840063331374,
            37.25908879087426,
            766.0
          ],
          [
            139.55861442793676,
            37.259031580902466,
            767.0
          ],
          [
            139.55882822255978,
            37.258974370930666,
            770.0
          ],
          [
            139.5590420171828,
            37.258917160958866,
            772.0
          ],
          [
            139.55925581180583,
            37.258859950987066,
            774.0
          ],
          [
            139.55946960642885,
            37.25880274101527,
            776.0
          ],
          [
            139.55968340105187,
            37.25874553104347,
            780.0
          ],
          [
            139.5598971956749,
            37.25868832107167,
            783.0
          ],
          [
            139.56011099029791,
            37.258631111099874,
            789.0
          ],
          [
            139.56032478492094,
            37.25857390112808,
            792.0
          ],
          [
            139.56053857954396,
            37.25851669115628,
            796.0
          ],
          [
            139.56075237416698,
            37.25845948118448,
            799.0
          ],
          [
            139.56096616879,
            37.25840227121269,
            805.0
          ],
          [
            139.56117996341305,
            37.25834506124089,
            807.0
          ],
          [
            139.56139375803608,
            37.25828785126909,
            812.0
          ],
          [
            139.5616075526591,
            37.25823064129729,
            817.0
          ],
          [
            139.56182134728212,
            37.258173431325496,
            823.0
          ],
          [
            139.56203514190514,
            37.258116221353696,
            827.0
          ],
          [
            139.56224893652816,
            37.258059011381896,
            832.0
          ],
          [
            139.5624627311512,
            37.258001801410096,
            834.0
          ],
          [
            139.5626765257742,
            37.2579445914383,
            838.0
          ],
          [
            139.56289032039723,
            37.2578873814665,
            841.0
          ],
          [
            139.56310411502025,
            37.2578301714947,
            846.0
          ],
          [
            139.56331790964327,
            37.25777296152291,
            850.0
          ],
          [
            139.5633727,
            37.2577583,
            851.0
          ]
        ]
      }
    }
  ]
}