{
  "type": "FeatureCollection",
  "features": [
    {
      "type": "Feature",
      "properties": {
        "name": "ロマンス",
        "horizontal_dist_map": 1000,
        "slope_dist_map": 1023,
        "elevation_diff_map": 197.0
      },
      "geometry": {
        "type": "LineString",
        "coordinates": [
          [
            140.8025352,
            39.9787731,
            998.8
          ],
          [
            140.80276377124093,
            39.97873407247337,
            997.8
          ],
          [
            140.80299234248187,
            39.97869504494674,
            998.9
          ],
          [
            140.80322091372278,
            39.978656017420114,
            1000.5
          ],
          [
            140.80344948496372,
            39.97861698989349,
            1002.0
          ],
          [
            140.80367805620466,
            39.978577962366856,
            1003.7
          ],
          [
            140.8039066274456,
            39.97853893484023,
            1006.7
          ],
          [
            140.8041351986865,
            39.978499907313605,
            1009.8
          ],
          [
            140.80436376992745,
            39.97846087978697,
            1012.8
          ],
          [
            140.8045923411684,
            39.97842185226035,
            1016.1
          ],
          [
            140.80482091240933,
            39.978382824733714,
            1020.5
          ],
          [
            140.80504948365027,
            39.97834379720709,
            1024.5
          ],
          [
            140.80527805489118,
            39.97830476968046,
            1029.0
          ],
          [
            140.80550662613211,
            39.97826574215383,
            1033.6
          ],
          [
            140.80573519737305,
            39.978226714627205,
            1037.7
          ],
          [
            140.805963768614,
            39.97818768710058,
            1042.1
          ],
          [
            140.80619233985493,
            39.97814865957395,
            1046.9
          ],
          [
            140.80642091109584,
            39.97810963204732,
            1051.7
          ],
          [
            140.80664948233678,
            39.978070604520695,
            1055.5
          ],
          [
            140.80687805357772,
            39.97803157699406,
            1059.7
          ],
          [
            140.80710662481866,
            39.97799254946744,
            1064.2
          ],
          [
            140.80733519605957,
            39.97795352194081,
            1069.7
          ],
          [
            140.8075637673005,
            39.97791449441418,
            1073.4
          ],
          [
            140.80779233854145,
            39.977875466887554,
            1077.0
          ],
          [
            140.80802090978239,
            39.97783643936092,
            1081.1
          ],
          [
            140.80824948102332,
            39.977797411834295,
            1086.6
          ],
          [
            140.80847805226423,
            39.97775838430767,
            1092.4
          ],
          [
            140.80870662350517,
            39.97771935678104,
            1096.1
          ],
          [
            140.8089351947461,
            39.97768032925441,
            1102.1
          ],
          [
            140.80916376598705,
            39.977641301727786,
            1106.4
          ],
          [
            140.80939233722796,
            39.97760227420115,
            1111.1
          ],
          [
            140.8096209084689,
            39.97756324667453,
            1116.4
          ],
          [
            140.80984947970984,
            39.9775242191479,
            1124.4
          ],
          [
            140.81007805095078,
            39.97748519162127,
            1128.8
          ],
          [
            140.81030662219172,
            39.977446164094644,
            1132.8
          ],
          [
            140.81053519343263,
            39.97740713656802,
            1137.6
          ],
          [
            140.81076376467357,
            39.977368109041386,
            1142.8
          ],
          [
            140.8109923359145,
            39.97732908151476,
            1147.9
          ],
          [
            140.81122090715544,
            39.97729005398813,
            1155.5
          ],
          [
            140.81144947839638,
            39.9772510264615,
            1161.6
          ],
          [
            140.8116780496373,
            39.97721199893488,
            1169.1
          ],
          [
            140.81190662087823,
            39.977172971408244,
            1173.1
          ],
          [
            140.81213519211917,
            39.97713394388162,
            1175.2
          ],
          [
            140.8123637633601,
            39.97709491635499,
            1177.5
          ],
          [
            140.81259233460102,
            39.97705588882836,
            1181.5
          ],
          [
            140.81282090584196,
            39.977016861301735,
            1183.8
          ],
          [
            140.8130494770829,
            39.97697783377511,
            1185.4
          ],
          [
            140.81327804832384,
            39.97693880624848,
            1189.2
          ],
          [
            140.81350661956478,
            39.97689977872185,
            1191.8
          ],
          [
            140.8137351908057,
            39.976860751195225,
            1193.4
          ],
          [
            140.81396376204663,
            39.97682172366859,
            1195.8
          ],
          [
            140.8139721,
            39.9768203,
            1195.8
          ]
        ]
      }
    }
  ]
}