{
  "type": "FeatureCollection",
  "features": [
    {
      "type": "Feature",
      "properties": {
        "name": "アスペン・ペア",
        "horizontal_dist_map": 986,
        "slope_dist_map": 1009,
        "elevation_diff_map": 209.4
      },
      "geometry": {
        "type": "LineString",
        "coordinates": [
          [
            140.27553702312585,
            40.680898711047796,
            608.7
          ],
          [
            140.2756932359074,
            40.68076346006573,
            610.7
          ],
          [
            140.27584944868892,
            40.68062820908365,
            614.7
          ],
          [
            140.27600566147046,
            40.68049295810158,
            617.5
          ],
          [
            140.27616187425198,
            40.68035770711951,
            621.4
          ],
          [
            140.27631808703353,
            40.680222456137436,
            624.7
          ],
          [
            140.27647429981508,
            40.68008720515537,
            628.0
          ],
          [
            140.2766305125966,
            40.6799519541733,
            632.6
          ],
          [
            140.27678672537814,
            40.67981670319122,
            636.1
          ],
          [
            140.2769429381597,
            40.67968145220915,
            639.3
          ],
          [
            140.2770991509412,
            40.67954620122708,
            643.2
          ],
          [
            140.27725536372276,
            40.679410950245014,
            646.0
          ],
          [
            140.27741157650428,
            40.67927569926294,
            649.6
          ],
          [
            140.27756778928583,
            40.67914044828087,
            654.1
          ],
          [
            140.27772400206737,
            40.6790051972988,
            657.4
          ],
          [
            140.2778802148489,
            40.67886994631672,
            661.0
          ],
          [
            140.27803642763044,
            40.678734695334654,
            665.1
          ],
          [
            140.278192640412,
            40.678599444352585,
            669.2
          ],
          [
            140.2783488531935,
            40.67846419337051,
            673.1
          ],
          [
            140.27850506597505,
            40.67832894238844,
            677.0
          ],
          [
            140.27866127875657,
            40.67819369140637,
            682.0
          ],
          [
            140.27881749153812,
            40.678058440424294,
            685.6
          ],
          [
            140.27897370431967,
            40.677923189442225,
            687.7
          ],
          [
            140.2791299171012,
            40.677787938460156,
            691.4
          ],
          [
            140.27928612988273,
            40.67765268747808,
            696.3
          ],
          [
            140.27944234266428,
            40.67751743649601,
            701.0
          ],
          [
            140.2795985554458,
            40.67738218551394,
            706.7
          ],
          [
            140.27975476822735,
            40.677246934531865,
            711.3
          ],
          [
            140.27991098100887,
            40.677111683549796,
            715.8
          ],
          [
            140.28006719379042,
            40.67697643256773,
            720.5
          ],
          [
            140.28022340657196,
            40.67684118158566,
            725.4
          ],
          [
            140.28037961935348,
            40.67670593060358,
            729.6
          ],
          [
            140.28053583213503,
            40.67657067962151,
            735.7
          ],
          [
            140.28069204491658,
            40.676435428639444,
            742.4
          ],
          [
            140.2808482576981,
            40.67630017765737,
            746.9
          ],
          [
            140.28100447047964,
            40.6761649266753,
            751.6
          ],
          [
            140.28116068326116,
            40.67602967569323,
            755.9
          ],
          [
            140.2813168960427,
            40.67589442471115,
            761.3
          ],
          [
            140.28147310882426,
            40.675759173729084,
            765.6
          ],
          [
            140.28162932160578,
            40.675623922747015,
            770.2
          ],
          [
            140.28178553438732,
            40.67548867176494,
            774.9
          ],
          [
            140.28194174716887,
            40.67535342078287,
            779.6
          ],
          [
            140.2820979599504,
            40.6752181698008,
            784.4
          ],
          [
            140.28225417273194,
            40.675082918818724,
            789.4
          ],
          [
            140.28241038551346,
            40.674947667836655,
            794.0
          ],
          [
            140.282566598295,
            40.674812416854586,
            797.1
          ],
          [
            140.28272281107655,
            40.67467716587251,
            803.3
          ],
          [
            140.28287902385807,
            40.67454191489044,
            808.1
          ],
          [
            140.28303523663962,
            40.67440666390837,
            811.0
          ],
          [
            140.28319144942117,
            40.6742714129263,
            816.7
          ],
          [
            140.28324165843708,
            40.67422794133169,
            818.1
          ]
        ]
      }
    },
    {
      "type": "Feature",
      "properties": {
        "name": "ダイアモンド・ペア",
        "horizontal_dist_map": 1083,
        "slope_dist_map": 1136,
        "elevation_diff_map": 287.5
      },
      "geometry": {
        "type": "LineString",
        "coordinates": [
          [
            140.29121518207663,
            40.6860387336257,
            535.4
          ],
          [
            140.29127714057063,
            40.68586491720249,
            532.5
          ],
          [
            140.2913390990646,
            40.68569110077928,
            531.4
          ],
          [
            140.2914010575586,
            40.68551728435607,
            542.9
          ],
          [
            140.29146301605257,
            40.68534346793286,
            550.6
          ],
          [
            140.29152497454658,
            40.685169651509646,
            553.2
          ],
          [
            140.29158693304058,
            40.68499583508644,
            557.0
          ],
          [
            140.29164889153455,
            40.684822018663226,
            560.4
          ],
          [
            140.29171085002855,
            40.68464820224002,
            564.1
          ],
          [
            140.29177280852252,
            40.684474385816806,
            569.2
          ],
          [
            140.29183476701652,
            40.6843005693936,
            570.2
          ],
          [
            140.29189672551053,
            40.684126752970386,
            573.3
          ],
          [
            140.2919586840045,
            40.68395293654718,
            577.1
          ],
          [
            140.2920206424985,
            40.683779120123965,
            575.2
          ],
          [
            140.29208260099247,
            40.68360530370076,
            569.6
          ],
          [
            140.29214455948647,
            40.683431487277545,
            577.3
          ],
          [
            140.29220651798047,
            40.68325767085434,
            585.7
          ],
          [
            140.29226847647445,
            40.683083854431125,
            589.5
          ],
          [
            140.29233043496845,
            40.68291003800791,
            595.4
          ],
          [
            140.29239239346245,
            40.682736221584705,
            597.7
          ],
          [
            140.29245435195642,
            40.68256240516149,
            600.5
          ],
          [
            140.29251631045042,
            40.682388588738284,
            603.1
          ],
          [
            140.2925782689444,
            40.68221477231507,
            607.0
          ],
          [
            140.2926402274384,
            40.682040955891864,
            610.1
          ],
          [
            140.2927021859324,
            40.68186713946865,
            611.6
          ],
          [
            140.29276414442637,
            40.681693323045444,
            613.3
          ],
          [
            140.29282610292037,
            40.68151950662223,
            617.7
          ],
          [
            140.29288806141435,
            40.681345690199024,
            625.3
          ],
          [
            140.29295001990835,
            40.68117187377581,
            630.5
          ],
          [
            140.29301197840235,
            40.6809980573526,
            632.7
          ],
          [
            140.29307393689632,
            40.68082424092939,
            641.5
          ],
          [
            140.29313589539032,
            40.68065042450618,
            647.5
          ],
          [
            140.2931978538843,
            40.68047660808297,
            653.4
          ],
          [
            140.2932598123783,
            40.68030279165976,
            660.6
          ],
          [
            140.2933217708723,
            40.68012897523655,
            666.6
          ],
          [
            140.29338372936627,
            40.67995515881334,
            672.7
          ],
          [
            140.29344568786027,
            40.67978134239013,
            678.9
          ],
          [
            140.29350764635424,
            40.679607525966915,
            684.2
          ],
          [
            140.29356960484824,
            40.67943370954371,
            690.4
          ],
          [
            140.29363156334225,
            40.679259893120495,
            695.2
          ],
          [
            140.29369352183622,
            40.67908607669729,
            700.3
          ],
          [
            140.29375548033022,
            40.678912260274075,
            706.5
          ],
          [
            140.2938174388242,
            40.67873844385087,
            712.4
          ],
          [
            140.2938793973182,
            40.678564627427654,
            718.9
          ],
          [
            140.2939413558122,
            40.67839081100445,
            725.5
          ],
          [
            140.29400331430617,
            40.678216994581234,
            733.4
          ],
          [
            140.29406527280017,
            40.67804317815803,
            740.8
          ],
          [
            140.29412723129417,
            40.677869361734814,
            752.3
          ],
          [
            140.29418918978814,
            40.67769554531161,
            760.9
          ],
          [
            140.29425114828214,
            40.677521728888394,
            770.5
          ],
          [
            140.29431310677612,
            40.67734791246519,
            780.5
          ],
          [
            140.29437506527012,
            40.67717409604197,
            789.9
          ],
          [
            140.29443702376412,
            40.67700027961877,
            800.4
          ],
          [
            140.2944989822581,
            40.67682646319555,
            812.6
          ],
          [
            140.2945609407521,
            40.67665264677234,
            821.3
          ],
          [
            140.29457259245933,
            40.67661995943688,
            822.9
          ]
        ]
      }
    },
    {
      "type": "Feature",
      "properties": {
        "name": "クワッド2",
        "horizontal_dist_map": 1419,
        "slope_dist_map": 1438,
        "elevation_diff_map": 207.1
      },
      "geometry": {
        "type": "LineString",
        "coordinates": [
          [
            140.28438056073867,
            40.695781624164205,
            401.4
          ],
          [
            140.28438738017655,
            40.69560159654013,
            403.3
          ],
          [
            140.28439419961444,
            40.69542156891606,
            407.0
          ],
          [
            140.28440101905232,
            40.695241541291985,
            410.6
          ],
          [
            140.28440783849024,
            40.69506151366791,
            412.7
          ],
          [
            140.28441465792812,
            40.69488148604383,
            414.6
          ],
          [
            140.284421477366,
            40.694701458419765,
            416.6
          ],
          [
            140.2844282968039,
            40.69452143079569,
            419.5
          ],
          [
            140.28443511624178,
            40.69434140317161,
            420.8
          ],
          [
            140.28444193567967,
            40.69416137554754,
            422.7
          ],
          [
            140.28444875511755,
            40.69398134792347,
            424.6
          ],
          [
            140.28445557455547,
            40.69380132029939,
            427.3
          ],
          [
            140.28446239399335,
            40.69362129267532,
            430.3
          ],
          [
            140.28446921343124,
            40.69344126505124,
            431.6
          ],
          [
            140.28447603286912,
            40.69326123742717,
            435.7
          ],
          [
            140.284482852307,
            40.6930812098031,
            437.7
          ],
          [
            140.2844896717449,
            40.69290118217902,
            439.1
          ],
          [
            140.2844964911828,
            40.692721154554945,
            440.7
          ],
          [
            140.2845033106207,
            40.69254112693088,
            442.1
          ],
          [
            140.28451013005858,
            40.6923610993068,
            444.5
          ],
          [
            140.28451694949646,
            40.692181071682725,
            447.4
          ],
          [
            140.28452376893435,
            40.69200104405865,
            449.1
          ],
          [
            140.28453058837223,
            40.69182101643458,
            451.4
          ],
          [
            140.28453740781012,
            40.691640988810505,
            452.4
          ],
          [
            140.28454422724803,
            40.69146096118643,
            453.5
          ],
          [
            140.28455104668592,
            40.69128093356236,
            454.7
          ],
          [
            140.2845578661238,
            40.691100905938285,
            457.0
          ],
          [
            140.2845646855617,
            40.69092087831421,
            457.1
          ],
          [
            140.28457150499958,
            40.69074085069013,
            457.6
          ],
          [
            140.28457832443746,
            40.690560823066065,
            459.5
          ],
          [
            140.28458514387535,
            40.69038079544199,
            459.4
          ],
          [
            140.28459196331326,
            40.69020076781791,
            463.7
          ],
          [
            140.28459878275115,
            40.69002074019384,
            467.7
          ],
          [
            140.28460560218903,
            40.68984071256977,
            470.3
          ],
          [
            140.28461242162692,
            40.68966068494569,
            472.3
          ],
          [
            140.2846192410648,
            40.68948065732162,
            475.0
          ],
          [
            140.2846260605027,
            40.68930062969754,
            477.3
          ],
          [
            140.2846328799406,
            40.68912060207347,
            479.9
          ],
          [
            140.2846396993785,
            40.6889405744494,
            480.9
          ],
          [
            140.28464651881637,
            40.68876054682532,
            482.3
          ],
          [
            140.28465333825426,
            40.688580519201246,
            484.6
          ],
          [
            140.28466015769214,
            40.68840049157718,
            486.7
          ],
          [
            140.28466697713003,
            40.6882204639531,
            490.8
          ],
          [
            140.28467379656792,
            40.688040436329025,
            495.1
          ],
          [
            140.28468061600583,
            40.68786040870495,
            499.4
          ],
          [
            140.28468743544371,
            40.68768038108088,
            501.6
          ],
          [
            140.2846942548816,
            40.687500353456805,
            505.2
          ],
          [
            140.28470107431949,
            40.68732032583273,
            510.0
          ],
          [
            140.28470789375737,
            40.687140298208654,
            512.7
          ],
          [
            140.28471471319526,
            40.686960270584585,
            516.3
          ],
          [
            140.28472153263314,
            40.68678024296051,
            520.5
          ],
          [
            140.28472835207106,
            40.68660021533643,
            525.7
          ],
          [
            140.28473517150894,
            40.686420187712365,
            531.6
          ],
          [
            140.28474199094683,
            40.68624016008829,
            535.5
          ],
          [
            140.2847488103847,
            40.68606013246421,
            538.2
          ],
          [
            140.2847556298226,
            40.68588010484014,
            539.1
          ],
          [
            140.28476244926048,
            40.68570007721607,
            541.8
          ],
          [
            140.2847692686984,
            40.68552004959199,
            546.2
          ],
          [
            140.28477608813628,
            40.68534002196792,
            550.8
          ],
          [
            140.28478290757417,
            40.68515999434384,
            557.5
          ],
          [
            140.28478972701205,
            40.68497996671977,
            562.4
          ],
          [
            140.28479654644994,
            40.6847999390957,
            567.3
          ],
          [
            140.28480336588783,
            40.68461991147162,
            571.8
          ],
          [
            140.2848101853257,
            40.684439883847546,
            574.1
          ],
          [
            140.28481700476362,
            40.68425985622348,
            578.1
          ],
          [
            140.2848238242015,
            40.6840798285994,
            586.5
          ],
          [
            140.2848306436394,
            40.683899800975325,
            590.0
          ],
          [
            140.28483746307728,
            40.68371977335125,
            593.2
          ],
          [
            140.28484428251517,
            40.68353974572718,
            595.6
          ],
          [
            140.28485110195305,
            40.683359718103105,
            599.4
          ],
          [
            140.28485792139094,
            40.68317969047903,
            602.6
          ],
          [
            140.2848646928404,
            40.68300092971118,
            608.5
          ]
        ]
      }
    },
    {
      "type": "Feature",
      "properties": {
        "name": "ゴンドラ",
        "horizontal_dist_map": 2909,
        "slope_dist_map": 2975,
        "elevation_diff_map": 515.3
      },
      "geometry": {
        "type": "LineString",
        "coordinates": [
          [
            140.28218386404347,
            40.69504602123942,
            401.6
          ],
          [
            140.28221638421306,
            40.69486762821605,
            400.5
          ],
          [
            140.28224890438267,
            40.69468923519268,
            404.7
          ],
          [
            140.28228142455225,
            40.69451084216931,
            408.4
          ],
          [
            140.28231394472186,
            40.69433244914594,
            410.4
          ],
          [
            140.28234646489145,
            40.69415405612257,
            412.7
          ],
          [
            140.28237898506106,
            40.6939756630992,
            415.2
          ],
          [
            140.28241150523064,
            40.693797270075834,
            416.9
          ],
          [
            140.28244402540025,
            40.693618877052465,
            419.4
          ],
          [
            140.28247654556984,
            40.69344048402909,
            421.7
          ],
          [
            140.28250906573945,
            40.69326209100572,
            422.8
          ],
          [
            140.28254158590903,
            40.69308369798235,
            422.7
          ],
          [
            140.28257410607864,
            40.692905304958984,
            423.5
          ],
          [
            140.28260662624822,
            40.692726911935615,
            429.2
          ],
          [
            140.2826391464178,
            40.69254851891225,
            431.5
          ],
          [
            140.28267166658742,
            40.69237012588887,
            434.7
          ],
          [
            140.282704186757,
            40.6921917328655,
            436.8
          ],
          [
            140.2827367069266,
            40.692013339842134,
            439.3
          ],
          [
            140.2827692270962,
            40.691834946818766,
            443.6
          ],
          [
            140.2828017472658,
            40.6916565537954,
            444.3
          ],
          [
            140.2828342674354,
            40.69147816077202,
            447.3
          ],
          [
            140.282866787605,
            40.69129976774865,
            452.3
          ],
          [
            140.28289930777458,
            40.691121374725284,
            455.6
          ],
          [
            140.2829318279442,
            40.690942981701916,
            457.2
          ],
          [
            140.28296434811378,
            40.69076458867855,
            456.6
          ],
          [
            140.2829968682834,
            40.69058619565518,
            455.5
          ],
          [
            140.28302938845297,
            40.6904078026318,
            454.4
          ],
          [
            140.28306190862259,
            40.690229409608435,
            457.5
          ],
          [
            140.28309442879217,
            40.690051016585066,
            458.6
          ],
          [
            140.28312694896175,
            40.6898726235617,
            457.6
          ],
          [
            140.28315946913136,
            40.68969423053833,
            456.8
          ],
          [
            140.28319198930095,
            40.68951583751496,
            459.9
          ],
          [
            140.28322450947056,
            40.689337444491585,
            464.9
          ],
          [
            140.28325702964014,
            40.689159051468216,
            472.3
          ],
          [
            140.28328954980975,
            40.68898065844485,
            474.5
          ],
          [
            140.28332206997933,
            40.68880226542148,
            474.4
          ],
          [
            140.28335459014895,
            40.68862387239811,
            476.1
          ],
          [
            140.28338711031853,
            40.688445479374735,
            478.1
          ],
          [
            140.28341963048814,
            40.68826708635137,
            480.5
          ],
          [
            140.28345215065772,
            40.688088693328,
            484.0
          ],
          [
            140.28348467082733,
            40.68791030030463,
            488.1
          ],
          [
            140.28351719099692,
            40.68773190728126,
            492.9
          ],
          [
            140.2835497111665,
            40.68755351425789,
            497.9
          ],
          [
            140.2835822313361,
            40.68737512123452,
            501.8
          ],
          [
            140.2836147515057,
            40.68719672821115,
            506.8
          ],
          [
            140.2836472716753,
            40.68701833518778,
            509.0
          ],
          [
            140.2836797918449,
            40.68683994216441,
            514.1
          ],
          [
            140.2837123120145,
            40.68666154914104,
            517.7
          ],
          [
            140.28374483218408,
            40.68648315611767,
            522.8
          ],
          [
            140.2837773523537,
            40.6863047630943,
            526.1
          ],
          [
            140.28380987252328,
            40.68612637007093,
            530.8
          ],
          [
            140.2838423926929,
            40.68594797704756,
            534.3
          ],
          [
            140.28387491286247,
            40.68576958402419,
            538.7
          ],
          [
            140.28390743303208,
            40.685591191000825,
            541.7
          ],
          [
            140.28393995320167,
            40.68541279797745,
            545.0
          ],
          [
            140.28397247337125,
            40.68523440495408,
            549.8
          ],
          [
            140.28400499354086,
            40.68505601193071,
            557.8
          ],
          [
            140.28403751371044,
            40.68487761890734,
            561.8
          ],
          [
            140.28407003388006,
            40.684699225883975,
            567.3
          ],
          [
            140.28410255404964,
            40.684520832860606,
            570.8
          ],
          [
            140.28413507421925,
            40.68434243983723,
            580.6
          ],
          [
            140.28416759438883,
            40.68416404681386,
            586.1
          ],
          [
            140.28420011455844,
            40.683985653790494,
            591.8
          ],
          [
            140.28423263472803,
            40.683807260767125,
            596.1
          ],
          [
            140.28426515489764,
            40.68362886774376,
            599.1
          ],
          [
            140.28429767506722,
            40.68345047472038,
            602.6
          ],
          [
            140.28433019523683,
            40.68327208169701,
            608.8
          ],
          [
            140.28436271540642,
            40.683093688673644,
            612.1
          ],
          [
            140.284395235576,
            40.682915295650275,
            618.1
          ],
          [
            140.2844277557456,
            40.68273690262691,
            623.1
          ],
          [
            140.2844602759152,
            40.68255850960354,
            629.1
          ],
          [
            140.2844927960848,
            40.68238011658016,
            636.6
          ],
          [
            140.2845253162544,
            40.682201723556794,
            644.8
          ],
          [
            140.284557836424,
            40.682023330533426,
            656.9
          ],
          [
            140.28459035659358,
            40.68184493751006,
            665.6
          ],
          [
            140.2846228767632,
            40.68166654448669,
            679.8
          ],
          [
            140.28465539693278,
            40.68148815146332,
            688.3
          ],
          [
            140.2846879171024,
            40.681309758439944,
            697.2
          ],
          [
            140.28472043727197,
            40.681131365416576,
            700.4
          ],
          [
            140.28475295744158,
            40.68095297239321,
            705.0
          ],
          [
            140.28478547761117,
            40.68077457936984,
            709.5
          ],
          [
            140.28481799778078,
            40.68059618634647,
            713.3
          ],
          [
            140.28485051795036,
            40.680417793323095,
            715.3
          ],
          [
            140.28488303811994,
            40.680239400299726,
            716.4
          ],
          [
            140.28491555828955,
            40.68006100727636,
            716.4
          ],
          [
            140.28494807845914,
            40.67988261425299,
            716.5
          ],
          [
            140.28498059862875,
            40.67970422122962,
            716.6
          ],
          [
            140.28501311879833,
            40.67952582820625,
            718.0
          ],
          [
            140.28504563896794,
            40.679347435182876,
            719.9
          ],
          [
            140.28507815913753,
            40.67916904215951,
            722.4
          ],
          [
            140.28511067930714,
            40.67899064913614,
            724.0
          ],
          [
            140.28514319947672,
            40.67881225611277,
            725.2
          ],
          [
            140.28517571964633,
            40.6786338630894,
            727.0
          ],
          [
            140.28520823981592,
            40.678455470066034,
            729.1
          ],
          [
            140.28524075998553,
            40.67827707704266,
            731.9
          ],
          [
            140.2852732801551,
            40.67809868401929,
            734.9
          ],
          [
            140.2853058003247,
            40.67792029099592,
            737.2
          ],
          [
            140.2853383204943,
            40.67774189797255,
            740.7
          ],
          [
            140.2853708406639,
            40.677563504949184,
            743.8
          ],
          [
            140.2854033608335,
            40.67738511192581,
            746.5
          ],
          [
            140.28543588100308,
            40.67720671890244,
            748.3
          ],
          [
            140.2854684011727,
            40.67702832587907,
            750.1
          ],
          [
            140.28550092134228,
            40.6768499328557,
            752.4
          ],
          [
            140.2855334415119,
            40.676671539832334,
            753.8
          ],
          [
            140.28556596168147,
            40.676493146808966,
            755.9
          ],
          [
            140.28559848185108,
            40.67631475378559,
            757.4
          ],
          [
            140.28563100202066,
            40.67613636076222,
            760.0
          ],
          [
            140.28566352219028,
            40.67595796773885,
            762.2
          ],
          [
            140.28569604235986,
            40.675779574715484,
            765.6
          ],
          [
            140.28572856252944,
            40.675601181692116,
            768.4
          ],
          [
            140.28576108269905,
            40.67542278866875,
            772.3
          ],
          [
            140.28579360286864,
            40.67524439564537,
            775.6
          ],
          [
            140.28582612303825,
            40.675066002622,
            779.6
          ],
          [
            140.28585864320783,
            40.674887609598635,
            782.6
          ],
          [
            140.28589116337744,
            40.674709216575266,
            785.6
          ],
          [
            140.28592368354703,
            40.6745308235519,
            788.3
          ],
          [
            140.28595620371664,
            40.67435243052852,
            791.7
          ],
          [
            140.28598872388622,
            40.67417403750515,
            793.5
          ],
          [
            140.28602124405583,
            40.673995644481785,
            796.5
          ],
          [
            140.28605376422541,
            40.673817251458416,
            798.1
          ],
          [
            140.28608628439503,
            40.67363885843505,
            801.4
          ],
          [
            140.2861188045646,
            40.67346046541168,
            805.1
          ],
          [
            140.28615132473422,
            40.673282072388304,
            809.0
          ],
          [
            140.2861838449038,
            40.673103679364935,
            811.8
          ],
          [
            140.2862163650734,
            40.67292528634157,
            815.2
          ],
          [
            140.286248885243,
            40.6727468933182,
            819.1
          ],
          [
            140.28628140541258,
            40.67256850029483,
            822.8
          ],
          [
            140.2863139255822,
            40.67239010727146,
            825.6
          ],
          [
            140.28634644575178,
            40.672211714248085,
            829.1
          ],
          [
            140.2863789659214,
            40.67203332122472,
            833.2
          ],
          [
            140.28641148609097,
            40.67185492820135,
            835.9
          ],
          [
            140.28644400626058,
            40.67167653517798,
            840.1
          ],
          [
            140.28647652643016,
            40.67149814215461,
            842.1
          ],
          [
            140.28650904659978,
            40.671319749131236,
            844.4
          ],
          [
            140.28654156676936,
            40.67114135610787,
            847.5
          ],
          [
            140.28657408693897,
            40.6709629630845,
            852.3
          ],
          [
            140.28660660710855,
            40.67078457006113,
            856.4
          ],
          [
            140.28663912727814,
            40.67060617703776,
            862.5
          ],
          [
            140.28667164744775,
            40.67042778401439,
            868.0
          ],
          [
            140.28670416761733,
            40.67024939099102,
            875.7
          ],
          [
            140.28673668778694,
            40.67007099796765,
            885.1
          ],
          [
            140.28676920795652,
            40.66989260494428,
            890.5
          ],
          [
            140.28680172812614,
            40.66971421192091,
            896.2
          ],
          [
            140.28683424829572,
            40.66953581889754,
            901.5
          ],
          [
            140.28686676846533,
            40.66935742587417,
            911.5
          ],
          [
            140.2868992886349,
            40.6691790328508,
            916.5
          ],
          [
            140.28691501090984,
            40.66909278655529,
            916.9
          ]
        ]
      }
    },
    {
      "type": "Feature",
      "properties": {
        "name": "クワッド1",
        "horizontal_dist_map": 1661,
        "slope_dist_map": 1701,
        "elevation_diff_map": 341.5
      },
      "geometry": {
        "type": "LineString",
        "coordinates": [
          [
            140.2771731,
            40.6917516,
            396.1
          ],
          [
            140.2772237605148,
            40.69157567483839,
            395.7
          ],
          [
            140.2772744210296,
            40.691399749676776,
            398.4
          ],
          [
            140.2773250815444,
            40.69122382451517,
            405.1
          ],
          [
            140.27737574205923,
            40.691047899353556,
            411.0
          ],
          [
            140.27742640257404,
            40.69087197419194,
            416.7
          ],
          [
            140.27747706308884,
            40.69069604903033,
            418.4
          ],
          [
            140.27752772360364,
            40.69052012386872,
            421.3
          ],
          [
            140.27757838411844,
            40.69034419870711,
            422.7
          ],
          [
            140.27762904463324,
            40.690168273545495,
            422.3
          ],
          [
            140.27767970514805,
            40.68999234838388,
            426.9
          ],
          [
            140.27773036566288,
            40.68981642322227,
            430.6
          ],
          [
            140.27778102617768,
            40.68964049806066,
            436.4
          ],
          [
            140.27783168669248,
            40.68946457289905,
            440.8
          ],
          [
            140.27788234720728,
            40.689288647737435,
            444.4
          ],
          [
            140.27793300772208,
            40.68911272257582,
            448.1
          ],
          [
            140.27798366823689,
            40.68893679741421,
            451.3
          ],
          [
            140.2780343287517,
            40.6887608722526,
            455.7
          ],
          [
            140.2780849892665,
            40.68858494709099,
            459.6
          ],
          [
            140.27813564978132,
            40.688409021929374,
            462.8
          ],
          [
            140.27818631029612,
            40.68823309676776,
            465.5
          ],
          [
            140.27823697081092,
            40.688057171606154,
            468.5
          ],
          [
            140.27828763132572,
            40.68788124644454,
            478.1
          ],
          [
            140.27833829184053,
            40.68770532128293,
            484.4
          ],
          [
            140.27838895235533,
            40.68752939612131,
            488.7
          ],
          [
            140.27843961287013,
            40.6873534709597,
            492.2
          ],
          [
            140.27849027338496,
            40.68717754579809,
            496.2
          ],
          [
            140.27854093389976,
            40.68700162063648,
            499.7
          ],
          [
            140.27859159441456,
            40.686825695474866,
            502.7
          ],
          [
            140.27864225492937,
            40.68664977031325,
            505.6
          ],
          [
            140.27869291544417,
            40.686473845151646,
            510.0
          ],
          [
            140.27874357595897,
            40.68629791999003,
            514.8
          ],
          [
            140.27879423647377,
            40.68612199482842,
            519.0
          ],
          [
            140.2788448969886,
            40.685946069666805,
            523.0
          ],
          [
            140.2788955575034,
            40.68577014450519,
            525.5
          ],
          [
            140.2789462180182,
            40.685594219343585,
            527.3
          ],
          [
            140.278996878533,
            40.68541829418197,
            530.3
          ],
          [
            140.2790475390478,
            40.68524236902036,
            534.7
          ],
          [
            140.2790981995626,
            40.685066443858744,
            538.6
          ],
          [
            140.2791488600774,
            40.68489051869714,
            541.7
          ],
          [
            140.27919952059221,
            40.684714593535524,
            544.5
          ],
          [
            140.27925018110705,
            40.68453866837391,
            548.3
          ],
          [
            140.27930084162185,
            40.6843627432123,
            552.0
          ],
          [
            140.27935150213665,
            40.684186818050684,
            554.2
          ],
          [
            140.27940216265145,
            40.68401089288908,
            558.2
          ],
          [
            140.27945282316625,
            40.68383496772746,
            562.3
          ],
          [
            140.27950348368105,
            40.68365904256585,
            567.2
          ],
          [
            140.27955414419586,
            40.683483117404236,
            571.0
          ],
          [
            140.2796048047107,
            40.68330719224262,
            573.5
          ],
          [
            140.2796554652255,
            40.683131267081016,
            577.8
          ],
          [
            140.2797061257403,
            40.6829553419194,
            581.1
          ],
          [
            140.2797567862551,
            40.68277941675779,
            583.8
          ],
          [
            140.2798074467699,
            40.682603491596176,
            587.0
          ],
          [
            140.2798581072847,
            40.68242756643457,
            590.6
          ],
          [
            140.2799087677995,
            40.682251641272956,
            595.1
          ],
          [
            140.27995942831433,
            40.68207571611134,
            600.9
          ],
          [
            140.28001008882913,
            40.68189979094973,
            607.6
          ],
          [
            140.28006074934393,
            40.681723865788115,
            612.3
          ],
          [
            140.28011140985873,
            40.68154794062651,
            617.7
          ],
          [
            140.28016207037354,
            40.681372015464895,
            620.5
          ],
          [
            140.28021273088834,
            40.68119609030328,
            624.9
          ],
          [
            140.28026339140314,
            40.68102016514167,
            626.7
          ],
          [
            140.28031405191797,
            40.68084423998006,
            631.5
          ],
          [
            140.28036471243277,
            40.68066831481845,
            637.3
          ],
          [
            140.28041537294757,
            40.680492389656834,
            641.2
          ],
          [
            140.28046603346237,
            40.68031646449522,
            647.6
          ],
          [
            140.28051669397718,
            40.68014053933361,
            652.2
          ],
          [
            140.28056735449198,
            40.679964614172,
            657.2
          ],
          [
            140.28061801500678,
            40.67978868901039,
            666.1
          ],
          [
            140.28066867552158,
            40.67961276384877,
            672.2
          ],
          [
            140.2807193360364,
            40.67943683868716,
            677.8
          ],
          [
            140.28076999655121,
            40.67926091352555,
            683.5
          ],
          [
            140.28082065706602,
            40.67908498836394,
            687.4
          ],
          [
            140.28087131758082,
            40.678909063202326,
            693.4
          ],
          [
            140.28092197809562,
            40.67873313804071,
            697.4
          ],
          [
            140.28097263861042,
            40.6785572128791,
            701.7
          ],
          [
            140.28102329912522,
            40.67838128771749,
            705.9
          ],
          [
            140.28107395964005,
            40.67820536255588,
            710.4
          ],
          [
            140.28112462015486,
            40.678029437394265,
            716.2
          ],
          [
            140.28117528066966,
            40.67785351223265,
            720.2
          ],
          [
            140.28122594118446,
            40.67767758707104,
            723.4
          ],
          [
            140.28127660169926,
            40.67750166190943,
            728.5
          ],
          [
            140.28132726221406,
            40.67732573674782,
            732.4
          ],
          [
            140.28137792272886,
            40.677149811586204,
            737.6
          ],
          [
            140.2813819,
            40.677136,
            737.6
          ]
        ]
      }
    }
  ]
}