{
  "type": "FeatureCollection",
  "features": [
    {
      "type": "Feature",
      "properties": {
        "name": "第2ペア",
        "horizontal_dist_map": 578,
        "slope_dist_map": 601,
        "elevation_diff_map": 141.1
      },
      "geometry": {
        "type": "LineString",
        "coordinates": [
          [
            138.07047004636755,
            37.002554944004096,
            520.4
          ],
          [
            138.0705147172954,
            37.00237832489843,
            524.1
          ],
          [
            138.07055768939142,
            37.002201436205546,
            527.4
          ],
          [
            138.0706002497478,
            37.00202448216301,
            528.9
          ],
          [
            138.0706428262798,
            37.00184753064384,
            532.4
          ],
          [
            138.07068540281182,
            37.00167057912468,
            536.2
          ],
          [
            138.07072797934384,
            37.00149362760551,
            542.6
          ],
          [
            138.070770562521,
            37.00131667714007,
            545.3
          ],
          [
            138.07081314825217,
            37.0011397270796,
            546.4
          ],
          [
            138.07085573398334,
            37.000962777019126,
            548.5
          ],
          [
            138.07089832003484,
            37.00078582701683,
            551.8
          ],
          [
            138.07094090701528,
            37.000608877183204,
            552.5
          ],
          [
            138.07098349399575,
            37.00043192734958,
            555.0
          ],
          [
            138.07102607864496,
            37.00025497715603,
            558.8
          ],
          [
            138.07106858812185,
            37.000078015356394,
            560.8
          ],
          [
            138.0711111691952,
            36.99990106465018,
            565.2
          ],
          [
            138.07115376953018,
            36.999724116928434,
            570.0
          ],
          [
            138.0711963698652,
            36.999547169206686,
            581.5
          ],
          [
            138.0712389306142,
            36.999370215377105,
            588.3
          ],
          [
            138.07128147578513,
            36.99919325914394,
            593.8
          ],
          [
            138.0713240424767,
            36.99901630625436,
            596.0
          ],
          [
            138.07136663603842,
            36.998839357539524,
            598.8
          ],
          [
            138.07140922960016,
            36.998662408824686,
            604.4
          ],
          [
            138.07145182316188,
            36.99848546010985,
            611.3
          ],
          [
            138.07149438625595,
            36.99830850670394,
            621.8
          ],
          [
            138.07153694541054,
            36.998131552691476,
            629.3
          ],
          [
            138.07157950622042,
            36.99795459895149,
            640.5
          ],
          [
            138.07162206756252,
            36.99777764529912,
            649.2
          ],
          [
            138.07166455824031,
            36.997600680739296,
            657.6
          ],
          [
            138.07170453350383,
            36.99743395753737,
            661.5
          ]
        ]
      }
    },
    {
      "type": "Feature",
      "properties": {
        "name": "第1クワッド",
        "horizontal_dist_map": 1286,
        "slope_dist_map": 1388,
        "elevation_diff_map": 490.7
      },
      "geometry": {
        "type": "LineString",
        "coordinates": [
          [
            138.06958987655435,
            37.002085192298814,
            518.1
          ],
          [
            138.06949995515652,
            37.00192003835465,
            518.6
          ],
          [
            138.06941003375866,
            37.00175488441049,
            521.6
          ],
          [
            138.06932011236083,
            37.00158973046632,
            528.4
          ],
          [
            138.06923019096297,
            37.001424576522155,
            533.2
          ],
          [
            138.06914026956514,
            37.001259422577995,
            542.9
          ],
          [
            138.0690503481673,
            37.00109426863383,
            553.0
          ],
          [
            138.06896042676945,
            37.00092911468967,
            560.3
          ],
          [
            138.06887050537162,
            37.0007639607455,
            565.8
          ],
          [
            138.0687805839738,
            37.000598806801335,
            568.3
          ],
          [
            138.06869066257593,
            37.000433652857176,
            571.0
          ],
          [
            138.0686007411781,
            37.00026849891301,
            578.4
          ],
          [
            138.06851081978024,
            37.00010334496884,
            584.3
          ],
          [
            138.0684208983824,
            36.99993819102468,
            589.4
          ],
          [
            138.06833097698458,
            36.999773037080516,
            595.7
          ],
          [
            138.06824105558672,
            36.99960788313635,
            600.3
          ],
          [
            138.0681511341889,
            36.99944272919219,
            606.5
          ],
          [
            138.06806121279104,
            36.99927757524802,
            610.4
          ],
          [
            138.0679712913932,
            36.99911242130386,
            619.7
          ],
          [
            138.06788136999538,
            36.998947267359696,
            627.6
          ],
          [
            138.06779144859752,
            36.99878211341553,
            639.8
          ],
          [
            138.0677015271997,
            36.99861695947137,
            648.6
          ],
          [
            138.06761160580183,
            36.9984518055272,
            659.3
          ],
          [
            138.067521684404,
            36.99828665158304,
            671.6
          ],
          [
            138.06743176300617,
            36.99812149763888,
            679.9
          ],
          [
            138.0673418416083,
            36.99795634369471,
            686.0
          ],
          [
            138.06725192021048,
            36.997791189750544,
            692.0
          ],
          [
            138.06716199881265,
            36.997626035806384,
            703.2
          ],
          [
            138.0670720774148,
            36.99746088186222,
            712.2
          ],
          [
            138.06698215601696,
            36.99729572791806,
            724.8
          ],
          [
            138.0668922346191,
            36.99713057397389,
            742.0
          ],
          [
            138.06680231322127,
            36.996965420029724,
            753.1
          ],
          [
            138.06671239182344,
            36.996800266085565,
            763.6
          ],
          [
            138.06662247042559,
            36.9966351121414,
            772.4
          ],
          [
            138.06653254902776,
            36.99646995819723,
            779.2
          ],
          [
            138.0664426276299,
            36.99630480425307,
            787.2
          ],
          [
            138.06635270623207,
            36.996139650308905,
            795.5
          ],
          [
            138.06626278483424,
            36.99597449636474,
            803.4
          ],
          [
            138.06617286343638,
            36.99580934242058,
            817.5
          ],
          [
            138.06608294203855,
            36.99564418847641,
            828.8
          ],
          [
            138.0659930206407,
            36.995479034532245,
            836.9
          ],
          [
            138.06590309924286,
            36.995313880588085,
            843.6
          ],
          [
            138.06581317784503,
            36.99514872664392,
            850.0
          ],
          [
            138.06572325644717,
            36.99498357269976,
            856.4
          ],
          [
            138.06563333504934,
            36.99481841875559,
            867.5
          ],
          [
            138.0655434136515,
            36.994653264811426,
            881.8
          ],
          [
            138.06545349225365,
            36.994488110867266,
            891.1
          ],
          [
            138.06536357085582,
            36.9943229569231,
            897.9
          ],
          [
            138.06527364945796,
            36.99415780297893,
            900.9
          ],
          [
            138.06518372806013,
            36.99399264903477,
            907.4
          ],
          [
            138.0650938066623,
            36.993827495090606,
            913.0
          ],
          [
            138.06500388526445,
            36.99366234114644,
            920.8
          ],
          [
            138.06491396386662,
            36.99349718720228,
            927.2
          ],
          [
            138.06482404246876,
            36.99333203325811,
            931.7
          ],
          [
            138.06473412107093,
            36.993166879313954,
            936.6
          ],
          [
            138.0646441996731,
            36.99300172536979,
            943.8
          ],
          [
            138.06455427827524,
            36.99283657142562,
            952.4
          ],
          [
            138.0644643568774,
            36.99267141748146,
            959.9
          ],
          [
            138.06437443547955,
            36.992506263537294,
            967.7
          ],
          [
            138.06428451408172,
            36.99234110959313,
            975.1
          ],
          [
            138.0641945926839,
            36.99217595564897,
            983.4
          ],
          [
            138.06410467128603,
            36.9920108017048,
            991.2
          ],
          [
            138.0640147498882,
            36.991845647760634,
            999.3
          ],
          [
            138.06392482849037,
            36.991680493816474,
            1005.2
          ],
          [
            138.0638349070925,
            36.99151533987231,
            1008.6
          ],
          [
            138.06380723696782,
            36.99146451959661,
            1008.8
          ]
        ]
      }
    },
    {
      "type": "Feature",
      "properties": {
        "name": "第3ペア",
        "horizontal_dist_map": 923,
        "slope_dist_map": 996,
        "elevation_diff_map": 346.9
      },
      "geometry": {
        "type": "LineString",
        "coordinates": [
          [
            138.0714221,
            36.9971911,
            660.6
          ],
          [
            138.07126340141875,
            36.99706352773368,
            660.3
          ],
          [
            138.07110470283752,
            36.996935955467364,
            661.3
          ],
          [
            138.07094600425626,
            36.99680838320104,
            663.8
          ],
          [
            138.07078730631972,
            36.99668081046886,
            671.0
          ],
          [
            138.070628619506,
            36.99655322969901,
            675.6
          ],
          [
            138.07046993269233,
            36.99642564892916,
            685.9
          ],
          [
            138.07031124587863,
            36.99629806815931,
            692.4
          ],
          [
            138.07015255906495,
            36.99617048738946,
            704.1
          ],
          [
            138.06999386496506,
            36.99604291266066,
            710.7
          ],
          [
            138.0698351512797,
            36.99591535417024,
            715.4
          ],
          [
            138.06967643759435,
            36.995787795679824,
            721.8
          ],
          [
            138.06951773906314,
            36.99566022552134,
            726.5
          ],
          [
            138.06935904752967,
            36.99553264997484,
            731.2
          ],
          [
            138.06920035599623,
            36.99540507442835,
            741.4
          ],
          [
            138.0690416644628,
            36.99527749888185,
            750.9
          ],
          [
            138.06888297651975,
            36.995149921248384,
            757.7
          ],
          [
            138.06872428932485,
            36.995022343180054,
            765.5
          ],
          [
            138.06856560212995,
            36.99489476511173,
            777.0
          ],
          [
            138.06840691493508,
            36.9947671870434,
            790.1
          ],
          [
            138.06824822774018,
            36.99463960897507,
            800.0
          ],
          [
            138.06808953042653,
            36.99451203943062,
            809.7
          ],
          [
            138.0679308311704,
            36.99438447176646,
            819.1
          ],
          [
            138.06777215952766,
            36.994256882304995,
            829.2
          ],
          [
            138.06761348434813,
            36.994129295853085,
            838.1
          ],
          [
            138.06745479805747,
            36.99400171885587,
            844.5
          ],
          [
            138.0672961117668,
            36.993874141858655,
            847.2
          ],
          [
            138.06713742547615,
            36.99374656486144,
            858.1
          ],
          [
            138.0669787391855,
            36.993618987864224,
            865.5
          ],
          [
            138.06682005215256,
            36.99349141151094,
            871.0
          ],
          [
            138.06666135104058,
            36.993363847371505,
            879.3
          ],
          [
            138.0665026499286,
            36.99323628323207,
            885.2
          ],
          [
            138.0663439488166,
            36.99310871909264,
            897.6
          ],
          [
            138.06618524770462,
            36.992981154953206,
            909.3
          ],
          [
            138.06602656159254,
            36.99285357952039,
            918.4
          ],
          [
            138.0658678807482,
            36.99272600012153,
            927.5
          ],
          [
            138.0657091999038,
            36.99259842072266,
            937.0
          ],
          [
            138.06555051905946,
            36.992470841323794,
            949.6
          ],
          [
            138.0653918382151,
            36.99234326192493,
            956.6
          ],
          [
            138.06523315526798,
            36.99221568509348,
            965.2
          ],
          [
            138.06507447196734,
            36.99208810869366,
            969.8
          ],
          [
            138.0649157886667,
            36.99196053229384,
            974.7
          ],
          [
            138.06475710536606,
            36.99183295589402,
            981.1
          ],
          [
            138.06459842206542,
            36.9917053794942,
            990.5
          ],
          [
            138.06443973616393,
            36.99157780581398,
            998.3
          ],
          [
            138.06428104987398,
            36.99145023253998,
            1005.0
          ],
          [
            138.06412235676044,
            36.99132266500116,
            1007.6
          ],
          [
            138.0640913,
            36.9912977,
            1007.5
          ]
        ]
      }
    }
  ]
}