{
  "type": "FeatureCollection",
  "features": [
    {
      "type": "Feature",
      "properties": {
        "name": "アルペン",
        "horizontal_dist_map": 647,
        "slope_dist_map": 682,
        "elevation_diff_map": 186.6
      },
      "geometry": {
        "type": "LineString",
        "coordinates": [
          [
            138.4983637050246,
            35.93034225327968,
            1435.8
          ],
          [
            138.49856849649288,
            35.93041116341318,
            1435.8
          ],
          [
            138.4987732879612,
            35.930480073546676,
            1436.6
          ],
          [
            138.4989780794295,
            35.930548983680175,
            1437.3
          ],
          [
            138.4991828708978,
            35.930617893813675,
            1438.8
          ],
          [
            138.4993876623661,
            35.93068680394717,
            1442.8
          ],
          [
            138.49959245383442,
            35.93075571408067,
            1445.4
          ],
          [
            138.49979724530272,
            35.93082462421417,
            1446.8
          ],
          [
            138.50000203677104,
            35.93089353434766,
            1448.1
          ],
          [
            138.50020682823933,
            35.93096244448116,
            1451.0
          ],
          [
            138.50041161970765,
            35.93103135461466,
            1455.7
          ],
          [
            138.50061641117594,
            35.93110026474815,
            1460.2
          ],
          [
            138.50082120264426,
            35.93116917488165,
            1465.9
          ],
          [
            138.50102599411255,
            35.93123808501515,
            1469.5
          ],
          [
            138.50123078558087,
            35.931306995148645,
            1474.9
          ],
          [
            138.50143557704916,
            35.931375905282145,
            1478.9
          ],
          [
            138.50164036851749,
            35.931444815415645,
            1482.8
          ],
          [
            138.50184515998578,
            35.93151372554914,
            1486.1
          ],
          [
            138.5020499514541,
            35.93158263568264,
            1488.5
          ],
          [
            138.5022547429224,
            35.93165154581614,
            1499.0
          ],
          [
            138.5024595343907,
            35.93172045594963,
            1510.3
          ],
          [
            138.502664325859,
            35.93178936608313,
            1519.3
          ],
          [
            138.50286911732732,
            35.93185827621663,
            1530.3
          ],
          [
            138.5030739087956,
            35.93192718635012,
            1540.6
          ],
          [
            138.50327870026393,
            35.93199609648362,
            1549.4
          ],
          [
            138.50348349173223,
            35.93206500661712,
            1559.4
          ],
          [
            138.50368828320055,
            35.932133916750615,
            1567.0
          ],
          [
            138.50389307466884,
            35.932202826884115,
            1576.6
          ],
          [
            138.50409786613716,
            35.93227173701761,
            1586.0
          ],
          [
            138.50430265760545,
            35.93234064715111,
            1596.6
          ],
          [
            138.50450744907377,
            35.93240955728461,
            1605.0
          ],
          [
            138.50471224054206,
            35.9324784674181,
            1613.8
          ],
          [
            138.50491703201038,
            35.9325473775516,
            1620.4
          ],
          [
            138.5049964867496,
            35.93257411321951,
            1622.4
          ]
        ]
      }
    },
    {
      "type": "Feature",
      "properties": {
        "name": "バレー",
        "horizontal_dist_map": 712,
        "slope_dist_map": 726,
        "elevation_diff_map": 118.0
      },
      "geometry": {
        "type": "LineString",
        "coordinates": [
          [
            138.4953574620909,
            35.93026435488532,
            1405.9
          ],
          [
            138.4955575488388,
            35.930186850979105,
            1404.9
          ],
          [
            138.49575763558667,
            35.93010934707289,
            1408.5
          ],
          [
            138.49595772233457,
            35.930031843166674,
            1416.2
          ],
          [
            138.49615780908246,
            35.92995433926046,
            1420.7
          ],
          [
            138.49635789583033,
            35.92987683535425,
            1422.8
          ],
          [
            138.49655798257822,
            35.92979933144804,
            1426.3
          ],
          [
            138.49675806932612,
            35.929721827541826,
            1428.8
          ],
          [
            138.496958156074,
            35.929644323635614,
            1432.0
          ],
          [
            138.49715824282188,
            35.929566819729395,
            1437.2
          ],
          [
            138.49735832956978,
            35.92948931582318,
            1442.5
          ],
          [
            138.49755841631764,
            35.92941181191697,
            1446.0
          ],
          [
            138.49775850306554,
            35.92933430801076,
            1450.0
          ],
          [
            138.49795858981344,
            35.92925680410455,
            1455.0
          ],
          [
            138.4981586765613,
            35.929179300198335,
            1458.3
          ],
          [
            138.4983587633092,
            35.929101796292116,
            1463.3
          ],
          [
            138.4985588500571,
            35.929024292385904,
            1463.5
          ],
          [
            138.498758936805,
            35.92894678847969,
            1461.3
          ],
          [
            138.49895902355286,
            35.92886928457348,
            1460.5
          ],
          [
            138.49915911030075,
            35.92879178066727,
            1458.9
          ],
          [
            138.49935919704865,
            35.928714276761056,
            1461.1
          ],
          [
            138.49955928379651,
            35.92863677285484,
            1466.2
          ],
          [
            138.4997593705444,
            35.928559268948625,
            1470.6
          ],
          [
            138.4999594572923,
            35.92848176504241,
            1474.3
          ],
          [
            138.50015954404017,
            35.9284042611362,
            1477.4
          ],
          [
            138.50035963078807,
            35.92832675722999,
            1480.2
          ],
          [
            138.50055971753596,
            35.92824925332378,
            1482.4
          ],
          [
            138.50075980428383,
            35.92817174941756,
            1486.1
          ],
          [
            138.50095989103173,
            35.928094245511346,
            1489.1
          ],
          [
            138.50115997777962,
            35.928016741605134,
            1492.1
          ],
          [
            138.5013600645275,
            35.92793923769892,
            1495.0
          ],
          [
            138.50156015127538,
            35.92786173379271,
            1499.9
          ],
          [
            138.50176023802328,
            35.9277842298865,
            1504.8
          ],
          [
            138.50196032477115,
            35.92770672598028,
            1512.5
          ],
          [
            138.50216041151904,
            35.92762922207407,
            1517.0
          ],
          [
            138.50236049826694,
            35.927551718167855,
            1520.3
          ],
          [
            138.50248734681736,
            35.927502583188854,
            1523.9
          ]
        ]
      }
    },
    {
      "type": "Feature",
      "properties": {
        "name": "ホーン",
        "horizontal_dist_map": 315,
        "slope_dist_map": 331,
        "elevation_diff_map": 94.0
      },
      "geometry": {
        "type": "LineString",
        "coordinates": [
          [
            138.49507414088518,
            35.93016644901541,
            1405.7
          ],
          [
            138.49518923281002,
            35.93001241200769,
            1406.5
          ],
          [
            138.4953043247349,
            35.92985837499997,
            1413.3
          ],
          [
            138.49541941665973,
            35.92970433799225,
            1421.2
          ],
          [
            138.4955345085846,
            35.92955030098452,
            1426.9
          ],
          [
            138.49564960050944,
            35.929396263976805,
            1433.8
          ],
          [
            138.4957646924343,
            35.92924222696908,
            1439.4
          ],
          [
            138.49587978435915,
            35.92908818996136,
            1445.0
          ],
          [
            138.49599487628402,
            35.92893415295364,
            1448.4
          ],
          [
            138.49610996820886,
            35.92878011594592,
            1450.8
          ],
          [
            138.49622506013372,
            35.9286260789382,
            1459.1
          ],
          [
            138.49634015205856,
            35.928472041930476,
            1463.9
          ],
          [
            138.49645524398343,
            35.92831800492276,
            1469.7
          ],
          [
            138.49657033590827,
            35.92816396791503,
            1474.8
          ],
          [
            138.49668542783314,
            35.928009930907315,
            1480.7
          ],
          [
            138.49680051975798,
            35.92785589389959,
            1491.3
          ],
          [
            138.49688980834532,
            35.927736391624926,
            1499.7
          ]
        ]
      }
    }
  ]
}