{
  "type": "FeatureCollection",
  "features": [
    {
      "type": "Feature",
      "properties": {
        "name": "第3ペア",
        "horizontal_dist_map": 444,
        "slope_dist_map": 451,
        "elevation_diff_map": 74.8
      },
      "geometry": {
        "type": "LineString",
        "coordinates": [
          [
            138.399928,
            36.051608,
            1694.8
          ],
          [
            138.39971072431794,
            36.05157115603423,
            1694.3
          ],
          [
            138.39949344863587,
            36.051534312068455,
            1696.2
          ],
          [
            138.39927617295382,
            36.051497468102674,
            1696.7
          ],
          [
            138.39905889727177,
            36.0514606241369,
            1699.8
          ],
          [
            138.3988416215897,
            36.05142378017113,
            1703.7
          ],
          [
            138.39862434590765,
            36.051386936205354,
            1707.5
          ],
          [
            138.39840707022557,
            36.05135009223958,
            1711.1
          ],
          [
            138.39818979454353,
            36.05131324827381,
            1715.3
          ],
          [
            138.39797251886148,
            36.05127640430803,
            1719.4
          ],
          [
            138.3977552431794,
            36.05123956034225,
            1722.5
          ],
          [
            138.39753796749736,
            36.05120271637648,
            1725.7
          ],
          [
            138.3973206918153,
            36.05116587241071,
            1730.0
          ],
          [
            138.39710341613323,
            36.05112902844493,
            1733.8
          ],
          [
            138.3968861404512,
            36.05109218447916,
            1737.7
          ],
          [
            138.3966688647691,
            36.05105534051338,
            1741.6
          ],
          [
            138.39645158908706,
            36.051018496547606,
            1745.6
          ],
          [
            138.39623431340502,
            36.05098165258183,
            1750.0
          ],
          [
            138.39601703772294,
            36.05094480861606,
            1754.2
          ],
          [
            138.3957997620409,
            36.050907964650285,
            1758.4
          ],
          [
            138.39558248635885,
            36.050871120684505,
            1761.7
          ],
          [
            138.39536521067677,
            36.05083427671873,
            1765.5
          ],
          [
            138.39514793499472,
            36.05079743275296,
            1768.9
          ],
          [
            138.3950948361235,
            36.05078842864824,
            1769.6
          ]
        ]
      }
    },
    {
      "type": "Feature",
      "properties": {
        "name": "第5ペア",
        "horizontal_dist_map": 618,
        "slope_dist_map": 633,
        "elevation_diff_map": 127.4
      },
      "geometry": {
        "type": "LineString",
        "coordinates": [
          [
            138.4109605,
            36.0544946,
            1447.8
          ],
          [
            138.41084622336,
            36.0543400783868,
            1447.6
          ],
          [
            138.41073194672,
            36.054185556773604,
            1453.9
          ],
          [
            138.41061767008003,
            36.054031035160406,
            1459.9
          ],
          [
            138.41050339344005,
            36.053876513547216,
            1466.9
          ],
          [
            138.41038911680005,
            36.05372199193402,
            1471.0
          ],
          [
            138.41027484016007,
            36.05356747032082,
            1476.0
          ],
          [
            138.4101605635201,
            36.053412948707624,
            1481.7
          ],
          [
            138.4100462868801,
            36.05325842709443,
            1488.0
          ],
          [
            138.4099320102401,
            36.05310390548123,
            1492.5
          ],
          [
            138.40981773360014,
            36.05294938386803,
            1497.1
          ],
          [
            138.40970345696013,
            36.052794862254835,
            1500.3
          ],
          [
            138.40958918032015,
            36.052640340641645,
            1504.8
          ],
          [
            138.40947490368018,
            36.05248581902845,
            1508.2
          ],
          [
            138.40936062704017,
            36.05233129741525,
            1510.7
          ],
          [
            138.4092463504002,
            36.05217677580205,
            1513.7
          ],
          [
            138.40913207376022,
            36.052022254188856,
            1516.4
          ],
          [
            138.4090177971202,
            36.05186773257566,
            1519.7
          ],
          [
            138.40890352048024,
            36.05171321096246,
            1522.6
          ],
          [
            138.40878924384026,
            36.05155868934927,
            1525.9
          ],
          [
            138.40867496720026,
            36.051404167736074,
            1526.8
          ],
          [
            138.40856069056028,
            36.051249646122876,
            1527.9
          ],
          [
            138.4084464139203,
            36.05109512450968,
            1529.9
          ],
          [
            138.4083321372803,
            36.05094060289648,
            1533.0
          ],
          [
            138.40821786064032,
            36.050786081283285,
            1537.4
          ],
          [
            138.40810358400034,
            36.05063155967009,
            1539.9
          ],
          [
            138.40798930736034,
            36.05047703805689,
            1545.6
          ],
          [
            138.40787503072036,
            36.0503225164437,
            1550.0
          ],
          [
            138.40776075408039,
            36.0501679948305,
            1556.9
          ],
          [
            138.4076464774404,
            36.050013473217305,
            1563.3
          ],
          [
            138.4075322008004,
            36.04985895160411,
            1570.2
          ],
          [
            138.4074271879374,
            36.04971695620592,
            1575.2
          ]
        ]
      }
    },
    {
      "type": "Feature",
      "properties": {
        "name": "第4ペア",
        "horizontal_dist_map": 553,
        "slope_dist_map": 570,
        "elevation_diff_map": 119.7
      },
      "geometry": {
        "type": "LineString",
        "coordinates": [
          [
            138.4122245,
            36.0578376,
            1407.7
          ],
          [
            138.41204349582094,
            36.05773326129037,
            1407.2
          ],
          [
            138.4118624916419,
            36.05762892258075,
            1411.2
          ],
          [
            138.41168148746283,
            36.057524583871114,
            1418.8
          ],
          [
            138.4115004832838,
            36.05742024516149,
            1422.9
          ],
          [
            138.41131947910472,
            36.05731590645186,
            1426.1
          ],
          [
            138.41113847492568,
            36.057211567742236,
            1429.7
          ],
          [
            138.4109574707466,
            36.05710722903261,
            1432.9
          ],
          [
            138.41077646656757,
            36.05700289032298,
            1436.8
          ],
          [
            138.4105954623885,
            36.05689855161335,
            1439.2
          ],
          [
            138.41041445820943,
            36.056794212903725,
            1443.3
          ],
          [
            138.4102334540304,
            36.0566898741941,
            1449.6
          ],
          [
            138.41005244985132,
            36.05658553548447,
            1455.6
          ],
          [
            138.40987144567228,
            36.05648119677485,
            1461.0
          ],
          [
            138.4096904414932,
            36.056376858065214,
            1468.7
          ],
          [
            138.40950943731417,
            36.05627251935559,
            1475.6
          ],
          [
            138.4093284331351,
            36.05616818064596,
            1483.5
          ],
          [
            138.40914742895606,
            36.056063841936336,
            1493.7
          ],
          [
            138.408966424777,
            36.05595950322671,
            1500.6
          ],
          [
            138.40878542059792,
            36.05585516451708,
            1509.3
          ],
          [
            138.40860441641888,
            36.05575082580745,
            1512.7
          ],
          [
            138.4084234122398,
            36.055646487097825,
            1513.6
          ],
          [
            138.40824240806077,
            36.0555421483882,
            1515.7
          ],
          [
            138.4080614038817,
            36.05543780967857,
            1518.3
          ],
          [
            138.40788039970266,
            36.05533347096894,
            1521.6
          ],
          [
            138.4076993955236,
            36.05522913225931,
            1522.8
          ],
          [
            138.40751839134455,
            36.05512479354969,
            1524.9
          ],
          [
            138.40733738716548,
            36.05502045484006,
            1526.4
          ],
          [
            138.40721740059425,
            36.054951289342995,
            1527.4
          ]
        ]
      }
    },
    {
      "type": "Feature",
      "properties": {
        "name": "第1クワッド",
        "horizontal_dist_map": 1285,
        "slope_dist_map": 1330,
        "elevation_diff_map": 298.5
      },
      "geometry": {
        "type": "LineString",
        "coordinates": [
          [
            138.4122915,
            36.0577348,
            1407.8
          ],
          [
            138.4121105968073,
            36.05763035110947,
            1406.9
          ],
          [
            138.4119296936146,
            36.057525902218934,
            1409.9
          ],
          [
            138.4117487904219,
            36.0574214533284,
            1416.6
          ],
          [
            138.4115678872292,
            36.05731700443787,
            1421.5
          ],
          [
            138.4113869840365,
            36.05721255554734,
            1425.0
          ],
          [
            138.41120608084384,
            36.057108106656806,
            1429.6
          ],
          [
            138.41102517765114,
            36.05700365776627,
            1432.5
          ],
          [
            138.41084427445844,
            36.05689920887574,
            1435.0
          ],
          [
            138.41066337126574,
            36.05679475998521,
            1437.8
          ],
          [
            138.41048246807304,
            36.05669031109468,
            1442.8
          ],
          [
            138.41030156488034,
            36.056585862204145,
            1448.4
          ],
          [
            138.41012066168764,
            36.05648141331361,
            1452.8
          ],
          [
            138.40993975849494,
            36.05637696442308,
            1459.3
          ],
          [
            138.40975885530224,
            36.05627251553255,
            1465.5
          ],
          [
            138.40957795210954,
            36.056168066642016,
            1473.8
          ],
          [
            138.40939704891684,
            36.056063617751484,
            1481.4
          ],
          [
            138.40921614572414,
            36.05595916886095,
            1488.7
          ],
          [
            138.40903524253147,
            36.05585471997042,
            1496.7
          ],
          [
            138.40885433933877,
            36.05575027107989,
            1505.6
          ],
          [
            138.40867343614607,
            36.055645822189355,
            1514.4
          ],
          [
            138.40849253295337,
            36.05554137329882,
            1514.2
          ],
          [
            138.40831162976068,
            36.05543692440828,
            1516.2
          ],
          [
            138.40813072656798,
            36.05533247551775,
            1518.5
          ],
          [
            138.40794982337528,
            36.05522802662722,
            1521.9
          ],
          [
            138.40776892018258,
            36.05512357773669,
            1523.3
          ],
          [
            138.40758801698988,
            36.055019128846155,
            1525.2
          ],
          [
            138.40740711379718,
            36.05491467995562,
            1526.9
          ],
          [
            138.40722621060448,
            36.05481023106509,
            1528.2
          ],
          [
            138.40704530741178,
            36.05470578217456,
            1528.9
          ],
          [
            138.4068644042191,
            36.054601333284026,
            1529.5
          ],
          [
            138.4066835010264,
            36.054496884393494,
            1530.6
          ],
          [
            138.4065025978337,
            36.05439243550296,
            1531.7
          ],
          [
            138.406321694641,
            36.05428798661243,
            1532.9
          ],
          [
            138.4061407914483,
            36.0541835377219,
            1535.8
          ],
          [
            138.4059598882556,
            36.054079088831365,
            1539.5
          ],
          [
            138.4057789850629,
            36.05397463994083,
            1544.2
          ],
          [
            138.4055980818702,
            36.0538701910503,
            1549.4
          ],
          [
            138.4054171786775,
            36.05376574215977,
            1555.3
          ],
          [
            138.4052362754848,
            36.053661293269236,
            1560.4
          ],
          [
            138.4050553722921,
            36.053556844378704,
            1566.7
          ],
          [
            138.4048744690994,
            36.05345239548817,
            1574.4
          ],
          [
            138.40469356590674,
            36.05334794659764,
            1580.5
          ],
          [
            138.40451266271404,
            36.05324349770711,
            1589.2
          ],
          [
            138.40433175952134,
            36.053139048816575,
            1593.1
          ],
          [
            138.40415085632864,
            36.05303459992604,
            1600.3
          ],
          [
            138.40396995313594,
            36.05293015103551,
            1606.4
          ],
          [
            138.40378904994324,
            36.05282570214498,
            1610.9
          ],
          [
            138.40360814675054,
            36.05272125325445,
            1620.1
          ],
          [
            138.40342724355784,
            36.052616804363915,
            1626.2
          ],
          [
            138.40324634036514,
            36.05251235547338,
            1631.7
          ],
          [
            138.40306543717244,
            36.05240790658285,
            1637.8
          ],
          [
            138.40288453397974,
            36.05230345769232,
            1646.0
          ],
          [
            138.40270363078704,
            36.052199008801786,
            1654.0
          ],
          [
            138.40252272759437,
            36.052094559911254,
            1662.3
          ],
          [
            138.40234182440167,
            36.05199011102072,
            1671.9
          ],
          [
            138.40216092120897,
            36.05188566213019,
            1679.9
          ],
          [
            138.40198001801627,
            36.05178121323966,
            1686.9
          ],
          [
            138.40179911482358,
            36.051676764349125,
            1692.0
          ],
          [
            138.40161821163088,
            36.05157231545859,
            1696.0
          ],
          [
            138.40143730843818,
            36.05146786656806,
            1699.0
          ],
          [
            138.40125640524548,
            36.05136341767753,
            1701.0
          ],
          [
            138.40107550205278,
            36.051258968786996,
            1702.7
          ],
          [
            138.40089459886008,
            36.051154519896464,
            1703.5
          ],
          [
            138.40071369566738,
            36.051050071005925,
            1705.7
          ],
          [
            138.40066632512756,
            36.051022720464154,
            1706.3
          ]
        ]
      }
    },
    {
      "type": "Feature",
      "properties": {
        "name": "第2ペア",
        "horizontal_dist_map": 490,
        "slope_dist_map": 497,
        "elevation_diff_map": 67.8
      },
      "geometry": {
        "type": "LineString",
        "coordinates": [
          [
            138.41234224125344,
            36.05689814176816,
            1412.1
          ],
          [
            138.4121810595438,
            36.05677421263101,
            1411.6
          ],
          [
            138.41201987783418,
            36.05665028349387,
            1421.7
          ],
          [
            138.41185869612454,
            36.05652635435673,
            1425.2
          ],
          [
            138.4116975144149,
            36.05640242521958,
            1428.7
          ],
          [
            138.41153633270528,
            36.056278496082435,
            1431.7
          ],
          [
            138.41137515099564,
            36.056154566945295,
            1433.7
          ],
          [
            138.411213969286,
            36.05603063780815,
            1435.5
          ],
          [
            138.41105278757638,
            36.055906708671,
            1437.0
          ],
          [
            138.41089160586674,
            36.05578277953386,
            1439.2
          ],
          [
            138.4107304241571,
            36.05565885039672,
            1442.5
          ],
          [
            138.41056924244748,
            36.05553492125957,
            1444.5
          ],
          [
            138.41040806073784,
            36.055410992122425,
            1447.0
          ],
          [
            138.4102468790282,
            36.05528706298528,
            1455.4
          ],
          [
            138.41008569731858,
            36.05516313384814,
            1458.9
          ],
          [
            138.40992451560894,
            36.055039204710994,
            1460.3
          ],
          [
            138.4097633338993,
            36.05491527557385,
            1461.9
          ],
          [
            138.40960215218968,
            36.0547913464367,
            1463.9
          ],
          [
            138.40944097048003,
            36.05466741729956,
            1465.8
          ],
          [
            138.40927978877042,
            36.054543488162416,
            1469.1
          ],
          [
            138.40911860706078,
            36.05441955902527,
            1470.9
          ],
          [
            138.40895742535113,
            36.054295629888124,
            1473.3
          ],
          [
            138.40879624364152,
            36.054171700750985,
            1476.1
          ],
          [
            138.40863506193188,
            36.05404777161384,
            1478.0
          ],
          [
            138.40847388022223,
            36.05392384247669,
            1479.2
          ],
          [
            138.40839171838945,
            36.05386067001707,
            1479.9
          ]
        ]
      }
    },
    {
      "type": "Feature",
      "properties": {
        "name": "ケーブルカー",
        "horizontal_dist_map": 146,
        "slope_dist_map": 149,
        "elevation_diff_map": 25.4
      },
      "geometry": {
        "type": "LineString",
        "coordinates": [
          [
            138.41310464511264,
            36.057369444351124,
            1406.2
          ],
          [
            138.41320658857757,
            36.057209331427394,
            1408.5
          ],
          [
            138.4133085320425,
            36.05704921850367,
            1411.0
          ],
          [
            138.41341047550742,
            36.05688910557994,
            1414.2
          ],
          [
            138.41351241897235,
            36.05672899265621,
            1418.5
          ],
          [
            138.41361436243724,
            36.05656887973249,
            1421.7
          ],
          [
            138.41371630590217,
            36.05640876680876,
            1425.6
          ],
          [
            138.4138182493671,
            36.056248653885035,
            1430.3
          ],
          [
            138.41385318260433,
            36.056193787565235,
            1431.6
          ]
        ]
      }
    }
  ]
}