{
  "type": "FeatureCollection",
  "features": [
    {
      "type": "Feature",
      "properties": {
        "name": "第1クワッド",
        "horizontal_dist_map": 1548,
        "slope_dist_map": 1583,
        "elevation_diff_map": 290.7,
        "midstation": null
      },
      "geometry": {
        "type": "LineString",
        "coordinates": [
          [
            138.48435076855526,
            37.054185764714745,
            431.3
          ],
          [
            138.48443187834522,
            37.05401768562974,
            431.2
          ],
          [
            138.48451298813518,
            37.05384960654473,
            432.9
          ],
          [
            138.48459409792517,
            37.053681527459716,
            437.6
          ],
          [
            138.48467520771513,
            37.05351344837471,
            441.9
          ],
          [
            138.4847563175051,
            37.0533453692897,
            446.1
          ],
          [
            138.48483742729505,
            37.053177290204694,
            450.4
          ],
          [
            138.48491853708504,
            37.05300921111969,
            454.3
          ],
          [
            138.484999646875,
            37.05284113203467,
            459.6
          ],
          [
            138.48508075666496,
            37.052673052949665,
            463.6
          ],
          [
            138.48516186645492,
            37.05250497386466,
            466.3
          ],
          [
            138.4852429762449,
            37.05233689477965,
            470.6
          ],
          [
            138.48532408603486,
            37.05216881569464,
            477.0
          ],
          [
            138.48540519582482,
            37.052000736609635,
            482.6
          ],
          [
            138.48548630561478,
            37.05183265752462,
            485.7
          ],
          [
            138.48556741540477,
            37.05166457843961,
            488.3
          ],
          [
            138.48564852519473,
            37.051496499354606,
            492.9
          ],
          [
            138.4857296349847,
            37.0513284202696,
            497.6
          ],
          [
            138.48581074477465,
            37.05116034118459,
            505.4
          ],
          [
            138.48589185456464,
            37.05099226209958,
            509.0
          ],
          [
            138.4859729643546,
            37.05082418301457,
            514.3
          ],
          [
            138.48605407414456,
            37.05065610392956,
            519.2
          ],
          [
            138.48613518393452,
            37.050488024844555,
            522.6
          ],
          [
            138.4862162937245,
            37.05031994575955,
            524.9
          ],
          [
            138.48629740351447,
            37.05015186667453,
            529.3
          ],
          [
            138.48637851330443,
            37.049983787589525,
            535.7
          ],
          [
            138.4864596230944,
            37.04981570850452,
            539.8
          ],
          [
            138.48654073288438,
            37.04964762941951,
            542.4
          ],
          [
            138.48662184267434,
            37.0494795503345,
            546.1
          ],
          [
            138.4867029524643,
            37.04931147124949,
            549.3
          ],
          [
            138.48678406225426,
            37.04914339216448,
            549.8
          ],
          [
            138.48686517204425,
            37.048975313079474,
            554.3
          ],
          [
            138.4869462818342,
            37.04880723399447,
            558.4
          ],
          [
            138.48702739162417,
            37.04863915490946,
            559.1
          ],
          [
            138.48710850141413,
            37.048471075824445,
            560.8
          ],
          [
            138.48718961120412,
            37.04830299673944,
            562.4
          ],
          [
            138.48727072099408,
            37.04813491765443,
            564.7
          ],
          [
            138.48735183078404,
            37.04796683856942,
            566.8
          ],
          [
            138.487432940574,
            37.047798759484415,
            569.5
          ],
          [
            138.48751405036398,
            37.04763068039941,
            574.1
          ],
          [
            138.48759516015394,
            37.04746260131439,
            579.2
          ],
          [
            138.4876762699439,
            37.047294522229386,
            587.2
          ],
          [
            138.48775737973386,
            37.04712644314438,
            592.4
          ],
          [
            138.48783848952385,
            37.04695836405937,
            595.9
          ],
          [
            138.4879195993138,
            37.046790284974364,
            596.9
          ],
          [
            138.48800070910377,
            37.04662220588935,
            599.6
          ],
          [
            138.48808181889373,
            37.04645412680434,
            602.9
          ],
          [
            138.48816292868372,
            37.046286047719335,
            606.1
          ],
          [
            138.48824403847368,
            37.04611796863433,
            608.3
          ],
          [
            138.48832514826364,
            37.04594988954932,
            610.9
          ],
          [
            138.4884062580536,
            37.045781810464305,
            617.7
          ],
          [
            138.4884873678436,
            37.0456137313793,
            622.8
          ],
          [
            138.48856847763355,
            37.04544565229429,
            629.2
          ],
          [
            138.4886495874235,
            37.04527757320928,
            636.6
          ],
          [
            138.48873069721347,
            37.045109494124276,
            640.8
          ],
          [
            138.48881180700346,
            37.04494141503926,
            649.0
          ],
          [
            138.48889291679342,
            37.044773335954254,
            654.0
          ],
          [
            138.48897402658338,
            37.04460525686925,
            665.0
          ],
          [
            138.48905513637334,
            37.04443717778424,
            671.0
          ],
          [
            138.48913624616333,
            37.04426909869923,
            676.0
          ],
          [
            138.4892173559533,
            37.044101019614224,
            681.0
          ],
          [
            138.48929846574325,
            37.04393294052921,
            684.0
          ],
          [
            138.4893795755332,
            37.0437648614442,
            686.0
          ],
          [
            138.4894606853232,
            37.043596782359195,
            689.0
          ],
          [
            138.48954179511315,
            37.04342870327419,
            692.0
          ],
          [
            138.48962290490311,
            37.04326062418918,
            693.0
          ],
          [
            138.48970401469307,
            37.043092545104166,
            692.0
          ],
          [
            138.48978512448306,
            37.04292446601916,
            694.0
          ],
          [
            138.48986623427302,
            37.04275638693415,
            694.0
          ],
          [
            138.48994734406298,
            37.042588307849144,
            696.0
          ],
          [
            138.49002845385294,
            37.042420228764136,
            698.0
          ],
          [
            138.49010956364293,
            37.04225214967912,
            699.0
          ],
          [
            138.4901906734329,
            37.042084070594115,
            703.0
          ],
          [
            138.49027178322285,
            37.04191599150911,
            709.0
          ],
          [
            138.4903528930128,
            37.0417479124241,
            713.0
          ],
          [
            138.4904340028028,
            37.04157983333909,
            716.0
          ],
          [
            138.49051511259276,
            37.04141175425408,
            718.0
          ],
          [
            138.49059622238272,
            37.04124367516907,
            721.0
          ],
          [
            138.49063045605686,
            37.04117273472369,
            722.0
          ]
        ]
      }
    },
    {
      "type": "Feature",
      "properties": {
        "name": "第3ペア",
        "horizontal_dist_map": 453,
        "slope_dist_map": 464,
        "elevation_diff_map": 95.1,
        "midstation": null
      },
      "geometry": {
        "type": "LineString",
        "coordinates": [
          [
            138.48531652993353,
            37.05431068530639,
            432.2
          ],
          [
            138.48539348623953,
            37.05414135479917,
            432.8
          ],
          [
            138.48547044254553,
            37.053972024291944,
            437.9
          ],
          [
            138.48554739885154,
            37.053802693784725,
            443.6
          ],
          [
            138.48562435515754,
            37.053633363277505,
            447.1
          ],
          [
            138.48570131146354,
            37.05346403277028,
            451.0
          ],
          [
            138.48577826776955,
            37.05329470226306,
            454.5
          ],
          [
            138.48585522407555,
            37.05312537175584,
            457.9
          ],
          [
            138.48593218038155,
            37.05295604124861,
            460.6
          ],
          [
            138.48600913668756,
            37.052786710741394,
            465.1
          ],
          [
            138.4860860929936,
            37.052617380234175,
            472.3
          ],
          [
            138.4861630492996,
            37.05244804972695,
            478.3
          ],
          [
            138.4862400056056,
            37.05227871921973,
            483.5
          ],
          [
            138.4863169619116,
            37.0521093887125,
            488.2
          ],
          [
            138.4863939182176,
            37.05194005820528,
            492.1
          ],
          [
            138.4864708745236,
            37.05177072769806,
            496.4
          ],
          [
            138.4865478308296,
            37.05160139719084,
            499.8
          ],
          [
            138.4866247871356,
            37.05143206668362,
            503.7
          ],
          [
            138.4867017434416,
            37.0512627361764,
            508.0
          ],
          [
            138.48677869974762,
            37.05109340566917,
            512.6
          ],
          [
            138.48685565605362,
            37.05092407516195,
            516.8
          ],
          [
            138.48693261235962,
            37.05075474465473,
            519.0
          ],
          [
            138.48700956866563,
            37.050585414147506,
            524.1
          ],
          [
            138.48706281663863,
            37.050468250178184,
            527.3
          ]
        ]
      }
    },
    {
      "type": "Feature",
      "properties": {
        "name": "第2クワッド",
        "horizontal_dist_map": 1371,
        "slope_dist_map": 1420,
        "elevation_diff_map": 338.0,
        "midstation": null
      },
      "geometry": {
        "type": "LineString",
        "coordinates": [
          [
            138.490945,
            37.047786,
            577.0
          ],
          [
            138.49097925282155,
            37.047607888840275,
            582.0
          ],
          [
            138.49101350564308,
            37.04742977768055,
            586.0
          ],
          [
            138.49104775846462,
            37.04725166652083,
            589.0
          ],
          [
            138.49108201128615,
            37.0470735553611,
            594.0
          ],
          [
            138.49111626410772,
            37.046895444201375,
            598.0
          ],
          [
            138.49115051692925,
            37.04671733304165,
            604.0
          ],
          [
            138.4911847697508,
            37.04653922188192,
            609.0
          ],
          [
            138.49121902257232,
            37.046361110722195,
            610.0
          ],
          [
            138.49125327539386,
            37.046182999562475,
            612.0
          ],
          [
            138.4912875282154,
            37.04600488840275,
            618.0
          ],
          [
            138.49132178103693,
            37.04582677724302,
            624.0
          ],
          [
            138.49135603385847,
            37.045648666083295,
            630.0
          ],
          [
            138.49139028668,
            37.04547055492357,
            633.0
          ],
          [
            138.49142453950154,
            37.04529244376384,
            638.0
          ],
          [
            138.4914587923231,
            37.04511433260412,
            641.0
          ],
          [
            138.49149304514464,
            37.044936221444395,
            645.0
          ],
          [
            138.49152729796617,
            37.04475811028467,
            650.0
          ],
          [
            138.4915615507877,
            37.04457999912494,
            653.0
          ],
          [
            138.49159580360924,
            37.044401887965215,
            657.0
          ],
          [
            138.49163005643078,
            37.044223776805495,
            660.0
          ],
          [
            138.49166430925231,
            37.04404566564577,
            665.0
          ],
          [
            138.49169856207385,
            37.04386755448604,
            668.0
          ],
          [
            138.49173281489539,
            37.043689443326315,
            670.0
          ],
          [
            138.49176706771692,
            37.04351133216659,
            673.0
          ],
          [
            138.49180132053849,
            37.04333322100686,
            675.0
          ],
          [
            138.49183557336002,
            37.04315510984714,
            679.0
          ],
          [
            138.49186982618156,
            37.042976998687415,
            683.0
          ],
          [
            138.4919040790031,
            37.04279888752769,
            687.0
          ],
          [
            138.49193833182463,
            37.04262077636796,
            690.0
          ],
          [
            138.49197258464616,
            37.042442665208235,
            693.0
          ],
          [
            138.4920068374677,
            37.04226455404851,
            695.0
          ],
          [
            138.49204109028923,
            37.04208644288879,
            701.0
          ],
          [
            138.49207534311077,
            37.04190833172906,
            701.0
          ],
          [
            138.4921095959323,
            37.041730220569335,
            706.0
          ],
          [
            138.49214384875387,
            37.04155210940961,
            711.0
          ],
          [
            138.4921781015754,
            37.04137399824988,
            715.0
          ],
          [
            138.49221235439694,
            37.04119588709016,
            722.0
          ],
          [
            138.49224660721848,
            37.041017775930435,
            725.0
          ],
          [
            138.49228086004,
            37.04083966477071,
            731.0
          ],
          [
            138.49231511286155,
            37.04066155361098,
            733.0
          ],
          [
            138.49234936568308,
            37.040483442451254,
            736.0
          ],
          [
            138.49238361850462,
            37.04030533129153,
            740.0
          ],
          [
            138.49241787132615,
            37.04012722013181,
            743.0
          ],
          [
            138.4924521241477,
            37.03994910897208,
            749.0
          ],
          [
            138.49248637696925,
            37.039770997812354,
            753.0
          ],
          [
            138.4925206297908,
            37.03959288665263,
            759.0
          ],
          [
            138.49255488261232,
            37.0394147754929,
            764.0
          ],
          [
            138.49258913543386,
            37.03923666433318,
            769.0
          ],
          [
            138.4926233882554,
            37.039058553173454,
            775.0
          ],
          [
            138.49265764107693,
            37.03888044201373,
            781.0
          ],
          [
            138.49269189389847,
            37.038702330854,
            789.0
          ],
          [
            138.49272614672,
            37.038524219694274,
            797.0
          ],
          [
            138.49276039954154,
            37.03834610853455,
            803.0
          ],
          [
            138.49279465236307,
            37.03816799737483,
            814.0
          ],
          [
            138.49282890518464,
            37.0379898862151,
            820.0
          ],
          [
            138.49286315800617,
            37.037811775055374,
            831.0
          ],
          [
            138.4928974108277,
            37.03763366389565,
            839.0
          ],
          [
            138.49293166364924,
            37.03745555273592,
            846.0
          ],
          [
            138.49296591647078,
            37.037277441576194,
            857.0
          ],
          [
            138.49300016929232,
            37.037099330416474,
            864.0
          ],
          [
            138.49303442211385,
            37.03692121925675,
            873.0
          ],
          [
            138.4930686749354,
            37.03674310809702,
            877.0
          ],
          [
            138.49310292775692,
            37.036564996937294,
            882.0
          ],
          [
            138.49313718057846,
            37.03638688577757,
            892.0
          ],
          [
            138.49317143340002,
            37.03620877461785,
            897.0
          ],
          [
            138.49320568622156,
            37.03603066345812,
            904.0
          ],
          [
            138.4932399390431,
            37.035852552298394,
            909.0
          ],
          [
            138.49327419186463,
            37.03567444113867,
            913.0
          ],
          [
            138.49329394632497,
            37.03557171997049,
            915.0
          ]
        ]
      }
    }
  ]
}