{
  "type": "FeatureCollection",
  "features": [
    {
      "type": "Feature",
      "properties": {
        "name": "から松ビギナー",
        "horizontal_dist_map": 369,
        "slope_dist_map": 378,
        "elevation_diff_map": 78.7,
        "midstation": null
      },
      "geometry": {
        "type": "LineString",
        "coordinates": [
          [
            136.8671074,
            35.9906065,
            1027.2
          ],
          [
            136.86689212289255,
            35.990649871281676,
            1028.1
          ],
          [
            136.8666768457851,
            35.99069324256336,
            1034.3
          ],
          [
            136.86646156867764,
            35.99073661384504,
            1038.0
          ],
          [
            136.86624629157018,
            35.990779985126714,
            1041.5
          ],
          [
            136.86603101446272,
            35.9908233564084,
            1045.3
          ],
          [
            136.86581573735526,
            35.990866727690076,
            1049.1
          ],
          [
            136.8656004602478,
            35.99091009897175,
            1052.7
          ],
          [
            136.86538518314035,
            35.99095347025344,
            1056.9
          ],
          [
            136.8651699060329,
            35.990996841535114,
            1061.5
          ],
          [
            136.86495462892546,
            35.99104021281679,
            1065.5
          ],
          [
            136.864739351818,
            35.991083584098476,
            1070.5
          ],
          [
            136.86452407471054,
            35.99112695538015,
            1074.3
          ],
          [
            136.8643087976031,
            35.99117032666183,
            1079.2
          ],
          [
            136.86409352049563,
            35.991213697943515,
            1083.6
          ],
          [
            136.86387824338817,
            35.99125706922519,
            1087.8
          ],
          [
            136.8636629662807,
            35.99130044050687,
            1090.6
          ],
          [
            136.86344768917326,
            35.99134381178855,
            1097.3
          ],
          [
            136.8632324120658,
            35.99138718307023,
            1104.0
          ],
          [
            136.8631271,
            35.9914084,
            1105.9
          ]
        ]
      }
    },
    {
      "type": "Feature",
      "properties": {
        "name": "αライナー",
        "horizontal_dist_map": 1322,
        "slope_dist_map": 1378,
        "elevation_diff_map": 328.1,
        "midstation": null
      },
      "geometry": {
        "type": "LineString",
        "coordinates": [
          [
            136.87079363886647,
            35.98976563240693,
            985.1
          ],
          [
            136.8705740160547,
            35.98979078252154,
            984.2
          ],
          [
            136.8703543932429,
            35.98981593263614,
            987.0
          ],
          [
            136.87013477043112,
            35.98984108275075,
            992.0
          ],
          [
            136.86991514761937,
            35.98986623286535,
            995.0
          ],
          [
            136.86969552480758,
            35.98989138297996,
            998.7
          ],
          [
            136.8694759019958,
            35.98991653309457,
            1003.4
          ],
          [
            136.86925627918401,
            35.989941683209175,
            1007.5
          ],
          [
            136.86903665637223,
            35.989966833323784,
            1007.4
          ],
          [
            136.86881703356045,
            35.989991983438394,
            1011.9
          ],
          [
            136.86859741074866,
            35.990017133552996,
            1016.2
          ],
          [
            136.86837778793688,
            35.990042283667606,
            1018.1
          ],
          [
            136.86815816512512,
            35.99006743378221,
            1018.9
          ],
          [
            136.86793854231334,
            35.99009258389682,
            1017.6
          ],
          [
            136.86771891950156,
            35.99011773401143,
            1017.8
          ],
          [
            136.86749929668977,
            35.99014288412603,
            1020.2
          ],
          [
            136.867279673878,
            35.99016803424064,
            1022.6
          ],
          [
            136.8670600510662,
            35.99019318435525,
            1025.8
          ],
          [
            136.86684042825442,
            35.99021833446985,
            1029.8
          ],
          [
            136.86662080544266,
            35.99024348458446,
            1033.6
          ],
          [
            136.86640118263088,
            35.99026863469906,
            1037.3
          ],
          [
            136.8661815598191,
            35.99029378481367,
            1040.7
          ],
          [
            136.8659619370073,
            35.99031893492828,
            1044.3
          ],
          [
            136.86574231419553,
            35.990344085042885,
            1049.3
          ],
          [
            136.86552269138375,
            35.990369235157495,
            1053.6
          ],
          [
            136.86530306857196,
            35.990394385272104,
            1058.5
          ],
          [
            136.86508344576018,
            35.99041953538671,
            1063.1
          ],
          [
            136.86486382294842,
            35.990444685501316,
            1067.6
          ],
          [
            136.86464420013664,
            35.99046983561592,
            1073.0
          ],
          [
            136.86442457732485,
            35.99049498573053,
            1078.9
          ],
          [
            136.86420495451307,
            35.99052013584514,
            1085.9
          ],
          [
            136.8639853317013,
            35.99054528595974,
            1096.9
          ],
          [
            136.8637657088895,
            35.99057043607435,
            1104.3
          ],
          [
            136.86354608607772,
            35.99059558618896,
            1110.8
          ],
          [
            136.86332646326596,
            35.99062073630356,
            1115.7
          ],
          [
            136.86310684045418,
            35.99064588641817,
            1119.7
          ],
          [
            136.8628872176424,
            35.990671036532774,
            1121.8
          ],
          [
            136.8626675948306,
            35.990696186647384,
            1122.6
          ],
          [
            136.86244797201883,
            35.99072133676199,
            1123.1
          ],
          [
            136.86222834920704,
            35.990746486876596,
            1125.5
          ],
          [
            136.86200872639526,
            35.990771636991205,
            1126.1
          ],
          [
            136.86178910358348,
            35.990796787105815,
            1136.6
          ],
          [
            136.86156948077172,
            35.99082193722042,
            1145.1
          ],
          [
            136.86134985795994,
            35.99084708733503,
            1149.4
          ],
          [
            136.86113023514815,
            35.99087223744963,
            1153.0
          ],
          [
            136.86091061233637,
            35.99089738756424,
            1158.9
          ],
          [
            136.86069098952458,
            35.99092253767885,
            1165.7
          ],
          [
            136.8604713667128,
            35.99094768779345,
            1167.5
          ],
          [
            136.86025174390102,
            35.99097283790806,
            1167.7
          ],
          [
            136.86003212108926,
            35.99099798802266,
            1176.7
          ],
          [
            136.85981249827748,
            35.99102313813727,
            1189.8
          ],
          [
            136.8595928754657,
            35.99104828825188,
            1193.1
          ],
          [
            136.8593732526539,
            35.991073438366485,
            1201.4
          ],
          [
            136.85915362984213,
            35.991098588481094,
            1209.0
          ],
          [
            136.85893400703034,
            35.991123738595704,
            1211.5
          ],
          [
            136.85871438421856,
            35.991148888710306,
            1222.5
          ],
          [
            136.85849476140677,
            35.991174038824916,
            1229.8
          ],
          [
            136.85827513859502,
            35.99119918893952,
            1240.3
          ],
          [
            136.85805551578324,
            35.99122433905413,
            1245.5
          ],
          [
            136.85783589297145,
            35.99124948916874,
            1252.2
          ],
          [
            136.85761627015967,
            35.99127463928334,
            1259.9
          ],
          [
            136.85739664734788,
            35.99129978939795,
            1268.8
          ],
          [
            136.8571770245361,
            35.99132493951256,
            1275.8
          ],
          [
            136.85695740172432,
            35.99135008962716,
            1283.5
          ],
          [
            136.85673777891256,
            35.99137523974177,
            1297.7
          ],
          [
            136.85651815610078,
            35.99140038985637,
            1308.8
          ],
          [
            136.856298533289,
            35.99142553997098,
            1313.2
          ],
          [
            136.8562718623761,
            35.99142859419158,
            1313.2
          ]
        ]
      }
    },
    {
      "type": "Feature",
      "properties": {
        "name": "βライナー",
        "horizontal_dist_map": 1159,
        "slope_dist_map": 1233,
        "elevation_diff_map": 393.0,
        "midstation": null
      },
      "geometry": {
        "type": "LineString",
        "coordinates": [
          [
            136.8671858,
            35.9917331,
            1033.0
          ],
          [
            136.8669788368599,
            35.991797918353235,
            1032.1
          ],
          [
            136.86677187371978,
            35.99186273670647,
            1032.6
          ],
          [
            136.86656491057968,
            35.99192755505971,
            1038.2
          ],
          [
            136.86635794743955,
            35.99199237341294,
            1045.9
          ],
          [
            136.86615098429945,
            35.99205719176618,
            1053.9
          ],
          [
            136.86594402115935,
            35.99212201011942,
            1060.6
          ],
          [
            136.86573705801925,
            35.992186828472654,
            1066.3
          ],
          [
            136.86553009487915,
            35.99225164682589,
            1070.4
          ],
          [
            136.86532313173905,
            35.99231646517913,
            1074.6
          ],
          [
            136.86511616859892,
            35.99238128353237,
            1079.7
          ],
          [
            136.86490920545882,
            35.992446101885605,
            1085.4
          ],
          [
            136.8647022423187,
            35.992510920238836,
            1090.9
          ],
          [
            136.8644952791786,
            35.99257573859207,
            1096.2
          ],
          [
            136.8642883160385,
            35.99264055694531,
            1100.3
          ],
          [
            136.8640813528984,
            35.99270537529855,
            1106.3
          ],
          [
            136.86387438975828,
            35.992770193651786,
            1113.4
          ],
          [
            136.86366742661818,
            35.992835012005024,
            1121.5
          ],
          [
            136.86346046347808,
            35.99289983035826,
            1129.6
          ],
          [
            136.86325350033798,
            35.9929646487115,
            1137.8
          ],
          [
            136.86304653719787,
            35.99302946706473,
            1144.6
          ],
          [
            136.86283957405777,
            35.99309428541797,
            1151.9
          ],
          [
            136.86263261091764,
            35.993159103771205,
            1159.7
          ],
          [
            136.86242564777754,
            35.99322392212444,
            1168.7
          ],
          [
            136.86221868463744,
            35.99328874047768,
            1175.7
          ],
          [
            136.86201172149734,
            35.99335355883092,
            1180.5
          ],
          [
            136.86180475835724,
            35.993418377184156,
            1188.2
          ],
          [
            136.86159779521714,
            35.993483195537394,
            1192.2
          ],
          [
            136.861390832077,
            35.993548013890624,
            1194.0
          ],
          [
            136.8611838689369,
            35.99361283224386,
            1199.3
          ],
          [
            136.8609769057968,
            35.9936776505971,
            1204.2
          ],
          [
            136.8607699426567,
            35.99374246895034,
            1209.7
          ],
          [
            136.8605629795166,
            35.993807287303575,
            1217.4
          ],
          [
            136.8603560163765,
            35.99387210565681,
            1223.3
          ],
          [
            136.86014905323637,
            35.99393692401005,
            1226.2
          ],
          [
            136.85994209009627,
            35.99400174236328,
            1231.1
          ],
          [
            136.85973512695617,
            35.99406656071652,
            1238.7
          ],
          [
            136.85952816381607,
            35.994131379069756,
            1250.3
          ],
          [
            136.85932120067596,
            35.994196197422994,
            1263.1
          ],
          [
            136.85911423753586,
            35.99426101577623,
            1269.2
          ],
          [
            136.85890727439573,
            35.99432583412947,
            1274.1
          ],
          [
            136.85870031125563,
            35.99439065248271,
            1285.5
          ],
          [
            136.85849334811553,
            35.994455470835945,
            1292.2
          ],
          [
            136.85828638497543,
            35.994520289189175,
            1300.7
          ],
          [
            136.85807942183533,
            35.99458510754241,
            1310.5
          ],
          [
            136.85787245869523,
            35.99464992589565,
            1323.8
          ],
          [
            136.8576654955551,
            35.99471474424889,
            1333.5
          ],
          [
            136.857458532415,
            35.994779562602126,
            1346.6
          ],
          [
            136.8572515692749,
            35.994844380955364,
            1357.5
          ],
          [
            136.8570446061348,
            35.9949091993086,
            1364.1
          ],
          [
            136.8568376429947,
            35.99497401766184,
            1369.7
          ],
          [
            136.8566306798546,
            35.99503883601507,
            1375.1
          ],
          [
            136.85642371671446,
            35.99510365436831,
            1380.7
          ],
          [
            136.85621675357436,
            35.995168472721545,
            1387.9
          ],
          [
            136.85600979043426,
            35.99523329107478,
            1397.7
          ],
          [
            136.85580282729416,
            35.99529810942802,
            1402.1
          ],
          [
            136.85559586415405,
            35.99536292778126,
            1412.5
          ],
          [
            136.85538890101395,
            35.995427746134496,
            1420.9
          ],
          [
            136.8551878789112,
            35.995490703826654,
            1426.0
          ]
        ]
      }
    },
    {
      "type": "Feature",
      "properties": {
        "name": "γライナー",
        "horizontal_dist_map": 816,
        "slope_dist_map": 849,
        "elevation_diff_map": 208.1,
        "midstation": null
      },
      "geometry": {
        "type": "LineString",
        "coordinates": [
          [
            136.86756456386357,
            35.987834359921216,
            1036.7
          ],
          [
            136.86735096098167,
            35.98788287423529,
            1036.3
          ],
          [
            136.8671373580998,
            35.98793138854937,
            1041.5
          ],
          [
            136.8669237552179,
            35.987979902863444,
            1046.2
          ],
          [
            136.866710152336,
            35.98802841717752,
            1047.9
          ],
          [
            136.86649654945413,
            35.98807693149159,
            1049.4
          ],
          [
            136.86628294657223,
            35.98812544580567,
            1053.2
          ],
          [
            136.86606934369033,
            35.988173960119745,
            1055.6
          ],
          [
            136.86585574080846,
            35.98822247443382,
            1059.7
          ],
          [
            136.86564213792656,
            35.98827098874789,
            1066.8
          ],
          [
            136.86542853504466,
            35.98831950306197,
            1072.9
          ],
          [
            136.8652149321628,
            35.98836801737605,
            1080.4
          ],
          [
            136.8650013292809,
            35.98841653169012,
            1085.6
          ],
          [
            136.864787726399,
            35.988465046004194,
            1093.1
          ],
          [
            136.86457412351712,
            35.988513560318275,
            1099.4
          ],
          [
            136.86436052063522,
            35.98856207463235,
            1106.4
          ],
          [
            136.86414691775332,
            35.98861058894642,
            1114.2
          ],
          [
            136.86393331487145,
            35.988659103260495,
            1123.5
          ],
          [
            136.86371971198955,
            35.988707617574576,
            1133.6
          ],
          [
            136.86350610910765,
            35.98875613188865,
            1143.3
          ],
          [
            136.86329250622578,
            35.98880464620272,
            1151.8
          ],
          [
            136.86307890334388,
            35.988853160516804,
            1157.6
          ],
          [
            136.86286530046198,
            35.98890167483088,
            1162.4
          ],
          [
            136.8626516975801,
            35.98895018914495,
            1166.9
          ],
          [
            136.8624380946982,
            35.988998703459025,
            1168.9
          ],
          [
            136.8622244918163,
            35.989047217773106,
            1169.9
          ],
          [
            136.86201088893444,
            35.98909573208718,
            1171.6
          ],
          [
            136.86179728605254,
            35.98914424640125,
            1171.0
          ],
          [
            136.86158368317064,
            35.989192760715326,
            1173.9
          ],
          [
            136.86137008028876,
            35.98924127502941,
            1178.5
          ],
          [
            136.86115647740687,
            35.98928978934348,
            1186.6
          ],
          [
            136.86094287452497,
            35.989338303657554,
            1194.5
          ],
          [
            136.8607292716431,
            35.98938681797163,
            1201.7
          ],
          [
            136.8605156687612,
            35.98943533228571,
            1206.9
          ],
          [
            136.8603020658793,
            35.98948384659978,
            1210.3
          ],
          [
            136.86008846299742,
            35.989532360913856,
            1213.9
          ],
          [
            136.85987486011553,
            35.98958087522793,
            1220.0
          ],
          [
            136.85966125723363,
            35.98962938954201,
            1225.7
          ],
          [
            136.85944765435175,
            35.989677903856084,
            1231.3
          ],
          [
            136.85923405146985,
            35.98972641817016,
            1235.6
          ],
          [
            136.85902044858796,
            35.98977493248424,
            1239.4
          ],
          [
            136.85884055575212,
            35.98981579044205,
            1244.8
          ]
        ]
      }
    },
    {
      "type": "Feature",
      "properties": {
        "name": "第1ペア",
        "horizontal_dist_map": 468,
        "slope_dist_map": 478,
        "elevation_diff_map": 86.9,
        "midstation": null
      },
      "geometry": {
        "type": "LineString",
        "coordinates": [
          [
            136.8657915406683,
            35.989128615925544,
            1072.1
          ],
          [
            136.86601168171657,
            35.989150548347176,
            1068.0
          ],
          [
            136.86623182276483,
            35.989172480768815,
            1064.1
          ],
          [
            136.8664519638131,
            35.98919441319045,
            1060.5
          ],
          [
            136.86667210486135,
            35.989216345612085,
            1057.0
          ],
          [
            136.8668922459096,
            35.98923827803372,
            1053.8
          ],
          [
            136.86711238695787,
            35.98926021045535,
            1051.3
          ],
          [
            136.86733252800613,
            35.98928214287699,
            1049.7
          ],
          [
            136.8675526690544,
            35.98930407529862,
            1049.3
          ],
          [
            136.86777281010265,
            35.98932600772025,
            1047.6
          ],
          [
            136.8679929511509,
            35.98934794014189,
            1044.8
          ],
          [
            136.86821309219917,
            35.98936987256352,
            1040.5
          ],
          [
            136.86843323324743,
            35.98939180498516,
            1035.0
          ],
          [
            136.8686533742957,
            35.98941373740679,
            1030.1
          ],
          [
            136.86887351534398,
            35.989435669828424,
            1025.5
          ],
          [
            136.86909365639224,
            35.98945760225006,
            1023.0
          ],
          [
            136.8693137974405,
            35.989479534671695,
            1019.8
          ],
          [
            136.86953393848876,
            35.989501467093326,
            1013.8
          ],
          [
            136.86975407953702,
            35.989523399514965,
            1010.9
          ],
          [
            136.86997422058528,
            35.9895453319366,
            1004.5
          ],
          [
            136.87019436163354,
            35.989567264358236,
            1000.2
          ],
          [
            136.8704145026818,
            35.98958919677987,
            994.6
          ],
          [
            136.87063464373006,
            35.9896111292015,
            988.8
          ],
          [
            136.87085478477832,
            35.98963306162314,
            985.5
          ],
          [
            136.87095282070996,
            35.98964282884013,
            985.2
          ]
        ]
      }
    }
  ]
}