{
  "type": "FeatureCollection",
  "features": [
    {
      "type": "Feature",
      "properties": {
        "name": "ペア",
        "horizontal_dist_map": 832,
        "slope_dist_map": 880,
        "elevation_diff_map": 265.0,
        "midstation": [143.496081, 44.018893, 212.0]
      },
      "geometry": {
        "type": "LineString",
        "coordinates": [
          [143.49629030602145, 44.02143241771086, 149.0],
          [143.49627458192643, 44.0212527781148, 152.0],
          [143.49625885783144, 44.021073138518744, 155.0],
          [143.4962431337364, 44.02089349892268, 158.0],
          [143.49622740964142, 44.02071385932662, 162.0],
          [143.4962116855464, 44.020534219730564, 165.0],
          [143.49619596145138, 44.0203545801345, 169.0],
          [143.49618023735638, 44.020174940538446, 173.0],
          [143.49616451326136, 44.019995300942384, 178.0],
          [143.49614878916637, 44.01981566134632, 183.0],
          [143.49613306507135, 44.019636021750266, 188.0],
          [143.49611734097633, 44.0194563821542, 194.0],
          [143.49610161688133, 44.01927674255814, 200.0],
          [143.4960858927863, 44.019097102962085, 206.0],
          [143.49607016869132, 44.01891746336602, 212.0],
          [143.4960544445963, 44.01873782376996, 218.0],
          [143.49603872050128, 44.018558184173905, 226.0],
          [143.49602299640628, 44.01837854457784, 232.0],
          [143.49600727231126, 44.01819890498179, 244.0],
          [143.49599154821627, 44.018019265385725, 252.0],
          [143.49597582412125, 44.01783962578966, 263.0],
          [143.49596010002622, 44.01765998619361, 272.0],
          [143.49594437593123, 44.017480346597544, 283.0],
          [143.4959286518362, 44.01730070700148, 295.0],
          [143.49591292774122, 44.01712106740543, 305.0],
          [143.4958972036462, 44.016941427809364, 314.0],
          [143.49588147955117, 44.01676178821331, 325.0],
          [143.49586575545618, 44.016582148617246, 333.0],
          [143.49585003136116, 44.016402509021184, 337.0],
          [143.49583430726616, 44.01622286942513, 342.0],
          [143.49581858317114, 44.016043229829066, 345.0],
          [143.49580285907615, 44.015863590233, 347.0],
          [143.49578713498113, 44.01568395063695, 350.0],
          [143.4957714108861, 44.015504311040885, 356.0],
          [143.4957556867911, 44.01532467144482, 360.0],
          [143.4957399626961, 44.01514503184877, 367.0],
          [143.4957242386011, 44.014965392252705, 374.0],
          [143.49570851450608, 44.01478575265665, 381.0],
          [143.49569279041106, 44.01460611306059, 393.0],
          [143.49567706631606, 44.014426473464525, 400.0],
          [143.49566134222104, 44.01424683386847, 407.0],
          [143.49564561812605, 44.01406719427241, 411.0],
          [143.49563610966533, 44.01395856506102, 414.0]
        ]
      }
    }
  ]
}
