{
  "type": "FeatureCollection",
  "features": [
    {
      "type": "Feature",
      "properties": {
        "name": "北の峰第1高速",
        "horizontal_dist_map": 1022,
        "slope_dist_map": 1041,
        "elevation_diff_map": 184.7
      },
      "geometry": {
        "type": "LineString",
        "coordinates": [
          [
            142.3591237,
            43.3425297,
            248.7
          ],
          [
            142.35887721034152,
            43.34252321086854,
            249.5
          ],
          [
            142.35863072068307,
            43.342516721737084,
            252.9
          ],
          [
            142.3583842310246,
            43.342510232605626,
            260.4
          ],
          [
            142.35813774176776,
            43.34250373696649,
            263.1
          ],
          [
            142.35789125254684,
            43.34249724074548,
            266.0
          ],
          [
            142.35764476332594,
            43.34249074452446,
            269.0
          ],
          [
            142.35739827464712,
            43.34248423806015,
            272.7
          ],
          [
            142.3571517868627,
            43.34247771469764,
            276.1
          ],
          [
            142.35690529907822,
            43.34247119133512,
            279.6
          ],
          [
            142.3566588112721,
            43.34246466844522,
            283.6
          ],
          [
            142.35641232241758,
            43.342458168433915,
            288.2
          ],
          [
            142.35616583356307,
            43.34245166842261,
            291.0
          ],
          [
            142.35591934470852,
            43.34244516841131,
            297.6
          ],
          [
            142.3556728552609,
            43.3424386813021,
            300.2
          ],
          [
            142.3554263558124,
            43.34243242566047,
            304.9
          ],
          [
            142.35517979595508,
            43.34242757038221,
            308.8
          ],
          [
            142.35493323609776,
            43.342422715103964,
            312.7
          ],
          [
            142.35468667516398,
            43.342417890375366,
            316.4
          ],
          [
            142.354440114074,
            43.34241307007847,
            321.5
          ],
          [
            142.35419355298401,
            43.34240824978157,
            327.3
          ],
          [
            142.35394699233237,
            43.342403418412104,
            332.1
          ],
          [
            142.35370043226283,
            43.34239857233753,
            335.7
          ],
          [
            142.35345387219328,
            43.34239372626295,
            340.8
          ],
          [
            142.35320731212371,
            43.342388880188366,
            344.3
          ],
          [
            142.35296075188302,
            43.34238404003141,
            348.2
          ],
          [
            142.35271419149018,
            43.34237920513317,
            351.5
          ],
          [
            142.35246763109737,
            43.342374370234936,
            354.2
          ],
          [
            142.35222107070453,
            43.3423695353367,
            356.1
          ],
          [
            142.35197451031172,
            43.34236470043846,
            359.6
          ],
          [
            142.35172793525862,
            43.342360321265005,
            365.8
          ],
          [
            142.35148133622727,
            43.34235668747402,
            370.9
          ],
          [
            142.3512347371959,
            43.342353053683034,
            374.5
          ],
          [
            142.35098813816455,
            43.34234941989205,
            379.4
          ],
          [
            142.35074153899947,
            43.34234579128029,
            385.0
          ],
          [
            142.35049493917668,
            43.34234218814614,
            388.2
          ],
          [
            142.35024833935387,
            43.342338585012,
            390.9
          ],
          [
            142.35000173962263,
            43.342334978788166,
            394.3
          ],
          [
            142.34975514043646,
            43.34233135416759,
            398.7
          ],
          [
            142.3495085412503,
            43.34232772954701,
            400.9
          ],
          [
            142.34926194206412,
            43.34232410492643,
            402.9
          ],
          [
            142.34901534320747,
            43.342320470323344,
            405.7
          ],
          [
            142.34876874437055,
            43.342316835122055,
            409.0
          ],
          [
            142.34852214553362,
            43.34231319992076,
            410.8
          ],
          [
            142.3482755466967,
            43.342309564719464,
            413.0
          ],
          [
            142.34802894777167,
            43.34230593356892,
            415.7
          ],
          [
            142.34778234871692,
            43.342302308381555,
            418.3
          ],
          [
            142.34753574966214,
            43.342298683194194,
            421.0
          ],
          [
            142.34728915060737,
            43.342295058006826,
            424.4
          ],
          [
            142.34704255172835,
            43.34229142806921,
            426.9
          ],
          [
            142.34679595286278,
            43.34228779776761,
            430.4
          ],
          [
            142.34654935399723,
            43.34228416746601,
            433.4
          ],
          [
            142.3465176,
            43.3422837,
            433.4
          ]
        ]
      }
    },
    {
      "type": "Feature",
      "properties": {
        "name": "北の峰ゴンドラ",
        "horizontal_dist_map": 2832,
        "slope_dist_map": 2955,
        "elevation_diff_map": 700.9
      },
      "geometry": {
        "type": "LineString",
        "coordinates": [
          [
            142.3601123,
            43.3439024,
            236.1
          ],
          [
            142.35987490371227,
            43.34385353997672,
            236.3
          ],
          [
            142.35963750742457,
            43.34380467995344,
            241.4
          ],
          [
            142.35940011113684,
            43.343755819930166,
            243.7
          ],
          [
            142.35916271819937,
            43.34370695227994,
            248.0
          ],
          [
            142.35892532958238,
            43.34365807479409,
            251.4
          ],
          [
            142.35868794096538,
            43.34360919730825,
            255.4
          ],
          [
            142.3584505523484,
            43.3435603198224,
            258.7
          ],
          [
            142.3582131637314,
            43.343511442336556,
            262.5
          ],
          [
            142.3579757751144,
            43.34346256485071,
            265.5
          ],
          [
            142.35773838619076,
            43.34341368913368,
            269.3
          ],
          [
            142.3575009965754,
            43.34336481740667,
            272.9
          ],
          [
            142.35726360696006,
            43.34331594567967,
            276.8
          ],
          [
            142.3570262173447,
            43.34326707395267,
            280.7
          ],
          [
            142.35678882772933,
            43.34321820222566,
            286.3
          ],
          [
            142.356551438114,
            43.343169330498654,
            291.1
          ],
          [
            142.35631404849863,
            43.343120458771644,
            296.9
          ],
          [
            142.35607665803656,
            43.34307159108487,
            300.9
          ],
          [
            142.3558392668365,
            43.34302272691936,
            304.4
          ],
          [
            142.3556018756365,
            43.342973862753844,
            307.9
          ],
          [
            142.35536448443645,
            43.34292499858833,
            310.4
          ],
          [
            142.3551270932364,
            43.34287613442282,
            314.4
          ],
          [
            142.35488970203636,
            43.34282727025731,
            317.9
          ],
          [
            142.35465231083634,
            43.342778406091796,
            321.7
          ],
          [
            142.35441492075998,
            43.342729539816446,
            323.8
          ],
          [
            142.35417753411355,
            43.34268066710103,
            325.2
          ],
          [
            142.3539401474671,
            43.3426317943856,
            328.0
          ],
          [
            142.35370276082068,
            43.342582921670186,
            333.7
          ],
          [
            142.35346537417425,
            43.34253404895476,
            338.8
          ],
          [
            142.35322798752782,
            43.342485176239336,
            343.6
          ],
          [
            142.35299060264126,
            43.342436300009034,
            347.3
          ],
          [
            142.35275322040638,
            43.34238741848269,
            351.1
          ],
          [
            142.35251583817154,
            43.34233853695634,
            353.9
          ],
          [
            142.35227845593667,
            43.342289655429994,
            356.4
          ],
          [
            142.35204107370183,
            43.34224077390365,
            360.7
          ],
          [
            142.3518036873067,
            43.34219190484814,
            365.7
          ],
          [
            142.35156629889212,
            43.342143041846185,
            371.1
          ],
          [
            142.35132891047758,
            43.342094178844235,
            374.3
          ],
          [
            142.351091522063,
            43.34204531584228,
            377.0
          ],
          [
            142.35085413364843,
            43.34199645284033,
            379.3
          ],
          [
            142.35061674517854,
            43.341947590198124,
            382.3
          ],
          [
            142.35037935621358,
            43.34189873077623,
            384.7
          ],
          [
            142.35014196724862,
            43.34184987135434,
            390.8
          ],
          [
            142.34990457828363,
            43.34180101193245,
            390.6
          ],
          [
            142.34966719383905,
            43.341752143067666,
            387.9
          ],
          [
            142.34942980980983,
            43.341703273335156,
            387.9
          ],
          [
            142.34919242578064,
            43.34165440360265,
            390.0
          ],
          [
            142.34895504175142,
            43.34160553387014,
            393.0
          ],
          [
            142.34871765772223,
            43.34155666413763,
            395.0
          ],
          [
            142.348480273693,
            43.34150779440512,
            397.0
          ],
          [
            142.3482428904559,
            43.34145892287328,
            400.0
          ],
          [
            142.3480055147062,
            43.34141003433295,
            404.0
          ],
          [
            142.34776813895644,
            43.34136114579263,
            409.0
          ],
          [
            142.34753076320672,
            43.341312257252305,
            414.0
          ],
          [
            142.34729338406376,
            43.34126337799667,
            417.0
          ],
          [
            142.34705599712885,
            43.341214520061556,
            424.0
          ],
          [
            142.34681861019394,
            43.34116566212644,
            431.0
          ],
          [
            142.3465812259029,
            43.3411167979064,
            439.0
          ],
          [
            142.34634384689474,
            43.34106792112786,
            443.0
          ],
          [
            142.34610646788656,
            43.34101904434932,
            449.0
          ],
          [
            142.3458690888784,
            43.34097016757079,
            454.0
          ],
          [
            142.345631708758,
            43.34092129515621,
            457.0
          ],
          [
            142.34539432761875,
            43.34087242673922,
            460.0
          ],
          [
            142.34515694647948,
            43.34082355832222,
            464.0
          ],
          [
            142.3449195653402,
            43.340774689905224,
            468.0
          ],
          [
            142.34468218420093,
            43.34072582148823,
            471.0
          ],
          [
            142.34444480306166,
            43.34067695307124,
            478.0
          ],
          [
            142.3442074219224,
            43.34062808465424,
            483.0
          ],
          [
            142.34397004078315,
            43.340579216237245,
            491.0
          ],
          [
            142.34373265979715,
            43.34053034971952,
            496.0
          ],
          [
            142.34349527885846,
            43.340481483787364,
            501.0
          ],
          [
            142.34325789791976,
            43.340432617855214,
            506.0
          ],
          [
            142.34302051698106,
            43.340383751923056,
            512.0
          ],
          [
            142.34278313537777,
            43.34033488834454,
            518.0
          ],
          [
            142.34254575234573,
            43.34028602982587,
            526.0
          ],
          [
            142.34230836931368,
            43.340237171307194,
            531.0
          ],
          [
            142.34207098628164,
            43.34018831278852,
            540.0
          ],
          [
            142.34183361050833,
            43.34013943655904,
            547.0
          ],
          [
            142.34159623854336,
            43.34009055103759,
            554.0
          ],
          [
            142.34135886657836,
            43.34004166551614,
            558.0
          ],
          [
            142.34112148857503,
            43.33999279678811,
            565.0
          ],
          [
            142.3408841077242,
            43.33994393597932,
            571.0
          ],
          [
            142.3406467268734,
            43.33989507517054,
            573.0
          ],
          [
            142.34040934602257,
            43.339846214361756,
            575.0
          ],
          [
            142.34017196937725,
            43.33979734377199,
            576.0
          ],
          [
            142.3399345948595,
            43.33974846823413,
            576.0
          ],
          [
            142.33969722034175,
            43.339699592696256,
            575.0
          ],
          [
            142.33945984581945,
            43.33965072008855,
            573.0
          ],
          [
            142.3392224712968,
            43.33960184767878,
            573.0
          ],
          [
            142.3389850967742,
            43.339552975269,
            571.0
          ],
          [
            142.33874772225158,
            43.33950410285923,
            570.0
          ],
          [
            142.33851034772897,
            43.33945523044946,
            571.0
          ],
          [
            142.33827297320636,
            43.33940635803969,
            571.0
          ],
          [
            142.33803559868375,
            43.33935748562992,
            575.0
          ],
          [
            142.33779822416113,
            43.33930861322015,
            578.0
          ],
          [
            142.3375608496385,
            43.33925974081038,
            582.0
          ],
          [
            142.33732347513092,
            43.33921086837738,
            584.0
          ],
          [
            142.33708610377894,
            43.339161991067634,
            586.0
          ],
          [
            142.33684873242697,
            43.33911311375788,
            590.0
          ],
          [
            142.336611361075,
            43.33906423644813,
            592.0
          ],
          [
            142.33637398829532,
            43.339015363683714,
            594.0
          ],
          [
            142.3361366141566,
            43.338966495246005,
            593.0
          ],
          [
            142.3358992400179,
            43.338917626808296,
            597.0
          ],
          [
            142.33566186655173,
            43.338868757237655,
            599.0
          ],
          [
            142.33542449505455,
            43.33881988435002,
            604.0
          ],
          [
            142.33518712355738,
            43.33877101146239,
            608.0
          ],
          [
            142.3349497520602,
            43.33872213857475,
            620.0
          ],
          [
            142.33471238056302,
            43.33867326568712,
            629.0
          ],
          [
            142.33447500906584,
            43.33862439279948,
            643.0
          ],
          [
            142.33423763756866,
            43.33857551991185,
            655.0
          ],
          [
            142.33400026719085,
            43.33852664742764,
            669.0
          ],
          [
            142.33376289705947,
            43.33847777503228,
            676.0
          ],
          [
            142.33352552692813,
            43.33842890263692,
            685.0
          ],
          [
            142.33328815679678,
            43.33838003024155,
            696.0
          ],
          [
            142.33305078666544,
            43.33833115784619,
            707.0
          ],
          [
            142.3328134165341,
            43.33828228545082,
            717.0
          ],
          [
            142.33257604640275,
            43.33823341305546,
            724.0
          ],
          [
            142.33233867627138,
            43.3381845406601,
            736.0
          ],
          [
            142.33210130614003,
            43.338135668264734,
            747.0
          ],
          [
            142.3318639360087,
            43.33808679586937,
            761.0
          ],
          [
            142.33162656197302,
            43.33803793675446,
            776.0
          ],
          [
            142.33138918747287,
            43.337989079219426,
            787.0
          ],
          [
            142.33115181297273,
            43.337940221684384,
            796.0
          ],
          [
            142.33091443847258,
            43.33789136414935,
            807.0
          ],
          [
            142.33067706631562,
            43.33784250142844,
            815.0
          ],
          [
            142.33043969797257,
            43.33779363026655,
            823.0
          ],
          [
            142.33020232962951,
            43.337744759104666,
            827.0
          ],
          [
            142.32996496128646,
            43.33769588794278,
            836.0
          ],
          [
            142.32972759294339,
            43.3376470167809,
            848.0
          ],
          [
            142.32949022623083,
            43.33759814304913,
            853.0
          ],
          [
            142.32925286105558,
            43.33754926689436,
            857.0
          ],
          [
            142.32901549588033,
            43.33750039073958,
            860.0
          ],
          [
            142.32877813070505,
            43.3374515145848,
            867.0
          ],
          [
            142.3285407655298,
            43.33740263843003,
            876.0
          ],
          [
            142.32830340035454,
            43.33735376227525,
            888.0
          ],
          [
            142.3280660351793,
            43.33730488612047,
            894.0
          ],
          [
            142.32782867000404,
            43.33725600996569,
            904.0
          ],
          [
            142.32759130240947,
            43.33720714108323,
            912.0
          ],
          [
            142.3273539305409,
            43.3371582850484,
            920.0
          ],
          [
            142.32711655867234,
            43.33710942901358,
            926.0
          ],
          [
            142.32687918782102,
            43.33706057052691,
            932.0
          ],
          [
            142.32664182282937,
            43.33701169791716,
            935.0
          ],
          [
            142.3264971,
            43.3369819,
            937.0
          ]
        ]
      }
    },
    {
      "type": "Feature",
      "properties": {
        "name": "連絡",
        "horizontal_dist_map": 850,
        "slope_dist_map": 929,
        "elevation_diff_map": 328.0
      },
      "geometry": {
        "type": "LineString",
        "coordinates": [
          [
            142.3392596,
            43.3380527,
            522.0
          ],
          [
            142.33912891625084,
            43.33790003025038,
            518.0
          ],
          [
            142.33899823250172,
            43.337747360500764,
            515.0
          ],
          [
            142.33886754875257,
            43.337594690751146,
            512.0
          ],
          [
            142.3387368583478,
            43.337442024368386,
            519.0
          ],
          [
            142.33860616752196,
            43.33728935821667,
            530.0
          ],
          [
            142.33847548658346,
            43.33713668801464,
            539.0
          ],
          [
            142.33834480564494,
            43.336984017812604,
            547.0
          ],
          [
            142.33821412470644,
            43.33683134761056,
            558.0
          ],
          [
            142.3380834437679,
            43.33667867740853,
            565.0
          ],
          [
            142.3379527655801,
            43.33652600624624,
            577.0
          ],
          [
            142.33782209042653,
            43.336373334024685,
            587.0
          ],
          [
            142.33769141527296,
            43.33622066180313,
            596.0
          ],
          [
            142.33756074011941,
            43.336067989581586,
            602.0
          ],
          [
            142.33743006453895,
            43.335915317798815,
            610.0
          ],
          [
            142.33729938852767,
            43.3357626464589,
            616.0
          ],
          [
            142.33716871251636,
            43.33560997511899,
            623.0
          ],
          [
            142.33703801841722,
            43.335457312333865,
            639.0
          ],
          [
            142.3369073172777,
            43.335304652878534,
            649.0
          ],
          [
            142.3367766161382,
            43.335151993423196,
            662.0
          ],
          [
            142.33664594936945,
            43.334999318519415,
            671.0
          ],
          [
            142.33651529808827,
            43.334846636681505,
            682.0
          ],
          [
            142.33638461901327,
            43.334693967819966,
            683.0
          ],
          [
            142.33625393993825,
            43.33454129895842,
            685.0
          ],
          [
            142.33612326112257,
            43.334388630137774,
            686.0
          ],
          [
            142.33599258299324,
            43.33423596142536,
            691.0
          ],
          [
            142.33586190486392,
            43.33408329271293,
            697.0
          ],
          [
            142.3357312267346,
            43.333930624000516,
            701.0
          ],
          [
            142.33560054860524,
            43.33377795528809,
            709.0
          ],
          [
            142.33546986961045,
            43.333625287001276,
            713.0
          ],
          [
            142.33533917665736,
            43.333472625578565,
            722.0
          ],
          [
            142.33520848370725,
            43.333319964154754,
            728.0
          ],
          [
            142.33507779412906,
            43.33316730149364,
            737.0
          ],
          [
            142.33494710455088,
            43.33301463883253,
            742.0
          ],
          [
            142.33481644151627,
            43.332861964425646,
            752.0
          ],
          [
            142.33468578104382,
            43.332709288884985,
            762.0
          ],
          [
            142.33455512057137,
            43.33255661334432,
            776.0
          ],
          [
            142.3344244523244,
            43.33240394163139,
            785.0
          ],
          [
            142.3342937778484,
            43.33225127298532,
            798.0
          ],
          [
            142.3341631033724,
            43.332098604339244,
            810.0
          ],
          [
            142.33403242889636,
            43.33194593569317,
            822.0
          ],
          [
            142.33390175657055,
            43.331793266469724,
            834.0
          ],
          [
            142.33377108444884,
            43.331640597191466,
            846.0
          ],
          [
            142.3337021,
            43.33156,
            850.0
          ]
        ]
      }
    },
    {
      "type": "Feature",
      "properties": {
        "name": "富良野ロープウェー",
        "horizontal_dist_map": 2300,
        "slope_dist_map": 2388,
        "elevation_diff_map": 570.9
      },
      "geometry": {
        "type": "LineString",
        "coordinates": [
          [
            142.3534443,
            43.3254678,
            322.1
          ],
          [
            142.35319927804346,
            43.32548801267323,
            327.1
          ],
          [
            142.3529542560869,
            43.32550822534646,
            327.0
          ],
          [
            142.35270923413034,
            43.325528438019695,
            328.6
          ],
          [
            142.35246421217377,
            43.32554865069292,
            332.1
          ],
          [
            142.35221919021723,
            43.32556886336616,
            334.6
          ],
          [
            142.3519741681687,
            43.32558907574529,
            336.9
          ],
          [
            142.35172914430836,
            43.32560928232807,
            339.6
          ],
          [
            142.35148412044802,
            43.32562948891084,
            343.3
          ],
          [
            142.35123909658765,
            43.325649695493624,
            345.6
          ],
          [
            142.3509940727273,
            43.3256699020764,
            349.1
          ],
          [
            142.35074904886696,
            43.325690108659174,
            353.2
          ],
          [
            142.35050402500661,
            43.32571031524195,
            355.9
          ],
          [
            142.35025900114624,
            43.32573052182473,
            359.9
          ],
          [
            142.3500139772859,
            43.325750728407506,
            362.3
          ],
          [
            142.34976895342555,
            43.32577093499028,
            367.0
          ],
          [
            142.34952392956518,
            43.325791141573056,
            368.0
          ],
          [
            142.34927890570484,
            43.32581134815584,
            367.0
          ],
          [
            142.3490338818445,
            43.32583155473861,
            368.0
          ],
          [
            142.34878885798412,
            43.32585176132139,
            370.0
          ],
          [
            142.34854383412377,
            43.32587196790417,
            380.0
          ],
          [
            142.34829881026343,
            43.325892174486945,
            389.0
          ],
          [
            142.34805378640306,
            43.32591238106972,
            394.0
          ],
          [
            142.3478087625427,
            43.325932587652495,
            400.0
          ],
          [
            142.3475637381552,
            43.325952795037544,
            402.0
          ],
          [
            142.34731871267948,
            43.325973004078705,
            403.0
          ],
          [
            142.34707368720376,
            43.32599321311986,
            402.0
          ],
          [
            142.34682866172804,
            43.32601342216102,
            405.0
          ],
          [
            142.34658363625232,
            43.32603363120218,
            409.0
          ],
          [
            142.3463386107766,
            43.32605384024333,
            412.0
          ],
          [
            142.34609358530088,
            43.32607404928449,
            416.0
          ],
          [
            142.34584855982519,
            43.326094258325654,
            420.0
          ],
          [
            142.34560353434946,
            43.32611446736681,
            425.0
          ],
          [
            142.34535850887374,
            43.32613467640797,
            427.0
          ],
          [
            142.34511348339802,
            43.32615488544913,
            429.0
          ],
          [
            142.3448684579223,
            43.32617509449028,
            431.0
          ],
          [
            142.34462343244658,
            43.32619530353144,
            433.0
          ],
          [
            142.34437840697086,
            43.3262155125726,
            435.0
          ],
          [
            142.34413338149514,
            43.326235721613756,
            438.0
          ],
          [
            142.34388835601942,
            43.326255930654916,
            441.0
          ],
          [
            142.3436433305437,
            43.32627613969608,
            446.0
          ],
          [
            142.343398305068,
            43.32629634873723,
            451.0
          ],
          [
            142.3431532795923,
            43.32631655777839,
            458.0
          ],
          [
            142.34290825411657,
            43.32633676681955,
            462.0
          ],
          [
            142.34266322864084,
            43.326356975860705,
            469.0
          ],
          [
            142.34241820316512,
            43.326377184901865,
            476.0
          ],
          [
            142.3421731776894,
            43.326397393943026,
            483.0
          ],
          [
            142.34192815221368,
            43.32641760298418,
            491.0
          ],
          [
            142.34168312673796,
            43.32643781202534,
            499.0
          ],
          [
            142.34143810126224,
            43.3264580210665,
            507.0
          ],
          [
            142.34119307578655,
            43.326478230107654,
            512.0
          ],
          [
            142.34094805031083,
            43.326498439148814,
            520.0
          ],
          [
            142.3407030248351,
            43.326518648189975,
            526.0
          ],
          [
            142.3404579993594,
            43.32653885723113,
            532.0
          ],
          [
            142.34021297388367,
            43.32655906627229,
            538.0
          ],
          [
            142.33996794840795,
            43.32657927531345,
            544.0
          ],
          [
            142.33972292103658,
            43.32659948551445,
            549.0
          ],
          [
            142.33947789345416,
            43.3266196958446,
            554.0
          ],
          [
            142.33923286587174,
            43.32663990617474,
            556.0
          ],
          [
            142.3389878382893,
            43.32666011650488,
            559.0
          ],
          [
            142.3387428107069,
            43.32668032683503,
            568.0
          ],
          [
            142.33849778312447,
            43.32670053716517,
            575.0
          ],
          [
            142.33825275554204,
            43.32672074749532,
            581.0
          ],
          [
            142.3380077279596,
            43.326740957825464,
            586.0
          ],
          [
            142.33776270037717,
            43.326761168155606,
            590.0
          ],
          [
            142.33751767279475,
            43.326781378485755,
            595.0
          ],
          [
            142.33727264521232,
            43.3268015888159,
            602.0
          ],
          [
            142.3370276176299,
            43.326821799146046,
            610.0
          ],
          [
            142.33678259004748,
            43.32684200947619,
            620.0
          ],
          [
            142.33653756246505,
            43.32686221980634,
            631.0
          ],
          [
            142.33629253488263,
            43.32688243013648,
            638.0
          ],
          [
            142.3360475073002,
            43.32690264046662,
            650.0
          ],
          [
            142.33580247971776,
            43.32692285079677,
            656.0
          ],
          [
            142.33555745213533,
            43.32694306112691,
            663.0
          ],
          [
            142.3353124245529,
            43.32696327145706,
            672.0
          ],
          [
            142.3350673969705,
            43.3269834817872,
            681.0
          ],
          [
            142.33482236938806,
            43.32700369211735,
            691.0
          ],
          [
            142.33457734180564,
            43.32702390244749,
            695.0
          ],
          [
            142.33433231422322,
            43.327044112777635,
            703.0
          ],
          [
            142.3340872866408,
            43.327064323107784,
            716.0
          ],
          [
            142.33384225905837,
            43.327084533437926,
            719.0
          ],
          [
            142.33359723027885,
            43.32710474358709,
            720.0
          ],
          [
            142.33335220046533,
            43.32712495357994,
            723.0
          ],
          [
            142.3331071706518,
            43.32714516357278,
            726.0
          ],
          [
            142.3328621408383,
            43.32716537356562,
            728.0
          ],
          [
            142.33261711102477,
            43.32718558355847,
            731.0
          ],
          [
            142.33237208121125,
            43.32720579355131,
            735.0
          ],
          [
            142.33212705139772,
            43.32722600354415,
            738.0
          ],
          [
            142.33188202158422,
            43.327246213536995,
            741.0
          ],
          [
            142.3316369917707,
            43.327266423529835,
            745.0
          ],
          [
            142.33139196195717,
            43.32728663352268,
            750.0
          ],
          [
            142.33114693214364,
            43.32730684351552,
            756.0
          ],
          [
            142.33090190233014,
            43.32732705350836,
            762.0
          ],
          [
            142.3306568725166,
            43.32734726350121,
            768.0
          ],
          [
            142.33041184270309,
            43.32736747349405,
            773.0
          ],
          [
            142.33016681288956,
            43.32738768348689,
            778.0
          ],
          [
            142.32992178307606,
            43.32740789347974,
            783.0
          ],
          [
            142.32967675326253,
            43.32742810347258,
            788.0
          ],
          [
            142.329431723449,
            43.327448313465425,
            791.0
          ],
          [
            142.32918669363548,
            43.327468523458265,
            795.0
          ],
          [
            142.32894166382195,
            43.327488733451105,
            799.0
          ],
          [
            142.32869663400845,
            43.32750894344395,
            806.0
          ],
          [
            142.32845160419492,
            43.32752915343679,
            812.0
          ],
          [
            142.3282065743814,
            43.32754936342963,
            818.0
          ],
          [
            142.32796154456787,
            43.32756957342248,
            824.0
          ],
          [
            142.32771651475437,
            43.32758978341532,
            829.0
          ],
          [
            142.32747148494084,
            43.32760999340817,
            836.0
          ],
          [
            142.32722645512732,
            43.32763020340101,
            845.0
          ],
          [
            142.3269814253138,
            43.32765041339385,
            855.0
          ],
          [
            142.32673639508585,
            43.32767062296329,
            863.0
          ],
          [
            142.32649136360493,
            43.32769083125271,
            866.0
          ],
          [
            142.32624633212401,
            43.32771103954212,
            871.0
          ],
          [
            142.32600130064307,
            43.327731247831544,
            877.0
          ],
          [
            142.32575626916216,
            43.327751456120964,
            885.0
          ],
          [
            142.32551123768124,
            43.32777166441038,
            891.0
          ],
          [
            142.32526620620033,
            43.3277918726998,
            893.0
          ],
          [
            142.3252586,
            43.3277925,
            893.0
          ]
        ]
      }
    },
    {
      "type": "Feature",
      "properties": {
        "name": "富良野ダウンヒル第3ロマンス",
        "horizontal_dist_map": 534,
        "slope_dist_map": 570,
        "elevation_diff_map": 179.0
      },
      "geometry": {
        "type": "LineString",
        "coordinates": [
          [
            142.324808,
            43.3268988,
            883.0
          ],
          [
            142.32459998799735,
            43.32680212528174,
            885.0
          ],
          [
            142.3243919759947,
            43.32670545056347,
            884.0
          ],
          [
            142.32418396919013,
            43.32660877003491,
            888.0
          ],
          [
            142.32397599202636,
            43.3265120563744,
            891.0
          ],
          [
            142.32376801486262,
            43.32641534271389,
            894.0
          ],
          [
            142.32356002268844,
            43.326318646845124,
            905.0
          ],
          [
            142.32335202394458,
            43.32622195876334,
            910.0
          ],
          [
            142.32314401660193,
            43.326125281300605,
            918.0
          ],
          [
            142.3229360053047,
            43.326028608721565,
            923.0
          ],
          [
            142.3227279940075,
            43.32593193614252,
            933.0
          ],
          [
            142.32251998271028,
            43.32583526356347,
            938.0
          ],
          [
            142.32231198378736,
            43.32573857773974,
            943.0
          ],
          [
            142.32210398772733,
            43.32564188885177,
            953.0
          ],
          [
            142.32189598856712,
            43.325545203904774,
            959.0
          ],
          [
            142.32168798638963,
            43.3254485227933,
            968.0
          ],
          [
            142.32147999472588,
            43.32535183038525,
            974.0
          ],
          [
            142.32127200629233,
            43.32525513450647,
            982.0
          ],
          [
            142.3210640178588,
            43.32515843862769,
            993.0
          ],
          [
            142.32085602939503,
            43.32506174308929,
            1001.0
          ],
          [
            142.32064804083743,
            43.32496504860771,
            1014.0
          ],
          [
            142.32044005227982,
            43.324868354126124,
            1023.0
          ],
          [
            142.32023206017445,
            43.32477166381728,
            1037.0
          ],
          [
            142.32002403603204,
            43.32467501118908,
            1044.0
          ],
          [
            142.31981601188963,
            43.32457835856088,
            1048.0
          ],
          [
            142.31960801740314,
            43.32448167256024,
            1054.0
          ],
          [
            142.31940003554055,
            43.32438497235363,
            1058.0
          ],
          [
            142.3192504,
            43.3243154,
            1062.0
          ]
        ]
      }
    },
    {
      "type": "Feature",
      "properties": {
        "name": "北の峰第2ロマンス",
        "horizontal_dist_map": 671,
        "slope_dist_map": 717,
        "elevation_diff_map": 228.6
      },
      "geometry": {
        "type": "LineString",
        "coordinates": [
          [
            142.3454539,
            43.342258,
            433.4
          ],
          [
            142.3452105626896,
            43.34222860051082,
            434.0
          ],
          [
            142.34496722537918,
            43.34219920102164,
            437.3
          ],
          [
            142.34472388555733,
            43.34216981343744,
            438.6
          ],
          [
            142.34448054382523,
            43.34214043490826,
            441.4
          ],
          [
            142.34423720209313,
            43.34211105637908,
            444.7
          ],
          [
            142.34399385805614,
            43.3420816885028,
            448.7
          ],
          [
            142.34375051006705,
            43.3420523388927,
            453.6
          ],
          [
            142.34350716619565,
            43.3420229716407,
            457.6
          ],
          [
            142.3432638256159,
            43.34199359028567,
            463.0
          ],
          [
            142.34302048644656,
            43.34196420364912,
            468.5
          ],
          [
            142.34277714803744,
            43.34193481416578,
            474.5
          ],
          [
            142.34253380962832,
            43.341905424682444,
            482.1
          ],
          [
            142.3422904712192,
            43.34187603519911,
            489.1
          ],
          [
            142.34204712925984,
            43.341846663468424,
            494.3
          ],
          [
            142.34180378717085,
            43.341817292385876,
            499.7
          ],
          [
            142.34156044508188,
            43.341787921303336,
            508.4
          ],
          [
            142.3413171029929,
            43.34175855022079,
            514.5
          ],
          [
            142.34107376274622,
            43.34172917152775,
            521.9
          ],
          [
            142.34083042716023,
            43.34169977358159,
            530.7
          ],
          [
            142.34058709157426,
            43.341670375635424,
            536.1
          ],
          [
            142.3403437494168,
            43.34164100794921,
            550.0
          ],
          [
            142.34010040665504,
            43.34161164304553,
            559.0
          ],
          [
            142.3398570638933,
            43.34158227814186,
            571.0
          ],
          [
            142.33961372558196,
            43.34155289516461,
            581.0
          ],
          [
            142.33937038757472,
            43.34152351095242,
            598.0
          ],
          [
            142.33912704956748,
            43.34149412674023,
            604.0
          ],
          [
            142.33888371431107,
            43.34146473093832,
            614.0
          ],
          [
            142.3386403802035,
            43.341435331211684,
            621.0
          ],
          [
            142.33839704117517,
            43.34140595426662,
            628.0
          ],
          [
            142.33815370214685,
            43.341376577321554,
            633.0
          ],
          [
            142.33791036311857,
            43.34134720037649,
            640.0
          ],
          [
            142.33766702409025,
            43.34131782343142,
            647.0
          ],
          [
            142.33742368799102,
            43.34128843418982,
            658.0
          ],
          [
            142.3372786,
            43.3412709,
            662.0
          ]
        ]
      }
    },
    {
      "type": "Feature",
      "properties": {
        "name": "富良野ダウンヒル第2ロマンス",
        "horizontal_dist_map": 754,
        "slope_dist_map": 779,
        "elevation_diff_map": 179.0
      },
      "geometry": {
        "type": "LineString",
        "coordinates": [
          [
            142.3337173,
            43.3272089,
            722.0
          ],
          [
            142.33347367106282,
            43.32723670511327,
            723.0
          ],
          [
            142.33323004227182,
            43.32726451130158,
            726.0
          ],
          [
            142.33298641362472,
            43.327292318548416,
            728.0
          ],
          [
            142.33274277014456,
            43.327320057447594,
            731.0
          ],
          [
            142.3324991342148,
            43.327347832010275,
            734.0
          ],
          [
            142.33225549828506,
            43.32737560657295,
            738.0
          ],
          [
            142.3320118495758,
            43.32740332193835,
            740.0
          ],
          [
            142.3317682174782,
            43.327431115950304,
            745.0
          ],
          [
            142.3315245869578,
            43.32745891759137,
            749.0
          ],
          [
            142.3312809499403,
            43.32748669000429,
            753.0
          ],
          [
            142.3310373129228,
            43.327514462417206,
            758.0
          ],
          [
            142.3307936759053,
            43.32754223483012,
            764.0
          ],
          [
            142.33055004298643,
            43.32757002733596,
            767.0
          ],
          [
            142.33030640496898,
            43.327597796692686,
            774.0
          ],
          [
            142.3300627694177,
            43.3276255784802,
            779.0
          ],
          [
            142.32981913386644,
            43.32765336026772,
            785.0
          ],
          [
            142.32957549783387,
            43.32768114010841,
            790.0
          ],
          [
            142.32933185987005,
            43.32770891213669,
            795.0
          ],
          [
            142.32908822190623,
            43.32773668416498,
            797.0
          ],
          [
            142.32884458468624,
            43.3277644599577,
            801.0
          ],
          [
            142.32860094987328,
            43.3277922479321,
            806.0
          ],
          [
            142.32835731368922,
            43.327820030035426,
            810.0
          ],
          [
            142.3281136761423,
            43.32784780630299,
            817.0
          ],
          [
            142.32787003846934,
            43.32787558215755,
            824.0
          ],
          [
            142.32762639974885,
            43.32790335457883,
            829.0
          ],
          [
            142.32738276102836,
            43.32793112700011,
            835.0
          ],
          [
            142.3271391223079,
            43.32795889942139,
            843.0
          ],
          [
            142.32689548418068,
            43.3279866749795,
            854.0
          ],
          [
            142.32665184877422,
            43.32801446492293,
            860.0
          ],
          [
            142.32640821336776,
            43.32804225486636,
            865.0
          ],
          [
            142.3261645779613,
            43.32807004480979,
            868.0
          ],
          [
            142.32592094038444,
            43.32809782509123,
            876.0
          ],
          [
            142.32567729697305,
            43.32812557939896,
            883.0
          ],
          [
            142.32543365356167,
            43.32815333370668,
            889.0
          ],
          [
            142.32519001221243,
            43.32818109808599,
            889.0
          ],
          [
            142.32494637624558,
            43.328208888752904,
            891.0
          ],
          [
            142.32470274027872,
            43.32823667941981,
            898.0
          ],
          [
            142.3245281,
            43.3282566,
            901.0
          ]
        ]
      }
    },
    {
      "type": "Feature",
      "properties": {
        "name": "プリンスロマンス",
        "horizontal_dist_map": 595,
        "slope_dist_map": 607,
        "elevation_diff_map": 115.4
      },
      "geometry": {
        "type": "LineString",
        "coordinates": [
          [
            142.353453,
            43.3239757,
            334.6
          ],
          [
            142.3532126749145,
            43.32393542646431,
            336.7
          ],
          [
            142.3529723509648,
            43.32389514953141,
            340.2
          ],
          [
            142.3527320371822,
            43.32385484218912,
            342.5
          ],
          [
            142.3524917233996,
            43.323814534846825,
            345.0
          ],
          [
            142.352251409617,
            43.32377422750453,
            347.2
          ],
          [
            142.3520110958344,
            43.32373392016224,
            349.3
          ],
          [
            142.3517707820518,
            43.323693612819945,
            351.9
          ],
          [
            142.3515304682692,
            43.32365330547765,
            354.5
          ],
          [
            142.35128977349274,
            43.32361424871385,
            357.6
          ],
          [
            142.3510487862192,
            43.323576152045824,
            360.8
          ],
          [
            142.35080779894565,
            43.3235380553778,
            364.0
          ],
          [
            142.35056681167214,
            43.323499958709775,
            368.1
          ],
          [
            142.3503258243986,
            43.32346186204175,
            372.4
          ],
          [
            142.35008483712505,
            43.323423765373725,
            378.1
          ],
          [
            142.3498438498515,
            43.323385668705704,
            383.0
          ],
          [
            142.34960286257797,
            43.323347572037676,
            386.0
          ],
          [
            142.34936187530442,
            43.32330947536965,
            390.0
          ],
          [
            142.34912088803088,
            43.32327137870163,
            394.0
          ],
          [
            142.34887990075734,
            43.3232332820336,
            398.0
          ],
          [
            142.3486389134838,
            43.32319518536558,
            401.0
          ],
          [
            142.34839792621028,
            43.32315708869755,
            405.0
          ],
          [
            142.34815693893674,
            43.32311899202953,
            409.0
          ],
          [
            142.3479159516632,
            43.3230808953615,
            416.0
          ],
          [
            142.34767496438965,
            43.32304279869347,
            423.0
          ],
          [
            142.3474339771161,
            43.32300470202545,
            428.0
          ],
          [
            142.34719298984257,
            43.32296660535742,
            433.0
          ],
          [
            142.34695200256903,
            43.3229285086894,
            439.0
          ],
          [
            142.34671101529548,
            43.32289041202137,
            443.0
          ],
          [
            142.34647002802194,
            43.32285231535335,
            447.0
          ],
          [
            142.34628768047966,
            43.32282348879466,
            450.0
          ]
        ]
      }
    },
    {
      "type": "Feature",
      "properties": {
        "name": "富良野ダウンヒル第1高速",
        "horizontal_dist_map": 1864,
        "slope_dist_map": 1931,
        "elevation_diff_map": 430.1
      },
      "geometry": {
        "type": "LineString",
        "coordinates": [
          [
            142.354652,
            43.324286,
            323.9
          ],
          [
            142.35440725337205,
            43.324307890807326,
            323.9
          ],
          [
            142.3541625067441,
            43.32432978161466,
            327.4
          ],
          [
            142.35391776011616,
            43.32435167242198,
            331.0
          ],
          [
            142.35367301348822,
            43.32437356322931,
            332.9
          ],
          [
            142.35342826686028,
            43.32439545403663,
            333.9
          ],
          [
            142.35318352023234,
            43.324417344843965,
            335.2
          ],
          [
            142.3529387736044,
            43.32443923565129,
            337.4
          ],
          [
            142.3526940281055,
            43.32446113514564,
            339.2
          ],
          [
            142.35244928307975,
            43.32448303828022,
            341.4
          ],
          [
            142.352204538054,
            43.32450494141481,
            342.9
          ],
          [
            142.35195979466053,
            43.32452685479218,
            345.1
          ],
          [
            142.35171505402457,
            43.3245487854727,
            347.6
          ],
          [
            142.35147031159022,
            43.32457070598352,
            350.2
          ],
          [
            142.35122556471003,
            43.32459260135324,
            354.3
          ],
          [
            142.35098081782985,
            43.32461449672295,
            358.3
          ],
          [
            142.3507360709497,
            43.324636392092664,
            363.6
          ],
          [
            142.3504913240695,
            43.32465828746238,
            369.0
          ],
          [
            142.35024657557307,
            43.32468017368854,
            373.9
          ],
          [
            142.35000182246566,
            43.3247020338291,
            379.7
          ],
          [
            142.3497570694918,
            43.324723894795355,
            385.0
          ],
          [
            142.3495123222957,
            43.324745791476644,
            388.0
          ],
          [
            142.34926757509962,
            43.32476768815793,
            393.0
          ],
          [
            142.34902282787522,
            43.32478958561519,
            396.0
          ],
          [
            142.34877808059034,
            43.32481148472906,
            397.0
          ],
          [
            142.34853333330545,
            43.324833383842936,
            399.0
          ],
          [
            142.34828858602057,
            43.32485528295681,
            401.0
          ],
          [
            142.34804383873572,
            43.324877182070686,
            397.0
          ],
          [
            142.34779909145084,
            43.32489908118456,
            396.0
          ],
          [
            142.34755434416596,
            43.32492098029844,
            394.0
          ],
          [
            142.34730959688108,
            43.32494287941231,
            398.0
          ],
          [
            142.3470648495962,
            43.32496477852619,
            404.0
          ],
          [
            142.3468201067698,
            43.32498670596685,
            413.0
          ],
          [
            142.34657536065163,
            43.32500861541304,
            421.0
          ],
          [
            142.34633061219603,
            43.325030511346185,
            426.0
          ],
          [
            142.34608586374043,
            43.32505240727933,
            430.0
          ],
          [
            142.34584111528483,
            43.32507430321248,
            435.0
          ],
          [
            142.34559636721713,
            43.32509620350009,
            438.0
          ],
          [
            142.34535161921332,
            43.32511810450501,
            441.0
          ],
          [
            142.3451068712095,
            43.32514000550993,
            446.0
          ],
          [
            142.3448621232057,
            43.32516190651485,
            452.0
          ],
          [
            142.3446173752019,
            43.32518380751977,
            456.0
          ],
          [
            142.3443726255321,
            43.325205700226974,
            460.0
          ],
          [
            142.34412787472345,
            43.32522758726194,
            465.0
          ],
          [
            142.34388312391482,
            43.32524947429692,
            469.0
          ],
          [
            142.34363837310616,
            43.32527136133189,
            474.0
          ],
          [
            142.34339362229753,
            43.32529324836687,
            478.0
          ],
          [
            142.34314887262747,
            43.3253151432005,
            483.0
          ],
          [
            142.34290412477307,
            43.32533705047038,
            487.0
          ],
          [
            142.3426593769187,
            43.325358957740264,
            492.0
          ],
          [
            142.3424146290643,
            43.32538086501014,
            497.0
          ],
          [
            142.34216988120994,
            43.32540277228002,
            501.0
          ],
          [
            142.34192513103497,
            43.325424667231175,
            505.0
          ],
          [
            142.3416803787903,
            43.325446551195334,
            508.0
          ],
          [
            142.34143562654566,
            43.3254684351595,
            511.0
          ],
          [
            142.341190874301,
            43.325490319123666,
            512.0
          ],
          [
            142.34094612205632,
            43.32551220308783,
            515.0
          ],
          [
            142.34070136981168,
            43.32553408705199,
            518.0
          ],
          [
            142.34045661857402,
            43.325555978006214,
            522.0
          ],
          [
            142.34021186835653,
            43.32557787604175,
            527.0
          ],
          [
            142.33996711767796,
            43.325599772970705,
            532.0
          ],
          [
            142.33972236696,
            43.325621669805095,
            540.0
          ],
          [
            142.33947761624202,
            43.325643566639485,
            546.0
          ],
          [
            142.33923286552405,
            43.325665463473875,
            557.0
          ],
          [
            142.33898811480609,
            43.325687360308265,
            566.0
          ],
          [
            142.33874336553723,
            43.32570926737758,
            574.0
          ],
          [
            142.338498616899,
            43.32573117890099,
            579.0
          ],
          [
            142.33825386826078,
            43.3257530904244,
            585.0
          ],
          [
            142.3380091191761,
            43.32577499952527,
            590.0
          ],
          [
            142.33776436691733,
            43.32579689140304,
            596.0
          ],
          [
            142.33751961465853,
            43.32581878328081,
            602.0
          ],
          [
            142.33727486239977,
            43.32584067515858,
            609.0
          ],
          [
            142.3370301143266,
            43.3258625923361,
            611.0
          ],
          [
            142.33678536033923,
            43.3258844764788,
            614.0
          ],
          [
            142.33654060622692,
            43.32590635989221,
            612.0
          ],
          [
            142.33629585211463,
            43.325928243305626,
            616.0
          ],
          [
            142.33605109800232,
            43.32595012671904,
            615.0
          ],
          [
            142.33580634389003,
            43.32597201013246,
            619.0
          ],
          [
            142.33556159194677,
            43.32599390774925,
            627.0
          ],
          [
            142.33531684122644,
            43.32601581337421,
            637.0
          ],
          [
            142.33507209008636,
            43.32603771713255,
            647.0
          ],
          [
            142.33482733814307,
            43.32605961731933,
            655.0
          ],
          [
            142.33458258619976,
            43.326081517506104,
            661.0
          ],
          [
            142.33433783425647,
            43.326103417692885,
            669.0
          ],
          [
            142.33409308231316,
            43.326125317879665,
            680.0
          ],
          [
            142.33384832809648,
            43.326147205687505,
            688.0
          ],
          [
            142.33360357229904,
            43.326169084888086,
            695.0
          ],
          [
            142.33335881650163,
            43.32619096408867,
            704.0
          ],
          [
            142.3331140633366,
            43.32621286000092,
            715.0
          ],
          [
            142.33286931093846,
            43.32623476078162,
            723.0
          ],
          [
            142.3326245585084,
            43.32625666199113,
            733.0
          ],
          [
            142.33237980605082,
            43.326278563570305,
            741.0
          ],
          [
            142.3321350540873,
            43.326300468456864,
            749.0
          ],
          [
            142.33189030295495,
            43.32632237890753,
            754.0
          ],
          [
            142.3318398,
            43.3263269,
            754.0
          ]
        ]
      }
    }
  ]
}