{
  "type": "FeatureCollection",
  "features": [
    {
      "type": "Feature",
      "properties": {
        "name": "ソーシャブル",
        "horizontal_dist_map": 765,
        "slope_dist_map": 799,
        "elevation_diff_map": 198.1
      },
      "geometry": {
        "type": "LineString",
        "coordinates": [
          [
            138.7825409,
            36.9512125,
            827.8
          ],
          [
            138.78232811554474,
            36.95115493848251,
            827.4
          ],
          [
            138.7821153319498,
            36.951097375288775,
            831.7
          ],
          [
            138.78190255158782,
            36.95103980467508,
            847.0
          ],
          [
            138.78168978089678,
            36.95098221144738,
            859.2
          ],
          [
            138.7814770017334,
            36.95092463901308,
            860.9
          ],
          [
            138.78126422196965,
            36.95086706805238,
            864.3
          ],
          [
            138.7810514451737,
            36.95080949103744,
            866.3
          ],
          [
            138.78083866964934,
            36.95075191142851,
            865.5
          ],
          [
            138.780625894125,
            36.95069433181959,
            869.1
          ],
          [
            138.78041311860065,
            36.95063675221066,
            873.2
          ],
          [
            138.7802003430763,
            36.950579172601735,
            878.5
          ],
          [
            138.77998756489671,
            36.95052159976284,
            882.6
          ],
          [
            138.77977478173065,
            36.95046403963785,
            887.9
          ],
          [
            138.77956200805434,
            36.950406457621725,
            893.1
          ],
          [
            138.77934923519058,
            36.95034887373127,
            901.3
          ],
          [
            138.77913645954854,
            36.950291296975934,
            909.4
          ],
          [
            138.77892367868975,
            36.95023373361843,
            912.7
          ],
          [
            138.77871089783093,
            36.95017617026093,
            922.6
          ],
          [
            138.77849811697212,
            36.95011860690343,
            929.1
          ],
          [
            138.77828533611333,
            36.95006104354594,
            934.9
          ],
          [
            138.77807255574672,
            36.950003479083186,
            942.8
          ],
          [
            138.77785978659713,
            36.9499458894337,
            947.7
          ],
          [
            138.77764701744755,
            36.949888299784206,
            950.9
          ],
          [
            138.77743424810762,
            36.949830710633165,
            951.7
          ],
          [
            138.77722147344988,
            36.949773135409664,
            956.2
          ],
          [
            138.77700869879212,
            36.94971556018616,
            966.2
          ],
          [
            138.77679592413438,
            36.94965798496266,
            973.3
          ],
          [
            138.77658300269897,
            36.94960076873632,
            981.3
          ],
          [
            138.7763691146728,
            36.94954591665263,
            982.7
          ],
          [
            138.77615522664667,
            36.94949106456894,
            987.4
          ],
          [
            138.7759413386205,
            36.94943621248525,
            994.4
          ],
          [
            138.77572885611204,
            36.94937794926073,
            999.8
          ],
          [
            138.7755163764918,
            36.9493196790266,
            1006.4
          ],
          [
            138.77530389687155,
            36.949261408792474,
            1012.6
          ],
          [
            138.77509141725133,
            36.949203138558346,
            1017.6
          ],
          [
            138.77487893631815,
            36.94914487235834,
            1020.3
          ],
          [
            138.77466645521295,
            36.94908660676133,
            1023.7
          ],
          [
            138.77445397721553,
            36.9490283344432,
            1025.3
          ],
          [
            138.7743915,
            36.9490112,
            1025.9
          ]
        ]
      }
    },
    {
      "type": "Feature",
      "properties": {
        "name": "バルーシュ",
        "horizontal_dist_map": 777,
        "slope_dist_map": 816,
        "elevation_diff_map": 204.8
      },
      "geometry": {
        "type": "LineString",
        "coordinates": [
          [
            138.782491,
            36.9513717,
            828.1
          ],
          [
            138.78226946550262,
            36.951342280337016,
            827.4
          ],
          [
            138.7820479367375,
            36.95131283329744,
            829.6
          ],
          [
            138.78182641109765,
            36.95128337133202,
            846.8
          ],
          [
            138.78160487757228,
            36.95125394870422,
            851.3
          ],
          [
            138.78138334366193,
            36.95122452799681,
            853.9
          ],
          [
            138.7811618097516,
            36.951195107289394,
            855.7
          ],
          [
            138.78094027584126,
            36.95116568658198,
            863.7
          ],
          [
            138.78071875203352,
            36.95113621807498,
            867.7
          ],
          [
            138.78049722566016,
            36.95110676215625,
            872.4
          ],
          [
            138.78027568467633,
            36.95107737764462,
            879.1
          ],
          [
            138.7800541539543,
            36.95104794425618,
            885.2
          ],
          [
            138.77983262686186,
            36.951018493580186,
            891.7
          ],
          [
            138.77961109976945,
            36.95098904290418,
            898.3
          ],
          [
            138.77938957267702,
            36.95095959222818,
            907.3
          ],
          [
            138.77916804472358,
            36.950930146115,
            912.7
          ],
          [
            138.7789465142764,
            36.95090071321754,
            912.3
          ],
          [
            138.77872498382925,
            36.95087128032008,
            912.1
          ],
          [
            138.77850345281644,
            36.95084185059635,
            918.7
          ],
          [
            138.7782819209028,
            36.95081242592717,
            929.1
          ],
          [
            138.77806038898916,
            36.95078300125798,
            937.7
          ],
          [
            138.77783886110092,
            36.95075355826466,
            943.3
          ],
          [
            138.77761733393967,
            36.950724111961925,
            947.3
          ],
          [
            138.77739580677843,
            36.95069466565919,
            951.1
          ],
          [
            138.7771742796172,
            36.950665219356466,
            955.1
          ],
          [
            138.77695275146297,
            36.95063577872932,
            958.4
          ],
          [
            138.77673122259444,
            36.950606342184614,
            959.9
          ],
          [
            138.77650969372593,
            36.950576905639906,
            962.9
          ],
          [
            138.77628816344483,
            36.950547476697395,
            965.9
          ],
          [
            138.77606663245814,
            36.95051805155219,
            970.6
          ],
          [
            138.77584510162683,
            36.95048862580566,
            978.0
          ],
          [
            138.77562357199514,
            36.95045919541565,
            982.9
          ],
          [
            138.77540204236345,
            36.95042976502564,
            985.1
          ],
          [
            138.77518051273177,
            36.950400334635624,
            986.4
          ],
          [
            138.7749589855597,
            36.95037089254483,
            992.4
          ],
          [
            138.77473745883083,
            36.95034144923633,
            1006.8
          ],
          [
            138.77451593226866,
            36.95031200562521,
            1016.7
          ],
          [
            138.77429440602285,
            36.95028256064852,
            1027.4
          ],
          [
            138.77407242609237,
            36.950255494283915,
            1032.7
          ],
          [
            138.7738765,
            36.9502335,
            1032.9
          ]
        ]
      }
    },
    {
      "type": "Feature",
      "properties": {
        "name": "ディリジャンス",
        "horizontal_dist_map": 1399,
        "slope_dist_map": 1536,
        "elevation_diff_map": 474.9
      },
      "geometry": {
        "type": "LineString",
        "coordinates": [
          [
            138.7992846,
            36.951122,
            350.0
          ],
          [
            138.7990603917273,
            36.95113188061639,
            349.7
          ],
          [
            138.7988361821372,
            36.951141742436235,
            354.4
          ],
          [
            138.79861197184988,
            36.95115159430866,
            361.9
          ],
          [
            138.7983877612894,
            36.95116144282527,
            372.1
          ],
          [
            138.79816355042294,
            36.95117128758192,
            380.8
          ],
          [
            138.79793933955645,
            36.95118113233858,
            393.5
          ],
          [
            138.79771512869,
            36.951190977095244,
            407.8
          ],
          [
            138.79749091800883,
            36.951200824939995,
            424.9
          ],
          [
            138.7972667084254,
            36.95121069107826,
            433.7
          ],
          [
            138.79704249884202,
            36.95122055721652,
            445.1
          ],
          [
            138.7968182892586,
            36.951230423354794,
            451.2
          ],
          [
            138.7965940796752,
            36.95124028949306,
            457.2
          ],
          [
            138.79636987009178,
            36.95125015563133,
            468.5
          ],
          [
            138.7961456605084,
            36.95126002176959,
            479.0
          ],
          [
            138.79592145092496,
            36.951269887907856,
            490.3
          ],
          [
            138.79569724081833,
            36.95127974715053,
            498.6
          ],
          [
            138.79547302942618,
            36.951289589451434,
            512.4
          ],
          [
            138.79524881803403,
            36.951299431752346,
            522.7
          ],
          [
            138.79502460664187,
            36.95130927405325,
            535.8
          ],
          [
            138.79480039524972,
            36.95131911635416,
            548.4
          ],
          [
            138.79457618434634,
            36.95132896699933,
            558.1
          ],
          [
            138.7943519738867,
            36.951338825220404,
            565.0
          ],
          [
            138.7941277634271,
            36.95134868344148,
            569.9
          ],
          [
            138.79390355296746,
            36.95135854166256,
            574.1
          ],
          [
            138.79367934250783,
            36.951368399883634,
            577.4
          ],
          [
            138.79345513204822,
            36.95137825810471,
            578.1
          ],
          [
            138.7932309216167,
            36.95138811867953,
            572.6
          ],
          [
            138.79300671119896,
            36.95139798040764,
            568.1
          ],
          [
            138.79278250078124,
            36.95140784213575,
            570.5
          ],
          [
            138.7925582903635,
            36.95141770386387,
            582.9
          ],
          [
            138.79233407994576,
            36.95142756559198,
            592.3
          ],
          [
            138.79210986952802,
            36.951437427320094,
            601.4
          ],
          [
            138.79188565911028,
            36.951447289048204,
            612.9
          ],
          [
            138.79166144869254,
            36.95145715077632,
            622.4
          ],
          [
            138.7914372381113,
            36.95146701246993,
            636.0
          ],
          [
            138.79121302750193,
            36.9514768741576,
            642.5
          ],
          [
            138.7909888168925,
            36.951486735845265,
            655.6
          ],
          [
            138.79076460628312,
            36.95149659753293,
            667.6
          ],
          [
            138.79054039567373,
            36.951506459220596,
            682.5
          ],
          [
            138.7903161805589,
            36.951516255151205,
            687.2
          ],
          [
            138.79009196975474,
            36.951526115922285,
            689.5
          ],
          [
            138.78986775895058,
            36.951535976693364,
            693.9
          ],
          [
            138.78964354814588,
            36.95154583746666,
            697.5
          ],
          [
            138.78941933720012,
            36.95155569882099,
            690.1
          ],
          [
            138.78919512625436,
            36.951565560175325,
            687.2
          ],
          [
            138.7889709153086,
            36.95157542152966,
            691.7
          ],
          [
            138.78874670436284,
            36.951585282884,
            694.3
          ],
          [
            138.78852249341708,
            36.95159514423833,
            692.8
          ],
          [
            138.7882982824713,
            36.95160500559267,
            694.6
          ],
          [
            138.78807407152553,
            36.951614866947004,
            700.9
          ],
          [
            138.78784986057977,
            36.95162472830134,
            706.8
          ],
          [
            138.787625649634,
            36.951634589655676,
            718.6
          ],
          [
            138.78740143839673,
            36.95164444931931,
            724.5
          ],
          [
            138.78717722705454,
            36.951654308374295,
            717.3
          ],
          [
            138.78695301571233,
            36.951664167429286,
            710.1
          ],
          [
            138.78672880437014,
            36.95167402648428,
            705.8
          ],
          [
            138.78650459302793,
            36.95168388553927,
            708.7
          ],
          [
            138.7862803816857,
            36.95169374459425,
            705.0
          ],
          [
            138.78605617034353,
            36.95170360364924,
            701.7
          ],
          [
            138.78583195854776,
            36.95171345740723,
            706.7
          ],
          [
            138.78560774615653,
            36.95172330421098,
            714.1
          ],
          [
            138.78538353376527,
            36.951733151014736,
            730.8
          ],
          [
            138.78515932137404,
            36.951742997818485,
            748.0
          ],
          [
            138.7849351089828,
            36.951752844622234,
            764.2
          ],
          [
            138.78471089659155,
            36.951762691425984,
            776.9
          ],
          [
            138.78448668420032,
            36.95177253822973,
            791.3
          ],
          [
            138.7842624718091,
            36.95178238503348,
            800.8
          ],
          [
            138.78403826053955,
            36.951792250399485,
            809.9
          ],
          [
            138.78381404930704,
            36.95180211637885,
            819.7
          ],
          [
            138.7836008,
            36.9518115,
            824.9
          ]
        ]
      }
    },
    {
      "type": "Feature",
      "properties": {
        "name": "フェートン",
        "horizontal_dist_map": 283,
        "slope_dist_map": 290,
        "elevation_diff_map": 53.6
      },
      "geometry": {
        "type": "LineString",
        "coordinates": [
          [
            138.7833804,
            36.9508406,
            828.1
          ],
          [
            138.78332440010837,
            36.95066607649094,
            829.3
          ],
          [
            138.7832684002167,
            36.95049155298188,
            835.0
          ],
          [
            138.78321238250672,
            36.950317033194125,
            838.6
          ],
          [
            138.78315635773143,
            36.95014251488193,
            841.9
          ],
          [
            138.78310033438675,
            36.94996799627795,
            843.1
          ],
          [
            138.78304432796483,
            36.94979347422236,
            844.3
          ],
          [
            138.7829883215429,
            36.94961895216677,
            846.0
          ],
          [
            138.7829323084038,
            36.94944443155135,
            850.7
          ],
          [
            138.7828762944705,
            36.9492699111062,
            854.7
          ],
          [
            138.7828202805372,
            36.94909539066106,
            864.7
          ],
          [
            138.78276428658313,
            36.948920866123224,
            869.4
          ],
          [
            138.78270830254598,
            36.948746339553935,
            874.8
          ],
          [
            138.78265228911613,
            36.94857181908919,
            879.4
          ],
          [
            138.78259626253868,
            36.94839730135505,
            881.7
          ],
          [
            138.7825857,
            36.9483644,
            881.7
          ]
        ]
      }
    },
    {
      "type": "Feature",
      "properties": {
        "name": "シャリオ",
        "horizontal_dist_map": 263,
        "slope_dist_map": 272,
        "elevation_diff_map": 59.2
      },
      "geometry": {
        "type": "LineString",
        "coordinates": [
          [
            138.7775799,
            36.9562845,
            872.5
          ],
          [
            138.77778489267297,
            36.956210921806814,
            872.8
          ],
          [
            138.77798991418547,
            36.95613739585043,
            874.1
          ],
          [
            138.77819494077923,
            36.95606387909765,
            877.0
          ],
          [
            138.77839995399245,
            36.95599033909496,
            880.7
          ],
          [
            138.77860496610683,
            36.955916797182965,
            884.4
          ],
          [
            138.77880997767306,
            36.955843254346725,
            893.3
          ],
          [
            138.77901498238342,
            36.955769699950935,
            899.4
          ],
          [
            138.7792199893759,
            36.95569614995931,
            907.6
          ],
          [
            138.779425000733,
            36.95562260839077,
            912.9
          ],
          [
            138.7796300120901,
            36.95554906682223,
            921.1
          ],
          [
            138.77983502336437,
            36.95547552511128,
            926.8
          ],
          [
            138.78004002188757,
            36.95540196148195,
            928.5
          ],
          [
            138.78024502041075,
            36.955328397852604,
            931.9
          ],
          [
            138.7802857,
            36.9553138,
            931.7
          ]
        ]
      }
    },
    {
      "type": "Feature",
      "properties": {
        "name": "バギー",
        "horizontal_dist_map": 161,
        "slope_dist_map": 164,
        "elevation_diff_map": 21.8
      },
      "geometry": {
        "type": "LineString",
        "coordinates": [
          [
            138.78169825440142,
            36.96087134248631,
            897.2
          ],
          [
            138.78161690145134,
            36.96070336547956,
            897.7
          ],
          [
            138.78153554850124,
            36.96053538847282,
            899.7
          ],
          [
            138.78145419555116,
            36.96036741146607,
            907.8
          ],
          [
            138.78137284260106,
            36.96019943445933,
            912.4
          ],
          [
            138.78129148965098,
            36.96003145745259,
            914.0
          ],
          [
            138.78121013670088,
            36.95986348044584,
            914.1
          ],
          [
            138.7811287837508,
            36.9596955034391,
            916.1
          ],
          [
            138.78104743080073,
            36.95952752643235,
            919.0
          ],
          [
            138.7810412689883,
            36.95951480356485,
            919.0
          ]
        ]
      }
    },
    {
      "type": "Feature",
      "properties": {
        "name": "ティルバリー",
        "horizontal_dist_map": 413,
        "slope_dist_map": 419,
        "elevation_diff_map": 47.3
      },
      "geometry": {
        "type": "LineString",
        "coordinates": [
          [
            138.7780604,
            36.9565664,
            872.9
          ],
          [
            138.77822570719758,
            36.95668837858371,
            873.1
          ],
          [
            138.77839101439517,
            36.95681035716743,
            874.7
          ],
          [
            138.77855634742255,
            36.95693231351067,
            877.8
          ],
          [
            138.77872170247682,
            36.95705425088788,
            881.0
          ],
          [
            138.77888705753105,
            36.95717618826509,
            881.3
          ],
          [
            138.77905238725089,
            36.95729814846258,
            879.6
          ],
          [
            138.7792177150696,
            36.95742011037256,
            882.9
          ],
          [
            138.77938304288827,
            36.95754207228254,
            885.6
          ],
          [
            138.77954837070695,
            36.957664034192526,
            888.8
          ],
          [
            138.7797136829958,
            36.95778601031453,
            891.7
          ],
          [
            138.77987899442942,
            36.95790798721917,
            890.6
          ],
          [
            138.7800443302137,
            36.95802994335623,
            887.0
          ],
          [
            138.78020967013475,
            36.95815189596522,
            886.4
          ],
          [
            138.78037501005582,
            36.95827384857421,
            890.9
          ],
          [
            138.78054035299502,
            36.95839579904045,
            893.8
          ],
          [
            138.78070569484294,
            36.9585177505482,
            900.9
          ],
          [
            138.78087102142172,
            36.9586397158033,
            905.7
          ],
          [
            138.7810363480005,
            36.9587616810584,
            909.3
          ],
          [
            138.781201679477,
            36.95888364253512,
            914.7
          ],
          [
            138.7813670114014,
            36.95900560366631,
            919.3
          ],
          [
            138.7814802,
            36.9590891,
            920.2
          ]
        ]
      }
    },
    {
      "type": "Feature",
      "properties": {
        "name": "ワゴネット",
        "horizontal_dist_map": 639,
        "slope_dist_map": 693,
        "elevation_diff_map": 236.0
      },
      "geometry": {
        "type": "LineString",
        "coordinates": [
          [
            138.7790072,
            36.9400395,
            796.6
          ],
          [
            138.77879067000524,
            36.94008713196152,
            795.0
          ],
          [
            138.7785741400105,
            36.94013476392304,
            797.8
          ],
          [
            138.77835761001575,
            36.940182395884555,
            809.4
          ],
          [
            138.77814108706784,
            36.94023004967045,
            820.1
          ],
          [
            138.77792456425627,
            36.94027770387861,
            827.0
          ],
          [
            138.77770804144473,
            36.94032535808677,
            843.0
          ],
          [
            138.77749151234423,
            36.94037299474614,
            853.9
          ],
          [
            138.7772749821714,
            36.94042062841324,
            864.0
          ],
          [
            138.7770584523476,
            36.940468263966444,
            869.8
          ],
          [
            138.77684192259287,
            36.94051589989303,
            880.7
          ],
          [
            138.77662539283816,
            36.940563535819614,
            894.2
          ],
          [
            138.77640885923824,
            36.9406111614069,
            900.3
          ],
          [
            138.77619232313927,
            36.94065878027451,
            904.7
          ],
          [
            138.77597578704027,
            36.94070639914212,
            907.6
          ],
          [
            138.7757592509413,
            36.94075401800974,
            908.0
          ],
          [
            138.77554271605158,
            36.9408016405273,
            908.7
          ],
          [
            138.77532619237144,
            36.94084929687838,
            911.2
          ],
          [
            138.77510966549497,
            36.94089694458501,
            917.1
          ],
          [
            138.7748931384928,
            36.94094459195171,
            932.5
          ],
          [
            138.77467661096782,
            36.94099223815319,
            942.2
          ],
          [
            138.77446008241236,
            36.94103988205841,
            949.6
          ],
          [
            138.77424355385693,
            36.94108752596363,
            959.6
          ],
          [
            138.7740270211673,
            36.94113515827191,
            971.6
          ],
          [
            138.7738104834377,
            36.94118277644229,
            981.1
          ],
          [
            138.77359394570811,
            36.941230394612674,
            989.2
          ],
          [
            138.77337741376058,
            36.941278030516415,
            994.5
          ],
          [
            138.77316088618602,
            36.94132567983188,
            998.5
          ],
          [
            138.77294435861148,
            36.941373329147346,
            1007.3
          ],
          [
            138.77272783103692,
            36.94142097846281,
            1015.8
          ],
          [
            138.7725115105645,
            36.94146922290358,
            1019.4
          ],
          [
            138.77229558737554,
            36.94151860897177,
            1026.9
          ],
          [
            138.77208463862846,
            36.941566857282936,
            1032.6
          ]
        ]
      }
    },
    {
      "type": "Feature",
      "properties": {
        "name": "ランドー",
        "horizontal_dist_map": 954,
        "slope_dist_map": 1068,
        "elevation_diff_map": 67.9
      },
      "geometry": {
        "type": "LineString",
        "coordinates": [
          [
            138.7902137927016,
            36.938621933485415,
            858.6
          ],
          [
            138.78999431930214,
            36.93865989968535,
            853.4
          ],
          [
            138.78977484590268,
            36.938697865885274,
            849.1
          ],
          [
            138.78955537250323,
            36.93873583208521,
            843.3
          ],
          [
            138.78933589910378,
            36.93877379828513,
            838.0
          ],
          [
            138.78911642570432,
            36.93881176448507,
            832.4
          ],
          [
            138.78889695230487,
            36.938849730685,
            824.6
          ],
          [
            138.78867747890538,
            36.938887696884926,
            818.3
          ],
          [
            138.78845800550593,
            36.93892566308486,
            813.6
          ],
          [
            138.78823853210648,
            36.938963629284785,
            807.8
          ],
          [
            138.78801905870702,
            36.93900159548472,
            801.3
          ],
          [
            138.78779958530757,
            36.93903956168465,
            794.2
          ],
          [
            138.7875801119081,
            36.93907752788458,
            787.3
          ],
          [
            138.78736063850866,
            36.93911549408451,
            778.3
          ],
          [
            138.7871411651092,
            36.93915346028444,
            773.2
          ],
          [
            138.78692169170975,
            36.93919142648437,
            762.7
          ],
          [
            138.7867022183103,
            36.939229392684304,
            753.1
          ],
          [
            138.78648274491084,
            36.93926735888423,
            747.6
          ],
          [
            138.7862632715114,
            36.93930532508416,
            746.3
          ],
          [
            138.78604379811193,
            36.93934329128409,
            743.6
          ],
          [
            138.78582432471245,
            36.93938125748402,
            742.6
          ],
          [
            138.785604851313,
            36.939419223683956,
            736.7
          ],
          [
            138.78538537791354,
            36.93945718988388,
            725.3
          ],
          [
            138.7851659045141,
            36.939495156083815,
            712.2
          ],
          [
            138.78494643111463,
            36.93953312228374,
            704.7
          ],
          [
            138.78472695771518,
            36.939571088483675,
            695.3
          ],
          [
            138.78450748431572,
            36.93960905468361,
            673.2
          ],
          [
            138.78428801091627,
            36.939647020883534,
            654.5
          ],
          [
            138.78406853751682,
            36.93968498708347,
            640.0
          ],
          [
            138.78384906411736,
            36.93972295328339,
            629.0
          ],
          [
            138.7836295907179,
            36.93976091948333,
            616.8
          ],
          [
            138.78341011731845,
            36.93979888568326,
            614.0
          ],
          [
            138.783190643919,
            36.939836851883186,
            610.5
          ],
          [
            138.78297117051952,
            36.93987481808312,
            627.4
          ],
          [
            138.78275169712006,
            36.939912784283045,
            644.5
          ],
          [
            138.7825322237206,
            36.93995075048298,
            652.5
          ],
          [
            138.78231275032115,
            36.939988716682905,
            652.3
          ],
          [
            138.7820932769217,
            36.94002668288284,
            667.4
          ],
          [
            138.78187380352225,
            36.94006464908277,
            677.4
          ],
          [
            138.7816543301228,
            36.9401026152827,
            684.7
          ],
          [
            138.78143485672334,
            36.94014058148263,
            700.3
          ],
          [
            138.78121538332388,
            36.94017854768256,
            715.4
          ],
          [
            138.78099590992443,
            36.94021651388249,
            727.4
          ],
          [
            138.78077643652497,
            36.94025448008242,
            748.4
          ],
          [
            138.78055696312552,
            36.94029244628235,
            754.9
          ],
          [
            138.78033748972607,
            36.94033041248228,
            761.6
          ],
          [
            138.78011801632658,
            36.94036837868221,
            777.0
          ],
          [
            138.77989854292713,
            36.94040634488214,
            783.0
          ],
          [
            138.7797433,
            36.9404332,
            790.7
          ]
        ]
      }
    },
    {
      "type": "Feature",
      "properties": {
        "name": "ビクトリア",
        "horizontal_dist_map": 632,
        "slope_dist_map": 658,
        "elevation_diff_map": 161.9
      },
      "geometry": {
        "type": "LineString",
        "coordinates": [
          [
            138.7766622,
            36.9562406,
            872.2
          ],
          [
            138.7765740090199,
            36.95607486177873,
            871.3
          ],
          [
            138.77648581803976,
            36.95590912355747,
            874.9
          ],
          [
            138.7763964380928,
            36.95574379868329,
            881.0
          ],
          [
            138.7763061488541,
            36.9555787899265,
            886.4
          ],
          [
            138.7762158596154,
            36.95541378116971,
            890.3
          ],
          [
            138.77612557037673,
            36.95524877241292,
            896.6
          ],
          [
            138.776035280208,
            36.95508376409307,
            902.2
          ],
          [
            138.77594498942904,
            36.954918756059904,
            906.2
          ],
          [
            138.77585469097514,
            36.95475375089372,
            908.9
          ],
          [
            138.77576439186728,
            36.954588745971826,
            912.2
          ],
          [
            138.77567409275943,
            36.95442374104993,
            917.0
          ],
          [
            138.7755837860931,
            36.954258738809585,
            922.5
          ],
          [
            138.77549346616428,
            36.954093741452795,
            929.4
          ],
          [
            138.7754031688588,
            36.953928736163846,
            937.0
          ],
          [
            138.7753128715533,
            36.95376373087489,
            944.1
          ],
          [
            138.77522257466313,
            36.953598725441694,
            949.8
          ],
          [
            138.77513231391882,
            36.95343370745504,
            957.8
          ],
          [
            138.7750420531745,
            36.95326868946839,
            961.8
          ],
          [
            138.7749517591724,
            36.953103683349376,
            963.5
          ],
          [
            138.77486145872476,
            36.95293867953037,
            967.0
          ],
          [
            138.77477115827708,
            36.95277367571137,
            970.2
          ],
          [
            138.7746808609753,
            36.952608670888,
            977.2
          ],
          [
            138.7745905666182,
            36.95244366512452,
            987.8
          ],
          [
            138.77450027226106,
            36.95227865936104,
            999.5
          ],
          [
            138.77440997362893,
            36.95211365520816,
            1006.9
          ],
          [
            138.7743196710452,
            36.951948652544026,
            1012.6
          ],
          [
            138.77422936846148,
            36.9517836498799,
            1019.5
          ],
          [
            138.77413907181767,
            36.95161864517151,
            1025.6
          ],
          [
            138.7740487897585,
            36.951453635443755,
            1030.5
          ],
          [
            138.77395899637415,
            36.951288456469385,
            1032.8
          ],
          [
            138.77387132607097,
            36.95112254219153,
            1033.9
          ],
          [
            138.7738145,
            36.951015,
            1034.1
          ]
        ]
      }
    },
    {
      "type": "Feature",
      "properties": {
        "name": "コーチ",
        "horizontal_dist_map": 626,
        "slope_dist_map": 667,
        "elevation_diff_map": 156.3
      },
      "geometry": {
        "type": "LineString",
        "coordinates": [
          [
            138.7737627972983,
            36.948346375941206,
            1022.4
          ],
          [
            138.77362323572896,
            36.94820519788749,
            1021.6
          ],
          [
            138.77348337689358,
            36.94806420996944,
            1018.5
          ],
          [
            138.77334317829724,
            36.9479234393674,
            1013.0
          ],
          [
            138.77320297747696,
            36.94778267046888,
            1007.1
          ],
          [
            138.77306277578495,
            36.947641902238075,
            1000.1
          ],
          [
            138.77292257409295,
            36.94750113400727,
            997.1
          ],
          [
            138.77278234324027,
            36.94736038471219,
            998.4
          ],
          [
            138.77264215799295,
            36.94721960654719,
            998.5
          ],
          [
            138.772501977913,
            36.947078825094096,
            1002.6
          ],
          [
            138.77236179783304,
            36.946938043641005,
            1007.6
          ],
          [
            138.7722216022655,
            36.94679727245554,
            1013.8
          ],
          [
            138.77208139599114,
            36.946656508368264,
            1020.8
          ],
          [
            138.77194118971676,
            36.94651574428098,
            1032.1
          ],
          [
            138.77180098349723,
            36.94637498016185,
            1041.5
          ],
          [
            138.77166078664058,
            36.94623421060563,
            1051.7
          ],
          [
            138.77152058978396,
            36.94609344104941,
            1064.0
          ],
          [
            138.7713803929273,
            36.945952671493195,
            1076.3
          ],
          [
            138.77124019562928,
            36.94581190251154,
            1085.0
          ],
          [
            138.77109999791318,
            36.94567113407403,
            1097.8
          ],
          [
            138.7709598001971,
            36.94553036563653,
            1110.1
          ],
          [
            138.77081960222125,
            36.94538959736976,
            1122.1
          ],
          [
            138.77067937644102,
            36.945248847380995,
            1125.9
          ],
          [
            138.77053915365934,
            36.94510809551102,
            1134.5
          ],
          [
            138.77039895738747,
            36.944967327009465,
            1137.9
          ],
          [
            138.7702587611156,
            36.94482655850792,
            1144.4
          ],
          [
            138.77011856484373,
            36.94468579000637,
            1149.5
          ],
          [
            138.7699783691779,
            36.94454502153633,
            1154.0
          ],
          [
            138.7698381736817,
            36.94440425307511,
            1158.7
          ],
          [
            138.76969797818552,
            36.9442634846139,
            1164.9
          ],
          [
            138.76955777917243,
            36.9441227186018,
            1172.5
          ],
          [
            138.76941757611604,
            36.94398195540537,
            1177.9
          ],
          [
            138.7693727,
            36.9439369,
            1178.7
          ]
        ]
      }
    }
  ]
}