{
  "type": "FeatureCollection",
  "features": [
    {
      "type": "Feature",
      "properties": {
        "name": "第1ゴンドラ",
        "horizontal_dist_map": 1685,
        "slope_dist_map": 1762,
        "elevation_diff_map": 429.0
      },
      "geometry": {
        "type": "LineString",
        "coordinates": [
          [
            140.8875427,
            39.2317528,
            1065.0
          ],
          [
            140.88775756856123,
            39.23182009063642,
            1057.0
          ],
          [
            140.88797243712244,
            39.23188738127284,
            1052.0
          ],
          [
            140.88818730568366,
            39.23195467190926,
            1045.0
          ],
          [
            140.88840217424487,
            39.23202196254568,
            1041.0
          ],
          [
            140.8886170428061,
            39.232089253182096,
            1035.0
          ],
          [
            140.8888319113673,
            39.23215654381852,
            1032.0
          ],
          [
            140.88904678126565,
            39.232223833022985,
            1028.0
          ],
          [
            140.8892616519522,
            39.23229112138332,
            1026.0
          ],
          [
            140.8894765226388,
            39.232358409743654,
            1023.0
          ],
          [
            140.88969139826708,
            39.23242568965635,
            1021.0
          ],
          [
            140.8899062755125,
            39.23249296680467,
            1018.0
          ],
          [
            140.8901211527579,
            39.232560243952996,
            1017.0
          ],
          [
            140.89033603000328,
            39.232627521101314,
            1015.0
          ],
          [
            140.89055090487176,
            39.23269480326922,
            1013.0
          ],
          [
            140.89076577303024,
            39.232762099607136,
            1012.0
          ],
          [
            140.89098064118872,
            39.232829395945046,
            1011.0
          ],
          [
            140.89119550934717,
            39.23289669228296,
            1005.0
          ],
          [
            140.891410380936,
            39.23296398291936,
            999.0
          ],
          [
            140.89162525637943,
            39.233031267149116,
            994.0
          ],
          [
            140.89184013182285,
            39.23309855137887,
            990.0
          ],
          [
            140.8920550072663,
            39.23316583560863,
            985.0
          ],
          [
            140.8922698827097,
            39.233233119838395,
            981.0
          ],
          [
            140.89248475815313,
            39.23330040406815,
            976.0
          ],
          [
            140.89269963443132,
            39.233367687169114,
            972.0
          ],
          [
            140.89291451185298,
            39.23343496923546,
            963.0
          ],
          [
            140.89312938841508,
            39.233502253431965,
            954.0
          ],
          [
            140.89334426497717,
            39.233569537628476,
            942.0
          ],
          [
            140.89355913868286,
            39.23363682813684,
            933.0
          ],
          [
            140.89377401123443,
            39.233704121195444,
            920.0
          ],
          [
            140.89398888378602,
            39.23377141425405,
            911.0
          ],
          [
            140.89420375949993,
            39.233838702315595,
            896.0
          ],
          [
            140.8944186365498,
            39.23390598826604,
            887.0
          ],
          [
            140.89463351359967,
            39.23397327421649,
            873.0
          ],
          [
            140.89484839064954,
            39.23404056016693,
            869.0
          ],
          [
            140.89506326769944,
            39.23410784611738,
            858.0
          ],
          [
            140.8952781455232,
            39.23417513142646,
            853.0
          ],
          [
            140.8954930203866,
            39.2342424238282,
            842.0
          ],
          [
            140.8957078942127,
            39.234309718569,
            835.0
          ],
          [
            140.8959227680388,
            39.234377013309796,
            827.0
          ],
          [
            140.8961376418649,
            39.2344443080506,
            829.0
          ],
          [
            140.89635251569098,
            39.23451160279139,
            820.0
          ],
          [
            140.8965673895171,
            39.234578897532195,
            817.0
          ],
          [
            140.8967822684274,
            39.23464618421363,
            811.0
          ],
          [
            140.89699714944246,
            39.23471346755862,
            804.0
          ],
          [
            140.89721203045752,
            39.23478075090361,
            797.0
          ],
          [
            140.8974269114726,
            39.2348480342486,
            790.0
          ],
          [
            140.89764179248763,
            39.23491531759358,
            789.0
          ],
          [
            140.8978566735027,
            39.23498260093857,
            783.0
          ],
          [
            140.89807155473028,
            39.23504988424311,
            777.0
          ],
          [
            140.8982864369484,
            39.23511716735911,
            768.0
          ],
          [
            140.89850131916654,
            39.2351844504751,
            762.0
          ],
          [
            140.89871620138467,
            39.2352517335911,
            753.0
          ],
          [
            140.8989310835996,
            39.235319016937666,
            749.0
          ],
          [
            140.89914596579044,
            39.23538630201327,
            743.0
          ],
          [
            140.89936084798128,
            39.23545358708887,
            737.0
          ],
          [
            140.89957573017213,
            39.23552087216447,
            727.0
          ],
          [
            140.89979061236298,
            39.23558815724007,
            725.0
          ],
          [
            140.90000549455382,
            39.235655442315675,
            718.0
          ],
          [
            140.90022037764058,
            39.235722727222864,
            713.0
          ],
          [
            140.9004352615,
            39.235790011984804,
            705.0
          ],
          [
            140.90065014535944,
            39.235857296746744,
            702.0
          ],
          [
            140.90086502921883,
            39.235924581508684,
            694.0
          ],
          [
            140.90107991307826,
            39.23599186627062,
            686.0
          ],
          [
            140.9012947969377,
            39.23605915103256,
            681.0
          ],
          [
            140.90150968079712,
            39.2361264357945,
            676.0
          ],
          [
            140.90172456465655,
            39.23619372055644,
            668.0
          ],
          [
            140.90193944851598,
            39.236261005318376,
            665.0
          ],
          [
            140.90215432731554,
            39.236328300824084,
            660.0
          ],
          [
            140.90236919887988,
            39.236395611692544,
            657.0
          ],
          [
            140.90258407044422,
            39.236462922561,
            653.0
          ],
          [
            140.9027989535849,
            39.23653021192607,
            651.0
          ],
          [
            140.90301384501015,
            39.236597485902216,
            649.0
          ],
          [
            140.9032287364354,
            39.236664759878366,
            645.0
          ],
          [
            140.90344362786067,
            39.23673203385451,
            640.0
          ],
          [
            140.90365851908584,
            39.23679930824198,
            639.0
          ],
          [
            140.90387339715429,
            39.236866609674735,
            637.0
          ],
          [
            140.9040882752227,
            39.236933911107485,
            636.0
          ],
          [
            140.90430315329115,
            39.23700121254024,
            637.0
          ],
          [
            140.90451832510567,
            39.23706793199641,
            638.0
          ],
          [
            140.9047347340379,
            39.23713220044635,
            639.0
          ],
          [
            140.90495114297013,
            39.237196468896286,
            639.0
          ],
          [
            140.90516755190237,
            39.23726073734623,
            636.0
          ],
          [
            140.9053839608346,
            39.23732500579617,
            635.0
          ],
          [
            140.90560036976683,
            39.23738927424611,
            636.0
          ],
          [
            140.9056577,
            39.2374063,
            636.0
          ]
        ]
      }
    },
    {
      "type": "Feature",
      "properties": {
        "name": "第2ゴンドラ",
        "horizontal_dist_map": 1166,
        "slope_dist_map": 1250,
        "elevation_diff_map": 360.0
      },
      "geometry": {
        "type": "LineString",
        "coordinates": [
          [
            140.90374738301384,
            39.23822510524146,
            644.0
          ],
          [
            140.90351599008224,
            39.23823367797043,
            646.0
          ],
          [
            140.90328459715064,
            39.23824225069939,
            646.0
          ],
          [
            140.90305320421902,
            39.23825082342835,
            648.0
          ],
          [
            140.90282181128742,
            39.23825939615732,
            650.0
          ],
          [
            140.90259041835583,
            39.238267968886284,
            651.0
          ],
          [
            140.90235901267758,
            39.238276331267706,
            655.0
          ],
          [
            140.90212760135475,
            39.238284600501345,
            659.0
          ],
          [
            140.90189619003192,
            39.238292869734984,
            660.0
          ],
          [
            140.9016647787091,
            39.238301138968616,
            665.0
          ],
          [
            140.90143337144323,
            39.23830947739007,
            670.0
          ],
          [
            140.90120195994618,
            39.23831774602384,
            679.0
          ],
          [
            140.9009705484491,
            39.23832601465761,
            688.0
          ],
          [
            140.900739136952,
            39.23833428329138,
            705.0
          ],
          [
            140.90050772545493,
            39.23834255192514,
            722.0
          ],
          [
            140.90027631395787,
            39.238350820558914,
            731.0
          ],
          [
            140.90004484088286,
            39.238357964343685,
            742.0
          ],
          [
            140.8998133613991,
            39.23836499105929,
            749.0
          ],
          [
            140.89958188191534,
            39.2383720177749,
            752.0
          ],
          [
            140.8993504024316,
            39.23837904449051,
            763.0
          ],
          [
            140.89911893682458,
            39.23838632305482,
            773.0
          ],
          [
            140.89888753404583,
            39.238394741888634,
            780.0
          ],
          [
            140.8986561312671,
            39.23840316072245,
            789.0
          ],
          [
            140.89842472848835,
            39.23841157955627,
            795.0
          ],
          [
            140.8981933256878,
            39.23841999892349,
            800.0
          ],
          [
            140.89796192282918,
            39.238428419711134,
            799.0
          ],
          [
            140.89773051997054,
            39.23843684049878,
            787.0
          ],
          [
            140.89749911711192,
            39.23844526128642,
            786.0
          ],
          [
            140.8972677142533,
            39.238453682074066,
            790.0
          ],
          [
            140.8970363113947,
            39.23846210286171,
            799.0
          ],
          [
            140.89680490853604,
            39.238470523649355,
            815.0
          ],
          [
            140.89657350567742,
            39.238478944437,
            827.0
          ],
          [
            140.8963421028188,
            39.23848736522464,
            838.0
          ],
          [
            140.8961106999602,
            39.23849578601229,
            845.0
          ],
          [
            140.89587929710154,
            39.23850420679994,
            856.0
          ],
          [
            140.89564789466678,
            39.23851263812469,
            861.0
          ],
          [
            140.89541649227604,
            39.238521070545204,
            862.0
          ],
          [
            140.89518508988533,
            39.238529502965726,
            864.0
          ],
          [
            140.89495368749462,
            39.23853793538625,
            865.0
          ],
          [
            140.8947222851039,
            39.23854636780676,
            872.0
          ],
          [
            140.8944908827132,
            39.238554800227284,
            885.0
          ],
          [
            140.89425948125523,
            39.2385632488804,
            893.0
          ],
          [
            140.89402807918438,
            39.23857168892475,
            902.0
          ],
          [
            140.8937966758398,
            39.238580108362044,
            914.0
          ],
          [
            140.8935652724952,
            39.238588527799344,
            923.0
          ],
          [
            140.8933338691506,
            39.23859694723664,
            934.0
          ],
          [
            140.8931024657247,
            39.23860536615072,
            943.0
          ],
          [
            140.89287106216386,
            39.23861378419693,
            949.0
          ],
          [
            140.89263965860303,
            39.23862220224313,
            953.0
          ],
          [
            140.8924082550422,
            39.23863062028933,
            962.0
          ],
          [
            140.89217685148137,
            39.238639038335535,
            968.0
          ],
          [
            140.89194544792053,
            39.238647456381734,
            974.0
          ],
          [
            140.89171404496818,
            39.238655886855604,
            977.0
          ],
          [
            140.8914826420264,
            39.23866431754518,
            980.0
          ],
          [
            140.89125123908465,
            39.23867274823475,
            985.0
          ],
          [
            140.89101983614287,
            39.238681178924324,
            992.0
          ],
          [
            140.89078844697332,
            39.23868981512942,
            999.0
          ],
          [
            140.8905571716785,
            39.23870015062455,
            1002.0
          ],
          [
            140.89032589638367,
            39.23871048611969,
            1003.0
          ],
          [
            140.89025030916014,
            39.238713864048066,
            1004.0
          ]
        ]
      }
    },
    {
      "type": "Feature",
      "properties": {
        "name": "クワッド",
        "horizontal_dist_map": 883,
        "slope_dist_map": 945,
        "elevation_diff_map": 313.0
      },
      "geometry": {
        "type": "LineString",
        "coordinates": [
          [
            140.8935190362652,
            39.24244122901631,
            953.0
          ],
          [
            140.89374342997243,
            39.242396440475545,
            948.0
          ],
          [
            140.89396782367967,
            39.24235165193478,
            941.0
          ],
          [
            140.89419221738692,
            39.24230686339402,
            934.0
          ],
          [
            140.89441661109413,
            39.242262074853265,
            929.0
          ],
          [
            140.89464100480137,
            39.2422172863125,
            923.0
          ],
          [
            140.8948653985086,
            39.24217249777174,
            918.0
          ],
          [
            140.89508979221586,
            39.24212770923098,
            915.0
          ],
          [
            140.8953141859231,
            39.242082920690216,
            911.0
          ],
          [
            140.89553857963034,
            39.24203813214945,
            902.0
          ],
          [
            140.89576297333758,
            39.24199334360869,
            895.0
          ],
          [
            140.8959873670448,
            39.24194855506793,
            886.0
          ],
          [
            140.89621176075204,
            39.24190376652717,
            881.0
          ],
          [
            140.89643615445928,
            39.24185897798641,
            871.0
          ],
          [
            140.89666054816652,
            39.24181418944565,
            861.0
          ],
          [
            140.89688494187376,
            39.241769400904886,
            853.0
          ],
          [
            140.897109335581,
            39.24172461236412,
            840.0
          ],
          [
            140.89733372928825,
            39.24167982382336,
            829.0
          ],
          [
            140.89755797373238,
            39.24163458942548,
            820.0
          ],
          [
            140.89778219889496,
            39.24158929743251,
            809.0
          ],
          [
            140.89800643160885,
            39.241544028880455,
            802.0
          ],
          [
            140.89823066543119,
            39.2414987637693,
            796.0
          ],
          [
            140.89845489713753,
            39.24145349299782,
            790.0
          ],
          [
            140.8986791265665,
            39.241408216134396,
            780.0
          ],
          [
            140.89890335599546,
            39.24136293927097,
            772.0
          ],
          [
            140.89912758542442,
            39.24131766240755,
            765.0
          ],
          [
            140.8993518105537,
            39.241272373177154,
            751.0
          ],
          [
            140.89957602775,
            39.24122706112952,
            741.0
          ],
          [
            140.8998002449463,
            39.24118174908188,
            734.0
          ],
          [
            140.9000244905887,
            39.24113652285732,
            724.0
          ],
          [
            140.9002487156368,
            39.24109123597224,
            719.0
          ],
          [
            140.9004729406133,
            39.241045948875126,
            710.0
          ],
          [
            140.90069716558978,
            39.241000661778,
            704.0
          ],
          [
            140.90092139048764,
            39.240955375219215,
            698.0
          ],
          [
            140.90114561529634,
            39.240910089270706,
            686.0
          ],
          [
            140.90136984010508,
            39.2408648033222,
            677.0
          ],
          [
            140.90159406491378,
            39.240819517373694,
            669.0
          ],
          [
            140.9018182914543,
            39.24077423698138,
            660.0
          ],
          [
            140.9020425157763,
            39.24072895099342,
            657.0
          ],
          [
            140.90226673316033,
            39.24068364464657,
            653.0
          ],
          [
            140.9024909505444,
            39.240638338299725,
            650.0
          ],
          [
            140.9027151787044,
            39.2405930650907,
            648.0
          ],
          [
            140.90293940812305,
            39.240547795752136,
            645.0
          ],
          [
            140.9031631555574,
            39.24050110958262,
            643.0
          ],
          [
            140.9033868563302,
            39.24045428624776,
            640.0
          ],
          [
            140.9034231,
            39.2404467,
            640.0
          ]
        ]
      }
    },
    {
      "type": "Feature",
      "properties": {
        "name": "第2ペア",
        "horizontal_dist_map": 427,
        "slope_dist_map": 435,
        "elevation_diff_map": 66.0
      },
      "geometry": {
        "type": "LineString",
        "coordinates": [
          [
            140.9044349,
            39.2367182,
            638.0
          ],
          [
            140.9042492510714,
            39.23661045335186,
            639.0
          ],
          [
            140.9040636021428,
            39.236502706703725,
            640.0
          ],
          [
            140.903877947325,
            39.23639496659372,
            640.0
          ],
          [
            140.9036922871536,
            39.23628723242721,
            642.0
          ],
          [
            140.90350662698222,
            39.236179498260704,
            647.0
          ],
          [
            140.9033209686137,
            39.23607176280869,
            649.0
          ],
          [
            140.90313531071573,
            39.23596402702117,
            653.0
          ],
          [
            140.90294965855023,
            39.235856285578734,
            658.0
          ],
          [
            140.90276401393126,
            39.23574853669182,
            665.0
          ],
          [
            140.90257836931232,
            39.23564078780491,
            672.0
          ],
          [
            140.90239270515286,
            39.235533059850525,
            678.0
          ],
          [
            140.902207035001,
            39.23542533831539,
            684.0
          ],
          [
            140.90202138128168,
            39.23531759992594,
            686.0
          ],
          [
            140.90183575319261,
            39.2352098352484,
            686.0
          ],
          [
            140.9016501233819,
            39.23510207242025,
            686.0
          ],
          [
            140.90146446643587,
            39.23499433874071,
            689.0
          ],
          [
            140.90127880948987,
            39.23488660506118,
            692.0
          ],
          [
            140.90109315254387,
            39.234778871381636,
            697.0
          ],
          [
            140.90090749644563,
            39.234671136885865,
            699.0
          ],
          [
            140.9007218514194,
            39.23456339172989,
            702.0
          ],
          [
            140.90053620639318,
            39.23445564657393,
            703.0
          ],
          [
            140.900466,
            39.2344149,
            704.0
          ]
        ]
      }
    },
    {
      "type": "Feature",
      "properties": {
        "name": "第1ペア",
        "horizontal_dist_map": 532,
        "slope_dist_map": 549,
        "elevation_diff_map": 110.0
      },
      "geometry": {
        "type": "LineString",
        "coordinates": [
          [
            140.9048016,
            39.2361575,
            642.0
          ],
          [
            140.90466619878487,
            39.23601133091704,
            643.0
          ],
          [
            140.90453079756975,
            39.23586516183408,
            646.0
          ],
          [
            140.9043953992518,
            39.23571899150968,
            647.0
          ],
          [
            140.9042600013193,
            39.235572821020135,
            651.0
          ],
          [
            140.90412460338678,
            39.23542665053059,
            656.0
          ],
          [
            140.9039892043476,
            39.23528048083649,
            661.0
          ],
          [
            140.9038538034535,
            39.23513431247566,
            664.0
          ],
          [
            140.9037184025594,
            39.23498814411483,
            666.0
          ],
          [
            140.90358302114868,
            39.23484196515506,
            669.0
          ],
          [
            140.90344764545137,
            39.23469578308717,
            671.0
          ],
          [
            140.9033122689639,
            39.23454960149675,
            673.0
          ],
          [
            140.90317688215913,
            39.2344034261409,
            675.0
          ],
          [
            140.90304149535436,
            39.23425725078505,
            675.0
          ],
          [
            140.9029061085496,
            39.2341110754292,
            675.0
          ],
          [
            140.90277071410384,
            39.23396490451624,
            673.0
          ],
          [
            140.9026353077724,
            39.23381874051429,
            678.0
          ],
          [
            140.90249993057236,
            39.23367256036825,
            682.0
          ],
          [
            140.90236456613448,
            39.2335263731729,
            686.0
          ],
          [
            140.90222918638037,
            39.23338019486578,
            691.0
          ],
          [
            140.90209380662625,
            39.23323401655866,
            698.0
          ],
          [
            140.90195841486252,
            39.233087845160426,
            704.0
          ],
          [
            140.90182300621612,
            39.23294168347445,
            711.0
          ],
          [
            140.9016875975697,
            39.23279552178847,
            721.0
          ],
          [
            140.901552197833,
            39.23264935529703,
            731.0
          ],
          [
            140.90141681131888,
            39.23250318167401,
            740.0
          ],
          [
            140.90128142480472,
            39.23235700805099,
            748.0
          ],
          [
            140.9011988,
            39.2322678,
            752.0
          ]
        ]
      }
    }
  ]
}