{
  "type": "FeatureCollection",
  "features": [
    {
      "type": "Feature",
      "properties": {
        "name": "ゴンドラ",
        "horizontal_dist_map": 2308,
        "slope_dist_map": 2376,
        "elevation_diff_map": 376.0
      },
      "geometry": {
        "type": "LineString",
        "coordinates": [
          [
            140.132934,
            37.6960004,
            1013.0
          ],
          [
            140.13288499402333,
            37.69617633739956,
            1014.0
          ],
          [
            140.13283603932743,
            37.69635228383547,
            1015.0
          ],
          [
            140.13278708463156,
            37.69652823027139,
            1016.0
          ],
          [
            140.13273812241135,
            37.696704175405756,
            1017.0
          ],
          [
            140.13268914879666,
            37.69688011856911,
            1019.0
          ],
          [
            140.13264017518196,
            37.69705606173247,
            1021.0
          ],
          [
            140.13259120156727,
            37.697232004895824,
            1023.0
          ],
          [
            140.13254222887844,
            37.697407948245356,
            1026.0
          ],
          [
            140.13249325781513,
            37.697583891921745,
            1029.0
          ],
          [
            140.13244428675185,
            37.69775983559814,
            1031.0
          ],
          [
            140.13239531568854,
            37.69793577927453,
            1031.0
          ],
          [
            140.13234634462526,
            37.69811172295093,
            1034.0
          ],
          [
            140.13229736309034,
            37.69828766484182,
            1039.0
          ],
          [
            140.13224837924727,
            37.69846360633916,
            1043.0
          ],
          [
            140.13219939540423,
            37.69863954783649,
            1052.0
          ],
          [
            140.13215041156116,
            37.69881548933383,
            1061.0
          ],
          [
            140.13210143921017,
            37.69899143288809,
            1067.0
          ],
          [
            140.1320524796602,
            37.699167378733556,
            1070.0
          ],
          [
            140.1320035201102,
            37.699343324579026,
            1069.0
          ],
          [
            140.13195456056022,
            37.699519270424496,
            1081.0
          ],
          [
            140.13190560101023,
            37.69969521626996,
            1090.0
          ],
          [
            140.13185664146025,
            37.69987116211543,
            1102.0
          ],
          [
            140.1318076764395,
            37.700047107024396,
            1106.0
          ],
          [
            140.13175869951738,
            37.700223049896046,
            1113.0
          ],
          [
            140.13170972259522,
            37.700398992767695,
            1119.0
          ],
          [
            140.1316607456731,
            37.700574935639345,
            1124.0
          ],
          [
            140.13161176867206,
            37.7007508784996,
            1130.0
          ],
          [
            140.13156278964058,
            37.70092682106637,
            1133.0
          ],
          [
            140.13151381060908,
            37.70110276363314,
            1135.0
          ],
          [
            140.1314648315776,
            37.7012787061999,
            1139.0
          ],
          [
            140.1314158525461,
            37.70145464876667,
            1141.0
          ],
          [
            140.13136687595932,
            37.70163059180713,
            1143.0
          ],
          [
            140.13131790109605,
            37.701806535181554,
            1143.0
          ],
          [
            140.1312689262328,
            37.701982478555976,
            1145.0
          ],
          [
            140.13121995136953,
            37.702158421930406,
            1145.0
          ],
          [
            140.13117097650627,
            37.70233436530483,
            1148.0
          ],
          [
            140.13112200123143,
            37.702510308612155,
            1150.0
          ],
          [
            140.13107302043687,
            37.70268625101962,
            1150.0
          ],
          [
            140.1310240396423,
            37.70286219342709,
            1152.0
          ],
          [
            140.13097505884775,
            37.703038135834554,
            1152.0
          ],
          [
            140.13092607805316,
            37.70321407824202,
            1154.0
          ],
          [
            140.13087710204863,
            37.70339002152756,
            1153.0
          ],
          [
            140.13082812937162,
            37.703565965423074,
            1155.0
          ],
          [
            140.1307791566946,
            37.703741909318595,
            1155.0
          ],
          [
            140.13073018401758,
            37.70391785321411,
            1151.0
          ],
          [
            140.13068120611814,
            37.7040937962635,
            1147.0
          ],
          [
            140.1306322276402,
            37.70426973921916,
            1141.0
          ],
          [
            140.13058324916224,
            37.70444568217482,
            1140.0
          ],
          [
            140.1305342706843,
            37.70462162513048,
            1131.0
          ],
          [
            140.13048529220634,
            37.70479756808614,
            1135.0
          ],
          [
            140.1304363137284,
            37.7049735110418,
            1140.0
          ],
          [
            140.1303873359701,
            37.70514945412888,
            1146.0
          ],
          [
            140.13033837179296,
            37.70532539969601,
            1151.0
          ],
          [
            140.13028940761583,
            37.70550134526314,
            1159.0
          ],
          [
            140.13024044343868,
            37.70567729083027,
            1162.0
          ],
          [
            140.13019147926153,
            37.7058532363974,
            1168.0
          ],
          [
            140.1301425150844,
            37.70602918196453,
            1173.0
          ],
          [
            140.13009355090725,
            37.70620512753167,
            1177.0
          ],
          [
            140.13004457218304,
            37.70638107060521,
            1187.0
          ],
          [
            140.12999558941482,
            37.706557012985556,
            1193.0
          ],
          [
            140.12994660664657,
            37.7067329553659,
            1203.0
          ],
          [
            140.12989762387835,
            37.70690889774624,
            1211.0
          ],
          [
            140.12984864162013,
            37.70708484025884,
            1222.0
          ],
          [
            140.1297996599033,
            37.70726078291184,
            1235.0
          ],
          [
            140.12975067818653,
            37.70743672556484,
            1242.0
          ],
          [
            140.12970169646974,
            37.70761266821784,
            1253.0
          ],
          [
            140.12965271475292,
            37.707788610870836,
            1261.0
          ],
          [
            140.12960373303613,
            37.70796455352384,
            1276.0
          ],
          [
            140.12955475131935,
            37.70814049617684,
            1288.0
          ],
          [
            140.12950577156428,
            37.708316439182425,
            1296.0
          ],
          [
            140.12945680032806,
            37.708492383748734,
            1306.0
          ],
          [
            140.12940782041042,
            37.7086683268094,
            1309.0
          ],
          [
            140.1293588404928,
            37.70884426987007,
            1313.0
          ],
          [
            140.12930985995027,
            37.7090202128289,
            1314.0
          ],
          [
            140.1292608751271,
            37.709196155090055,
            1316.0
          ],
          [
            140.12921189030396,
            37.70937209735122,
            1318.0
          ],
          [
            140.1291629054808,
            37.709548039612386,
            1319.0
          ],
          [
            140.12911392065763,
            37.70972398187355,
            1320.0
          ],
          [
            140.12906493619298,
            37.7098999242039,
            1320.0
          ],
          [
            140.1290159567501,
            37.71007586750341,
            1321.0
          ],
          [
            140.1289669773072,
            37.710251810802916,
            1321.0
          ],
          [
            140.1289179978643,
            37.710427754102426,
            1323.0
          ],
          [
            140.1288690184214,
            37.710603697401936,
            1323.0
          ],
          [
            140.12882003897852,
            37.71077964070144,
            1323.0
          ],
          [
            140.1287710595356,
            37.71095558400095,
            1326.0
          ],
          [
            140.12872208009273,
            37.71113152730046,
            1329.0
          ],
          [
            140.12867309927185,
            37.71130747044194,
            1330.0
          ],
          [
            140.12862411811156,
            37.71148341354449,
            1331.0
          ],
          [
            140.12857513695127,
            37.71165935664705,
            1332.0
          ],
          [
            140.12852615579098,
            37.7118352997496,
            1333.0
          ],
          [
            140.1284771746307,
            37.71201124285215,
            1334.0
          ],
          [
            140.1284281934704,
            37.712187185954704,
            1335.0
          ],
          [
            140.12837921483566,
            37.71236312951274,
            1337.0
          ],
          [
            140.12833024842365,
            37.71253907527513,
            1338.0
          ],
          [
            140.12828128201164,
            37.712715021037525,
            1340.0
          ],
          [
            140.12823230740767,
            37.71289096541891,
            1342.0
          ],
          [
            140.12818332841485,
            37.713066909060416,
            1343.0
          ],
          [
            140.12813434942206,
            37.713242852701924,
            1346.0
          ],
          [
            140.12808537042923,
            37.71341879634343,
            1347.0
          ],
          [
            140.1280363914364,
            37.71359473998494,
            1349.0
          ],
          [
            140.12798741244362,
            37.71377068362645,
            1351.0
          ],
          [
            140.1279384334508,
            37.71394662726796,
            1353.0
          ],
          [
            140.127889454458,
            37.71412257090947,
            1356.0
          ],
          [
            140.12784047546518,
            37.71429851455098,
            1358.0
          ],
          [
            140.12779149449497,
            37.714474457884315,
            1361.0
          ],
          [
            140.127742509905,
            37.714650400653504,
            1362.0
          ],
          [
            140.127693525315,
            37.7148263434227,
            1365.0
          ],
          [
            140.12764454072504,
            37.7150022861919,
            1367.0
          ],
          [
            140.12759555613505,
            37.71517822896109,
            1368.0
          ],
          [
            140.12754657154508,
            37.71535417173028,
            1371.0
          ],
          [
            140.12749758635266,
            37.71553011445166,
            1374.0
          ],
          [
            140.12744860111286,
            37.71570605716927,
            1378.0
          ],
          [
            140.12739961555388,
            37.715881999833094,
            1382.0
          ],
          [
            140.12735062469807,
            37.7160579416044,
            1384.0
          ],
          [
            140.12730163384225,
            37.7162338833757,
            1387.0
          ],
          [
            140.1272803,
            37.7163105,
            1389.0
          ]
        ]
      }
    },
    {
      "type": "Feature",
      "properties": {
        "name": "第一クワッド",
        "horizontal_dist_map": 1450,
        "slope_dist_map": 1487,
        "elevation_diff_map": 269.0
      },
      "geometry": {
        "type": "LineString",
        "coordinates": [
          [
            140.1320698,
            37.6961633,
            1017.0
          ],
          [
            140.13198595874178,
            37.69633067805665,
            1018.0
          ],
          [
            140.13189405844128,
            37.696495413626415,
            1018.0
          ],
          [
            140.13180414406992,
            37.696660831011826,
            1019.0
          ],
          [
            140.1317161735752,
            37.69682691577526,
            1021.0
          ],
          [
            140.1316312884918,
            37.696993987322635,
            1022.0
          ],
          [
            140.13154993862042,
            37.69716218951031,
            1024.0
          ],
          [
            140.13146858874902,
            37.697330391697975,
            1025.0
          ],
          [
            140.13139239036659,
            37.69750008472247,
            1026.0
          ],
          [
            140.13131855599963,
            37.69767046189118,
            1028.0
          ],
          [
            140.13123661773758,
            37.69783820179825,
            1030.0
          ],
          [
            140.1311388288039,
            37.69800078339964,
            1038.0
          ],
          [
            140.13104103987024,
            37.69816336500103,
            1047.0
          ],
          [
            140.13094721419134,
            37.69832740758338,
            1054.0
          ],
          [
            140.13085415456686,
            37.69849173255759,
            1065.0
          ],
          [
            140.1307610949424,
            37.6986560575318,
            1072.0
          ],
          [
            140.13067301596305,
            37.69882208588978,
            1079.0
          ],
          [
            140.13058680624837,
            37.69898875353743,
            1089.0
          ],
          [
            140.1305005965337,
            37.69915542118508,
            1093.0
          ],
          [
            140.130414386819,
            37.69932208883273,
            1099.0
          ],
          [
            140.13032817710433,
            37.699488756480385,
            1104.0
          ],
          [
            140.13024196738965,
            37.69965542412803,
            1114.0
          ],
          [
            140.13015575767497,
            37.69982209177569,
            1121.0
          ],
          [
            140.1300695479603,
            37.699988759423334,
            1128.0
          ],
          [
            140.1299833382456,
            37.70015542707099,
            1135.0
          ],
          [
            140.12989678465814,
            37.700321982394236,
            1141.0
          ],
          [
            140.1298101302979,
            37.70048850480054,
            1147.0
          ],
          [
            140.12972347593765,
            37.700655027206835,
            1151.0
          ],
          [
            140.12963682157738,
            37.70082154961314,
            1157.0
          ],
          [
            140.12955004108076,
            37.700988030302824,
            1161.0
          ],
          [
            140.12946230801728,
            37.70115419595359,
            1166.0
          ],
          [
            140.1293745749538,
            37.70132036160436,
            1169.0
          ],
          [
            140.1292814777584,
            37.70148465627376,
            1172.0
          ],
          [
            140.12918690024085,
            37.70164843461447,
            1174.0
          ],
          [
            140.12909232272327,
            37.701812212955176,
            1175.0
          ],
          [
            140.1289977452057,
            37.70197599129589,
            1176.0
          ],
          [
            140.12891137087195,
            37.702142405504006,
            1178.0
          ],
          [
            140.12883607727628,
            37.70231238020243,
            1180.0
          ],
          [
            140.12876078368058,
            37.70248235490086,
            1181.0
          ],
          [
            140.12868482535575,
            37.70265212728563,
            1182.0
          ],
          [
            140.12859791903742,
            37.702818567593596,
            1182.0
          ],
          [
            140.1285110127191,
            37.70298500790156,
            1179.0
          ],
          [
            140.128422580085,
            37.703150927929386,
            1181.0
          ],
          [
            140.12833064806009,
            37.70331565510869,
            1189.0
          ],
          [
            140.12823950424422,
            37.7034806517938,
            1194.0
          ],
          [
            140.12815216305913,
            37.703646948681026,
            1198.0
          ],
          [
            140.12806482187406,
            37.70381324556826,
            1203.0
          ],
          [
            140.12797748068897,
            37.70397954245549,
            1207.0
          ],
          [
            140.12789013950388,
            37.70414583934273,
            1213.0
          ],
          [
            140.12781020649794,
            37.704314439160356,
            1217.0
          ],
          [
            140.127732324717,
            37.70448367662838,
            1222.0
          ],
          [
            140.12765444293603,
            37.7046529140964,
            1225.0
          ],
          [
            140.12757142769402,
            37.70482058103113,
            1228.0
          ],
          [
            140.12748632127565,
            37.70498760819046,
            1231.0
          ],
          [
            140.12740121485726,
            37.70515463534979,
            1236.0
          ],
          [
            140.1273161084389,
            37.70532166250912,
            1239.0
          ],
          [
            140.12722931547648,
            37.70548813193271,
            1243.0
          ],
          [
            140.12714009604852,
            37.70565379893044,
            1246.0
          ],
          [
            140.1270508766206,
            37.70581946592818,
            1249.0
          ],
          [
            140.12696165719265,
            37.70598513292591,
            1253.0
          ],
          [
            140.12687445565814,
            37.706151470893616,
            1255.0
          ],
          [
            140.1267886163981,
            37.70631826183136,
            1258.0
          ],
          [
            140.12670277713804,
            37.70648505276911,
            1260.0
          ],
          [
            140.126616937878,
            37.70665184370685,
            1264.0
          ],
          [
            140.12653109861793,
            37.7068186346446,
            1267.0
          ],
          [
            140.1264452593579,
            37.706985425582346,
            1273.0
          ],
          [
            140.12635942009783,
            37.707152216520086,
            1278.0
          ],
          [
            140.1262735808378,
            37.70731900745783,
            1282.0
          ],
          [
            140.12618774157772,
            37.707485798395574,
            1284.0
          ],
          [
            140.12610190231769,
            37.70765258933332,
            1284.0
          ],
          [
            140.12601606305762,
            37.70781938027107,
            1284.0
          ],
          [
            140.1259283302137,
            37.707985511287575,
            1284.0
          ],
          [
            140.12583198812902,
            37.70814864195071,
            1286.0
          ],
          [
            140.1257814,
            37.7082343,
            1286.0
          ]
        ]
      }
    },
    {
      "type": "Feature",
      "properties": {
        "name": "第二クワッド",
        "horizontal_dist_map": 997,
        "slope_dist_map": 1006,
        "elevation_diff_map": 128.0
      },
      "geometry": {
        "type": "LineString",
        "coordinates": [
          [
            140.12398366909366,
            37.70815126724066,
            1276.0
          ],
          [
            140.1240260199485,
            37.70832829315961,
            1277.0
          ],
          [
            140.12406837080334,
            37.70850531907857,
            1278.0
          ],
          [
            140.12411072165818,
            37.70868234499752,
            1280.0
          ],
          [
            140.12415307251305,
            37.70885937091648,
            1280.0
          ],
          [
            140.1241954233679,
            37.70903639683543,
            1282.0
          ],
          [
            140.12423777422273,
            37.70921342275438,
            1284.0
          ],
          [
            140.12428012507758,
            37.70939044867334,
            1288.0
          ],
          [
            140.12432247593242,
            37.70956747459229,
            1291.0
          ],
          [
            140.12436482678726,
            37.70974450051124,
            1293.0
          ],
          [
            140.1244071776421,
            37.7099215264302,
            1296.0
          ],
          [
            140.12444952849694,
            37.71009855234915,
            1298.0
          ],
          [
            140.1244918793518,
            37.71027557826811,
            1300.0
          ],
          [
            140.12453423020665,
            37.71045260418706,
            1303.0
          ],
          [
            140.1245765810615,
            37.71062963010601,
            1304.0
          ],
          [
            140.12461893191633,
            37.71080665602497,
            1307.0
          ],
          [
            140.12466128277117,
            37.71098368194392,
            1308.0
          ],
          [
            140.124703633626,
            37.71116070786288,
            1310.0
          ],
          [
            140.12474598448085,
            37.71133773378183,
            1313.0
          ],
          [
            140.1247883353357,
            37.71151475970078,
            1316.0
          ],
          [
            140.12483068619056,
            37.71169178561974,
            1319.0
          ],
          [
            140.1248730370454,
            37.71186881153869,
            1322.0
          ],
          [
            140.12491538790024,
            37.712045837457644,
            1324.0
          ],
          [
            140.12495773875509,
            37.7122228633766,
            1326.0
          ],
          [
            140.12500008960993,
            37.712399889295554,
            1328.0
          ],
          [
            140.12504244046477,
            37.71257691521451,
            1331.0
          ],
          [
            140.1250847913196,
            37.712753941133464,
            1333.0
          ],
          [
            140.12512714217445,
            37.712930967052415,
            1335.0
          ],
          [
            140.12516949302932,
            37.71310799297137,
            1338.0
          ],
          [
            140.12521184388416,
            37.713285018890325,
            1340.0
          ],
          [
            140.125254194739,
            37.71346204480928,
            1342.0
          ],
          [
            140.12529654559384,
            37.713639070728235,
            1345.0
          ],
          [
            140.12533889644868,
            37.713816096647186,
            1346.0
          ],
          [
            140.12538124730352,
            37.713993122566144,
            1349.0
          ],
          [
            140.12542359815836,
            37.714170148485096,
            1351.0
          ],
          [
            140.1254659490132,
            37.71434717440405,
            1355.0
          ],
          [
            140.12550829986807,
            37.714524200323005,
            1358.0
          ],
          [
            140.12555065072291,
            37.71470122624196,
            1360.0
          ],
          [
            140.12559300157776,
            37.714878252160915,
            1363.0
          ],
          [
            140.1256353524326,
            37.715055278079866,
            1365.0
          ],
          [
            140.12567770328744,
            37.71523230399882,
            1369.0
          ],
          [
            140.12572005414228,
            37.715409329917776,
            1372.0
          ],
          [
            140.12576240499712,
            37.71558635583673,
            1375.0
          ],
          [
            140.12580475585196,
            37.715763381755686,
            1378.0
          ],
          [
            140.12584710670683,
            37.71594040767464,
            1381.0
          ],
          [
            140.12588945756167,
            37.71611743359359,
            1386.0
          ],
          [
            140.1259318084165,
            37.71629445951255,
            1390.0
          ],
          [
            140.12597415927135,
            37.7164714854315,
            1393.0
          ],
          [
            140.1260165101262,
            37.71664851135045,
            1397.0
          ],
          [
            140.12605886098103,
            37.71682553726941,
            1401.0
          ],
          [
            140.12609499988253,
            37.716976597319295,
            1404.0
          ]
        ]
      }
    },
    {
      "type": "Feature",
      "properties": {
        "name": "第三クワッド",
        "horizontal_dist_map": 1093,
        "slope_dist_map": 1133,
        "elevation_diff_map": 255.0
      },
      "geometry": {
        "type": "LineString",
        "coordinates": [
          [
            140.12249306686454,
            37.71373518894962,
            1329.0
          ],
          [
            140.12254586614245,
            37.71391043438635,
            1331.0
          ],
          [
            140.12259866542036,
            37.71408567982308,
            1334.0
          ],
          [
            140.12265146469827,
            37.714260925259815,
            1337.0
          ],
          [
            140.12270426397617,
            37.714436170696544,
            1339.0
          ],
          [
            140.12275706325408,
            37.71461141613327,
            1341.0
          ],
          [
            140.122809862532,
            37.71478666157,
            1343.0
          ],
          [
            140.1228626618099,
            37.71496190700674,
            1346.0
          ],
          [
            140.1229154610878,
            37.71513715244347,
            1349.0
          ],
          [
            140.12296826036572,
            37.7153123978802,
            1351.0
          ],
          [
            140.12302105964363,
            37.715487643316926,
            1353.0
          ],
          [
            140.12307385892154,
            37.715662888753656,
            1356.0
          ],
          [
            140.12312665819945,
            37.71583813419039,
            1359.0
          ],
          [
            140.12317945747736,
            37.71601337962712,
            1362.0
          ],
          [
            140.12323225675527,
            37.71618862506385,
            1364.0
          ],
          [
            140.12328505603318,
            37.71636387050058,
            1366.0
          ],
          [
            140.1233378553111,
            37.71653911593731,
            1368.0
          ],
          [
            140.123390654589,
            37.716714361374045,
            1369.0
          ],
          [
            140.1234434538669,
            37.716889606810774,
            1371.0
          ],
          [
            140.12349625314482,
            37.7170648522475,
            1374.0
          ],
          [
            140.12354905242273,
            37.71724009768423,
            1376.0
          ],
          [
            140.12360185170064,
            37.71741534312097,
            1378.0
          ],
          [
            140.12365465097855,
            37.7175905885577,
            1380.0
          ],
          [
            140.12370745025646,
            37.71776583399443,
            1382.0
          ],
          [
            140.12376024953437,
            37.71794107943116,
            1385.0
          ],
          [
            140.12381304881228,
            37.718116324867886,
            1387.0
          ],
          [
            140.1238658480902,
            37.71829157030462,
            1390.0
          ],
          [
            140.1239186473681,
            37.71846681574135,
            1393.0
          ],
          [
            140.123971446646,
            37.71864206117808,
            1396.0
          ],
          [
            140.12402424592392,
            37.71881730661481,
            1402.0
          ],
          [
            140.12407704520183,
            37.71899255205154,
            1406.0
          ],
          [
            140.12412984447974,
            37.719167797488275,
            1411.0
          ],
          [
            140.12418264375765,
            37.719343042925004,
            1416.0
          ],
          [
            140.12423544303556,
            37.71951828836173,
            1419.0
          ],
          [
            140.12428824231344,
            37.71969353379846,
            1426.0
          ],
          [
            140.12434104159135,
            37.7198687792352,
            1429.0
          ],
          [
            140.12439384086926,
            37.72004402467193,
            1437.0
          ],
          [
            140.12444664014717,
            37.72021927010866,
            1443.0
          ],
          [
            140.12449943942508,
            37.72039451554539,
            1450.0
          ],
          [
            140.124552238703,
            37.720569760982116,
            1459.0
          ],
          [
            140.1246050379809,
            37.72074500641885,
            1464.0
          ],
          [
            140.1246578372588,
            37.72092025185558,
            1474.0
          ],
          [
            140.12471063653672,
            37.72109549729231,
            1480.0
          ],
          [
            140.12476343581463,
            37.72127074272904,
            1485.0
          ],
          [
            140.12481623509254,
            37.72144598816577,
            1494.0
          ],
          [
            140.12486903437045,
            37.721621233602505,
            1502.0
          ],
          [
            140.12492183364836,
            37.721796479039234,
            1514.0
          ],
          [
            140.12497463292627,
            37.721971724475964,
            1524.0
          ],
          [
            140.12502743220418,
            37.72214696991269,
            1538.0
          ],
          [
            140.1250802314821,
            37.72232221534943,
            1545.0
          ],
          [
            140.12513303076,
            37.72249746078616,
            1555.0
          ],
          [
            140.1251858300379,
            37.72267270622289,
            1562.0
          ],
          [
            140.12523862931582,
            37.72284795165962,
            1566.0
          ],
          [
            140.12529142859373,
            37.723023197096346,
            1573.0
          ],
          [
            140.12534422787164,
            37.72319844253308,
            1580.0
          ],
          [
            140.12538012853946,
            37.7233176,
            1584.0
          ]
        ]
      }
    }
  ]
}