{
  "type": "FeatureCollection",
  "features": [
    {
      "type": "Feature",
      "properties": {
        "name": "コルチナ第1ペア",
        "horizontal_dist_map": 486,
        "slope_dist_map": 509,
        "elevation_diff_map": 139.0
      },
      "geometry": {
        "type": "LineString",
        "coordinates": [
          [
            137.88727266412056,
            36.77633019490318,
            872.2
          ],
          [
            137.88704910637964,
            36.7763419589983,
            873.5
          ],
          [
            137.88682554863874,
            36.77635372309343,
            882.5
          ],
          [
            137.88660199089782,
            36.77636548718855,
            885.9
          ],
          [
            137.88637843315692,
            36.77637725128367,
            891.4
          ],
          [
            137.886154875416,
            36.77638901537879,
            898.2
          ],
          [
            137.8859313176751,
            36.77640077947392,
            903.0
          ],
          [
            137.88570775993418,
            36.77641254356904,
            908.9
          ],
          [
            137.88548420219328,
            36.77642430766416,
            910.5
          ],
          [
            137.88526064445236,
            36.776436071759285,
            911.7
          ],
          [
            137.88503708671146,
            36.776447835854405,
            917.3
          ],
          [
            137.88481352897054,
            36.776459599949526,
            922.8
          ],
          [
            137.88458997122964,
            36.77647136404465,
            927.6
          ],
          [
            137.88436641348872,
            36.77648312813977,
            931.0
          ],
          [
            137.88414285574783,
            36.77649489223489,
            940.5
          ],
          [
            137.8839192980069,
            36.776506656330014,
            946.0
          ],
          [
            137.883695740266,
            36.77651842042514,
            954.6
          ],
          [
            137.88347218252508,
            36.77653018452026,
            964.1
          ],
          [
            137.8832486247842,
            36.77654194861538,
            970.2
          ],
          [
            137.88302506704326,
            36.77655371271051,
            974.5
          ],
          [
            137.88280150930237,
            36.77656547680563,
            980.3
          ],
          [
            137.88257795156144,
            36.77657724090075,
            992.5
          ],
          [
            137.88235439382055,
            36.77658900499588,
            999.5
          ],
          [
            137.88213083607963,
            36.776600769091,
            1005.4
          ],
          [
            137.88190727833873,
            36.77661253318612,
            1009.6
          ],
          [
            137.88183613533255,
            36.77661627688602,
            1011.2
          ]
        ]
      }
    },
    {
      "type": "Feature",
      "properties": {
        "name": "アルプス第1ペア",
        "horizontal_dist_map": 725,
        "slope_dist_map": 731,
        "elevation_diff_map": 89.7
      },
      "geometry": {
        "type": "LineString",
        "coordinates": [
          [
            137.87588001670474,
            36.76340302333685,
            852.4
          ],
          [
            137.87566851916742,
            36.76334366727583,
            852.9
          ],
          [
            137.87545702163007,
            36.763284311214804,
            855.9
          ],
          [
            137.87524552409275,
            36.763224955153774,
            858.1
          ],
          [
            137.8750340265554,
            36.76316559909275,
            860.4
          ],
          [
            137.87482252901808,
            36.76310624303173,
            862.9
          ],
          [
            137.87461103148075,
            36.763046886970706,
            865.2
          ],
          [
            137.8743995339434,
            36.762987530909676,
            867.4
          ],
          [
            137.87418803640608,
            36.76292817484865,
            869.6
          ],
          [
            137.87397653886873,
            36.76286881878763,
            872.1
          ],
          [
            137.8737650413314,
            36.76280946272661,
            874.6
          ],
          [
            137.8735535437941,
            36.76275010666558,
            877.0
          ],
          [
            137.87334204625674,
            36.762690750604555,
            879.9
          ],
          [
            137.87313054871942,
            36.76263139454353,
            882.0
          ],
          [
            137.87291905118207,
            36.76257203848251,
            884.2
          ],
          [
            137.87270755364474,
            36.76251268242148,
            886.6
          ],
          [
            137.8724960561074,
            36.76245332636046,
            888.7
          ],
          [
            137.87228455857007,
            36.762393970299435,
            891.7
          ],
          [
            137.87207306103275,
            36.76233461423841,
            894.7
          ],
          [
            137.8718615634954,
            36.76227525817738,
            897.3
          ],
          [
            137.87165006595808,
            36.76221590211636,
            899.7
          ],
          [
            137.87143856842073,
            36.76215654605534,
            902.2
          ],
          [
            137.8712270708834,
            36.762097189994314,
            905.1
          ],
          [
            137.87101557334609,
            36.762037833933285,
            907.9
          ],
          [
            137.87080407580873,
            36.76197847787226,
            911.1
          ],
          [
            137.8705925782714,
            36.76191912181124,
            914.0
          ],
          [
            137.87038108073406,
            36.761859765750216,
            917.0
          ],
          [
            137.87016958319674,
            36.76180040968919,
            920.0
          ],
          [
            137.86995808565942,
            36.761741053628164,
            922.8
          ],
          [
            137.86974658812207,
            36.76168169756714,
            925.3
          ],
          [
            137.86953509058475,
            36.76162234150612,
            927.1
          ],
          [
            137.8693235930474,
            36.76156298544509,
            928.7
          ],
          [
            137.86911209551008,
            36.761503629384066,
            930.7
          ],
          [
            137.86890059797275,
            36.76144427332304,
            933.1
          ],
          [
            137.8686891004354,
            36.76138491726202,
            936.0
          ],
          [
            137.86847760289808,
            36.76132556120099,
            938.8
          ],
          [
            137.86826610536073,
            36.76126620513997,
            942.5
          ],
          [
            137.8682048,
            36.761249,
            942.1
          ]
        ]
      }
    },
    {
      "type": "Feature",
      "properties": {
        "name": "アルプス第3高速ペア",
        "horizontal_dist_map": 946,
        "slope_dist_map": 1011,
        "elevation_diff_map": 314.6
      },
      "geometry": {
        "type": "LineString",
        "coordinates": [
          [
            137.87560541618893,
            36.764431722345456,
            867.3
          ],
          [
            137.8753982931928,
            36.764500361468265,
            867.1
          ],
          [
            137.8751911701967,
            36.764569000591074,
            872.9
          ],
          [
            137.87498404720057,
            36.764637639713875,
            876.1
          ],
          [
            137.87477692420447,
            36.764706278836684,
            879.1
          ],
          [
            137.87456980120834,
            36.76477491795949,
            883.1
          ],
          [
            137.8743626782122,
            36.7648435570823,
            886.8
          ],
          [
            137.8741555552161,
            36.76491219620511,
            890.8
          ],
          [
            137.87394843221998,
            36.76498083532791,
            895.3
          ],
          [
            137.87374130922387,
            36.76504947445072,
            899.2
          ],
          [
            137.87353418622774,
            36.76511811357353,
            903.5
          ],
          [
            137.87332706323164,
            36.76518675269634,
            908.5
          ],
          [
            137.8731199402355,
            36.765255391819146,
            914.7
          ],
          [
            137.87291281723938,
            36.76532403094195,
            921.1
          ],
          [
            137.87270569424328,
            36.765392670064756,
            927.2
          ],
          [
            137.87249857124715,
            36.765461309187565,
            929.7
          ],
          [
            137.87229144825105,
            36.76552994831037,
            932.3
          ],
          [
            137.87208432525492,
            36.76559858743318,
            938.9
          ],
          [
            137.8718772022588,
            36.76566722655599,
            946.6
          ],
          [
            137.87167007926269,
            36.76573586567879,
            953.7
          ],
          [
            137.87146295626656,
            36.7658045048016,
            960.7
          ],
          [
            137.87125583327045,
            36.76587314392441,
            966.2
          ],
          [
            137.87104871027432,
            36.76594178304722,
            970.0
          ],
          [
            137.87084158727822,
            36.76601042217003,
            970.8
          ],
          [
            137.8706344642821,
            36.76607906129283,
            973.3
          ],
          [
            137.87042734128596,
            36.76614770041564,
            979.4
          ],
          [
            137.87022021828986,
            36.766216339538445,
            985.5
          ],
          [
            137.87001309529373,
            36.766284978661254,
            992.0
          ],
          [
            137.86980597229763,
            36.76635361778406,
            1001.3
          ],
          [
            137.8695988493015,
            36.766422256906864,
            1011.0
          ],
          [
            137.86939172630537,
            36.76649089602967,
            1019.2
          ],
          [
            137.86918460330926,
            36.76655953515248,
            1026.2
          ],
          [
            137.86897748031313,
            36.76662817427529,
            1029.6
          ],
          [
            137.86877035731703,
            36.7666968133981,
            1031.3
          ],
          [
            137.8685632343209,
            36.7667654525209,
            1033.2
          ],
          [
            137.8683561113248,
            36.76683409164371,
            1040.9
          ],
          [
            137.86814898832867,
            36.76690273076652,
            1051.8
          ],
          [
            137.86794186533254,
            36.766971369889326,
            1061.7
          ],
          [
            137.86773474233644,
            36.767040009012135,
            1070.2
          ],
          [
            137.8675276193403,
            36.767108648134936,
            1081.1
          ],
          [
            137.8673204963442,
            36.767177287257745,
            1095.1
          ],
          [
            137.86711337334808,
            36.767245926380554,
            1107.5
          ],
          [
            137.86690625035195,
            36.76731456550336,
            1118.6
          ],
          [
            137.86669912735584,
            36.76738320462617,
            1129.8
          ],
          [
            137.8664920043597,
            36.76745184374897,
            1143.0
          ],
          [
            137.8662848813636,
            36.76752048287178,
            1157.4
          ],
          [
            137.86607775836748,
            36.76758912199459,
            1172.7
          ],
          [
            137.86587063537138,
            36.7676577611174,
            1179.9
          ],
          [
            137.8657987,
            36.7676816,
            1181.9
          ]
        ]
      }
    },
    {
      "type": "Feature",
      "properties": {
        "name": "アルプス第4ペア",
        "horizontal_dist_map": 668,
        "slope_dist_map": 683,
        "elevation_diff_map": 135.7
      },
      "geometry": {
        "type": "LineString",
        "coordinates": [
          [
            137.8760449,
            36.7648224,
            865.1
          ],
          [
            137.87585099724714,
            36.764912640094906,
            865.0
          ],
          [
            137.8756570944943,
            36.76500288018982,
            871.8
          ],
          [
            137.87546319174143,
            36.765093120284725,
            877.1
          ],
          [
            137.87526928898856,
            36.76518336037963,
            880.1
          ],
          [
            137.8750753862357,
            36.76527360047454,
            883.7
          ],
          [
            137.87488148348285,
            36.76536384056945,
            886.5
          ],
          [
            137.87468758072998,
            36.765454080664355,
            889.1
          ],
          [
            137.8744936779771,
            36.76554432075927,
            892.6
          ],
          [
            137.87429977522424,
            36.765634560854174,
            895.3
          ],
          [
            137.8741058724714,
            36.76572480094908,
            899.3
          ],
          [
            137.87391196971853,
            36.765815041043986,
            902.7
          ],
          [
            137.87371806696567,
            36.7659052811389,
            906.7
          ],
          [
            137.8735241642128,
            36.765995521233805,
            911.0
          ],
          [
            137.87333026145996,
            36.76608576132871,
            915.1
          ],
          [
            137.8731363587071,
            36.766176001423624,
            920.2
          ],
          [
            137.87294245595422,
            36.76626624151853,
            923.7
          ],
          [
            137.87274855320135,
            36.766356481613435,
            927.8
          ],
          [
            137.8725546504485,
            36.76644672170835,
            931.5
          ],
          [
            137.87236074769564,
            36.766536961803254,
            936.0
          ],
          [
            137.87216684494277,
            36.76662720189816,
            939.8
          ],
          [
            137.8719729421899,
            36.76671744199307,
            944.7
          ],
          [
            137.87177903943706,
            36.76680768208798,
            947.6
          ],
          [
            137.8715851366842,
            36.766897922182885,
            951.4
          ],
          [
            137.87139123393132,
            36.7669881622778,
            955.8
          ],
          [
            137.87119733117845,
            36.767078402372704,
            959.5
          ],
          [
            137.8710034284256,
            36.76716864246761,
            963.0
          ],
          [
            137.87080952567274,
            36.76725888256252,
            968.5
          ],
          [
            137.87061562291987,
            36.76734912265743,
            972.1
          ],
          [
            137.870421720167,
            36.767439362752334,
            977.3
          ],
          [
            137.87022781741416,
            36.76752960284724,
            981.5
          ],
          [
            137.8700339146613,
            36.76761984294215,
            987.4
          ],
          [
            137.86984001190842,
            36.76771008303706,
            992.3
          ],
          [
            137.86964610915555,
            36.767800323131965,
            997.9
          ],
          [
            137.8695673,
            36.767837,
            1000.8
          ]
        ]
      }
    },
    {
      "type": "Feature",
      "properties": {
        "name": "アルプス第5高速ペア",
        "horizontal_dist_map": 1080,
        "slope_dist_map": 1120,
        "elevation_diff_map": 273.7
      },
      "geometry": {
        "type": "LineString",
        "coordinates": [
          [
            137.8769085,
            36.7655981,
            865.2
          ],
          [
            137.87671452840885,
            36.765688250228784,
            865.1
          ],
          [
            137.87652055681767,
            36.76577840045757,
            870.2
          ],
          [
            137.8763265852265,
            36.765868550686356,
            872.5
          ],
          [
            137.87613261363535,
            36.76595870091514,
            874.3
          ],
          [
            137.87593864204416,
            36.76604885114393,
            876.6
          ],
          [
            137.875744670453,
            36.766139001372714,
            879.3
          ],
          [
            137.87555069886184,
            36.7662291516015,
            883.0
          ],
          [
            137.87535672727066,
            36.766319301830286,
            886.2
          ],
          [
            137.8751627556795,
            36.76640945205907,
            890.0
          ],
          [
            137.87496878408834,
            36.76649960228786,
            894.7
          ],
          [
            137.87477481249715,
            36.766589752516644,
            898.4
          ],
          [
            137.874580840906,
            36.76667990274543,
            903.3
          ],
          [
            137.87438686931483,
            36.766770052974216,
            907.1
          ],
          [
            137.87419289772365,
            36.766860203203,
            912.6
          ],
          [
            137.8739989261325,
            36.76695035343179,
            916.9
          ],
          [
            137.87380495454133,
            36.767040503660574,
            919.0
          ],
          [
            137.87361098295017,
            36.76713065388936,
            923.1
          ],
          [
            137.87341701135898,
            36.76722080411814,
            928.0
          ],
          [
            137.87322303976782,
            36.767310954346925,
            930.4
          ],
          [
            137.87302906817666,
            36.76740110457571,
            934.3
          ],
          [
            137.87283509658548,
            36.7674912548045,
            938.2
          ],
          [
            137.87264112499432,
            36.76758140503328,
            942.4
          ],
          [
            137.87244715340316,
            36.76767155526207,
            946.9
          ],
          [
            137.87225318181197,
            36.767761705490855,
            949.9
          ],
          [
            137.8720592102208,
            36.76785185571964,
            953.8
          ],
          [
            137.87186523862965,
            36.76794200594843,
            958.6
          ],
          [
            137.87167126703847,
            36.76803215617721,
            960.6
          ],
          [
            137.8714772954473,
            36.768122306406,
            966.0
          ],
          [
            137.87128332385615,
            36.768212456634785,
            971.0
          ],
          [
            137.87108935226496,
            36.76830260686357,
            976.1
          ],
          [
            137.8708953806738,
            36.76839275709236,
            981.6
          ],
          [
            137.87070140908264,
            36.76848290732114,
            987.1
          ],
          [
            137.87050743749145,
            36.76857305754993,
            991.9
          ],
          [
            137.8703134659003,
            36.768663207778715,
            1000.1
          ],
          [
            137.87011949430914,
            36.7687533580075,
            1005.5
          ],
          [
            137.86992552271795,
            36.76884350823629,
            1012.2
          ],
          [
            137.8697315511268,
            36.76893365846507,
            1015.9
          ],
          [
            137.86953757953563,
            36.76902380869386,
            1022.5
          ],
          [
            137.86934360794444,
            36.769113958922645,
            1030.9
          ],
          [
            137.86914963635328,
            36.76920410915143,
            1036.7
          ],
          [
            137.86895566476213,
            36.76929425938022,
            1042.6
          ],
          [
            137.86876169317094,
            36.769384409609,
            1052.5
          ],
          [
            137.86856772157978,
            36.76947455983779,
            1059.1
          ],
          [
            137.86837374998862,
            36.769564710066575,
            1065.6
          ],
          [
            137.86817977839746,
            36.76965486029536,
            1072.3
          ],
          [
            137.86798580680627,
            36.76974501052415,
            1077.9
          ],
          [
            137.86779183521512,
            36.76983516075293,
            1082.7
          ],
          [
            137.86759786362396,
            36.76992531098172,
            1084.9
          ],
          [
            137.86740389203277,
            36.770015461210505,
            1091.7
          ],
          [
            137.8672099204416,
            36.77010561143929,
            1101.6
          ],
          [
            137.86701594885045,
            36.77019576166808,
            1109.1
          ],
          [
            137.86682197725926,
            36.77028591189686,
            1119.1
          ],
          [
            137.8666280056681,
            36.77037606212565,
            1128.5
          ],
          [
            137.86643403407695,
            36.77046621235443,
            1138.9
          ],
          [
            137.8664332,
            36.7704666,
            1138.9
          ]
        ]
      }
    },
    {
      "type": "Feature",
      "properties": {
        "name": "アルプス第6高速ペア",
        "horizontal_dist_map": 770,
        "slope_dist_map": 780,
        "elevation_diff_map": 119.5
      },
      "geometry": {
        "type": "LineString",
        "coordinates": [
          [
            137.8769756,
            36.7656798,
            865.2
          ],
          [
            137.8768206798576,
            36.76580997672799,
            866.3
          ],
          [
            137.87666575971517,
            36.76594015345597,
            870.7
          ],
          [
            137.87651083957275,
            36.766070330183965,
            873.4
          ],
          [
            137.87635591943032,
            36.76620050691195,
            876.0
          ],
          [
            137.8762009992879,
            36.766330683639936,
            879.0
          ],
          [
            137.87604607914548,
            36.76646086036792,
            881.8
          ],
          [
            137.87589115900306,
            36.766591037095914,
            884.6
          ],
          [
            137.87573623886064,
            36.7667212138239,
            888.2
          ],
          [
            137.87558131871822,
            36.766851390551885,
            891.5
          ],
          [
            137.8754263985758,
            36.76698156727987,
            894.7
          ],
          [
            137.87527147843338,
            36.76711174400786,
            897.4
          ],
          [
            137.87511655829096,
            36.76724192073585,
            900.3
          ],
          [
            137.87496163814853,
            36.767372097463834,
            903.7
          ],
          [
            137.8748067180061,
            36.76750227419182,
            907.2
          ],
          [
            137.8746517978637,
            36.767632450919805,
            910.0
          ],
          [
            137.87449687772124,
            36.7677626276478,
            912.7
          ],
          [
            137.87434195757882,
            36.767892804375784,
            916.3
          ],
          [
            137.8741870374364,
            36.76802298110377,
            919.5
          ],
          [
            137.87403211729398,
            36.768153157831755,
            922.8
          ],
          [
            137.87387719715156,
            36.76828333455975,
            925.8
          ],
          [
            137.87372227700914,
            36.76841351128773,
            928.9
          ],
          [
            137.87356735686672,
            36.76854368801572,
            931.0
          ],
          [
            137.8734124367243,
            36.768673864743704,
            933.7
          ],
          [
            137.87325751658187,
            36.7688040414717,
            937.2
          ],
          [
            137.87310259643945,
            36.76893421819968,
            940.1
          ],
          [
            137.87294767629703,
            36.76906439492767,
            942.2
          ],
          [
            137.8727927561546,
            36.76919457165565,
            944.6
          ],
          [
            137.8726378360122,
            36.76932474838364,
            947.8
          ],
          [
            137.87248291586977,
            36.76945492511163,
            951.0
          ],
          [
            137.87232799572735,
            36.76958510183962,
            954.0
          ],
          [
            137.87217307558493,
            36.7697152785676,
            957.7
          ],
          [
            137.8720181554425,
            36.76984545529559,
            962.2
          ],
          [
            137.87186323530008,
            36.76997563202358,
            965.9
          ],
          [
            137.87170831515766,
            36.770105808751566,
            969.4
          ],
          [
            137.87155339501524,
            36.77023598547955,
            971.5
          ],
          [
            137.87139847487282,
            36.77036616220754,
            975.5
          ],
          [
            137.8712435547304,
            36.77049633893552,
            978.6
          ],
          [
            137.87108863458798,
            36.770626515663515,
            982.5
          ],
          [
            137.8710063,
            36.7706957,
            984.7
          ]
        ]
      }
    },
    {
      "type": "Feature",
      "properties": {
        "name": "アルプス第10ペア",
        "horizontal_dist_map": 418,
        "slope_dist_map": 460,
        "elevation_diff_map": 179.8
      },
      "geometry": {
        "type": "LineString",
        "coordinates": [
          [
            137.87278610909368,
            36.77423526170383,
            1112.0
          ],
          [
            137.87288837502524,
            36.77439561287621,
            1112.7
          ],
          [
            137.87299064095677,
            36.7745559640486,
            1118.4
          ],
          [
            137.87309290688833,
            36.774716315220985,
            1124.8
          ],
          [
            137.87319517281986,
            36.774876666393375,
            1131.8
          ],
          [
            137.87329743875142,
            36.77503701756576,
            1138.8
          ],
          [
            137.87339970468295,
            36.77519736873814,
            1146.0
          ],
          [
            137.8735019706145,
            36.77535771991053,
            1152.3
          ],
          [
            137.87360423654607,
            36.775518071082914,
            1159.8
          ],
          [
            137.8737065024776,
            36.775678422255304,
            1170.9
          ],
          [
            137.87380876840916,
            36.77583877342769,
            1178.1
          ],
          [
            137.8739110343407,
            36.77599912460008,
            1187.2
          ],
          [
            137.87401330027225,
            36.77615947577246,
            1198.6
          ],
          [
            137.87411556620378,
            36.77631982694484,
            1209.3
          ],
          [
            137.87421783213534,
            36.77648017811723,
            1223.1
          ],
          [
            137.8743200980669,
            36.776640529289615,
            1234.8
          ],
          [
            137.87442236399843,
            36.776800880462005,
            1243.8
          ],
          [
            137.87452462993,
            36.77696123163439,
            1255.2
          ],
          [
            137.87462689586152,
            36.77712158280677,
            1266.5
          ],
          [
            137.87472916179308,
            36.77728193397916,
            1278.2
          ],
          [
            137.87483142772462,
            36.777442285151544,
            1290.8
          ],
          [
            137.8749264,
            36.7775912,
            1291.8
          ]
        ]
      }
    },
    {
      "type": "Feature",
      "properties": {
        "name": "アルプス第8ペア",
        "horizontal_dist_map": 513,
        "slope_dist_map": 527,
        "elevation_diff_map": 113.9
      },
      "geometry": {
        "type": "LineString",
        "coordinates": [
          [
            137.8835282,
            36.7688404,
            809.5
          ],
          [
            137.88334421900365,
            36.76894322185122,
            810.4
          ],
          [
            137.8831602380073,
            36.76904604370244,
            813.1
          ],
          [
            137.88297625701094,
            36.76914886555365,
            815.3
          ],
          [
            137.88279227601458,
            36.76925168740487,
            817.6
          ],
          [
            137.88260829501823,
            36.76935450925608,
            819.4
          ],
          [
            137.88242431402188,
            36.769457331107304,
            821.6
          ],
          [
            137.88224033302552,
            36.76956015295852,
            824.5
          ],
          [
            137.88205635202917,
            36.769662974809734,
            828.4
          ],
          [
            137.8818723710328,
            36.76976579666095,
            832.4
          ],
          [
            137.88168839003646,
            36.76986861851217,
            836.1
          ],
          [
            137.8815044090401,
            36.769971440363385,
            840.6
          ],
          [
            137.88132042804375,
            36.7700742622146,
            844.0
          ],
          [
            137.8811364470474,
            36.770177084065814,
            847.7
          ],
          [
            137.88095246605104,
            36.770279905917036,
            852.5
          ],
          [
            137.8807684850547,
            36.77038272776825,
            858.7
          ],
          [
            137.88058450405833,
            36.770485549619465,
            863.9
          ],
          [
            137.88040052306198,
            36.77058837147069,
            868.9
          ],
          [
            137.88021654206563,
            36.7706911933219,
            874.9
          ],
          [
            137.88003256106927,
            36.77079401517312,
            880.4
          ],
          [
            137.87984858007292,
            36.77089683702433,
            886.4
          ],
          [
            137.87966459907656,
            36.77099965887555,
            891.3
          ],
          [
            137.8794806180802,
            36.77110248072677,
            898.6
          ],
          [
            137.87929663708385,
            36.77120530257798,
            904.8
          ],
          [
            137.8791126560875,
            36.7713081244292,
            911.2
          ],
          [
            137.87892867509115,
            36.77141094628042,
            919.9
          ],
          [
            137.8788078,
            36.7714785,
            923.4
          ]
        ]
      }
    },
    {
      "type": "Feature",
      "properties": {
        "name": "アルプス第9ペア",
        "horizontal_dist_map": 671,
        "slope_dist_map": 726,
        "elevation_diff_map": 256.3
      },
      "geometry": {
        "type": "LineString",
        "coordinates": [
          [
            137.8791683,
            36.769254,
            864.6
          ],
          [
            137.87900130312505,
            36.76937412923191,
            865.0
          ],
          [
            137.87883430625013,
            36.76949425846384,
            873.6
          ],
          [
            137.87866730937517,
            36.76961438769575,
            879.6
          ],
          [
            137.87850031250022,
            36.76973451692768,
            885.8
          ],
          [
            137.87833331562527,
            36.769854646159594,
            887.6
          ],
          [
            137.87816631875035,
            36.76997477539152,
            897.9
          ],
          [
            137.8779993218754,
            36.770094904623434,
            904.7
          ],
          [
            137.87783232500044,
            36.77021503385536,
            911.8
          ],
          [
            137.87766532812552,
            36.770335163087275,
            919.5
          ],
          [
            137.87749833125056,
            36.7704552923192,
            922.8
          ],
          [
            137.8773313343756,
            36.770575421551115,
            936.1
          ],
          [
            137.87716433750066,
            36.77069555078304,
            947.3
          ],
          [
            137.87699734062573,
            36.770815680014955,
            958.4
          ],
          [
            137.87683034375078,
            36.77093580924688,
            965.5
          ],
          [
            137.87666334687583,
            36.771055938478796,
            972.8
          ],
          [
            137.8764963500009,
            36.77117606771071,
            974.9
          ],
          [
            137.87632935312595,
            36.771296196942636,
            980.5
          ],
          [
            137.876162356251,
            36.77141632617455,
            985.2
          ],
          [
            137.87599535937605,
            36.771536455406476,
            991.2
          ],
          [
            137.87582836250112,
            36.77165658463839,
            1002.6
          ],
          [
            137.87566136562617,
            36.77177671387032,
            1005.6
          ],
          [
            137.87549436875122,
            36.77189684310223,
            1013.1
          ],
          [
            137.87532737187627,
            36.77201697233416,
            1026.7
          ],
          [
            137.87516037500134,
            36.772137101566074,
            1038.2
          ],
          [
            137.8749933781264,
            36.772257230798,
            1045.8
          ],
          [
            137.87482638125144,
            36.772377360029914,
            1054.2
          ],
          [
            137.8746593843765,
            36.77249748926184,
            1065.4
          ],
          [
            137.87449238750156,
            36.772617618493754,
            1076.0
          ],
          [
            137.8743253906266,
            36.77273774772568,
            1085.1
          ],
          [
            137.87415839375166,
            36.772857876957595,
            1090.3
          ],
          [
            137.87399139687673,
            36.77297800618951,
            1097.1
          ],
          [
            137.87382440000178,
            36.773098135421435,
            1111.2
          ],
          [
            137.87365740312683,
            36.77321826465335,
            1117.1
          ],
          [
            137.8735606,
            36.7732879,
            1120.9
          ]
        ]
      }
    },
    {
      "type": "Feature",
      "properties": {
        "name": "コルチナ第6ペア",
        "horizontal_dist_map": 692,
        "slope_dist_map": 726,
        "elevation_diff_map": 202.3
      },
      "geometry": {
        "type": "LineString",
        "coordinates": [
          [
            137.88501685310763,
            36.77044772710454,
            808.2
          ],
          [
            137.88492800480046,
            36.770613170818784,
            808.6
          ],
          [
            137.88483915649329,
            36.77077861453303,
            814.0
          ],
          [
            137.8847503081861,
            36.77094405824727,
            818.3
          ],
          [
            137.88466145987894,
            36.77110950196151,
            821.9
          ],
          [
            137.88457261157177,
            36.771274945675756,
            825.9
          ],
          [
            137.8844837632646,
            36.77144038939,
            829.1
          ],
          [
            137.88439491495745,
            36.771605833104246,
            833.2
          ],
          [
            137.88430606665028,
            36.77177127681849,
            837.8
          ],
          [
            137.8842172183431,
            36.77193672053273,
            841.7
          ],
          [
            137.88412837003594,
            36.772102164246974,
            845.8
          ],
          [
            137.88403952172877,
            36.77226760796122,
            849.9
          ],
          [
            137.8839506734216,
            36.77243305167546,
            854.9
          ],
          [
            137.88386182511442,
            36.77259849538971,
            859.1
          ],
          [
            137.88377297680725,
            36.77276393910395,
            863.4
          ],
          [
            137.88368412850008,
            36.77292938281819,
            867.7
          ],
          [
            137.8835952801929,
            36.773094826532436,
            871.9
          ],
          [
            137.88350643188573,
            36.77326027024668,
            877.1
          ],
          [
            137.88341758357856,
            36.773425713960926,
            882.0
          ],
          [
            137.88332873527142,
            36.77359115767517,
            887.2
          ],
          [
            137.88323988696425,
            36.77375660138941,
            892.0
          ],
          [
            137.88315103865708,
            36.77392204510365,
            897.4
          ],
          [
            137.8830621903499,
            36.7740874888179,
            900.9
          ],
          [
            137.88297334204273,
            36.77425293253214,
            906.3
          ],
          [
            137.88288449373556,
            36.77441837624639,
            913.8
          ],
          [
            137.8827956454284,
            36.77458381996063,
            920.3
          ],
          [
            137.88270679712122,
            36.77474926367487,
            928.2
          ],
          [
            137.88261794881404,
            36.774914707389115,
            935.7
          ],
          [
            137.88252910050687,
            36.77508015110336,
            946.9
          ],
          [
            137.8824402521997,
            36.775245594817605,
            957.1
          ],
          [
            137.88235140389253,
            36.77541103853185,
            968.1
          ],
          [
            137.88226255558536,
            36.775576482246095,
            979.0
          ],
          [
            137.8821737072782,
            36.77574192596033,
            988.5
          ],
          [
            137.88208485897104,
            36.77590736967458,
            999.4
          ],
          [
            137.88199601066387,
            36.77607281338882,
            1008.1
          ],
          [
            137.8819421,
            36.7761732,
            1010.5
          ]
        ]
      }
    },
    {
      "type": "Feature",
      "properties": {
        "name": "コルチナ第5ペア",
        "horizontal_dist_map": 568,
        "slope_dist_map": 653,
        "elevation_diff_map": 308.1
      },
      "geometry": {
        "type": "LineString",
        "coordinates": [
          [
            137.87970025511282,
            36.78143054767039,
            1034.2
          ],
          [
            137.87970177617498,
            36.78161076656403,
            1037.1
          ],
          [
            137.8797032972371,
            36.78179098545766,
            1046.0
          ],
          [
            137.87970481829927,
            36.7819712043513,
            1058.2
          ],
          [
            137.8797063393614,
            36.78215142324493,
            1068.7
          ],
          [
            137.87970786042357,
            36.78233164213857,
            1080.0
          ],
          [
            137.8797093814857,
            36.78251186103221,
            1087.5
          ],
          [
            137.87971090254786,
            36.782692079925845,
            1092.6
          ],
          [
            137.87971242361,
            36.782872298819484,
            1101.4
          ],
          [
            137.87971394467215,
            36.783052517713124,
            1111.9
          ],
          [
            137.8797154657343,
            36.783232736606756,
            1120.5
          ],
          [
            137.87971698679644,
            36.783412955500395,
            1134.8
          ],
          [
            137.8797185078586,
            36.78359317439403,
            1147.2
          ],
          [
            137.87972002892073,
            36.78377339328767,
            1157.0
          ],
          [
            137.8797215499829,
            36.78395361218131,
            1164.7
          ],
          [
            137.87972307104502,
            36.78413383107494,
            1178.2
          ],
          [
            137.87972459210718,
            36.78431404996858,
            1192.7
          ],
          [
            137.87972611316934,
            36.78449426886222,
            1206.4
          ],
          [
            137.87972763423147,
            36.78467448775585,
            1221.8
          ],
          [
            137.87972915529363,
            36.78485470664949,
            1236.7
          ],
          [
            137.87973067635576,
            36.78503492554312,
            1246.7
          ],
          [
            137.87973219741792,
            36.78521514443676,
            1261.8
          ],
          [
            137.87973371848005,
            36.7853953633304,
            1275.2
          ],
          [
            137.8797352395422,
            36.785575582224034,
            1291.4
          ],
          [
            137.87973676060435,
            36.78575580111767,
            1303.9
          ],
          [
            137.8797382816665,
            36.78593602001131,
            1317.4
          ],
          [
            137.87973980272866,
            36.786116238904945,
            1327.8
          ],
          [
            137.8797413237908,
            36.786296457798585,
            1338.2
          ],
          [
            137.87974284485296,
            36.78647667669222,
            1342.2
          ],
          [
            137.8797435,
            36.7865543,
            1342.3
          ]
        ]
      }
    },
    {
      "type": "Feature",
      "properties": {
        "name": "コルチナ第3クワッド",
        "horizontal_dist_map": 770,
        "slope_dist_map": 813,
        "elevation_diff_map": 224.5
      },
      "geometry": {
        "type": "LineString",
        "coordinates": [
          [
            137.88837949280602,
            36.777221481273024,
            872.8
          ],
          [
            137.88834662097847,
            36.77739975411159,
            872.8
          ],
          [
            137.88831374915094,
            36.77757802695016,
            875.5
          ],
          [
            137.88828087732338,
            36.77775629978873,
            877.9
          ],
          [
            137.88824800549583,
            36.777934572627295,
            880.0
          ],
          [
            137.88821513366827,
            36.77811284546586,
            881.5
          ],
          [
            137.88818226184074,
            36.77829111830444,
            883.7
          ],
          [
            137.88814939001318,
            36.778469391143005,
            886.1
          ],
          [
            137.88811651818563,
            36.77864766398157,
            888.2
          ],
          [
            137.88808364635807,
            36.77882593682014,
            890.4
          ],
          [
            137.88805077453054,
            36.77900420965871,
            891.6
          ],
          [
            137.88801790270298,
            36.779182482497276,
            894.6
          ],
          [
            137.88798503087543,
            36.779360755335844,
            899.4
          ],
          [
            137.88795215904787,
            36.77953902817441,
            907.5
          ],
          [
            137.88791928722034,
            36.77971730101298,
            911.6
          ],
          [
            137.88788641539279,
            36.77989557385155,
            919.2
          ],
          [
            137.88785354356523,
            36.780073846690115,
            928.1
          ],
          [
            137.8878206717377,
            36.78025211952869,
            934.4
          ],
          [
            137.88778779991014,
            36.78043039236726,
            941.7
          ],
          [
            137.8877549280826,
            36.780608665205826,
            944.7
          ],
          [
            137.88772205625503,
            36.78078693804439,
            947.8
          ],
          [
            137.8876891844275,
            36.78096521088296,
            953.5
          ],
          [
            137.88765631259994,
            36.78114348372153,
            958.6
          ],
          [
            137.8876234407724,
            36.7813217565601,
            963.3
          ],
          [
            137.88759056894483,
            36.781500029398664,
            968.7
          ],
          [
            137.8875576971173,
            36.78167830223723,
            972.0
          ],
          [
            137.88752482528974,
            36.7818565750758,
            978.4
          ],
          [
            137.8874919534622,
            36.782034847914375,
            984.0
          ],
          [
            137.88745908163463,
            36.78221312075294,
            993.5
          ],
          [
            137.8874262098071,
            36.78239139359151,
            1002.2
          ],
          [
            137.88739333797955,
            36.78256966643008,
            1012.0
          ],
          [
            137.887360466152,
            36.782747939268646,
            1021.6
          ],
          [
            137.88732759432446,
            36.78292621210721,
            1033.1
          ],
          [
            137.8872947224969,
            36.78310448494578,
            1044.0
          ],
          [
            137.88726185066935,
            36.78328275778435,
            1055.3
          ],
          [
            137.8872289788418,
            36.78346103062292,
            1068.2
          ],
          [
            137.88719610701426,
            36.783639303461484,
            1078.9
          ],
          [
            137.8871632351867,
            36.78381757630005,
            1090.0
          ],
          [
            137.88713036335915,
            36.78399584913863,
            1097.4
          ],
          [
            137.8871128,
            36.7840911,
            1097.3
          ]
        ]
      }
    },
    {
      "type": "Feature",
      "properties": {
        "name": "コルチナ第4ペア",
        "horizontal_dist_map": 612,
        "slope_dist_map": 694,
        "elevation_diff_map": 312.3
      },
      "geometry": {
        "type": "LineString",
        "coordinates": [
          [
            137.87703297937364,
            36.78206075147361,
            1085.4
          ],
          [
            137.8768123184177,
            36.7820919937761,
            1085.5
          ],
          [
            137.8765916574618,
            36.78212323607859,
            1093.7
          ],
          [
            137.87637099650587,
            36.78215447838108,
            1103.0
          ],
          [
            137.87615033554994,
            36.78218572068357,
            1110.0
          ],
          [
            137.875929674594,
            36.78221696298606,
            1117.9
          ],
          [
            137.8757090136381,
            36.78224820528855,
            1126.9
          ],
          [
            137.87548835268217,
            36.78227944759104,
            1133.9
          ],
          [
            137.87526769172624,
            36.78231068989353,
            1140.1
          ],
          [
            137.87504703077033,
            36.78234193219602,
            1146.8
          ],
          [
            137.8748263698144,
            36.78237317449851,
            1154.9
          ],
          [
            137.87460570885847,
            36.782404416801,
            1161.6
          ],
          [
            137.87438504790256,
            36.78243565910349,
            1174.0
          ],
          [
            137.87416438694663,
            36.78246690140598,
            1191.8
          ],
          [
            137.8739437259907,
            36.78249814370847,
            1202.5
          ],
          [
            137.87372306503477,
            36.782529386010964,
            1211.6
          ],
          [
            137.87350240407886,
            36.782560628313455,
            1221.2
          ],
          [
            137.87328174312293,
            36.782591870615946,
            1232.0
          ],
          [
            137.873061082167,
            36.78262311291844,
            1241.5
          ],
          [
            137.8728404212111,
            36.78265435522093,
            1253.7
          ],
          [
            137.87261976025516,
            36.78268559752341,
            1268.6
          ],
          [
            137.87239909929923,
            36.7827168398259,
            1277.6
          ],
          [
            137.8721784383433,
            36.78274808212839,
            1287.6
          ],
          [
            137.8719577773874,
            36.782779324430884,
            1298.4
          ],
          [
            137.87173711643146,
            36.782810566733374,
            1309.0
          ],
          [
            137.87151645547553,
            36.782841809035865,
            1319.4
          ],
          [
            137.87129579451963,
            36.782873051338356,
            1332.1
          ],
          [
            137.8710751335637,
            36.78290429364085,
            1345.3
          ],
          [
            137.87085447260776,
            36.78293553594334,
            1358.3
          ],
          [
            137.87063381165183,
            36.78296677824583,
            1371.2
          ],
          [
            137.87041315069592,
            36.78299802054832,
            1389.0
          ],
          [
            137.87027352762695,
            36.783017789093854,
            1397.7
          ]
        ]
      }
    },
    {
      "type": "Feature",
      "properties": {
        "name": "コルチナ第2クワッド",
        "horizontal_dist_map": 1069,
        "slope_dist_map": 1094,
        "elevation_diff_map": 212.5
      },
      "geometry": {
        "type": "LineString",
        "coordinates": [
          [
            137.88741621340714,
            36.7764730908666,
            872.3
          ],
          [
            137.88722980694897,
            36.776573071384384,
            871.4
          ],
          [
            137.88704340049082,
            36.77667305190216,
            874.4
          ],
          [
            137.88685699403266,
            36.77677303241994,
            876.1
          ],
          [
            137.88667058757449,
            36.77687301293771,
            878.6
          ],
          [
            137.88648418111632,
            36.776972993455495,
            880.9
          ],
          [
            137.88629777465817,
            36.77707297397327,
            883.4
          ],
          [
            137.8861113682,
            36.77717295449105,
            885.7
          ],
          [
            137.88592496174184,
            36.77727293500883,
            888.0
          ],
          [
            137.88573855528367,
            36.777372915526605,
            890.4
          ],
          [
            137.88555214882552,
            36.77747289604439,
            893.1
          ],
          [
            137.88536574236736,
            36.77757287656216,
            895.7
          ],
          [
            137.88517933590919,
            36.77767285707994,
            898.4
          ],
          [
            137.88499292945102,
            36.777772837597716,
            901.0
          ],
          [
            137.88480652299287,
            36.7778728181155,
            903.6
          ],
          [
            137.8846201165347,
            36.77797279863327,
            906.0
          ],
          [
            137.88443371007654,
            36.77807277915105,
            908.8
          ],
          [
            137.88424730361837,
            36.778172759668834,
            911.8
          ],
          [
            137.88406089716023,
            36.77827274018661,
            915.9
          ],
          [
            137.88387449070206,
            36.77837272070439,
            919.6
          ],
          [
            137.8836880842439,
            36.778472701222164,
            923.8
          ],
          [
            137.88350167778574,
            36.778572681739945,
            927.7
          ],
          [
            137.88331527132758,
            36.77867266225772,
            931.1
          ],
          [
            137.8831288648694,
            36.7787726427755,
            935.2
          ],
          [
            137.88294245841124,
            36.77887262329328,
            939.2
          ],
          [
            137.8827560519531,
            36.778972603811056,
            941.8
          ],
          [
            137.88256964549493,
            36.77907258432884,
            945.5
          ],
          [
            137.88238323903676,
            36.77917256484661,
            949.6
          ],
          [
            137.8821968325786,
            36.77927254536439,
            954.5
          ],
          [
            137.88201042612044,
            36.77937252588217,
            960.7
          ],
          [
            137.88182401966228,
            36.77947250639995,
            966.4
          ],
          [
            137.8816376132041,
            36.77957248691772,
            972.7
          ],
          [
            137.88145120674594,
            36.7796724674355,
            978.9
          ],
          [
            137.8812648002878,
            36.779772447953285,
            982.6
          ],
          [
            137.88107839382963,
            36.77987242847106,
            988.4
          ],
          [
            137.88089198737146,
            36.77997240898884,
            991.6
          ],
          [
            137.8807055809133,
            36.780072389506614,
            994.2
          ],
          [
            137.88051917445515,
            36.780172370024395,
            996.9
          ],
          [
            137.88033276799698,
            36.78027235054217,
            1000.5
          ],
          [
            137.8801463615388,
            36.78037233105995,
            1004.2
          ],
          [
            137.87995995508066,
            36.78047231157773,
            1009.7
          ],
          [
            137.8797735486225,
            36.780572292095506,
            1014.8
          ],
          [
            137.87958714216433,
            36.78067227261329,
            1019.2
          ],
          [
            137.87940073570616,
            36.78077225313106,
            1023.2
          ],
          [
            137.87921432924801,
            36.78087223364884,
            1027.0
          ],
          [
            137.87902792278985,
            36.78097221416662,
            1031.2
          ],
          [
            137.87884151633168,
            36.7810721946844,
            1036.1
          ],
          [
            137.8786551098735,
            36.78117217520217,
            1040.2
          ],
          [
            137.87846870341536,
            36.781272155719954,
            1045.5
          ],
          [
            137.8782822969572,
            36.781372136237735,
            1052.5
          ],
          [
            137.87809589049903,
            36.78147211675551,
            1059.8
          ],
          [
            137.87790948404086,
            36.78157209727329,
            1068.4
          ],
          [
            137.87772307758271,
            36.781672077791065,
            1079.6
          ],
          [
            137.87753667112455,
            36.781772058308846,
            1084.3
          ],
          [
            137.87745270293877,
            36.78181709528221,
            1084.8
          ]
        ]
      }
    },
    {
      "type": "Feature",
      "properties": {
        "name": "アルプス第11ペア",
        "horizontal_dist_map": 1116,
        "slope_dist_map": 1231,
        "elevation_diff_map": 470.5
      },
      "geometry": {
        "type": "LineString",
        "coordinates": [
          [
            137.8658595,
            36.7697895,
            1127.9
          ],
          [
            137.86570888835104,
            36.7699229167474,
            1134.8
          ],
          [
            137.86555827670207,
            36.77005633349479,
            1146.7
          ],
          [
            137.86540766505314,
            36.77018975024219,
            1159.2
          ],
          [
            137.86525705340418,
            36.770323166989584,
            1172.0
          ],
          [
            137.86510644175522,
            36.77045658373698,
            1187.4
          ],
          [
            137.86495583010625,
            36.77059000048438,
            1199.8
          ],
          [
            137.8648052184573,
            36.77072341723178,
            1211.1
          ],
          [
            137.86465460680836,
            36.770856833979174,
            1224.0
          ],
          [
            137.8645039951594,
            36.77099025072657,
            1238.0
          ],
          [
            137.86435338351043,
            36.771123667473965,
            1251.5
          ],
          [
            137.86420277186147,
            36.77125708422136,
            1263.6
          ],
          [
            137.8640521602125,
            36.77139050096876,
            1275.4
          ],
          [
            137.86390154856358,
            36.77152391771615,
            1286.8
          ],
          [
            137.8637509369146,
            36.77165733446355,
            1298.7
          ],
          [
            137.86360032526565,
            36.77179075121094,
            1311.2
          ],
          [
            137.8634497136167,
            36.77192416795834,
            1320.8
          ],
          [
            137.86329910196773,
            36.772057584705735,
            1329.0
          ],
          [
            137.8631484903188,
            36.77219100145314,
            1339.1
          ],
          [
            137.86299787866983,
            36.77232441820053,
            1347.4
          ],
          [
            137.86284726702087,
            36.77245783494793,
            1356.7
          ],
          [
            137.8626966553719,
            36.772591251695324,
            1364.5
          ],
          [
            137.86254604372294,
            36.77272466844272,
            1373.6
          ],
          [
            137.862395432074,
            36.772858085190116,
            1384.6
          ],
          [
            137.86224482042505,
            36.77299150193751,
            1394.8
          ],
          [
            137.86209420877609,
            36.77312491868491,
            1412.5
          ],
          [
            137.86194359712712,
            36.7732583354323,
            1425.1
          ],
          [
            137.86179298547816,
            36.7733917521797,
            1435.4
          ],
          [
            137.86164237382923,
            36.773525168927094,
            1444.1
          ],
          [
            137.86149176218026,
            36.77365858567449,
            1452.4
          ],
          [
            137.8613411505313,
            36.77379200242189,
            1459.5
          ],
          [
            137.86119053888234,
            36.77392541916929,
            1465.4
          ],
          [
            137.86103992723338,
            36.774058835916684,
            1471.8
          ],
          [
            137.86088931558442,
            36.77419225266408,
            1471.0
          ],
          [
            137.86073870393548,
            36.774325669411475,
            1471.5
          ],
          [
            137.86058809228652,
            36.77445908615887,
            1473.8
          ],
          [
            137.86043748063756,
            36.774592502906266,
            1480.0
          ],
          [
            137.8602868689886,
            36.77472591965366,
            1484.8
          ],
          [
            137.86013625733963,
            36.77485933640106,
            1485.4
          ],
          [
            137.8599856456907,
            36.77499275314845,
            1490.9
          ],
          [
            137.85983503404174,
            36.77512616989585,
            1497.2
          ],
          [
            137.85968442239277,
            36.775259586643244,
            1504.6
          ],
          [
            137.8595338107438,
            36.77539300339065,
            1514.5
          ],
          [
            137.85938319909485,
            36.77552642013804,
            1521.8
          ],
          [
            137.85923258744592,
            36.77565983688544,
            1521.8
          ],
          [
            137.85908197579695,
            36.775793253632834,
            1525.4
          ],
          [
            137.858931364148,
            36.77592667038023,
            1533.3
          ],
          [
            137.85878075249903,
            36.776060087127625,
            1539.3
          ],
          [
            137.85863014085007,
            36.77619350387502,
            1546.1
          ],
          [
            137.85847952920113,
            36.77632692062242,
            1545.0
          ],
          [
            137.85832891755217,
            36.77646033736981,
            1549.6
          ],
          [
            137.8581783059032,
            36.77659375411721,
            1550.6
          ],
          [
            137.85802769425425,
            36.7767271708646,
            1564.4
          ],
          [
            137.85787708260528,
            36.776860587612006,
            1574.0
          ],
          [
            137.85772647095635,
            36.7769940043594,
            1585.2
          ],
          [
            137.8575758593074,
            36.7771274211068,
            1595.3
          ],
          [
            137.8574499,
            36.777239,
            1598.4
          ]
        ]
      }
    }
  ]
}