{
  "type": "FeatureCollection",
  "features": [
    {
      "type": "Feature",
      "properties": {
        "name": "名木山第3トリプルA",
        "horizontal_dist_map": 577,
        "slope_dist_map": 612,
        "elevation_diff_map": 178.0
      },
      "geometry": {
        "type": "LineString",
        "coordinates": [
          [
            137.83862895586998,
            36.698290502345856,
            748.9
          ],
          [
            137.83840816778573,
            36.69826099930194,
            750.5
          ],
          [
            137.83818737970145,
            36.69823149625802,
            757.1
          ],
          [
            137.8379665916172,
            36.6982019932141,
            768.0
          ],
          [
            137.83774580353295,
            36.69817249017018,
            778.4
          ],
          [
            137.8375250154487,
            36.69814298712626,
            788.2
          ],
          [
            137.83730422736443,
            36.69811348408234,
            794.7
          ],
          [
            137.83708343928018,
            36.69808398103843,
            801.2
          ],
          [
            137.83686265119593,
            36.69805447799451,
            807.4
          ],
          [
            137.83664186311168,
            36.69802497495059,
            807.7
          ],
          [
            137.8364210750274,
            36.69799547190667,
            809.7
          ],
          [
            137.83620028694315,
            36.69796596886275,
            813.0
          ],
          [
            137.8359794988589,
            36.697936465818835,
            819.3
          ],
          [
            137.83575871077466,
            36.697906962774915,
            825.7
          ],
          [
            137.83553792269038,
            36.697877459731,
            828.0
          ],
          [
            137.83531713460613,
            36.69784795668708,
            839.2
          ],
          [
            137.83509634652188,
            36.69781845364316,
            851.3
          ],
          [
            137.83487555843763,
            36.69778895059924,
            857.9
          ],
          [
            137.83465477035335,
            36.69775944755532,
            865.3
          ],
          [
            137.8344339822691,
            36.69772994451141,
            874.3
          ],
          [
            137.83421319418485,
            36.69770044146749,
            885.9
          ],
          [
            137.83399240610058,
            36.69767093842357,
            892.7
          ],
          [
            137.83377161801633,
            36.69764143537965,
            893.8
          ],
          [
            137.83355082993208,
            36.69761193233573,
            895.4
          ],
          [
            137.83333004184783,
            36.69758242929181,
            897.8
          ],
          [
            137.83310925376355,
            36.697552926247894,
            901.8
          ],
          [
            137.8328884656793,
            36.697523423203975,
            904.3
          ],
          [
            137.83266767759505,
            36.697493920160056,
            918.4
          ],
          [
            137.8324468895108,
            36.69746441711614,
            925.6
          ],
          [
            137.8322581636627,
            36.69743919842282,
            926.9
          ]
        ]
      }
    },
    {
      "type": "Feature",
      "properties": {
        "name": "八方尾根ゴンドラ「アダム」",
        "horizontal_dist_map": 1935,
        "slope_dist_map": 2072,
        "elevation_diff_map": 624.8
      },
      "geometry": {
        "type": "LineString",
        "coordinates": [
          [
            137.83700389630675,
            36.70183751443556,
            768.0
          ],
          [
            137.8367868104113,
            36.70179366113583,
            768.7
          ],
          [
            137.8365697245158,
            36.7017498078361,
            777.3
          ],
          [
            137.83635263862035,
            36.70170595453637,
            790.1
          ],
          [
            137.8361355527249,
            36.70166210123664,
            803.9
          ],
          [
            137.8359184668294,
            36.70161824793691,
            813.1
          ],
          [
            137.83570138093395,
            36.701574394637184,
            820.6
          ],
          [
            137.8354842950385,
            36.701530541337455,
            825.5
          ],
          [
            137.835267209143,
            36.701486688037726,
            827.3
          ],
          [
            137.83505012324756,
            36.701442834737996,
            830.5
          ],
          [
            137.8348330373521,
            36.701398981438274,
            834.8
          ],
          [
            137.8346159514566,
            36.701355128138545,
            839.9
          ],
          [
            137.83439886556116,
            36.701311274838815,
            846.5
          ],
          [
            137.8341817796657,
            36.701267421539086,
            852.0
          ],
          [
            137.8339646937702,
            36.70122356823936,
            855.3
          ],
          [
            137.83374760787476,
            36.70117971493963,
            857.0
          ],
          [
            137.8335305219793,
            36.7011358616399,
            859.5
          ],
          [
            137.8333134360838,
            36.70109200834017,
            866.2
          ],
          [
            137.83309635018836,
            36.70104815504044,
            873.3
          ],
          [
            137.8328792642929,
            36.70100430174071,
            886.3
          ],
          [
            137.8326621783974,
            36.70096044844098,
            887.9
          ],
          [
            137.83244509250196,
            36.70091659514125,
            881.5
          ],
          [
            137.8322280066065,
            36.70087274184152,
            881.6
          ],
          [
            137.832010920711,
            36.70082888854179,
            883.5
          ],
          [
            137.83179383481556,
            36.70078503524206,
            890.8
          ],
          [
            137.8315767489201,
            36.700741181942334,
            900.4
          ],
          [
            137.8313596630246,
            36.700697328642605,
            912.1
          ],
          [
            137.83114257712916,
            36.700653475342875,
            923.8
          ],
          [
            137.8309254912337,
            36.700609622043146,
            934.4
          ],
          [
            137.8307084053382,
            36.700565768743424,
            945.2
          ],
          [
            137.83049131944276,
            36.700521915443694,
            952.6
          ],
          [
            137.8302742335473,
            36.700478062143965,
            962.6
          ],
          [
            137.83005714765181,
            36.700434208844236,
            967.5
          ],
          [
            137.82984006175636,
            36.700390355544506,
            976.1
          ],
          [
            137.8296229758609,
            36.70034650224478,
            992.1
          ],
          [
            137.82940588996541,
            36.70030264894505,
            994.4
          ],
          [
            137.82918880406996,
            36.70025879564532,
            994.8
          ],
          [
            137.8289717181745,
            36.70021494234559,
            994.1
          ],
          [
            137.82875463227901,
            36.70017108904586,
            990.7
          ],
          [
            137.82853754638356,
            36.70012723574613,
            990.3
          ],
          [
            137.8283204604881,
            36.7000833824464,
            993.5
          ],
          [
            137.82810337459262,
            36.70003952914667,
            1004.9
          ],
          [
            137.82788628869716,
            36.69999567584694,
            1017.1
          ],
          [
            137.8276692028017,
            36.69995182254721,
            1030.4
          ],
          [
            137.82745211690622,
            36.699907969247484,
            1042.0
          ],
          [
            137.82723503101076,
            36.699864115947754,
            1052.2
          ],
          [
            137.8270179451153,
            36.699820262648025,
            1060.9
          ],
          [
            137.82680085921982,
            36.699776409348296,
            1069.2
          ],
          [
            137.82658377332436,
            36.69973255604857,
            1079.1
          ],
          [
            137.8263666874289,
            36.699688702748844,
            1086.5
          ],
          [
            137.82614960153342,
            36.699644849449115,
            1093.3
          ],
          [
            137.82593251563796,
            36.699600996149385,
            1097.2
          ],
          [
            137.8257154297425,
            36.699557142849656,
            1096.3
          ],
          [
            137.82549834384702,
            36.69951328954993,
            1096.2
          ],
          [
            137.82528125795156,
            36.6994694362502,
            1091.5
          ],
          [
            137.8250641720561,
            36.69942558295047,
            1092.0
          ],
          [
            137.82484708616062,
            36.69938172965074,
            1093.2
          ],
          [
            137.82463000026516,
            36.69933787635101,
            1101.0
          ],
          [
            137.8244129143697,
            36.69929402305128,
            1108.4
          ],
          [
            137.82419582847422,
            36.69925016975155,
            1111.4
          ],
          [
            137.82397874257876,
            36.69920631645182,
            1119.6
          ],
          [
            137.8237616566833,
            36.69916246315209,
            1127.1
          ],
          [
            137.82354457078782,
            36.69911860985236,
            1137.2
          ],
          [
            137.82332748489236,
            36.69907475655263,
            1146.9
          ],
          [
            137.8231103989969,
            36.699030903252904,
            1158.6
          ],
          [
            137.82289331310142,
            36.698987049953175,
            1162.4
          ],
          [
            137.82267622720596,
            36.698943196653445,
            1161.6
          ],
          [
            137.8224591413105,
            36.69889934335372,
            1171.0
          ],
          [
            137.82224205541502,
            36.698855490053994,
            1179.0
          ],
          [
            137.82202496951956,
            36.698811636754264,
            1183.9
          ],
          [
            137.8218078836241,
            36.698767783454535,
            1187.3
          ],
          [
            137.82159079772862,
            36.698723930154806,
            1193.2
          ],
          [
            137.82137371183316,
            36.69868007685508,
            1200.8
          ],
          [
            137.8211566259377,
            36.69863622355535,
            1210.7
          ],
          [
            137.82093954004222,
            36.69859237025562,
            1215.8
          ],
          [
            137.82072245414676,
            36.69854851695589,
            1221.2
          ],
          [
            137.8205053682513,
            36.69850466365616,
            1231.1
          ],
          [
            137.82028828235582,
            36.69846081035643,
            1243.9
          ],
          [
            137.82007119646036,
            36.6984169570567,
            1251.7
          ],
          [
            137.8198541105649,
            36.69837310375697,
            1263.1
          ],
          [
            137.81963702466942,
            36.69832925045724,
            1271.6
          ],
          [
            137.81941993877396,
            36.69828539715751,
            1278.1
          ],
          [
            137.8192028528785,
            36.69824154385778,
            1286.7
          ],
          [
            137.81898576698302,
            36.698197690558054,
            1297.2
          ],
          [
            137.81876868108756,
            36.698153837258324,
            1303.8
          ],
          [
            137.8185515951921,
            36.698109983958595,
            1313.9
          ],
          [
            137.81833450929662,
            36.69806613065887,
            1326.5
          ],
          [
            137.81811742340116,
            36.698022277359144,
            1335.2
          ],
          [
            137.8179003375057,
            36.697978424059414,
            1343.6
          ],
          [
            137.81768325161022,
            36.697934570759685,
            1348.8
          ],
          [
            137.81746616571476,
            36.697890717459956,
            1355.0
          ],
          [
            137.8172490798193,
            36.697846864160226,
            1361.7
          ],
          [
            137.81703199392382,
            36.6978030108605,
            1368.9
          ],
          [
            137.81681490802836,
            36.69775915756077,
            1374.7
          ],
          [
            137.8165978221329,
            36.69771530426104,
            1379.9
          ],
          [
            137.81638073623742,
            36.69767145096131,
            1384.6
          ],
          [
            137.81616365034196,
            36.69762759766158,
            1389.0
          ],
          [
            137.81600017998483,
            36.69759457518192,
            1392.8
          ]
        ]
      }
    },
    {
      "type": "Feature",
      "properties": {
        "name": "アルペンクワッド",
        "horizontal_dist_map": 719,
        "slope_dist_map": 777,
        "elevation_diff_map": 283.0
      },
      "geometry": {
        "type": "LineString",
        "coordinates": [
          [
            137.81441484819607,
            36.697945084796075,
            1394.5
          ],
          [
            137.81419140640014,
            36.69795539046619,
            1393.3
          ],
          [
            137.81396796460422,
            36.697965696136315,
            1397.7
          ],
          [
            137.8137445228083,
            36.69797600180643,
            1403.8
          ],
          [
            137.81352108101237,
            36.697986307476555,
            1408.2
          ],
          [
            137.81329763921644,
            36.69799661314667,
            1414.5
          ],
          [
            137.81307419742052,
            36.698006918816795,
            1423.3
          ],
          [
            137.8128507556246,
            36.69801722448691,
            1434.4
          ],
          [
            137.81262731382867,
            36.698027530157034,
            1445.9
          ],
          [
            137.81240387203275,
            36.69803783582715,
            1455.6
          ],
          [
            137.81218043023682,
            36.698048141497274,
            1465.5
          ],
          [
            137.81195698844093,
            36.69805844716739,
            1475.2
          ],
          [
            137.811733546645,
            36.698068752837514,
            1484.3
          ],
          [
            137.81151010484908,
            36.69807905850763,
            1495.4
          ],
          [
            137.81128666305315,
            36.698089364177754,
            1504.9
          ],
          [
            137.81106322125723,
            36.69809966984787,
            1516.2
          ],
          [
            137.8108397794613,
            36.698109975517994,
            1526.5
          ],
          [
            137.81061633766538,
            36.69812028118811,
            1536.7
          ],
          [
            137.81039289586946,
            36.698130586858234,
            1546.0
          ],
          [
            137.81016945407353,
            36.69814089252835,
            1553.1
          ],
          [
            137.8099460122776,
            36.698151198198474,
            1559.7
          ],
          [
            137.80972257048168,
            36.69816150386859,
            1565.8
          ],
          [
            137.80949912868576,
            36.698171809538714,
            1571.6
          ],
          [
            137.80927568688983,
            36.69818211520883,
            1578.2
          ],
          [
            137.8090522450939,
            36.698192420878954,
            1583.5
          ],
          [
            137.80882880329798,
            36.69820272654907,
            1589.2
          ],
          [
            137.80860536150206,
            36.69821303221919,
            1596.6
          ],
          [
            137.80838191970614,
            36.69822333788931,
            1603.7
          ],
          [
            137.8081584779102,
            36.69823364355943,
            1613.3
          ],
          [
            137.8079350361143,
            36.69824394922955,
            1621.5
          ],
          [
            137.80771159431836,
            36.69825425489967,
            1629.6
          ],
          [
            137.80748815252244,
            36.69826456056979,
            1636.5
          ],
          [
            137.80726471072654,
            36.69827486623991,
            1643.9
          ],
          [
            137.80704126893062,
            36.69828517191003,
            1652.3
          ],
          [
            137.8068178271347,
            36.69829547758015,
            1660.8
          ],
          [
            137.80659438533877,
            36.69830578325027,
            1670.2
          ],
          [
            137.80637624553077,
            36.698315844380026,
            1677.5
          ]
        ]
      }
    },
    {
      "type": "Feature",
      "properties": {
        "name": "兎平ペア",
        "horizontal_dist_map": 489,
        "slope_dist_map": 532,
        "elevation_diff_map": 195.6
      },
      "geometry": {
        "type": "LineString",
        "coordinates": [
          [
            137.81455532880528,
            36.69816211692871,
            1385.1
          ],
          [
            137.81433190077118,
            36.698172620694514,
            1386.6
          ],
          [
            137.8141084727371,
            36.69818312446032,
            1389.8
          ],
          [
            137.813885044703,
            36.698193628226136,
            1392.4
          ],
          [
            137.81366161666892,
            36.69820413199194,
            1397.9
          ],
          [
            137.81343818863482,
            36.69821463575775,
            1408.4
          ],
          [
            137.81321476060074,
            36.69822513952356,
            1419.2
          ],
          [
            137.81299133256664,
            36.698235643289365,
            1430.3
          ],
          [
            137.81276790453256,
            36.69824614705518,
            1441.0
          ],
          [
            137.81254447649846,
            36.69825665082099,
            1451.1
          ],
          [
            137.81232104846438,
            36.698267154586794,
            1462.2
          ],
          [
            137.81209762043028,
            36.6982776583526,
            1470.6
          ],
          [
            137.8118741923962,
            36.69828816211841,
            1479.5
          ],
          [
            137.8116507643621,
            36.698298665884224,
            1490.7
          ],
          [
            137.81142733632802,
            36.69830916965003,
            1501.2
          ],
          [
            137.81120390829392,
            36.69831967341584,
            1514.4
          ],
          [
            137.81098048025984,
            36.698330177181646,
            1524.9
          ],
          [
            137.81075705222574,
            36.69834068094745,
            1533.1
          ],
          [
            137.81053362419166,
            36.69835118471327,
            1539.9
          ],
          [
            137.81031019615756,
            36.698361688479075,
            1547.6
          ],
          [
            137.81008676812348,
            36.69837219224488,
            1555.2
          ],
          [
            137.80986334008938,
            36.69838269601069,
            1563.1
          ],
          [
            137.8096399120553,
            36.6983931997765,
            1568.3
          ],
          [
            137.8094164840212,
            36.69840370354231,
            1572.6
          ],
          [
            137.80919305598712,
            36.69841420730812,
            1579.2
          ],
          [
            137.80908233341484,
            36.698419412581366,
            1580.7
          ]
        ]
      }
    },
    {
      "type": "Feature",
      "properties": {
        "name": "黒菱第2クワッド",
        "horizontal_dist_map": 260,
        "slope_dist_map": 270,
        "elevation_diff_map": 69.0
      },
      "geometry": {
        "type": "LineString",
        "coordinates": [
          [
            137.81056741548372,
            36.70107878483316,
            1495.0
          ],
          [
            137.81047209063212,
            36.700915723099406,
            1495.2
          ],
          [
            137.81037676578055,
            36.700752661365655,
            1497.7
          ],
          [
            137.81028144092895,
            36.70058959963191,
            1502.7
          ],
          [
            137.81018611607738,
            36.70042653789816,
            1507.7
          ],
          [
            137.81009079122578,
            36.70026347616441,
            1515.2
          ],
          [
            137.80999546637418,
            36.70010041443066,
            1521.4
          ],
          [
            137.8099001415226,
            36.699937352696914,
            1528.4
          ],
          [
            137.809804816671,
            36.69977429096316,
            1534.4
          ],
          [
            137.80970949181943,
            36.69961122922941,
            1541.3
          ],
          [
            137.80961416696783,
            36.69944816749566,
            1548.2
          ],
          [
            137.80951884211626,
            36.69928510576191,
            1554.4
          ],
          [
            137.80942351726466,
            36.699122044028165,
            1559.3
          ],
          [
            137.80932819241306,
            36.698958982294414,
            1564.0
          ],
          [
            137.80932595190959,
            36.69895514971165,
            1564.0
          ]
        ]
      }
    },
    {
      "type": "Feature",
      "properties": {
        "name": "黒菱第3ペア",
        "horizontal_dist_map": 357,
        "slope_dist_map": 403,
        "elevation_diff_map": 179.4
      },
      "geometry": {
        "type": "LineString",
        "coordinates": [
          [
            137.80888306136046,
            36.70103578503641,
            1503.1
          ],
          [
            137.8086990769524,
            36.700933159857634,
            1505.1
          ],
          [
            137.8085150925443,
            36.70083053467885,
            1510.6
          ],
          [
            137.80833110813623,
            36.700727909500074,
            1517.6
          ],
          [
            137.80814712372813,
            36.70062528432129,
            1528.1
          ],
          [
            137.80796313932007,
            36.700522659142514,
            1538.8
          ],
          [
            137.80777915491197,
            36.70042003396373,
            1548.7
          ],
          [
            137.8075951705039,
            36.700317408784954,
            1557.6
          ],
          [
            137.8074111860958,
            36.70021478360617,
            1567.8
          ],
          [
            137.80722720168774,
            36.700112158427395,
            1577.5
          ],
          [
            137.80704321727967,
            36.70000953324861,
            1590.5
          ],
          [
            137.80685923287157,
            36.699906908069835,
            1600.2
          ],
          [
            137.8066752484635,
            36.69980428289105,
            1610.5
          ],
          [
            137.8064912640554,
            36.699701657712275,
            1622.7
          ],
          [
            137.80630727964734,
            36.69959903253349,
            1633.4
          ],
          [
            137.80612329523925,
            36.699496407354715,
            1643.3
          ],
          [
            137.80593931083118,
            36.69939378217593,
            1655.4
          ],
          [
            137.8057553264231,
            36.699291156997155,
            1672.1
          ],
          [
            137.80559076915253,
            36.69919936813587,
            1682.5
          ]
        ]
      }
    },
    {
      "type": "Feature",
      "properties": {
        "name": "名木山第2ペア",
        "horizontal_dist_map": 244,
        "slope_dist_map": 256,
        "elevation_diff_map": 69.7
      },
      "geometry": {
        "type": "LineString",
        "coordinates": [
          [
            137.83873107213867,
            36.69928575865331,
            750.7
          ],
          [
            137.83850793675427,
            36.69927176458146,
            753.3
          ],
          [
            137.83828480136987,
            36.699257770509604,
            762.0
          ],
          [
            137.83806166598546,
            36.699243776437754,
            768.9
          ],
          [
            137.83783853060106,
            36.6992297823659,
            776.0
          ],
          [
            137.83761539521666,
            36.69921578829405,
            782.5
          ],
          [
            137.83739225983226,
            36.6992017942222,
            787.2
          ],
          [
            137.83716912444783,
            36.69918780015034,
            795.0
          ],
          [
            137.83694598906342,
            36.69917380607849,
            803.1
          ],
          [
            137.83672285367902,
            36.699159812006634,
            810.2
          ],
          [
            137.83649971829462,
            36.699145817934784,
            815.4
          ],
          [
            137.83627658291022,
            36.699131823862935,
            817.9
          ],
          [
            137.8360534475258,
            36.69911782979108,
            820.6
          ],
          [
            137.83599953623803,
            36.699114448711754,
            820.4
          ]
        ]
      }
    },
    {
      "type": "Feature",
      "properties": {
        "name": "八方リーゼンクワッド",
        "horizontal_dist_map": 1568,
        "slope_dist_map": 1677,
        "elevation_diff_map": 505.3
      },
      "geometry": {
        "type": "LineString",
        "coordinates": [
          [
            137.83254851699039,
            36.69617485288352,
            902.9
          ],
          [
            137.83232480744965,
            36.696180058605904,
            901.3
          ],
          [
            137.83210109790895,
            36.69618526432828,
            902.1
          ],
          [
            137.8318773883682,
            36.69619047005066,
            905.3
          ],
          [
            137.8316536788275,
            36.69619567577303,
            907.8
          ],
          [
            137.83142996928677,
            36.696200881495415,
            910.0
          ],
          [
            137.83120625974607,
            36.69620608721779,
            915.4
          ],
          [
            137.83098255020533,
            36.69621129294017,
            918.9
          ],
          [
            137.83075884066463,
            36.696216498662544,
            929.6
          ],
          [
            137.8305351311239,
            36.696221704384925,
            943.5
          ],
          [
            137.8303114215832,
            36.696226910107306,
            954.7
          ],
          [
            137.83008771204246,
            36.69623211582968,
            970.7
          ],
          [
            137.82986400250172,
            36.69623732155206,
            979.5
          ],
          [
            137.82964029296102,
            36.696242527274435,
            988.4
          ],
          [
            137.82941658342028,
            36.69624773299682,
            999.8
          ],
          [
            137.82919287387958,
            36.69625293871919,
            1017.3
          ],
          [
            137.82896916433884,
            36.69625814444157,
            1021.5
          ],
          [
            137.82874545479814,
            36.69626335016395,
            1036.1
          ],
          [
            137.8285217452574,
            36.69626855588633,
            1042.2
          ],
          [
            137.8282980357167,
            36.69627376160871,
            1045.3
          ],
          [
            137.82807432617597,
            36.69627896733108,
            1048.4
          ],
          [
            137.82785061663526,
            36.69628417305346,
            1048.6
          ],
          [
            137.82762690709453,
            36.69628937877584,
            1056.0
          ],
          [
            137.82740319755382,
            36.69629458449822,
            1061.8
          ],
          [
            137.8271794880131,
            36.69629979022059,
            1069.3
          ],
          [
            137.82695577847235,
            36.696304995942974,
            1077.3
          ],
          [
            137.82673206893165,
            36.696310201665355,
            1082.9
          ],
          [
            137.8265083593909,
            36.69631540738773,
            1089.5
          ],
          [
            137.8262846498502,
            36.69632061311011,
            1095.9
          ],
          [
            137.82606094030947,
            36.696325818832484,
            1104.6
          ],
          [
            137.82583723076877,
            36.696331024554866,
            1111.7
          ],
          [
            137.82561352122804,
            36.69633623027724,
            1118.4
          ],
          [
            137.82538981168733,
            36.69634143599962,
            1124.4
          ],
          [
            137.8251661021466,
            36.696346641722,
            1132.2
          ],
          [
            137.8249423926059,
            36.696351847444376,
            1141.2
          ],
          [
            137.82471868306516,
            36.69635705316676,
            1146.9
          ],
          [
            137.82449497352442,
            36.69636225888913,
            1150.7
          ],
          [
            137.82427126398372,
            36.69636746461151,
            1154.8
          ],
          [
            137.82404755444298,
            36.696372670333886,
            1158.9
          ],
          [
            137.82382384490228,
            36.69637787605627,
            1163.7
          ],
          [
            137.82360013536154,
            36.69638308177864,
            1168.9
          ],
          [
            137.82337642582084,
            36.69638828750102,
            1174.2
          ],
          [
            137.8231527162801,
            36.696393493223404,
            1178.0
          ],
          [
            137.8229290067394,
            36.69639869894578,
            1178.4
          ],
          [
            137.82270529719867,
            36.69640390466816,
            1187.0
          ],
          [
            137.82248158765796,
            36.69640911039053,
            1185.3
          ],
          [
            137.82225787811723,
            36.696414316112914,
            1184.1
          ],
          [
            137.8220341685765,
            36.69641952183529,
            1184.7
          ],
          [
            137.8218104590358,
            36.69642472755767,
            1188.5
          ],
          [
            137.82158674949505,
            36.696429933280044,
            1201.6
          ],
          [
            137.82136303995435,
            36.696435139002425,
            1211.8
          ],
          [
            137.82113933041362,
            36.696440344724806,
            1222.3
          ],
          [
            137.8209156208729,
            36.69644555044718,
            1231.3
          ],
          [
            137.82069191133218,
            36.69645075616956,
            1241.9
          ],
          [
            137.82046820179147,
            36.696455961891935,
            1255.4
          ],
          [
            137.82024449225074,
            36.696461167614316,
            1266.1
          ],
          [
            137.82002078271003,
            36.69646637333669,
            1269.7
          ],
          [
            137.8197970731693,
            36.69647157905907,
            1272.9
          ],
          [
            137.8195733636286,
            36.69647678478145,
            1273.6
          ],
          [
            137.81934965408786,
            36.69648199050383,
            1272.6
          ],
          [
            137.81912594454712,
            36.69648719622621,
            1276.8
          ],
          [
            137.81890223500642,
            36.69649240194858,
            1286.5
          ],
          [
            137.81867852546569,
            36.69649760767096,
            1299.3
          ],
          [
            137.81845481592498,
            36.69650281339334,
            1310.5
          ],
          [
            137.81823110638425,
            36.69650801911572,
            1321.6
          ],
          [
            137.81800739684354,
            36.69651322483809,
            1331.9
          ],
          [
            137.8177836873028,
            36.696518430560474,
            1343.9
          ],
          [
            137.8175599777621,
            36.696523636282855,
            1352.5
          ],
          [
            137.81733626822137,
            36.69652884200523,
            1357.9
          ],
          [
            137.81711255868066,
            36.69653404772761,
            1363.6
          ],
          [
            137.81688884913993,
            36.696539253449984,
            1369.8
          ],
          [
            137.8166651395992,
            36.696544459172365,
            1376.9
          ],
          [
            137.8164414300585,
            36.69654966489474,
            1384.5
          ],
          [
            137.81621772051776,
            36.69655487061712,
            1389.9
          ],
          [
            137.81599401097705,
            36.6965600763395,
            1395.0
          ],
          [
            137.81577030143632,
            36.696565282061876,
            1398.9
          ],
          [
            137.8155465918956,
            36.69657048778426,
            1402.3
          ],
          [
            137.81532288235488,
            36.69657569350663,
            1404.7
          ],
          [
            137.81509917281417,
            36.69658089922901,
            1408.1
          ],
          [
            137.8150003,
            36.6965832,
            1408.2
          ]
        ]
      }
    },
    {
      "type": "Feature",
      "properties": {
        "name": "国際第3ペアA",
        "horizontal_dist_map": 643,
        "slope_dist_map": 671,
        "elevation_diff_map": 182.6
      },
      "geometry": {
        "type": "LineString",
        "coordinates": [
          [
            137.82134338358455,
            36.70228166411655,
            1193.4
          ],
          [
            137.8211959911891,
            36.70214603760733,
            1193.2
          ],
          [
            137.82104859879365,
            36.702010411098115,
            1197.0
          ],
          [
            137.8209012063982,
            36.701874784588895,
            1203.0
          ],
          [
            137.82075381400273,
            36.701739158079675,
            1207.2
          ],
          [
            137.82060642160727,
            36.701603531570456,
            1213.3
          ],
          [
            137.82045902921183,
            36.70146790506124,
            1219.0
          ],
          [
            137.82031163681637,
            36.70133227855202,
            1225.3
          ],
          [
            137.8201642444209,
            36.7011966520428,
            1233.9
          ],
          [
            137.82001685202547,
            36.70106102553358,
            1241.5
          ],
          [
            137.81986945963,
            36.70092539902437,
            1250.9
          ],
          [
            137.81972206723455,
            36.70078977251515,
            1257.8
          ],
          [
            137.81957467483912,
            36.70065414600593,
            1265.9
          ],
          [
            137.81942728244366,
            36.70051851949672,
            1272.9
          ],
          [
            137.8192798900482,
            36.7003828929875,
            1278.8
          ],
          [
            137.81913249765273,
            36.70024726647828,
            1284.5
          ],
          [
            137.8189851052573,
            36.70011163996906,
            1289.7
          ],
          [
            137.81883771286184,
            36.699976013459846,
            1294.9
          ],
          [
            137.81869032046637,
            36.699840386950626,
            1299.0
          ],
          [
            137.81854292807094,
            36.699704760441406,
            1303.6
          ],
          [
            137.81839553567548,
            36.699569133932194,
            1308.3
          ],
          [
            137.81824814328002,
            36.699433507422974,
            1314.0
          ],
          [
            137.81810075088455,
            36.699297880913754,
            1318.7
          ],
          [
            137.81795335848912,
            36.699162254404534,
            1322.1
          ],
          [
            137.81780596609366,
            36.69902662789532,
            1326.8
          ],
          [
            137.8176585736982,
            36.6988910013861,
            1330.5
          ],
          [
            137.81751118130276,
            36.69875537487688,
            1335.0
          ],
          [
            137.8173637889073,
            36.69861974836766,
            1339.9
          ],
          [
            137.81721639651184,
            36.69848412185845,
            1347.1
          ],
          [
            137.8170690041164,
            36.69834849534923,
            1353.9
          ],
          [
            137.81692161172094,
            36.69821286884001,
            1361.1
          ],
          [
            137.81677421932548,
            36.6980772423308,
            1369.2
          ],
          [
            137.81662682693002,
            36.69794161582158,
            1375.7
          ],
          [
            137.81660321370106,
            36.69791988756479,
            1376.0
          ]
        ]
      }
    },
    {
      "type": "Feature",
      "properties": {
        "name": "パノラマペア",
        "horizontal_dist_map": 675,
        "slope_dist_map": 704,
        "elevation_diff_map": 184.7
      },
      "geometry": {
        "type": "LineString",
        "coordinates": [
          [
            137.82014304891814,
            36.70272985955058,
            1200.7
          ],
          [
            137.82000083997934,
            36.702590690530016,
            1202.1
          ],
          [
            137.81985863104057,
            36.702451521509445,
            1205.0
          ],
          [
            137.81971642210178,
            36.70231235248888,
            1210.5
          ],
          [
            137.81957421316298,
            36.70217318346832,
            1218.3
          ],
          [
            137.81943200422418,
            36.70203401444775,
            1224.4
          ],
          [
            137.8192897952854,
            36.701894845427184,
            1230.9
          ],
          [
            137.81914758634662,
            36.70175567640662,
            1238.5
          ],
          [
            137.81900537740782,
            36.701616507386056,
            1244.6
          ],
          [
            137.81886316846902,
            36.701477338365486,
            1250.6
          ],
          [
            137.81872095953025,
            36.70133816934492,
            1257.0
          ],
          [
            137.81857875059146,
            36.70119900032436,
            1261.0
          ],
          [
            137.81843654165266,
            36.70105983130379,
            1266.6
          ],
          [
            137.81829433271386,
            36.700920662283224,
            1270.7
          ],
          [
            137.8181521237751,
            36.70078149326266,
            1274.3
          ],
          [
            137.8180099148363,
            36.70064232424209,
            1275.1
          ],
          [
            137.8178677058975,
            36.700503155221526,
            1276.3
          ],
          [
            137.8177254969587,
            36.70036398620096,
            1282.8
          ],
          [
            137.81758328801993,
            36.70022481718039,
            1288.4
          ],
          [
            137.81744107908114,
            36.70008564815983,
            1293.3
          ],
          [
            137.81729887014234,
            36.699946479139264,
            1298.0
          ],
          [
            137.81715666120354,
            36.69980731011869,
            1303.4
          ],
          [
            137.81701445226477,
            36.69966814109813,
            1308.0
          ],
          [
            137.81687224332597,
            36.699528972077566,
            1312.5
          ],
          [
            137.81673003438718,
            36.699389803057,
            1315.4
          ],
          [
            137.81658782544838,
            36.69925063403643,
            1318.8
          ],
          [
            137.8164456165096,
            36.69911146501587,
            1324.8
          ],
          [
            137.8163034075708,
            36.698972295995304,
            1330.8
          ],
          [
            137.81616119863202,
            36.69883312697473,
            1339.6
          ],
          [
            137.81601898969322,
            36.69869395795417,
            1349.4
          ],
          [
            137.81587678075445,
            36.698554788933606,
            1356.9
          ],
          [
            137.81573457181565,
            36.698415619913035,
            1363.7
          ],
          [
            137.81559236287686,
            36.69827645089247,
            1374.6
          ],
          [
            137.81545015393806,
            36.69813728187191,
            1382.4
          ],
          [
            137.815338154236,
            36.69802767632268,
            1385.4
          ]
        ]
      }
    },
    {
      "type": "Feature",
      "properties": {
        "name": "白樺第1ペア",
        "horizontal_dist_map": 388,
        "slope_dist_map": 410,
        "elevation_diff_map": 119.7
      },
      "geometry": {
        "type": "LineString",
        "coordinates": [
          [
            137.83629774606422,
            36.70276641764558,
            774.8
          ],
          [
            137.83608664550354,
            36.702706527902016,
            776.4
          ],
          [
            137.83587554494287,
            36.702646638158456,
            785.5
          ],
          [
            137.8356644443822,
            36.70258674841489,
            795.5
          ],
          [
            137.83545334382154,
            36.70252685867133,
            805.6
          ],
          [
            137.83524224326086,
            36.702466968927766,
            811.1
          ],
          [
            137.8350311427002,
            36.702407079184205,
            813.4
          ],
          [
            137.8348200421395,
            36.702347189440644,
            817.5
          ],
          [
            137.83460894157884,
            36.702287299697076,
            820.6
          ],
          [
            137.83439784101816,
            36.702227409953515,
            825.1
          ],
          [
            137.83418674045748,
            36.702167520209954,
            829.3
          ],
          [
            137.8339756398968,
            36.702107630466394,
            838.1
          ],
          [
            137.83376453933616,
            36.702047740722826,
            846.2
          ],
          [
            137.83355343877548,
            36.701987850979265,
            854.1
          ],
          [
            137.8333423382148,
            36.701927961235704,
            862.3
          ],
          [
            137.83313123765413,
            36.70186807149214,
            869.6
          ],
          [
            137.83292013709345,
            36.70180818174858,
            876.5
          ],
          [
            137.83270903653278,
            36.701748292005014,
            884.2
          ],
          [
            137.8324979359721,
            36.70168840226145,
            890.4
          ],
          [
            137.83228683541142,
            36.70162851251789,
            895.1
          ],
          [
            137.83219192959123,
            36.701601587505394,
            894.5
          ]
        ]
      }
    },
    {
      "type": "Feature",
      "properties": {
        "name": "白樺第2ペア",
        "horizontal_dist_map": 296,
        "slope_dist_map": 310,
        "elevation_diff_map": 85.6
      },
      "geometry": {
        "type": "LineString",
        "coordinates": [
          [
            137.83497777981717,
            36.70370753208026,
            798.3
          ],
          [
            137.8347797690181,
            36.7036235106096,
            799.5
          ],
          [
            137.83458175821903,
            36.70353948913894,
            809.1
          ],
          [
            137.83438374741993,
            36.703455467668284,
            815.8
          ],
          [
            137.83418573662087,
            36.70337144619763,
            820.9
          ],
          [
            137.8339877258218,
            36.703287424726966,
            824.8
          ],
          [
            137.83378971502273,
            36.70320340325631,
            828.3
          ],
          [
            137.83359170422366,
            36.703119381785655,
            832.8
          ],
          [
            137.8333936934246,
            36.70303536031499,
            837.6
          ],
          [
            137.8331956826255,
            36.702951338844336,
            842.5
          ],
          [
            137.83299767182643,
            36.70286731737368,
            848.5
          ],
          [
            137.83279966102737,
            36.70278329590302,
            855.1
          ],
          [
            137.8326016502283,
            36.70269927443236,
            864.4
          ],
          [
            137.83240363942923,
            36.70261525296171,
            874.9
          ],
          [
            137.83220562863016,
            36.702531231491044,
            880.3
          ],
          [
            137.83204372968493,
            36.70246253328095,
            883.9
          ]
        ]
      }
    },
    {
      "type": "Feature",
      "properties": {
        "name": "国際第1ペア",
        "horizontal_dist_map": 1237,
        "slope_dist_map": 1330,
        "elevation_diff_map": 390.1
      },
      "geometry": {
        "type": "LineString",
        "coordinates": [
          [
            137.83425636520167,
            36.70654680563748,
            799.6
          ],
          [
            137.83405147555425,
            36.7064742556431,
            800.2
          ],
          [
            137.83384658590685,
            36.706401705648716,
            804.0
          ],
          [
            137.83364169625943,
            36.70632915565434,
            807.6
          ],
          [
            137.83343680661204,
            36.70625660565996,
            809.0
          ],
          [
            137.83323191696462,
            36.70618405566558,
            812.1
          ],
          [
            137.83302702731723,
            36.706111505671196,
            813.4
          ],
          [
            137.8328221376698,
            36.70603895567682,
            816.5
          ],
          [
            137.83261724802242,
            36.70596640568244,
            819.5
          ],
          [
            137.832412358375,
            36.70589385568806,
            824.1
          ],
          [
            137.8322074687276,
            36.705821305693675,
            824.8
          ],
          [
            137.83200257908018,
            36.7057487556993,
            830.3
          ],
          [
            137.8317976894328,
            36.70567620570492,
            833.9
          ],
          [
            137.83159279978537,
            36.70560365571054,
            838.5
          ],
          [
            137.83138791013798,
            36.705531105716155,
            841.8
          ],
          [
            137.83118302049056,
            36.705458555721776,
            846.7
          ],
          [
            137.83097813084316,
            36.7053860057274,
            859.5
          ],
          [
            137.83077324119574,
            36.70531345573301,
            872.0
          ],
          [
            137.83056835154835,
            36.705240905738634,
            881.0
          ],
          [
            137.83036346190093,
            36.705168355744256,
            892.1
          ],
          [
            137.8301585722535,
            36.70509580574988,
            902.8
          ],
          [
            137.82995368260612,
            36.70502325575549,
            913.2
          ],
          [
            137.8297487929587,
            36.704950705761114,
            924.0
          ],
          [
            137.8295439033113,
            36.704878155766735,
            933.0
          ],
          [
            137.82933901366388,
            36.70480560577236,
            944.4
          ],
          [
            137.8291341240165,
            36.70473305577797,
            955.4
          ],
          [
            137.82892923436907,
            36.70466050578359,
            965.2
          ],
          [
            137.82872434472168,
            36.704587955789215,
            974.6
          ],
          [
            137.82851945507426,
            36.70451540579483,
            983.4
          ],
          [
            137.82831456542687,
            36.70444285580045,
            986.5
          ],
          [
            137.82810967577944,
            36.70437030580607,
            984.6
          ],
          [
            137.82790478613205,
            36.704297755811695,
            982.7
          ],
          [
            137.82769989648463,
            36.70422520581731,
            979.4
          ],
          [
            137.82749500683724,
            36.70415265582293,
            976.0
          ],
          [
            137.82729011718982,
            36.70408010582855,
            981.5
          ],
          [
            137.82708522754243,
            36.704007555834174,
            996.4
          ],
          [
            137.826880337895,
            36.70393500583979,
            999.3
          ],
          [
            137.8266754482476,
            36.70386245584541,
            999.6
          ],
          [
            137.8264705586002,
            36.70378990585103,
            1001.0
          ],
          [
            137.8262656689528,
            36.703717355856654,
            1002.8
          ],
          [
            137.82606077930538,
            36.70364480586227,
            1013.9
          ],
          [
            137.82585588965796,
            36.70357225586789,
            1019.6
          ],
          [
            137.82565100001057,
            36.70349970587351,
            1031.2
          ],
          [
            137.82544611036315,
            36.703427155879126,
            1042.4
          ],
          [
            137.82524122071575,
            36.70335460588475,
            1053.3
          ],
          [
            137.82503633106833,
            36.70328205589037,
            1059.7
          ],
          [
            137.82483144142094,
            36.70320950589599,
            1063.8
          ],
          [
            137.82462655177352,
            36.703136955901606,
            1064.5
          ],
          [
            137.82442166212613,
            36.70306440590723,
            1066.8
          ],
          [
            137.8242167724787,
            36.70299185591285,
            1069.3
          ],
          [
            137.82401188283131,
            36.70291930591847,
            1066.5
          ],
          [
            137.8238069931839,
            36.702846755924085,
            1084.1
          ],
          [
            137.8236021035365,
            36.70277420592971,
            1097.5
          ],
          [
            137.82339721388908,
            36.70270165593533,
            1111.3
          ],
          [
            137.8231923242417,
            36.70262910594094,
            1116.0
          ],
          [
            137.82298743459427,
            36.702556555946565,
            1120.5
          ],
          [
            137.82278254494688,
            36.702484005952186,
            1125.5
          ],
          [
            137.82257765529945,
            36.70241145595781,
            1135.4
          ],
          [
            137.82237276565206,
            36.70233890596342,
            1145.5
          ],
          [
            137.82216787600464,
            36.702266355969044,
            1159.6
          ],
          [
            137.82196298635722,
            36.702193805974666,
            1172.7
          ],
          [
            137.82175809670983,
            36.70212125598029,
            1184.1
          ],
          [
            137.82158166946192,
            36.70205878432295,
            1189.7
          ]
        ]
      }
    },
    {
      "type": "Feature",
      "properties": {
        "name": "咲花第2ペア",
        "horizontal_dist_map": 547,
        "slope_dist_map": 559,
        "elevation_diff_map": 106.8
      },
      "geometry": {
        "type": "LineString",
        "coordinates": [
          [
            137.8329122,
            36.7086634,
            817.5
          ],
          [
            137.83268837919024,
            36.708661137484505,
            817.8
          ],
          [
            137.83246455838045,
            36.70865887496902,
            822.6
          ],
          [
            137.8322407375707,
            36.708656612453524,
            827.4
          ],
          [
            137.8320169167609,
            36.70865434993803,
            829.8
          ],
          [
            137.83179309595113,
            36.70865208742254,
            832.7
          ],
          [
            137.83156927514133,
            36.70864982490705,
            836.0
          ],
          [
            137.83134545433157,
            36.708647562391555,
            839.9
          ],
          [
            137.83112163352178,
            36.70864529987607,
            844.7
          ],
          [
            137.830897812712,
            36.708643037360574,
            848.1
          ],
          [
            137.83067399190222,
            36.70864077484508,
            851.3
          ],
          [
            137.83045017109245,
            36.70863851232959,
            855.0
          ],
          [
            137.83022635028266,
            36.7086362498141,
            857.9
          ],
          [
            137.8300025294729,
            36.708633987298604,
            862.1
          ],
          [
            137.8297787086631,
            36.70863172478312,
            866.4
          ],
          [
            137.82955488785333,
            36.70862946226762,
            870.9
          ],
          [
            137.82933106704354,
            36.70862719975213,
            874.0
          ],
          [
            137.82910724623378,
            36.70862493723664,
            877.6
          ],
          [
            137.82888342542398,
            36.70862267472115,
            881.2
          ],
          [
            137.82865960461422,
            36.708620412205654,
            885.5
          ],
          [
            137.82843578380442,
            36.70861814969017,
            891.0
          ],
          [
            137.82821196299466,
            36.70861588717467,
            894.6
          ],
          [
            137.82798814218486,
            36.70861362465918,
            900.1
          ],
          [
            137.8277643213751,
            36.70861136214369,
            903.8
          ],
          [
            137.8275405005653,
            36.7086090996282,
            906.8
          ],
          [
            137.82731667975554,
            36.708606837112704,
            910.2
          ],
          [
            137.82709285894575,
            36.70860457459722,
            914.0
          ],
          [
            137.82686903813598,
            36.70860231208172,
            920.1
          ],
          [
            137.82678012516467,
            36.70860141329588,
            924.3
          ]
        ]
      }
    },
    {
      "type": "Feature",
      "properties": {
        "name": "咲花第3トリプル",
        "horizontal_dist_map": 346,
        "slope_dist_map": 354,
        "elevation_diff_map": 72.1
      },
      "geometry": {
        "type": "LineString",
        "coordinates": [
          [
            137.8312036,
            36.709917,
            839.0
          ],
          [
            137.8309800115043,
            36.709908425776035,
            841.1
          ],
          [
            137.83075642300858,
            36.709899851552066,
            846.5
          ],
          [
            137.83053283451287,
            36.709891277328104,
            849.2
          ],
          [
            137.83030924601712,
            36.70988270310414,
            852.9
          ],
          [
            137.8300856575214,
            36.70987412888018,
            856.2
          ],
          [
            137.8298620690257,
            36.70986555465621,
            859.2
          ],
          [
            137.82963848052998,
            36.70985698043225,
            863.0
          ],
          [
            137.82941489203426,
            36.70984840620829,
            867.4
          ],
          [
            137.82919130353855,
            36.70983983198432,
            872.0
          ],
          [
            137.82896771504284,
            36.70983125776036,
            876.1
          ],
          [
            137.82874412654712,
            36.709822683536395,
            880.3
          ],
          [
            137.82852053805138,
            36.709814109312426,
            884.4
          ],
          [
            137.82829694955566,
            36.709805535088464,
            888.6
          ],
          [
            137.82807336105995,
            36.7097969608645,
            894.5
          ],
          [
            137.82784977256424,
            36.70978838664054,
            899.3
          ],
          [
            137.82762618406852,
            36.70977981241657,
            903.9
          ],
          [
            137.8274025955728,
            36.70977123819261,
            909.3
          ],
          [
            137.82733281154438,
            36.709768562098354,
            911.1
          ]
        ]
      }
    },
    {
      "type": "Feature",
      "properties": {
        "name": "咲花北尾根クワッド",
        "horizontal_dist_map": 1021,
        "slope_dist_map": 1103,
        "elevation_diff_map": 369.5
      },
      "geometry": {
        "type": "LineString",
        "coordinates": [
          [
            137.831032,
            36.71054464178301,
            845.8
          ],
          [
            137.83080850549143,
            36.710534585408304,
            845.0
          ],
          [
            137.83058501098284,
            36.71052452903359,
            847.3
          ],
          [
            137.83036151647428,
            36.710514472658886,
            849.9
          ],
          [
            137.8301380219657,
            36.710504416284174,
            853.6
          ],
          [
            137.82991452745713,
            36.71049435990947,
            856.6
          ],
          [
            137.82969103294855,
            36.710484303534756,
            859.9
          ],
          [
            137.82946753843999,
            36.71047424716005,
            862.9
          ],
          [
            137.8292440439314,
            36.71046419078534,
            866.4
          ],
          [
            137.82902054942284,
            36.71045413441063,
            869.8
          ],
          [
            137.82879705491425,
            36.71044407803592,
            873.5
          ],
          [
            137.8285735604057,
            36.710434021661214,
            877.5
          ],
          [
            137.8283500658971,
            36.7104239652865,
            881.5
          ],
          [
            137.82812657138854,
            36.7104139089118,
            884.9
          ],
          [
            137.82790307687995,
            36.71040385253709,
            890.5
          ],
          [
            137.8276795823714,
            36.71039379616238,
            896.3
          ],
          [
            137.8274560878628,
            36.71038373978767,
            902.3
          ],
          [
            137.82723259335424,
            36.71037368341296,
            911.0
          ],
          [
            137.82700909884568,
            36.710363627038255,
            923.7
          ],
          [
            137.8267856043371,
            36.71035357066354,
            937.4
          ],
          [
            137.82656210982853,
            36.71034351428884,
            945.2
          ],
          [
            137.82633861531994,
            36.710333457914125,
            958.0
          ],
          [
            137.82611512081138,
            36.71032340153942,
            962.9
          ],
          [
            137.8258916263028,
            36.71031334516471,
            962.2
          ],
          [
            137.82566813179423,
            36.71030328879,
            967.0
          ],
          [
            137.82544463728564,
            36.71029323241529,
            977.6
          ],
          [
            137.82522114277708,
            36.71028317604058,
            992.1
          ],
          [
            137.8249976482685,
            36.71027311966588,
            1005.4
          ],
          [
            137.82477415375993,
            36.710263063291166,
            1015.7
          ],
          [
            137.82455065925134,
            36.71025300691646,
            1021.9
          ],
          [
            137.82432716474278,
            36.71024295054175,
            1028.7
          ],
          [
            137.8241036702342,
            36.71023289416704,
            1036.3
          ],
          [
            137.82388017572563,
            36.71022283779233,
            1042.5
          ],
          [
            137.82365668121705,
            36.710212781417624,
            1053.7
          ],
          [
            137.82343318670848,
            36.71020272504291,
            1059.8
          ],
          [
            137.82320969219992,
            36.710192668668206,
            1062.1
          ],
          [
            137.82298619769134,
            36.710182612293494,
            1071.7
          ],
          [
            137.82276270318278,
            36.71017255591879,
            1084.9
          ],
          [
            137.8225392086742,
            36.710162499544076,
            1097.3
          ],
          [
            137.82231571416563,
            36.71015244316937,
            1115.5
          ],
          [
            137.82209221965704,
            36.710142386794665,
            1124.1
          ],
          [
            137.82186872514848,
            36.71013233041995,
            1133.0
          ],
          [
            137.8216452306399,
            36.71012227404525,
            1142.0
          ],
          [
            137.82142173613133,
            36.710112217670535,
            1154.3
          ],
          [
            137.82119824162274,
            36.71010216129583,
            1164.1
          ],
          [
            137.82097474711418,
            36.71009210492112,
            1174.5
          ],
          [
            137.8207512526056,
            36.71008204854641,
            1185.0
          ],
          [
            137.82052775809703,
            36.7100719921717,
            1190.4
          ],
          [
            137.82030426358844,
            36.71006193579699,
            1198.0
          ],
          [
            137.82008076907988,
            36.71005187942228,
            1204.8
          ],
          [
            137.81985727457132,
            36.710041823047575,
            1211.0
          ],
          [
            137.81963378006273,
            36.71003176667287,
            1214.7
          ],
          [
            137.8196167807023,
            36.71003100176844,
            1215.3
          ]
        ]
      }
    },
    {
      "type": "Feature",
      "properties": {
        "name": "北尾根第3ペア",
        "horizontal_dist_map": 441,
        "slope_dist_map": 459,
        "elevation_diff_map": 111.5
      },
      "geometry": {
        "type": "LineString",
        "coordinates": [
          [
            137.82203188175777,
            36.713261366142234,
            1106.3
          ],
          [
            137.82189770543638,
            36.71311710628406,
            1108.4
          ],
          [
            137.821763529115,
            36.71297284642589,
            1115.9
          ],
          [
            137.82162935279365,
            36.71282858656772,
            1121.2
          ],
          [
            137.82149517647227,
            36.71268432670954,
            1125.1
          ],
          [
            137.8213610001509,
            36.71254006685137,
            1128.3
          ],
          [
            137.8212268238295,
            36.7123958069932,
            1128.7
          ],
          [
            137.82109264750815,
            36.712251547135025,
            1130.3
          ],
          [
            137.82095847118677,
            36.71210728727685,
            1134.4
          ],
          [
            137.8208242948654,
            36.71196302741868,
            1136.5
          ],
          [
            137.820690118544,
            36.71181876756051,
            1138.1
          ],
          [
            137.82055594222263,
            36.711674507702334,
            1141.6
          ],
          [
            137.82042176590127,
            36.711530247844166,
            1147.9
          ],
          [
            137.8202875895799,
            36.71138598798599,
            1153.9
          ],
          [
            137.8201534132585,
            36.71124172812782,
            1160.3
          ],
          [
            137.82001923693713,
            36.71109746826964,
            1168.0
          ],
          [
            137.81988506061577,
            36.710953208411475,
            1178.0
          ],
          [
            137.8197508842944,
            36.7108089485533,
            1186.9
          ],
          [
            137.819616707973,
            36.710664688695125,
            1193.1
          ],
          [
            137.81948253165163,
            36.71052042883696,
            1199.7
          ],
          [
            137.81934835533025,
            36.71037616897878,
            1207.6
          ],
          [
            137.8192141790089,
            36.71023190912061,
            1214.0
          ],
          [
            137.8190800026875,
            36.710087649262434,
            1217.8
          ],
          [
            137.81906703528688,
            36.710073707343646,
            1217.8
          ]
        ]
      }
    },
    {
      "type": "Feature",
      "properties": {
        "name": "スカイライン第2ペア",
        "horizontal_dist_map": 885,
        "slope_dist_map": 950,
        "elevation_diff_map": 322.3
      },
      "geometry": {
        "type": "LineString",
        "coordinates": [
          [
            137.81652187421648,
            36.70788695032227,
            1171.6
          ],
          [
            137.81638779689504,
            36.70774263793919,
            1172.9
          ],
          [
            137.8162537195736,
            36.70759832555611,
            1177.9
          ],
          [
            137.81611964225215,
            36.707454013173034,
            1184.4
          ],
          [
            137.8159855649307,
            36.70730970078995,
            1193.9
          ],
          [
            137.81585148760928,
            36.70716538840687,
            1205.7
          ],
          [
            137.81571741028785,
            36.70702107602379,
            1215.9
          ],
          [
            137.8155833329664,
            36.706876763640715,
            1226.1
          ],
          [
            137.81544925564495,
            36.706732451257636,
            1236.0
          ],
          [
            137.81531517832352,
            36.70658813887456,
            1246.6
          ],
          [
            137.81518110100208,
            36.70644382649148,
            1260.0
          ],
          [
            137.81504702368065,
            36.706299514108395,
            1270.5
          ],
          [
            137.81491294635921,
            36.706155201725316,
            1276.0
          ],
          [
            137.81477886903775,
            36.70601088934224,
            1282.3
          ],
          [
            137.81464479171632,
            36.70586657695916,
            1291.9
          ],
          [
            137.81451071439488,
            36.70572226457608,
            1303.9
          ],
          [
            137.81437663707345,
            36.705577952193,
            1314.5
          ],
          [
            137.81424255975202,
            36.705433639809925,
            1322.2
          ],
          [
            137.81410848243058,
            36.70528932742685,
            1331.6
          ],
          [
            137.81397440510912,
            36.70514501504376,
            1341.1
          ],
          [
            137.8138403277877,
            36.70500070266068,
            1351.2
          ],
          [
            137.81370625046625,
            36.704856390277605,
            1358.9
          ],
          [
            137.81357217314482,
            36.70471207789453,
            1365.5
          ],
          [
            137.8134380958234,
            36.70456776551145,
            1371.7
          ],
          [
            137.81330401850192,
            36.70442345312837,
            1376.4
          ],
          [
            137.8131699411805,
            36.70427914074529,
            1381.7
          ],
          [
            137.81303586385906,
            36.70413482836221,
            1389.4
          ],
          [
            137.81290178653762,
            36.70399051597913,
            1393.7
          ],
          [
            137.8127677092162,
            36.70384620359605,
            1398.2
          ],
          [
            137.81263363189473,
            36.70370189121297,
            1404.2
          ],
          [
            137.8124995545733,
            36.703557578829894,
            1408.6
          ],
          [
            137.81236547725186,
            36.703413266446816,
            1413.6
          ],
          [
            137.81223139993043,
            36.70326895406374,
            1418.5
          ],
          [
            137.812097322609,
            36.70312464168065,
            1424.0
          ],
          [
            137.81196324528753,
            36.702980329297574,
            1429.5
          ],
          [
            137.8118291679661,
            36.702836016914496,
            1434.5
          ],
          [
            137.81169509064466,
            36.70269170453142,
            1437.7
          ],
          [
            137.81156101332323,
            36.70254739214834,
            1439.4
          ],
          [
            137.8114269360018,
            36.70240307976526,
            1441.4
          ],
          [
            137.81129285868033,
            36.70225876738218,
            1447.2
          ],
          [
            137.8111587813589,
            36.702114454999105,
            1454.0
          ],
          [
            137.81102470403746,
            36.70197014261602,
            1464.4
          ],
          [
            137.81089062671603,
            36.70182583023294,
            1473.2
          ],
          [
            137.8107565493946,
            36.70168151784986,
            1481.6
          ],
          [
            137.81062247207316,
            36.701537205466785,
            1490.4
          ],
          [
            137.8105843969982,
            36.701496223854505,
            1493.9
          ]
        ]
      }
    },
    {
      "type": "Feature",
      "properties": {
        "name": "グラートクワッド",
        "horizontal_dist_map": 546,
        "slope_dist_map": 572,
        "elevation_diff_map": 155.7
      },
      "geometry": {
        "type": "LineString",
        "coordinates": [
          [
            137.8053701,
            36.6974059,
            1672.7
          ],
          [
            137.80514717242494,
            36.69738995439706,
            1677.5
          ],
          [
            137.80492424484984,
            36.697374008794114,
            1687.3
          ],
          [
            137.80470131727478,
            36.697358063191174,
            1695.7
          ],
          [
            137.8044783896997,
            36.69734211758823,
            1705.2
          ],
          [
            137.80425546212462,
            36.69732617198529,
            1714.8
          ],
          [
            137.80403253454955,
            36.69731022638235,
            1723.0
          ],
          [
            137.80380960697445,
            36.6972942807794,
            1729.2
          ],
          [
            137.8035866793994,
            36.69727833517646,
            1736.0
          ],
          [
            137.80336375182432,
            36.697262389573524,
            1746.0
          ],
          [
            137.80314082424923,
            36.69724644397058,
            1755.4
          ],
          [
            137.80291789667416,
            36.69723049836764,
            1762.8
          ],
          [
            137.8026949690991,
            36.69721455276469,
            1768.2
          ],
          [
            137.802472041524,
            36.69719860716175,
            1774.1
          ],
          [
            137.80224911394893,
            36.69718266155881,
            1777.7
          ],
          [
            137.80202618637387,
            36.697166715955866,
            1783.3
          ],
          [
            137.80180325879877,
            36.69715077035293,
            1786.7
          ],
          [
            137.8015803312237,
            36.69713482474999,
            1789.9
          ],
          [
            137.8013574036486,
            36.69711887914704,
            1792.2
          ],
          [
            137.80113447607354,
            36.6971029335441,
            1795.1
          ],
          [
            137.80091154849848,
            36.697086987941155,
            1798.2
          ],
          [
            137.80068862092338,
            36.697071042338216,
            1800.7
          ],
          [
            137.80046569334831,
            36.697055096735276,
            1803.4
          ],
          [
            137.80024276577325,
            36.69703915113233,
            1807.9
          ],
          [
            137.80001983819815,
            36.69702320552939,
            1811.4
          ],
          [
            137.7997969106231,
            36.69700725992645,
            1816.2
          ],
          [
            137.79957398304802,
            36.696991314323505,
            1820.2
          ],
          [
            137.79935105547293,
            36.696975368720565,
            1825.8
          ],
          [
            137.7992746,
            36.6969699,
            1828.4
          ]
        ]
      }
    },
    {
      "type": "Feature",
      "properties": {
        "name": "名木山第3トリプルB",
        "horizontal_dist_map": 578,
        "slope_dist_map": 612,
        "elevation_diff_map": 177.0
      },
      "geometry": {
        "type": "LineString",
        "coordinates": [
          [
            137.83862932830363,
            36.698371762609085,
            748.8
          ],
          [
            137.8384085182114,
            36.69834236542266,
            750.0
          ],
          [
            137.8381877081192,
            36.69831296823624,
            756.9
          ],
          [
            137.83796689802696,
            36.698283571049814,
            767.3
          ],
          [
            137.83774608793473,
            36.69825417386339,
            777.8
          ],
          [
            137.83752527784253,
            36.698224776676966,
            788.0
          ],
          [
            137.8373044677503,
            36.69819537949054,
            794.6
          ],
          [
            137.8370836576581,
            36.69816598230412,
            801.5
          ],
          [
            137.83686284756587,
            36.698136585117695,
            807.7
          ],
          [
            137.83664203747364,
            36.69810718793127,
            808.4
          ],
          [
            137.83642122738144,
            36.69807779074484,
            810.5
          ],
          [
            137.8362004172892,
            36.698048393558416,
            813.3
          ],
          [
            137.83597960719698,
            36.69801899637199,
            818.8
          ],
          [
            137.83575879710477,
            36.69798959918557,
            826.8
          ],
          [
            137.83553798701254,
            36.697960201999145,
            832.7
          ],
          [
            137.8353171769203,
            36.69793080481272,
            841.2
          ],
          [
            137.8350963668281,
            36.6979014076263,
            851.5
          ],
          [
            137.83487555673588,
            36.69787201043987,
            858.9
          ],
          [
            137.83465474664368,
            36.69784261325345,
            866.3
          ],
          [
            137.83443393655145,
            36.697813216067026,
            876.7
          ],
          [
            137.83421312645922,
            36.6977838188806,
            887.6
          ],
          [
            137.83399231636702,
            36.69775442169418,
            892.6
          ],
          [
            137.8337715062748,
            36.697725024507754,
            894.0
          ],
          [
            137.83355069618256,
            36.69769562732133,
            895.5
          ],
          [
            137.83332988609035,
            36.69766623013491,
            898.4
          ],
          [
            137.83310907599812,
            36.69763683294848,
            901.3
          ],
          [
            137.8328882659059,
            36.69760743576206,
            903.9
          ],
          [
            137.8326674558137,
            36.697578038575635,
            918.5
          ],
          [
            137.83244664572146,
            36.697548641389204,
            925.6
          ],
          [
            137.83224667815125,
            36.69752201903748,
            925.8
          ]
        ]
      }
    },
    {
      "type": "Feature",
      "properties": {
        "name": "国際第3ペアB",
        "horizontal_dist_map": 641,
        "slope_dist_map": 668,
        "elevation_diff_map": 182.5
      },
      "geometry": {
        "type": "LineString",
        "coordinates": [
          [
            137.8212844432079,
            36.7023168222112,
            1193.4
          ],
          [
            137.821136890767,
            36.70218130853252,
            1193.2
          ],
          [
            137.8209893383261,
            36.70204579485385,
            1198.3
          ],
          [
            137.8208417858852,
            36.701910281175174,
            1203.1
          ],
          [
            137.82069423344427,
            36.701774767496495,
            1208.3
          ],
          [
            137.82054668100338,
            36.70163925381782,
            1213.6
          ],
          [
            137.82039912856246,
            36.701503740139145,
            1219.3
          ],
          [
            137.82025157612156,
            36.70136822646047,
            1226.9
          ],
          [
            137.82010402368064,
            36.70123271278179,
            1234.2
          ],
          [
            137.81995647123975,
            36.70109719910312,
            1243.1
          ],
          [
            137.81980891879883,
            36.70096168542444,
            1250.7
          ],
          [
            137.81966136635793,
            36.70082617174576,
            1258.9
          ],
          [
            137.819513813917,
            36.70069065806708,
            1266.0
          ],
          [
            137.81936626147612,
            36.70055514438841,
            1273.3
          ],
          [
            137.8192187090352,
            36.70041963070973,
            1278.7
          ],
          [
            137.8190711565943,
            36.70028411703105,
            1284.4
          ],
          [
            137.81892360415338,
            36.700148603352375,
            1290.0
          ],
          [
            137.8187760517125,
            36.7000130896737,
            1294.4
          ],
          [
            137.81862849927157,
            36.699877575995025,
            1298.6
          ],
          [
            137.81848094683068,
            36.699742062316346,
            1302.9
          ],
          [
            137.81833339438975,
            36.699606548637675,
            1308.2
          ],
          [
            137.81818584194886,
            36.699471034959,
            1313.4
          ],
          [
            137.81803828950794,
            36.69933552128032,
            1318.2
          ],
          [
            137.81789073706705,
            36.69920000760164,
            1322.2
          ],
          [
            137.81774318462612,
            36.69906449392297,
            1326.4
          ],
          [
            137.81759563218523,
            36.69892898024429,
            1330.4
          ],
          [
            137.8174480797443,
            36.69879346656561,
            1334.7
          ],
          [
            137.81730052730342,
            36.69865795288694,
            1340.7
          ],
          [
            137.8171529748625,
            36.69852243920826,
            1346.7
          ],
          [
            137.8170054224216,
            36.69838692552958,
            1354.5
          ],
          [
            137.81685786998068,
            36.698251411850904,
            1361.6
          ],
          [
            137.8167103175398,
            36.69811589817223,
            1368.8
          ],
          [
            137.81656276509887,
            36.697980384493555,
            1375.9
          ],
          [
            137.81655383620836,
            36.69797218410871,
            1375.9
          ]
        ]
      }
    }
  ]
}