{
  "type": "FeatureCollection",
  "features": [
    {
      "type": "Feature",
      "properties": {
        "name": "第2ペア",
        "horizontal_dist_map": 432,
        "slope_dist_map": 449,
        "elevation_diff_map": 119.0
      },
      "geometry": {
        "type": "LineString",
        "coordinates": [
          [
            133.0655102,
            35.068745,
            961.0
          ],
          [
            133.0653661982001,
            35.068609052500605,
            968.0
          ],
          [
            133.0652221964002,
            35.06847310500121,
            974.0
          ],
          [
            133.06507819460032,
            35.06833715750181,
            980.0
          ],
          [
            133.06493419280042,
            35.068201210002414,
            988.0
          ],
          [
            133.06479019100053,
            35.06806526250302,
            995.0
          ],
          [
            133.06464618920063,
            35.067929315003624,
            1001.0
          ],
          [
            133.06450218740073,
            35.06779336750423,
            1005.0
          ],
          [
            133.06435818560084,
            35.06765742000483,
            1009.0
          ],
          [
            133.06421418380094,
            35.06752147250543,
            1013.0
          ],
          [
            133.06407018200105,
            35.06738552500604,
            1017.0
          ],
          [
            133.06392618020115,
            35.067249577506644,
            1021.0
          ],
          [
            133.06378217840128,
            35.06711363000725,
            1027.0
          ],
          [
            133.0636381766014,
            35.06697768250785,
            1033.0
          ],
          [
            133.0634941748015,
            35.06684173500845,
            1037.0
          ],
          [
            133.0633501730016,
            35.06670578750906,
            1042.0
          ],
          [
            133.0632061712017,
            35.06656984000966,
            1048.0
          ],
          [
            133.0630621694018,
            35.06643389251027,
            1053.0
          ],
          [
            133.0629181676019,
            35.06629794501087,
            1060.0
          ],
          [
            133.062774165802,
            35.06616199751147,
            1066.0
          ],
          [
            133.06263016400212,
            35.06602605001208,
            1071.0
          ],
          [
            133.06248616220222,
            35.06589010251268,
            1077.0
          ],
          [
            133.0623976192297,
            35.06580651192068,
            1080.0
          ]
        ]
      }
    },
    {
      "type": "Feature",
      "properties": {
        "name": "第3ペア",
        "horizontal_dist_map": 676,
        "slope_dist_map": 700,
        "elevation_diff_map": 167.0
      },
      "geometry": {
        "type": "LineString",
        "coordinates": [
          [
            133.0717322663076,
            35.069787977808915,
            837.0
          ],
          [
            133.0715266699063,
            35.06972531322613,
            840.0
          ],
          [
            133.07132107350498,
            35.069662648643344,
            842.0
          ],
          [
            133.0711154771037,
            35.06959998406056,
            841.0
          ],
          [
            133.07090988070237,
            35.069537319477774,
            842.0
          ],
          [
            133.07070428430106,
            35.06947465489499,
            843.0
          ],
          [
            133.07049868789974,
            35.069411990312204,
            847.0
          ],
          [
            133.07029309149843,
            35.069349325729426,
            849.0
          ],
          [
            133.07008749509714,
            35.06928666114664,
            857.0
          ],
          [
            133.06988189869583,
            35.069223996563856,
            863.0
          ],
          [
            133.0696763022945,
            35.06916133198107,
            871.0
          ],
          [
            133.0694707058932,
            35.069098667398286,
            881.0
          ],
          [
            133.06926510949188,
            35.0690360028155,
            887.0
          ],
          [
            133.0690595130906,
            35.068973338232716,
            894.0
          ],
          [
            133.06885391668928,
            35.06891067364993,
            899.0
          ],
          [
            133.06864832028796,
            35.068848009067146,
            904.0
          ],
          [
            133.06844272388665,
            35.06878534448436,
            910.0
          ],
          [
            133.06823712748533,
            35.068722679901576,
            914.0
          ],
          [
            133.06803153108405,
            35.06866001531879,
            920.0
          ],
          [
            133.06782593468273,
            35.068597350736006,
            926.0
          ],
          [
            133.06762033828142,
            35.06853468615323,
            931.0
          ],
          [
            133.0674147418801,
            35.06847202157044,
            940.0
          ],
          [
            133.0672091454788,
            35.06840935698766,
            944.0
          ],
          [
            133.0670035490775,
            35.06834669240487,
            950.0
          ],
          [
            133.06679795267618,
            35.06828402782209,
            956.0
          ],
          [
            133.06659235627487,
            35.0682213632393,
            960.0
          ],
          [
            133.06638675987355,
            35.06815869865652,
            965.0
          ],
          [
            133.06618116347227,
            35.06809603407373,
            970.0
          ],
          [
            133.06597556707095,
            35.06803336949095,
            974.0
          ],
          [
            133.06576997066963,
            35.06797070490816,
            978.0
          ],
          [
            133.06556437426832,
            35.06790804032538,
            983.0
          ],
          [
            133.065358777867,
            35.06784537574259,
            990.0
          ],
          [
            133.06515318146572,
            35.06778271115981,
            996.0
          ],
          [
            133.0649475850644,
            35.06772004657703,
            1001.0
          ],
          [
            133.0647787512309,
            35.06766858701028,
            1004.0
          ]
        ]
      }
    }
  ]
}