{
  "type": "FeatureCollection",
  "features": [
    {
      "type": "Feature",
      "properties": {
        "name": "第3ペア",
        "horizontal_dist_map": 272,
        "slope_dist_map": 274,
        "elevation_diff_map": 33.0,
        "midstation": null
      },
      "geometry": {
        "type": "LineString",
        "coordinates": [
          [
            136.90838370716463,
            36.00567283904249,
            867.1
          ],
          [
            136.90859912035026,
            36.00571589626127,
            867.4
          ],
          [
            136.90881453353586,
            36.00575895348006,
            869.1
          ],
          [
            136.9090299467215,
            36.005802010698844,
            871.2
          ],
          [
            136.9092453599071,
            36.00584506791763,
            873.3
          ],
          [
            136.90946077309272,
            36.005888125136416,
            876.4
          ],
          [
            136.90967618627835,
            36.005931182355205,
            879.0
          ],
          [
            136.90989159946395,
            36.00597423957399,
            881.4
          ],
          [
            136.91010701264958,
            36.00601729679278,
            884.0
          ],
          [
            136.91032242583518,
            36.00606035401156,
            886.7
          ],
          [
            136.9105378390208,
            36.00610341123035,
            889.6
          ],
          [
            136.91075325220643,
            36.00614646844913,
            893.6
          ],
          [
            136.91096866539203,
            36.00618952566792,
            896.0
          ],
          [
            136.91118407857766,
            36.0062325828867,
            898.0
          ],
          [
            136.91131820716467,
            36.006259392777196,
            900.1
          ]
        ]
      }
    },
    {
      "type": "Feature",
      "properties": {
        "name": "第1クワッド",
        "horizontal_dist_map": 907,
        "slope_dist_map": 924,
        "elevation_diff_map": 157.5,
        "midstation": null
      },
      "geometry": {
        "type": "LineString",
        "coordinates": [
          [
            136.9087134192715,
            36.0051516,
            868.2
          ],
          [
            136.90893259201144,
            36.00517944096024,
            868.4
          ],
          [
            136.90915176475136,
            36.005207281920484,
            872.0
          ],
          [
            136.9093709374913,
            36.00523512288073,
            874.3
          ],
          [
            136.90959011023122,
            36.00526296384097,
            876.2
          ],
          [
            136.90980928297117,
            36.00529080480121,
            879.2
          ],
          [
            136.91002845571109,
            36.005318645761456,
            882.3
          ],
          [
            136.91024762845103,
            36.0053464867217,
            885.4
          ],
          [
            136.91046680119095,
            36.00537432768194,
            888.1
          ],
          [
            136.9106859739309,
            36.005402168642185,
            890.5
          ],
          [
            136.9109051466708,
            36.00543000960243,
            893.4
          ],
          [
            136.91112431941076,
            36.00545785056267,
            896.8
          ],
          [
            136.9113434921507,
            36.005485691522914,
            899.4
          ],
          [
            136.91156266489062,
            36.00551353248315,
            901.8
          ],
          [
            136.91178183763057,
            36.00554137344339,
            902.7
          ],
          [
            136.9120010103705,
            36.005569214403636,
            903.7
          ],
          [
            136.91222018311043,
            36.00559705536388,
            904.5
          ],
          [
            136.91243935585035,
            36.00562489632412,
            904.9
          ],
          [
            136.9126585285903,
            36.005652737284365,
            905.9
          ],
          [
            136.91287770133022,
            36.00568057824461,
            908.5
          ],
          [
            136.91309687407016,
            36.00570841920485,
            912.2
          ],
          [
            136.9133160468101,
            36.005736260165094,
            915.8
          ],
          [
            136.91353521955003,
            36.00576410112534,
            919.2
          ],
          [
            136.91375439228997,
            36.00579194208558,
            922.9
          ],
          [
            136.9139735650299,
            36.00581978304582,
            927.2
          ],
          [
            136.91419273776984,
            36.005847624006066,
            931.7
          ],
          [
            136.91441191050976,
            36.00587546496631,
            936.0
          ],
          [
            136.9146310832497,
            36.00590330592655,
            940.5
          ],
          [
            136.91485025598962,
            36.005931146886795,
            945.2
          ],
          [
            136.91506942872957,
            36.00595898784704,
            949.5
          ],
          [
            136.91528860146948,
            36.00598682880728,
            954.3
          ],
          [
            136.91550777420943,
            36.006014669767524,
            959.0
          ],
          [
            136.91572694694938,
            36.00604251072777,
            964.3
          ],
          [
            136.9159461196893,
            36.00607035168801,
            970.1
          ],
          [
            136.91616529242924,
            36.00609819264825,
            975.6
          ],
          [
            136.91638446516916,
            36.006126033608496,
            982.2
          ],
          [
            136.9166036379091,
            36.00615387456874,
            990.9
          ],
          [
            136.91682281064902,
            36.006181715528975,
            997.2
          ],
          [
            136.91704198338897,
            36.00620955648922,
            1002.2
          ],
          [
            136.9172611561289,
            36.00623739744946,
            1007.3
          ],
          [
            136.91748032886883,
            36.0062652384097,
            1011.0
          ],
          [
            136.91769950160878,
            36.00629307936995,
            1014.4
          ],
          [
            136.9179186743487,
            36.00632092033019,
            1017.1
          ],
          [
            136.91813784708864,
            36.00634876129043,
            1018.7
          ],
          [
            136.91835701982856,
            36.006376602250675,
            1020.8
          ],
          [
            136.9185761925685,
            36.00640444321092,
            1024.8
          ],
          [
            136.9186565718059,
            36.006414653582674,
            1025.7
          ]
        ]
      }
    },
    {
      "type": "Feature",
      "properties": {
        "name": "第2ペア",
        "horizontal_dist_map": 272,
        "slope_dist_map": 274,
        "elevation_diff_map": 32.8,
        "midstation": null
      },
      "geometry": {
        "type": "LineString",
        "coordinates": [
          [
            136.90840707055406,
            36.00562198268274,
            867.2
          ],
          [
            136.90862214904251,
            36.00566613032273,
            868.0
          ],
          [
            136.908837227531,
            36.00571027796272,
            869.6
          ],
          [
            136.90905230601945,
            36.00575442560271,
            871.6
          ],
          [
            136.9092673845079,
            36.0057985732427,
            873.8
          ],
          [
            136.90948246299638,
            36.00584272088269,
            876.9
          ],
          [
            136.90969754148483,
            36.00588686852268,
            879.7
          ],
          [
            136.90991261997328,
            36.00593101616267,
            882.2
          ],
          [
            136.91012769846176,
            36.00597516380266,
            884.8
          ],
          [
            136.91034277695022,
            36.00601931144265,
            887.4
          ],
          [
            136.9105578554387,
            36.00606345908264,
            890.3
          ],
          [
            136.91077293392715,
            36.00610760672263,
            894.0
          ],
          [
            136.9109880124156,
            36.00615175436262,
            896.2
          ],
          [
            136.91120309090408,
            36.00619590200261,
            898.4
          ],
          [
            136.91133440291367,
            36.006222855489995,
            900.0
          ]
        ]
      }
    }
  ]
}