{
  "type": "FeatureCollection",
  "features": [
    {
      "type": "Feature",
      "properties": {
        "name": "雲海ゴンドラ",
        "horizontal_dist_map": 2402,
        "slope_dist_map": 2471,
        "elevation_diff_map": 490.0,
        "midstation": null
      },
      "geometry": {
        "type": "LineString",
        "coordinates": [
          [
            142.6232633,
            43.0650021,
            586.7
          ],
          [
            142.62305821922226,
            43.06510111598125,
            587.0
          ],
          [
            142.62285313844453,
            43.065200131962506,
            588.0
          ],
          [
            142.62264805766677,
            43.065299147943755,
            590.0
          ],
          [
            142.62244297688903,
            43.065398163925,
            591.5
          ],
          [
            142.6222378961113,
            43.06549717990626,
            592.3
          ],
          [
            142.62203281533357,
            43.06559619588751,
            593.3
          ],
          [
            142.62182773455584,
            43.065695211868764,
            593.0
          ],
          [
            142.6216226537781,
            43.06579422785001,
            594.2
          ],
          [
            142.62141757300034,
            43.06589324383126,
            596.1
          ],
          [
            142.6212124922226,
            43.06599225981252,
            597.9
          ],
          [
            142.62100741144488,
            43.06609127579377,
            600.0
          ],
          [
            142.62080233066715,
            43.066190291775015,
            601.5
          ],
          [
            142.6205972498894,
            43.06628930775627,
            602.9
          ],
          [
            142.62039216911165,
            43.06638832373752,
            604.4
          ],
          [
            142.62018708833392,
            43.06648733971877,
            606.2
          ],
          [
            142.6199820075562,
            43.066586355700025,
            607.8
          ],
          [
            142.61977692677846,
            43.066685371681274,
            608.7
          ],
          [
            142.61957184600072,
            43.06678438766252,
            610.3
          ],
          [
            142.619366765223,
            43.06688340364378,
            611.7
          ],
          [
            142.61916168444523,
            43.06698241962503,
            613.5
          ],
          [
            142.6189566036675,
            43.06708143560628,
            614.4
          ],
          [
            142.61875152288977,
            43.06718045158753,
            616.7
          ],
          [
            142.61854644211203,
            43.06727946756878,
            618.5
          ],
          [
            142.6183413613343,
            43.06737848355004,
            619.6
          ],
          [
            142.61813628055654,
            43.067477499531286,
            621.3
          ],
          [
            142.6179311997788,
            43.067576515512535,
            623.0
          ],
          [
            142.61772611900108,
            43.06767553149379,
            624.5
          ],
          [
            142.61752103822334,
            43.06777454747504,
            625.9
          ],
          [
            142.6173159574456,
            43.06787356345629,
            627.2
          ],
          [
            142.61711087666788,
            43.067972579437544,
            626.9
          ],
          [
            142.61690579589012,
            43.06807159541879,
            628.9
          ],
          [
            142.6167007151124,
            43.06817061140004,
            631.5
          ],
          [
            142.61649563433465,
            43.0682696273813,
            632.5
          ],
          [
            142.61629055355692,
            43.06836864336255,
            634.8
          ],
          [
            142.6160854727792,
            43.0684676593438,
            636.7
          ],
          [
            142.61588039200143,
            43.06856667532505,
            639.8
          ],
          [
            142.6156753112237,
            43.0686656913063,
            642.6
          ],
          [
            142.61547023044596,
            43.068764707287556,
            646.2
          ],
          [
            142.61526514966823,
            43.068863723268805,
            648.2
          ],
          [
            142.6150600688905,
            43.068962739250054,
            649.8
          ],
          [
            142.61485498811277,
            43.06906175523131,
            653.6
          ],
          [
            142.614649907335,
            43.06916077121256,
            654.8
          ],
          [
            142.61444482655727,
            43.06925978719381,
            659.4
          ],
          [
            142.61423974577954,
            43.069358803175064,
            661.7
          ],
          [
            142.6140346650018,
            43.06945781915631,
            666.7
          ],
          [
            142.61382958422408,
            43.06955683513756,
            672.5
          ],
          [
            142.61362450344632,
            43.06965585111882,
            678.8
          ],
          [
            142.61341942266858,
            43.069754867100066,
            684.2
          ],
          [
            142.61321434189085,
            43.06985388308132,
            688.3
          ],
          [
            142.61300926111312,
            43.06995289906257,
            691.0
          ],
          [
            142.6128041803354,
            43.07005191504382,
            694.8
          ],
          [
            142.61259909955766,
            43.070150931025076,
            699.8
          ],
          [
            142.6123940187799,
            43.070249947006324,
            703.7
          ],
          [
            142.61218893800216,
            43.07034896298757,
            707.7
          ],
          [
            142.61198385722443,
            43.07044797896883,
            710.6
          ],
          [
            142.6117787764467,
            43.07054699495008,
            712.2
          ],
          [
            142.61157369566897,
            43.07064601093133,
            714.4
          ],
          [
            142.6113686148912,
            43.07074502691258,
            718.0
          ],
          [
            142.61116353411347,
            43.07084404289383,
            721.0
          ],
          [
            142.61095845333574,
            43.07094305887508,
            720.6
          ],
          [
            142.610753372558,
            43.07104207485634,
            718.9
          ],
          [
            142.61054829178028,
            43.071141090837585,
            724.7
          ],
          [
            142.61034321100254,
            43.07124010681884,
            731.6
          ],
          [
            142.61013813022478,
            43.07133912280009,
            735.5
          ],
          [
            142.60993304944705,
            43.07143813878134,
            740.2
          ],
          [
            142.60972796866932,
            43.071537154762595,
            742.8
          ],
          [
            142.6095228878916,
            43.071636170743844,
            745.2
          ],
          [
            142.60931780711385,
            43.07173518672509,
            745.4
          ],
          [
            142.6091127263361,
            43.07183420270635,
            747.2
          ],
          [
            142.60890764555836,
            43.0719332186876,
            750.9
          ],
          [
            142.60870256478063,
            43.072032234668846,
            753.7
          ],
          [
            142.6084974840029,
            43.0721312506501,
            756.4
          ],
          [
            142.60829240322516,
            43.07223026663135,
            761.4
          ],
          [
            142.60808732244743,
            43.0723292826126,
            765.4
          ],
          [
            142.60788224166967,
            43.072428298593856,
            771.0
          ],
          [
            142.60767716089194,
            43.072527314575105,
            776.7
          ],
          [
            142.6074720801142,
            43.07262633055636,
            782.8
          ],
          [
            142.60726699933647,
            43.07272534653761,
            787.4
          ],
          [
            142.60706191855874,
            43.07282436251886,
            792.6
          ],
          [
            142.60685683778098,
            43.072923378500114,
            797.3
          ],
          [
            142.60665175700325,
            43.07302239448136,
            801.3
          ],
          [
            142.60644667622552,
            43.07312141046261,
            805.9
          ],
          [
            142.60624159544778,
            43.07322042644387,
            812.3
          ],
          [
            142.60603651467005,
            43.07331944242512,
            819.6
          ],
          [
            142.60583143389232,
            43.073418458406366,
            826.9
          ],
          [
            142.60562635311456,
            43.07351747438762,
            833.0
          ],
          [
            142.60542127233683,
            43.07361649036887,
            838.5
          ],
          [
            142.6052161915591,
            43.07371550635012,
            844.8
          ],
          [
            142.60501111078136,
            43.073814522331375,
            850.0
          ],
          [
            142.60480603000363,
            43.073913538312624,
            858.4
          ],
          [
            142.60460094922587,
            43.07401255429388,
            865.1
          ],
          [
            142.60439586844814,
            43.07411157027513,
            872.1
          ],
          [
            142.6041907876704,
            43.07421058625638,
            878.8
          ],
          [
            142.60398570689267,
            43.07430960223763,
            885.3
          ],
          [
            142.60378062611494,
            43.07440861821888,
            891.6
          ],
          [
            142.6035755453372,
            43.07450763420013,
            895.1
          ],
          [
            142.60337046455945,
            43.07460665018139,
            900.7
          ],
          [
            142.60316538378171,
            43.074705666162636,
            908.3
          ],
          [
            142.60296030300398,
            43.074804682143885,
            913.3
          ],
          [
            142.60275522222625,
            43.07490369812514,
            918.2
          ],
          [
            142.60255014144852,
            43.07500271410639,
            922.8
          ],
          [
            142.60234506067076,
            43.07510173008764,
            928.9
          ],
          [
            142.60213997989302,
            43.075200746068894,
            935.8
          ],
          [
            142.6019348991153,
            43.07529976205014,
            942.9
          ],
          [
            142.60172981833756,
            43.0753987780314,
            948.6
          ],
          [
            142.60152473755983,
            43.07549779401265,
            957.3
          ],
          [
            142.6013196567821,
            43.0755968099939,
            962.9
          ],
          [
            142.60111457600433,
            43.07569582597515,
            970.3
          ],
          [
            142.6009094952266,
            43.0757948419564,
            975.9
          ],
          [
            142.60070441444887,
            43.07589385793765,
            983.8
          ],
          [
            142.60049933367114,
            43.075992873918906,
            991.8
          ],
          [
            142.6002942528934,
            43.076091889900155,
            999.3
          ],
          [
            142.60008917211564,
            43.076190905881404,
            1008.0
          ],
          [
            142.5998840913379,
            43.07628992186266,
            1015.7
          ],
          [
            142.59967901056018,
            43.07638893784391,
            1026.3
          ],
          [
            142.59947392978245,
            43.07648795382516,
            1036.1
          ],
          [
            142.59926884900472,
            43.076586969806414,
            1047.0
          ],
          [
            142.59906376822698,
            43.07668598578766,
            1055.2
          ],
          [
            142.59885868744922,
            43.07678500176892,
            1066.0
          ],
          [
            142.5986536066715,
            43.07688401775017,
            1075.2
          ],
          [
            142.5986329821106,
            43.07689397558804,
            1076.7
          ]
        ]
      }
    },
    {
      "type": "Feature",
      "properties": {
        "name": "タワーエキスプレス",
        "horizontal_dist_map": 1014,
        "slope_dist_map": 1056,
        "elevation_diff_map": 249.0,
        "midstation": null
      },
      "geometry": {
        "type": "LineString",
        "coordinates": [
          [
            142.6308493454147,
            43.06410212650648,
            606.0
          ],
          [
            142.6308383604014,
            43.064281973870685,
            605.8
          ],
          [
            142.6308273753881,
            43.06446182123489,
            608.3
          ],
          [
            142.6308163903748,
            43.0646416685991,
            611.2
          ],
          [
            142.63080540536149,
            43.06482151596332,
            616.4
          ],
          [
            142.6307944203482,
            43.065001363327525,
            618.6
          ],
          [
            142.63078343533488,
            43.06518121069173,
            620.5
          ],
          [
            142.6307724503216,
            43.06536105805594,
            624.1
          ],
          [
            142.63076146530827,
            43.06554090542015,
            628.0
          ],
          [
            142.63075048029498,
            43.06572075278436,
            630.0
          ],
          [
            142.63073949528166,
            43.06590060014857,
            632.1
          ],
          [
            142.63072851026837,
            43.066080447512775,
            634.7
          ],
          [
            142.63071752525505,
            43.06626029487699,
            636.4
          ],
          [
            142.63070654024176,
            43.0664401422412,
            637.7
          ],
          [
            142.63069555522847,
            43.06661998960541,
            640.0
          ],
          [
            142.63068457021515,
            43.066799836969615,
            642.5
          ],
          [
            142.63067358520186,
            43.06697968433382,
            645.9
          ],
          [
            142.63066260018854,
            43.06715953169803,
            648.4
          ],
          [
            142.63065161517525,
            43.06733937906224,
            650.8
          ],
          [
            142.63064063016193,
            43.067519226426455,
            654.4
          ],
          [
            142.63062964514864,
            43.06769907379066,
            657.7
          ],
          [
            142.63061866013533,
            43.06787892115487,
            660.1
          ],
          [
            142.63060767512204,
            43.06805876851908,
            664.2
          ],
          [
            142.63059669010872,
            43.06823861588329,
            666.8
          ],
          [
            142.63058570509543,
            43.0684184632475,
            669.7
          ],
          [
            142.6305747200821,
            43.068598310611705,
            672.7
          ],
          [
            142.63056373506882,
            43.06877815797591,
            678.2
          ],
          [
            142.6305527500555,
            43.06895800534013,
            678.9
          ],
          [
            142.6305417650422,
            43.06913785270434,
            684.6
          ],
          [
            142.63053078002892,
            43.069317700068545,
            690.1
          ],
          [
            142.6305197950156,
            43.06949754743275,
            694.1
          ],
          [
            142.6305088100023,
            43.06967739479696,
            698.7
          ],
          [
            142.630497824989,
            43.06985724216117,
            702.6
          ],
          [
            142.6304868399757,
            43.07003708952538,
            705.3
          ],
          [
            142.63047585496238,
            43.07021693688959,
            710.3
          ],
          [
            142.6304648699491,
            43.0703967842538,
            715.1
          ],
          [
            142.63045388493578,
            43.07057663161801,
            718.4
          ],
          [
            142.63044289992249,
            43.07075647898222,
            727.2
          ],
          [
            142.63043191490917,
            43.07093632634643,
            738.6
          ],
          [
            142.63042092989588,
            43.071116173710635,
            747.4
          ],
          [
            142.63040994488256,
            43.07129602107484,
            755.0
          ],
          [
            142.63039895986927,
            43.07147586843905,
            764.7
          ],
          [
            142.63038797485598,
            43.07165571580327,
            776.0
          ],
          [
            142.63037698984266,
            43.071835563167475,
            784.3
          ],
          [
            142.63036600482937,
            43.072015410531684,
            792.4
          ],
          [
            142.63035501981605,
            43.07219525789589,
            801.7
          ],
          [
            142.63034403480276,
            43.0723751052601,
            812.8
          ],
          [
            142.63033304978944,
            43.07255495262431,
            822.3
          ],
          [
            142.63032206477615,
            43.07273479998852,
            833.3
          ],
          [
            142.63031107976283,
            43.072914647352725,
            845.1
          ],
          [
            142.63030009474954,
            43.07309449471694,
            853.2
          ],
          [
            142.6302921288547,
            43.07322491287391,
            855.0
          ]
        ]
      }
    },
    {
      "type": "Feature",
      "properties": {
        "name": "ニポチェア",
        "horizontal_dist_map": 532,
        "slope_dist_map": 541,
        "elevation_diff_map": 87.9,
        "midstation": null
      },
      "geometry": {
        "type": "LineString",
        "coordinates": [
          [
            142.6317176454148,
            43.06397902551726,
            604.0
          ],
          [
            142.63175683499472,
            43.06415674538902,
            604.8
          ],
          [
            142.63179602457464,
            43.064334465260785,
            606.4
          ],
          [
            142.63183521415456,
            43.06451218513254,
            607.7
          ],
          [
            142.6318744037345,
            43.06468990500431,
            609.9
          ],
          [
            142.63191359331444,
            43.064867624876065,
            611.9
          ],
          [
            142.63195278289436,
            43.06504534474783,
            614.5
          ],
          [
            142.63199197247428,
            43.06522306461959,
            616.5
          ],
          [
            142.6320311620542,
            43.065400784491345,
            617.5
          ],
          [
            142.63207035163413,
            43.06557850436311,
            619.2
          ],
          [
            142.63210954121405,
            43.06575622423487,
            622.7
          ],
          [
            142.632148730794,
            43.06593394410663,
            627.2
          ],
          [
            142.63218792037392,
            43.06611166397839,
            629.3
          ],
          [
            142.63222710995385,
            43.06628938385015,
            632.6
          ],
          [
            142.63226629953377,
            43.06646710372191,
            634.3
          ],
          [
            142.6323054891137,
            43.06664482359367,
            637.5
          ],
          [
            142.6323446786936,
            43.066822543465435,
            640.3
          ],
          [
            142.63238386827356,
            43.06700026333719,
            643.3
          ],
          [
            142.6324230578535,
            43.06717798320896,
            646.7
          ],
          [
            142.6324622474334,
            43.067355703080715,
            650.2
          ],
          [
            142.63250143701333,
            43.06753342295247,
            654.5
          ],
          [
            142.63254062659325,
            43.06771114282424,
            660.9
          ],
          [
            142.63257981617318,
            43.067888862695995,
            666.3
          ],
          [
            142.6326190057531,
            43.06806658256776,
            669.8
          ],
          [
            142.63265819533305,
            43.06824430243952,
            675.7
          ],
          [
            142.63269738491297,
            43.06842202231128,
            682.5
          ],
          [
            142.6327365744929,
            43.06859974218304,
            688.3
          ],
          [
            142.6327605160927,
            43.068708314361054,
            691.9
          ]
        ]
      }
    },
    {
      "type": "Feature",
      "properties": {
        "name": "ロマンスチェア",
        "horizontal_dist_map": 621,
        "slope_dist_map": 642,
        "elevation_diff_map": 136.9,
        "midstation": null
      },
      "geometry": {
        "type": "LineString",
        "coordinates": [
          [
            142.623456,
            43.0653188,
            587.8
          ],
          [
            142.62359974715335,
            43.065464753664216,
            587.7
          ],
          [
            142.6237434943067,
            43.06561070732843,
            590.3
          ],
          [
            142.62388724146004,
            43.06575666099264,
            585.4
          ],
          [
            142.62403098861338,
            43.065902614656856,
            590.3
          ],
          [
            142.62417473576673,
            43.06604856832107,
            590.0
          ],
          [
            142.62431848292007,
            43.06619452198529,
            588.4
          ],
          [
            142.62446223007342,
            43.066340475649504,
            589.8
          ],
          [
            142.62460597722676,
            43.06648642931371,
            591.9
          ],
          [
            142.62474972438008,
            43.06663238297793,
            594.3
          ],
          [
            142.62489347153343,
            43.066778336642145,
            599.6
          ],
          [
            142.62503721868677,
            43.06692429030636,
            603.1
          ],
          [
            142.62518096584012,
            43.067070243970576,
            610.4
          ],
          [
            142.62532471299346,
            43.06721619763479,
            615.7
          ],
          [
            142.6254684601468,
            43.067362151299,
            621.8
          ],
          [
            142.62561220730015,
            43.06750810496322,
            626.7
          ],
          [
            142.6257559544535,
            43.06765405862743,
            631.9
          ],
          [
            142.62589970160684,
            43.06780001229165,
            637.9
          ],
          [
            142.62604344876019,
            43.067945965955865,
            641.9
          ],
          [
            142.62618719591353,
            43.06809191962007,
            647.9
          ],
          [
            142.62633094306688,
            43.06823787328429,
            653.4
          ],
          [
            142.62647469022022,
            43.068383826948505,
            659.2
          ],
          [
            142.62661843737357,
            43.06852978061272,
            667.7
          ],
          [
            142.6267621845269,
            43.06867573427694,
            674.7
          ],
          [
            142.62690593168026,
            43.068821687941146,
            679.5
          ],
          [
            142.62704967883357,
            43.06896764160536,
            688.0
          ],
          [
            142.62719342598692,
            43.06911359526958,
            694.9
          ],
          [
            142.62733717314026,
            43.06925954893379,
            701.3
          ],
          [
            142.6274809202936,
            43.06940550259801,
            708.8
          ],
          [
            142.62762466744695,
            43.069551456262225,
            714.5
          ],
          [
            142.6277684146003,
            43.069697409926434,
            719.4
          ],
          [
            142.62791216175364,
            43.06984336359065,
            724.7
          ],
          [
            142.62791987969305,
            43.0698512,
            724.7
          ]
        ]
      }
    },
    {
      "type": "Feature",
      "properties": {
        "name": "パウダーエキスプレス",
        "horizontal_dist_map": 1687,
        "slope_dist_map": 1790,
        "elevation_diff_map": 511.7,
        "midstation": null
      },
      "geometry": {
        "type": "LineString",
        "coordinates": [
          [
            142.615771,
            43.071348,
            660.5
          ],
          [
            142.6155519425728,
            43.07142937028214,
            662.7
          ],
          [
            142.61533288514562,
            43.071510740564285,
            664.6
          ],
          [
            142.6151138277184,
            43.071592110846424,
            667.5
          ],
          [
            142.61489477029122,
            43.07167348112857,
            669.9
          ],
          [
            142.61467571286403,
            43.07175485141071,
            671.9
          ],
          [
            142.61445665543684,
            43.071836221692855,
            674.0
          ],
          [
            142.61423759800965,
            43.071917591974994,
            675.7
          ],
          [
            142.61401854058244,
            43.07199896225713,
            678.4
          ],
          [
            142.61379948315525,
            43.07208033253928,
            681.1
          ],
          [
            142.61358042572806,
            43.07216170282142,
            683.2
          ],
          [
            142.61336136830087,
            43.072243073103564,
            685.4
          ],
          [
            142.61314231087368,
            43.0723244433857,
            688.0
          ],
          [
            142.61292325344647,
            43.07240581366784,
            691.3
          ],
          [
            142.61270419601928,
            43.07248718394999,
            694.5
          ],
          [
            142.6124851385921,
            43.07256855423213,
            697.4
          ],
          [
            142.6122660811649,
            43.07264992451427,
            701.2
          ],
          [
            142.61204702373772,
            43.07273129479641,
            705.3
          ],
          [
            142.6118279663105,
            43.07281266507856,
            708.1
          ],
          [
            142.6116089088833,
            43.0728940353607,
            711.7
          ],
          [
            142.61138985145612,
            43.072975405642836,
            715.2
          ],
          [
            142.61117079402894,
            43.07305677592498,
            718.6
          ],
          [
            142.61095173660175,
            43.07313814620712,
            720.4
          ],
          [
            142.61073267917453,
            43.07321951648927,
            722.6
          ],
          [
            142.61051362174734,
            43.073300886771406,
            724.6
          ],
          [
            142.61029456432016,
            43.073382257053545,
            725.9
          ],
          [
            142.61007550689297,
            43.07346362733569,
            728.2
          ],
          [
            142.60985644946578,
            43.07354499761783,
            728.7
          ],
          [
            142.60963739203856,
            43.073626367899976,
            730.8
          ],
          [
            142.60941833461138,
            43.073707738182115,
            732.6
          ],
          [
            142.6091992771842,
            43.07378910846426,
            731.6
          ],
          [
            142.608980219757,
            43.0738704787464,
            732.5
          ],
          [
            142.6087611623298,
            43.07395184902854,
            737.1
          ],
          [
            142.6085421049026,
            43.074033219310685,
            740.9
          ],
          [
            142.6083230474754,
            43.074114589592824,
            743.7
          ],
          [
            142.60810399004822,
            43.07419595987497,
            744.6
          ],
          [
            142.60788493262103,
            43.07427733015711,
            749.1
          ],
          [
            142.60766587519385,
            43.07435870043925,
            752.4
          ],
          [
            142.60744681776663,
            43.074440070721394,
            758.7
          ],
          [
            142.60722776033944,
            43.07452144100353,
            763.6
          ],
          [
            142.60700870291225,
            43.07460281128568,
            769.4
          ],
          [
            142.60678964548507,
            43.07468418156782,
            776.8
          ],
          [
            142.60657058805788,
            43.074765551849964,
            784.8
          ],
          [
            142.60635153063066,
            43.0748469221321,
            791.1
          ],
          [
            142.60613247320347,
            43.07492829241424,
            790.9
          ],
          [
            142.60591341577629,
            43.07500966269639,
            796.1
          ],
          [
            142.6056943583491,
            43.07509103297853,
            801.2
          ],
          [
            142.6054753009219,
            43.07517240326067,
            807.4
          ],
          [
            142.6052562434947,
            43.07525377354281,
            814.5
          ],
          [
            142.6050371860675,
            43.07533514382495,
            822.5
          ],
          [
            142.60481812864032,
            43.0754165141071,
            829.2
          ],
          [
            142.60459907121313,
            43.075497884389236,
            833.0
          ],
          [
            142.60438001378594,
            43.07557925467138,
            842.9
          ],
          [
            142.60416095635873,
            43.07566062495352,
            856.4
          ],
          [
            142.60394189893154,
            43.07574199523567,
            865.6
          ],
          [
            142.60372284150435,
            43.075823365517806,
            877.9
          ],
          [
            142.60350378407716,
            43.075904735799945,
            886.4
          ],
          [
            142.60328472664997,
            43.07598610608209,
            896.6
          ],
          [
            142.60306566922276,
            43.07606747636423,
            907.4
          ],
          [
            142.60284661179557,
            43.076148846646376,
            915.2
          ],
          [
            142.60262755436838,
            43.076230216928515,
            925.6
          ],
          [
            142.6024084969412,
            43.076311587210654,
            935.2
          ],
          [
            142.602189439514,
            43.0763929574928,
            945.5
          ],
          [
            142.6019703820868,
            43.07647432777494,
            955.5
          ],
          [
            142.6017513246596,
            43.076555698057085,
            962.6
          ],
          [
            142.60153226723241,
            43.076637068339224,
            972.4
          ],
          [
            142.60131320980523,
            43.07671843862137,
            981.9
          ],
          [
            142.60109415237804,
            43.07679980890351,
            992.4
          ],
          [
            142.60087509495082,
            43.07688117918565,
            1000.2
          ],
          [
            142.60065603752363,
            43.076962549467794,
            1009.0
          ],
          [
            142.60043698009645,
            43.07704391974993,
            1018.9
          ],
          [
            142.60021792266926,
            43.07712529003208,
            1027.0
          ],
          [
            142.59999886524207,
            43.07720666031422,
            1036.4
          ],
          [
            142.59977980781485,
            43.07728803059636,
            1045.5
          ],
          [
            142.59956075038767,
            43.0773694008785,
            1055.9
          ],
          [
            142.59934169296048,
            43.07745077116064,
            1067.0
          ],
          [
            142.5991226355333,
            43.07753214144279,
            1075.2
          ],
          [
            142.5989035781061,
            43.07761351172493,
            1090.0
          ],
          [
            142.5986845206789,
            43.07769488200707,
            1100.9
          ],
          [
            142.5984654632517,
            43.07777625228921,
            1114.3
          ],
          [
            142.5982464058245,
            43.07785762257135,
            1128.2
          ],
          [
            142.59802734839732,
            43.0779389928535,
            1140.3
          ],
          [
            142.59780829097014,
            43.078020363135636,
            1151.5
          ],
          [
            142.59758923354292,
            43.07810173341778,
            1162.4
          ],
          [
            142.59737017611573,
            43.07818310369992,
            1171.5
          ],
          [
            142.597287,
            43.078214,
            1172.2
          ]
        ]
      }
    },
    {
      "type": "Feature",
      "properties": {
        "name": "トマムエキスプレス",
        "horizontal_dist_map": 1351,
        "slope_dist_map": 1388,
        "elevation_diff_map": 269.4,
        "midstation": null
      },
      "geometry": {
        "type": "LineString",
        "coordinates": [
          [
            142.6220363,
            43.0651482,
            587.2
          ],
          [
            142.62180552024375,
            43.06520968338988,
            588.5
          ],
          [
            142.62157474048752,
            43.065271166779766,
            590.0
          ],
          [
            142.6213439607313,
            43.065332650169644,
            591.6
          ],
          [
            142.62111318097507,
            43.06539413355953,
            595.0
          ],
          [
            142.62088240121884,
            43.06545561694941,
            596.9
          ],
          [
            142.6206516214626,
            43.06551710033929,
            598.2
          ],
          [
            142.6204208417064,
            43.06557858372917,
            599.5
          ],
          [
            142.62019006195015,
            43.065640067119055,
            600.0
          ],
          [
            142.61995928219392,
            43.06570155050893,
            601.3
          ],
          [
            142.61972850243768,
            43.06576303389882,
            602.1
          ],
          [
            142.61949772268144,
            43.065824517288696,
            603.8
          ],
          [
            142.61926694292524,
            43.06588600067858,
            604.2
          ],
          [
            142.619036163169,
            43.06594748406846,
            605.1
          ],
          [
            142.61880538341276,
            43.066008967458345,
            607.0
          ],
          [
            142.61857460365653,
            43.06607045084822,
            608.0
          ],
          [
            142.61834382390032,
            43.06613193423811,
            608.7
          ],
          [
            142.61811304414408,
            43.066193417627986,
            609.5
          ],
          [
            142.61788226438784,
            43.06625490101787,
            610.1
          ],
          [
            142.6176514846316,
            43.06631638440775,
            610.8
          ],
          [
            142.61742070487537,
            43.06637786779763,
            610.5
          ],
          [
            142.61718992511916,
            43.06643935118751,
            612.3
          ],
          [
            142.61695914536293,
            43.06650083457739,
            615.3
          ],
          [
            142.6167283656067,
            43.066562317967275,
            618.3
          ],
          [
            142.61649758585045,
            43.06662380135715,
            621.0
          ],
          [
            142.61626680609425,
            43.06668528474704,
            624.0
          ],
          [
            142.616036026338,
            43.066746768136916,
            625.9
          ],
          [
            142.61580524658177,
            43.0668082515268,
            629.3
          ],
          [
            142.61557446682554,
            43.06686973491668,
            633.9
          ],
          [
            142.6153436870693,
            43.066931218306564,
            637.0
          ],
          [
            142.6151129073131,
            43.06699270169644,
            639.6
          ],
          [
            142.61488212755685,
            43.06705418508633,
            642.7
          ],
          [
            142.61465134780062,
            43.067115668476205,
            645.7
          ],
          [
            142.61442056804438,
            43.06717715186609,
            650.2
          ],
          [
            142.61418978828817,
            43.06723863525597,
            653.8
          ],
          [
            142.61395900853194,
            43.06730011864585,
            658.3
          ],
          [
            142.6137282287757,
            43.06736160203573,
            663.0
          ],
          [
            142.61349744901946,
            43.06742308542562,
            670.2
          ],
          [
            142.61326666926323,
            43.067484568815495,
            681.0
          ],
          [
            142.61303588950702,
            43.06754605220537,
            689.6
          ],
          [
            142.61280510975078,
            43.06760753559526,
            694.1
          ],
          [
            142.61257432999454,
            43.067669018985136,
            699.9
          ],
          [
            142.6123435502383,
            43.06773050237502,
            704.4
          ],
          [
            142.6121127704821,
            43.0677919857649,
            709.6
          ],
          [
            142.61188199072586,
            43.067853469154784,
            714.6
          ],
          [
            142.61165121096963,
            43.06791495254466,
            719.5
          ],
          [
            142.6114204312134,
            43.06797643593455,
            725.3
          ],
          [
            142.61118965145715,
            43.068037919324425,
            729.2
          ],
          [
            142.61095887170094,
            43.06809940271431,
            733.9
          ],
          [
            142.6107280919447,
            43.06816088610419,
            739.6
          ],
          [
            142.61049731218847,
            43.06822236949407,
            746.2
          ],
          [
            142.61026653243223,
            43.06828385288395,
            754.1
          ],
          [
            142.61003575267603,
            43.068345336273836,
            764.9
          ],
          [
            142.6098049729198,
            43.068406819663714,
            772.5
          ],
          [
            142.60957419316355,
            43.0684683030536,
            781.2
          ],
          [
            142.60934341340732,
            43.06852978644348,
            787.3
          ],
          [
            142.60911263365108,
            43.06859126983336,
            793.1
          ],
          [
            142.60888185389487,
            43.06865275322324,
            800.2
          ],
          [
            142.60865107413863,
            43.06871423661312,
            806.6
          ],
          [
            142.6084202943824,
            43.068775720003,
            813.3
          ],
          [
            142.60818951462616,
            43.06883720339288,
            819.8
          ],
          [
            142.60795873486995,
            43.06889868678277,
            824.2
          ],
          [
            142.60772795511372,
            43.068960170172645,
            828.9
          ],
          [
            142.60749717535748,
            43.06902165356253,
            833.6
          ],
          [
            142.60726639560124,
            43.06908313695241,
            839.5
          ],
          [
            142.60703561584504,
            43.06914462034229,
            844.7
          ],
          [
            142.6068048360888,
            43.06920610373217,
            847.1
          ],
          [
            142.60657405633256,
            43.069267587122056,
            852.6
          ],
          [
            142.6064382971667,
            43.06930375551854,
            856.6
          ]
        ]
      }
    }
  ]
}