{
  "type": "FeatureCollection",
  "features": [
    {
      "type": "Feature",
      "properties": {
        "name": "霧氷チェア",
        "horizontal_dist_map": 649,
        "slope_dist_map": 691,
        "elevation_diff_map": 230.7
      },
      "geometry": {
        "type": "LineString",
        "coordinates": [
          [
            140.0432546,
            37.6069333,
            1045.4
          ],
          [
            140.0431763296199,
            37.607102397146676,
            1053.6
          ],
          [
            140.04309800908277,
            37.60727147962188,
            1062.4
          ],
          [
            140.04301970748762,
            37.60744056775531,
            1073.2
          ],
          [
            140.04294140755204,
            37.607609656384476,
            1082.9
          ],
          [
            140.04286310761645,
            37.60777874501364,
            1092.8
          ],
          [
            140.04278481166654,
            37.607947834945996,
            1099.7
          ],
          [
            140.0427065163617,
            37.60811692508928,
            1106.6
          ],
          [
            140.04262822105687,
            37.60828601523256,
            1115.5
          ],
          [
            140.04254992683684,
            37.60845510574038,
            1123.3
          ],
          [
            140.0424716358272,
            37.60862419732705,
            1125.9
          ],
          [
            140.04239334481758,
            37.608793288913716,
            1131.6
          ],
          [
            140.04231505380795,
            37.60896238050039,
            1139.2
          ],
          [
            140.04223676264965,
            37.60913147204614,
            1145.0
          ],
          [
            140.04215846223087,
            37.609300561043604,
            1151.6
          ],
          [
            140.04208016181212,
            37.60946965004107,
            1157.9
          ],
          [
            140.0420018618548,
            37.60963873918683,
            1161.2
          ],
          [
            140.04192356566764,
            37.609807829544096,
            1165.3
          ],
          [
            140.04184526948046,
            37.60997691990137,
            1170.8
          ],
          [
            140.0417669710545,
            37.61014600970027,
            1178.1
          ],
          [
            140.04168867246702,
            37.61031509945888,
            1186.8
          ],
          [
            140.04161038330943,
            37.61048419205166,
            1191.5
          ],
          [
            140.04153209902375,
            37.6106532861087,
            1196.3
          ],
          [
            140.04145380022172,
            37.61082237595109,
            1203.9
          ],
          [
            140.041375475617,
            37.61099145830196,
            1213.2
          ],
          [
            140.04129715101226,
            37.61116054065283,
            1223.6
          ],
          [
            140.04121885653493,
            37.611329631945196,
            1232.5
          ],
          [
            140.04114056294904,
            37.61149872350214,
            1237.5
          ],
          [
            140.0410622769532,
            37.61166781734476,
            1243.1
          ],
          [
            140.04098399879015,
            37.61183691354617,
            1248.9
          ],
          [
            140.04090572062708,
            37.61200600974759,
            1255.9
          ],
          [
            140.04082741043757,
            37.61217509663658,
            1265.2
          ],
          [
            140.04074908137935,
            37.612344178039045,
            1273.4
          ],
          [
            140.0407134,
            37.6124212,
            1276.1
          ]
        ]
      }
    },
    {
      "type": "Feature",
      "properties": {
        "name": "バトウチェア",
        "horizontal_dist_map": 715,
        "slope_dist_map": 734,
        "elevation_diff_map": 140.0
      },
      "geometry": {
        "type": "LineString",
        "coordinates": [
          [
            140.0252595,
            37.5899279,
            873.7
          ],
          [
            140.02544686282494,
            37.58982669550586,
            869.1
          ],
          [
            140.0256342256499,
            37.58972549101173,
            865.5
          ],
          [
            140.02582158847483,
            37.5896242865176,
            860.9
          ],
          [
            140.0260089512998,
            37.58952308202346,
            855.5
          ],
          [
            140.02619631377289,
            37.58942187844233,
            850.1
          ],
          [
            140.02638367615782,
            37.58932067509003,
            843.8
          ],
          [
            140.02657103854276,
            37.58921947173773,
            838.9
          ],
          [
            140.0267584009277,
            37.58911826838542,
            831.6
          ],
          [
            140.02694576331263,
            37.58901706503312,
            825.3
          ],
          [
            140.02713312569756,
            37.58891586168082,
            820.2
          ],
          [
            140.0273204880825,
            37.588814658328516,
            815.7
          ],
          [
            140.0275078534466,
            37.58871345971215,
            811.2
          ],
          [
            140.02769521961707,
            37.58861226237771,
            806.0
          ],
          [
            140.02788258578755,
            37.588511065043264,
            799.6
          ],
          [
            140.02806995076753,
            37.58840986640533,
            794.9
          ],
          [
            140.0282573064912,
            37.588308657632595,
            790.8
          ],
          [
            140.02844466480136,
            37.588207452190524,
            784.7
          ],
          [
            140.02863202874357,
            37.588106254001154,
            781.7
          ],
          [
            140.02881939268582,
            37.588005055811784,
            780.3
          ],
          [
            140.02900675662804,
            37.587903857622415,
            783.0
          ],
          [
            140.02919412057025,
            37.587802659433045,
            783.1
          ],
          [
            140.02938148516648,
            37.58770146297307,
            780.0
          ],
          [
            140.02956885004562,
            37.587600267261266,
            775.5
          ],
          [
            140.0297562149248,
            37.587499071549466,
            770.0
          ],
          [
            140.02994357980393,
            37.58739787583766,
            758.6
          ],
          [
            140.0301309446831,
            37.58729668012586,
            753.5
          ],
          [
            140.0303183083523,
            37.58719548443736,
            749.5
          ],
          [
            140.03050567200478,
            37.58709428874918,
            751.7
          ],
          [
            140.03069303565726,
            37.586993093061,
            749.8
          ],
          [
            140.03088039930972,
            37.58689189737282,
            747.0
          ],
          [
            140.0310677629622,
            37.58679070168464,
            745.4
          ],
          [
            140.03125510544288,
            37.58668948210103,
            743.2
          ],
          [
            140.03144244293355,
            37.586588256885484,
            740.0
          ],
          [
            140.03162979186868,
            37.58648704526996,
            737.3
          ],
          [
            140.03181717199973,
            37.58638587072614,
            735.4
          ],
          [
            140.0319638,
            37.5863067,
            733.7
          ]
        ]
      }
    },
    {
      "type": "Feature",
      "properties": {
        "name": "ファーストチェア",
        "horizontal_dist_map": 671,
        "slope_dist_map": 684,
        "elevation_diff_map": 122.6
      },
      "geometry": {
        "type": "LineString",
        "coordinates": [
          [
            140.0348266,
            37.5929283,
            855.7
          ],
          [
            140.0348210332712,
            37.592748156064,
            851.1
          ],
          [
            140.03481546179995,
            37.59256801221753,
            847.4
          ],
          [
            140.03480987665435,
            37.5923878686292,
            844.1
          ],
          [
            140.03480429150872,
            37.59220772504088,
            840.8
          ],
          [
            140.03479870636312,
            37.59202758145255,
            836.4
          ],
          [
            140.03479311452597,
            37.59184743797872,
            832.8
          ],
          [
            140.03478752230046,
            37.59166729451154,
            829.5
          ],
          [
            140.03478193007496,
            37.591487151044355,
            826.7
          ],
          [
            140.034776335181,
            37.591307007622504,
            823.4
          ],
          [
            140.03477073663808,
            37.59112686426264,
            820.6
          ],
          [
            140.03476513809514,
            37.59094672090278,
            818.4
          ],
          [
            140.03475954453037,
            37.59076657743662,
            813.7
          ],
          [
            140.03475395608382,
            37.590586433861176,
            807.9
          ],
          [
            140.03474836763723,
            37.59040629028573,
            803.0
          ],
          [
            140.03474277919065,
            37.590226146710286,
            798.9
          ],
          [
            140.0347371957547,
            37.590046003018216,
            795.6
          ],
          [
            140.0347316127887,
            37.5898658593152,
            793.0
          ],
          [
            140.0347260298227,
            37.58968571561219,
            791.0
          ],
          [
            140.03472044685668,
            37.589505571909186,
            787.9
          ],
          [
            140.03471485166733,
            37.58932542843256,
            784.7
          ],
          [
            140.03470925487613,
            37.58914528498561,
            779.8
          ],
          [
            140.03470366892233,
            37.58896514131115,
            774.1
          ],
          [
            140.034698083277,
            37.58878499763021,
            769.2
          ],
          [
            140.03469249763162,
            37.58860485394928,
            764.8
          ],
          [
            140.03468690666475,
            37.58842471037038,
            760.7
          ],
          [
            140.03468129369983,
            37.58824456721329,
            757.5
          ],
          [
            140.03467568630532,
            37.58806442394117,
            755.9
          ],
          [
            140.03467008985228,
            37.5878842804476,
            753.3
          ],
          [
            140.03466451390472,
            37.5877041365416,
            747.3
          ],
          [
            140.03465893795718,
            37.5875239926356,
            742.2
          ],
          [
            140.0346533620096,
            37.58734384872961,
            738.3
          ],
          [
            140.0346477879496,
            37.58716370477717,
            734.7
          ],
          [
            140.03464221508497,
            37.58698356079531,
            733.3
          ],
          [
            140.0346389,
            37.5868764,
            733.1
          ]
        ]
      }
    },
    {
      "type": "Feature",
      "properties": {
        "name": "ホワイトバレーチェア",
        "horizontal_dist_map": 715,
        "slope_dist_map": 751,
        "elevation_diff_map": 212.9
      },
      "geometry": {
        "type": "LineString",
        "coordinates": [
          [
            140.0367618,
            37.601302,
            941.1
          ],
          [
            140.03658102211241,
            37.601410553267144,
            944.7
          ],
          [
            140.0364002129998,
            37.60151907373048,
            947.9
          ],
          [
            140.03621940879574,
            37.60162760026367,
            950.4
          ],
          [
            140.03603860459168,
            37.601736126796865,
            952.9
          ],
          [
            140.03585780038762,
            37.60184465333006,
            961.6
          ],
          [
            140.03567699618358,
            37.60195317986325,
            966.8
          ],
          [
            140.0354961927356,
            37.60206170722709,
            972.5
          ],
          [
            140.03531540953642,
            37.602170256836914,
            978.2
          ],
          [
            140.03513461648765,
            37.602278796266766,
            982.9
          ],
          [
            140.03495379800972,
            37.60238730941464,
            989.7
          ],
          [
            140.0347729795318,
            37.60249582256252,
            997.9
          ],
          [
            140.03459216105387,
            37.60260433571039,
            1007.3
          ],
          [
            140.03441137065298,
            37.602712878942086,
            1013.4
          ],
          [
            140.0342305951782,
            37.60282143816677,
            1019.0
          ],
          [
            140.0340497794805,
            37.602929955627445,
            1026.1
          ],
          [
            140.0338689616519,
            37.603038470875575,
            1031.9
          ],
          [
            140.03368814382327,
            37.603146986123704,
            1037.6
          ],
          [
            140.0335073381419,
            37.60325551508021,
            1037.7
          ],
          [
            140.03332653788846,
            37.60336405016221,
            1039.9
          ],
          [
            140.033145737635,
            37.60347258524421,
            1043.9
          ],
          [
            140.03296493738156,
            37.60358112032621,
            1046.5
          ],
          [
            140.03278413712812,
            37.60368965540822,
            1049.6
          ],
          [
            140.03260333687467,
            37.60379819049022,
            1056.6
          ],
          [
            140.03242253449045,
            37.60390672422391,
            1070.1
          ],
          [
            140.03224172998785,
            37.60401525661712,
            1077.9
          ],
          [
            140.03206092548524,
            37.60412378901032,
            1086.3
          ],
          [
            140.03188012098263,
            37.60423232140353,
            1093.5
          ],
          [
            140.03169931648003,
            37.604340853796735,
            1100.4
          ],
          [
            140.03151851197742,
            37.60444938618995,
            1108.1
          ],
          [
            140.03133770747482,
            37.604557918583154,
            1113.9
          ],
          [
            140.031156899893,
            37.60466644868368,
            1120.1
          ],
          [
            140.0309760907197,
            37.604774977599234,
            1126.4
          ],
          [
            140.0307952815464,
            37.60488350651478,
            1133.4
          ],
          [
            140.0306144723731,
            37.60499203543033,
            1142.6
          ],
          [
            140.0304336642192,
            37.60510056614762,
            1149.4
          ],
          [
            140.0302945,
            37.6051841,
            1154.0
          ]
        ]
      }
    },
    {
      "type": "Feature",
      "properties": {
        "name": "アルツエクスプレス",
        "horizontal_dist_map": 1827,
        "slope_dist_map": 1905,
        "elevation_diff_map": 401.4
      },
      "geometry": {
        "type": "LineString",
        "coordinates": [
          [
            140.03399935454746,
            37.5868346001532,
            732.9
          ],
          [
            140.03396639645047,
            37.58701287983909,
            732.4
          ],
          [
            140.03393343835347,
            37.58719115952497,
            735.2
          ],
          [
            140.0339004802565,
            37.58736943921085,
            738.5
          ],
          [
            140.0338675221595,
            37.58754771889674,
            740.5
          ],
          [
            140.03383456406252,
            37.58772599858262,
            744.1
          ],
          [
            140.03380160596552,
            37.58790427826851,
            746.8
          ],
          [
            140.03376858183148,
            37.58808255021726,
            746.6
          ],
          [
            140.0337354945843,
            37.58826081477146,
            745.2
          ],
          [
            140.0337024073371,
            37.58843907932565,
            744.1
          ],
          [
            140.03366931910966,
            37.588617343770984,
            746.0
          ],
          [
            140.0336362303733,
            37.5887956081598,
            748.2
          ],
          [
            140.03360313998076,
            37.58897387236454,
            752.6
          ],
          [
            140.0335700481585,
            37.58915213641037,
            756.4
          ],
          [
            140.03353695633626,
            37.5893304004562,
            763.9
          ],
          [
            140.03350386451402,
            37.58950866450203,
            773.1
          ],
          [
            140.03347077269177,
            37.589686928547856,
            782.9
          ],
          [
            140.03343768086953,
            37.589865192593685,
            789.5
          ],
          [
            140.03340458904728,
            37.59004345663951,
            795.6
          ],
          [
            140.03337149722503,
            37.59022172068534,
            799.1
          ],
          [
            140.03333840242723,
            37.59039998439182,
            798.2
          ],
          [
            140.03330530437083,
            37.59057824772667,
            796.6
          ],
          [
            140.03327220631442,
            37.590756511061514,
            798.1
          ],
          [
            140.03323911467507,
            37.59093477515316,
            801.4
          ],
          [
            140.03320604133918,
            37.591113041403425,
            808.7
          ],
          [
            140.03317296757507,
            37.591291307606234,
            813.3
          ],
          [
            140.03313989207098,
            37.5914695736162,
            816.2
          ],
          [
            140.0331068165669,
            37.59164783962616,
            826.0
          ],
          [
            140.03307374106282,
            37.59182610563613,
            833.1
          ],
          [
            140.03304066555873,
            37.59200437164609,
            840.6
          ],
          [
            140.03300759005464,
            37.59218263765606,
            848.0
          ],
          [
            140.0329744898558,
            37.5923609007764,
            852.4
          ],
          [
            140.03294138397132,
            37.592539163231436,
            858.1
          ],
          [
            140.03290827867187,
            37.592717425755424,
            865.4
          ],
          [
            140.03287519638837,
            37.59289569099286,
            866.9
          ],
          [
            140.032842114533,
            37.593073956292095,
            864.7
          ],
          [
            140.0328090326776,
            37.59325222159132,
            863.5
          ],
          [
            140.0327759508222,
            37.593430486890554,
            862.2
          ],
          [
            140.03274286896684,
            37.59360875218979,
            865.4
          ],
          [
            140.03270978711143,
            37.59378701748902,
            868.9
          ],
          [
            140.03267670298533,
            37.5939652825294,
            871.7
          ],
          [
            140.03264361317008,
            37.594143546909436,
            874.0
          ],
          [
            140.0326105134431,
            37.59432181013182,
            880.4
          ],
          [
            140.03257741371613,
            37.594500073354205,
            885.5
          ],
          [
            140.03254431398915,
            37.594678336576585,
            891.2
          ],
          [
            140.0325112163076,
            37.59485660004297,
            897.4
          ],
          [
            140.03247812600256,
            37.59503486438927,
            903.3
          ],
          [
            140.0324450356975,
            37.59521312873558,
            908.4
          ],
          [
            140.03241194539243,
            37.59539139308189,
            913.9
          ],
          [
            140.0323788550874,
            37.59556965742819,
            919.2
          ],
          [
            140.0323457696824,
            37.59574792236355,
            923.7
          ],
          [
            140.03231268533082,
            37.59592618742553,
            929.1
          ],
          [
            140.03227960097928,
            37.59610445248752,
            934.2
          ],
          [
            140.0322465166277,
            37.596282717549514,
            938.0
          ],
          [
            140.03221341807387,
            37.596460980954994,
            940.8
          ],
          [
            140.03218031845066,
            37.596639244235746,
            942.9
          ],
          [
            140.03214721882745,
            37.596817507516505,
            945.0
          ],
          [
            140.03211415063583,
            37.596995774498204,
            950.3
          ],
          [
            140.03208108971586,
            37.59717404233611,
            955.9
          ],
          [
            140.03204799482015,
            37.59735230618974,
            961.2
          ],
          [
            140.0320148830072,
            37.597530568059526,
            966.3
          ],
          [
            140.03198177119427,
            37.59770882992931,
            973.6
          ],
          [
            140.03194865938136,
            37.59788709179909,
            978.0
          ],
          [
            140.03191557509544,
            37.59806535691253,
            979.7
          ],
          [
            140.03188250596943,
            37.598243623812344,
            980.3
          ],
          [
            140.0318494368434,
            37.59842189071216,
            981.5
          ],
          [
            140.0318163501388,
            37.59860015555323,
            981.2
          ],
          [
            140.03178325363422,
            37.59877841924656,
            979.5
          ],
          [
            140.03175016384333,
            37.59895668373321,
            976.2
          ],
          [
            140.03171708362558,
            37.5991349493511,
            975.9
          ],
          [
            140.0316840034078,
            37.59931321496899,
            980.7
          ],
          [
            140.03165092122595,
            37.59949148035765,
            978.6
          ],
          [
            140.0316178198911,
            37.59966974351112,
            972.8
          ],
          [
            140.03158471855627,
            37.59984800666459,
            967.8
          ],
          [
            140.03155161722142,
            37.60002626981806,
            975.7
          ],
          [
            140.03151851588657,
            37.600204532971524,
            978.6
          ],
          [
            140.03148541455172,
            37.60038279612499,
            984.9
          ],
          [
            140.03145232754127,
            37.6005610609717,
            992.4
          ],
          [
            140.03141925016976,
            37.6007393269578,
            1007.0
          ],
          [
            140.03138617279825,
            37.600917592943894,
            1021.9
          ],
          [
            140.0313530888038,
            37.601095858157024,
            1034.2
          ],
          [
            140.03131999544718,
            37.601274122277495,
            1044.6
          ],
          [
            140.03128690209056,
            37.601452386397966,
            1056.8
          ],
          [
            140.0312538054209,
            37.601630650131455,
            1066.3
          ],
          [
            140.0312206943555,
            37.60180891218345,
            1076.5
          ],
          [
            140.03118758329012,
            37.60198717423545,
            1087.8
          ],
          [
            140.03115447222473,
            37.602165436287436,
            1100.2
          ],
          [
            140.03112138662934,
            37.602343701339315,
            1108.0
          ],
          [
            140.03108831453733,
            37.60252196798164,
            1115.7
          ],
          [
            140.03105524696994,
            37.60270023516046,
            1124.0
          ],
          [
            140.03102218163136,
            37.60287850260355,
            1130.5
          ],
          [
            140.03098909396755,
            37.6030567674278,
            1133.9
          ],
          [
            140.030977,
            37.6031219,
            1134.3
          ]
        ]
      }
    },
    {
      "type": "Feature",
      "properties": {
        "name": "ブラックバレーエクスプレス",
        "horizontal_dist_map": 708,
        "slope_dist_map": 748,
        "elevation_diff_map": 227.4
      },
      "geometry": {
        "type": "LineString",
        "coordinates": [
          [
            140.0371143,
            37.6032597,
            972.2
          ],
          [
            140.0370481077366,
            37.60343203098004,
            973.4
          ],
          [
            140.03698191547318,
            37.60360436196007,
            982.6
          ],
          [
            140.03691572672778,
            37.60377669384609,
            989.0
          ],
          [
            140.03684954056405,
            37.60394902639696,
            994.7
          ],
          [
            140.0367833544003,
            37.60412135894782,
            1000.6
          ],
          [
            140.03671717983383,
            37.604293694373254,
            1003.7
          ],
          [
            140.03665101602775,
            37.604466032465815,
            1008.2
          ],
          [
            140.03658485222167,
            37.604638370558376,
            1012.9
          ],
          [
            140.03651868841558,
            37.60481070865094,
            1015.3
          ],
          [
            140.0364525082431,
            37.60498304293901,
            1020.5
          ],
          [
            140.03638632556368,
            37.60515537664434,
            1028.9
          ],
          [
            140.03632014288428,
            37.60532771034966,
            1037.7
          ],
          [
            140.03625396020487,
            37.605500044054985,
            1045.5
          ],
          [
            140.03618777752547,
            37.605672377760314,
            1053.7
          ],
          [
            140.03612159484607,
            37.605844711465636,
            1060.7
          ],
          [
            140.03605541216666,
            37.60601704517096,
            1066.5
          ],
          [
            140.03598922948726,
            37.60618937887629,
            1074.4
          ],
          [
            140.03592304637272,
            37.60636171249022,
            1081.7
          ],
          [
            140.03585685581012,
            37.606534044539856,
            1087.4
          ],
          [
            140.03579066524753,
            37.60670637658949,
            1090.9
          ],
          [
            140.03572447468494,
            37.60687870863913,
            1097.3
          ],
          [
            140.03565828412235,
            37.607051040688766,
            1101.6
          ],
          [
            140.03559209355976,
            37.6072233727384,
            1110.7
          ],
          [
            140.03552590299716,
            37.60739570478803,
            1117.1
          ],
          [
            140.03545971243457,
            37.60756803683767,
            1123.7
          ],
          [
            140.03539351880818,
            37.607740368246176,
            1127.7
          ],
          [
            140.03532732327244,
            37.60791269925514,
            1129.6
          ],
          [
            140.0352611277367,
            37.60808503026409,
            1133.1
          ],
          [
            140.03519494541325,
            37.60825736456978,
            1140.7
          ],
          [
            140.03512877340847,
            37.608429701450184,
            1150.9
          ],
          [
            140.0350626014037,
            37.60860203833059,
            1162.3
          ],
          [
            140.03499642939892,
            37.60877437521099,
            1169.0
          ],
          [
            140.03493025739414,
            37.608946712091395,
            1179.6
          ],
          [
            140.03486408538936,
            37.6091190489718,
            1188.9
          ],
          [
            140.0347979026547,
            37.609291383258785,
            1196.9
          ],
          [
            140.0347706,
            37.6093624,
            1199.6
          ]
        ]
      }
    },
    {
      "type": "Feature",
      "properties": {
        "name": "フレンドリーキャットエクスプレス",
        "horizontal_dist_map": 784,
        "slope_dist_map": 796,
        "elevation_diff_map": 108.6
      },
      "geometry": {
        "type": "LineString",
        "coordinates": [
          [
            140.0375907784233,
            37.6263488,
            1030.8
          ],
          [
            140.03752747671984,
            37.626175779698436,
            1030.8
          ],
          [
            140.0374641750164,
            37.62600275939687,
            1036.6
          ],
          [
            140.03740087331298,
            37.6258297390953,
            1041.2
          ],
          [
            140.03733757160953,
            37.625656718793735,
            1044.1
          ],
          [
            140.03727426990608,
            37.62548369849216,
            1046.6
          ],
          [
            140.03721096820263,
            37.625310678190594,
            1049.5
          ],
          [
            140.0371476664992,
            37.62513765788903,
            1054.3
          ],
          [
            140.03708436479576,
            37.62496463758746,
            1057.3
          ],
          [
            140.0370210630923,
            37.624791617285894,
            1056.4
          ],
          [
            140.03695776138886,
            37.62461859698433,
            1051.3
          ],
          [
            140.03689445968544,
            37.62444557668276,
            1058.0
          ],
          [
            140.036831157982,
            37.62427255638119,
            1060.6
          ],
          [
            140.03676785627854,
            37.62409953607962,
            1063.4
          ],
          [
            140.0367045545751,
            37.62392651577805,
            1065.7
          ],
          [
            140.03664125287165,
            37.623753495476485,
            1067.2
          ],
          [
            140.03657795116823,
            37.62358047517492,
            1068.1
          ],
          [
            140.03651464946478,
            37.62340745487335,
            1070.1
          ],
          [
            140.03645134776133,
            37.623234434571785,
            1072.1
          ],
          [
            140.03638804605788,
            37.62306141427022,
            1074.2
          ],
          [
            140.03632474435446,
            37.62288839396865,
            1075.8
          ],
          [
            140.036261442651,
            37.62271537366708,
            1077.3
          ],
          [
            140.03619814094756,
            37.62254235336551,
            1079.0
          ],
          [
            140.0361348392441,
            37.62236933306394,
            1080.4
          ],
          [
            140.0360715375407,
            37.62219631276238,
            1082.3
          ],
          [
            140.03600823583724,
            37.62202329246081,
            1084.7
          ],
          [
            140.0359449341338,
            37.62185027215924,
            1087.1
          ],
          [
            140.03588163243035,
            37.621677251857676,
            1089.7
          ],
          [
            140.0358183307269,
            37.62150423155611,
            1092.0
          ],
          [
            140.03575502902348,
            37.621331211254535,
            1094.9
          ],
          [
            140.03569172732003,
            37.62115819095297,
            1097.9
          ],
          [
            140.03562842561658,
            37.6209851706514,
            1100.4
          ],
          [
            140.03556512391313,
            37.620812150349835,
            1104.3
          ],
          [
            140.0355018222097,
            37.62063913004827,
            1108.1
          ],
          [
            140.03543852050626,
            37.6204661097467,
            1112.5
          ],
          [
            140.0353752188028,
            37.620293089445134,
            1117.0
          ],
          [
            140.03531191709936,
            37.62012006914357,
            1121.0
          ],
          [
            140.03524861539594,
            37.61994704884199,
            1127.0
          ],
          [
            140.0351853136925,
            37.61977402854043,
            1133.8
          ],
          [
            140.03512201198905,
            37.61960100823886,
            1139.2
          ],
          [
            140.03510691566294,
            37.61955974598597,
            1139.4
          ]
        ]
      }
    },
    {
      "type": "Feature",
      "properties": {
        "name": "エキサイトキャットチェア",
        "horizontal_dist_map": 651,
        "slope_dist_map": 693,
        "elevation_diff_map": 218.4
      },
      "geometry": {
        "type": "LineString",
        "coordinates": [
          [
            140.0380134506849,
            37.623437091157825,
            1064.6
          ],
          [
            140.03802151603628,
            37.6232570078548,
            1065.2
          ],
          [
            140.03802958138766,
            37.62307692455177,
            1067.1
          ],
          [
            140.03803764673904,
            37.62289684124874,
            1068.7
          ],
          [
            140.03804571209042,
            37.62271675794572,
            1069.7
          ],
          [
            140.0380537774418,
            37.62253667464269,
            1071.7
          ],
          [
            140.03806184279318,
            37.62235659133966,
            1076.5
          ],
          [
            140.03806990814454,
            37.62217650803663,
            1085.1
          ],
          [
            140.03807797349592,
            37.6219964247336,
            1093.3
          ],
          [
            140.0380860388473,
            37.62181634143057,
            1103.0
          ],
          [
            140.03809410419868,
            37.62163625812755,
            1113.9
          ],
          [
            140.03810216955006,
            37.62145617482452,
            1122.1
          ],
          [
            140.03811023490144,
            37.621276091521494,
            1131.7
          ],
          [
            140.03811830025282,
            37.621096008218466,
            1143.2
          ],
          [
            140.0381263656042,
            37.62091592491544,
            1151.9
          ],
          [
            140.03813443095558,
            37.62073584161241,
            1161.2
          ],
          [
            140.03814249630696,
            37.62055575830938,
            1168.8
          ],
          [
            140.03815056165834,
            37.62037567500636,
            1178.4
          ],
          [
            140.03815862700972,
            37.62019559170333,
            1186.0
          ],
          [
            140.0381666923611,
            37.6200155084003,
            1194.0
          ],
          [
            140.03817475771248,
            37.61983542509727,
            1203.7
          ],
          [
            140.03818282306383,
            37.61965534179424,
            1212.6
          ],
          [
            140.03819088841522,
            37.619475258491214,
            1222.2
          ],
          [
            140.0381989537666,
            37.619295175188185,
            1231.2
          ],
          [
            140.03820701911798,
            37.61911509188516,
            1236.8
          ],
          [
            140.03821508446936,
            37.618935008582135,
            1242.6
          ],
          [
            140.03822314982074,
            37.618754925279106,
            1249.3
          ],
          [
            140.03823121517212,
            37.61857484197608,
            1255.8
          ],
          [
            140.0382392805235,
            37.61839475867305,
            1260.7
          ],
          [
            140.03824734587488,
            37.61821467537002,
            1264.9
          ],
          [
            140.03825541122626,
            37.618034592067,
            1270.6
          ],
          [
            140.03826347657764,
            37.61785450876397,
            1277.6
          ],
          [
            140.03827154192902,
            37.61767442546094,
            1281.6
          ],
          [
            140.03827615060464,
            37.61757152287286,
            1283.0
          ]
        ]
      }
    },
    {
      "type": "Feature",
      "properties": {
        "name": "フレンドリーキャットチェア",
        "horizontal_dist_map": 358,
        "slope_dist_map": 360,
        "elevation_diff_map": 33.0
      },
      "geometry": {
        "type": "LineString",
        "coordinates": [
          [
            140.03843556950972,
            37.6265889331678,
            1032.5
          ],
          [
            140.03844615428636,
            37.62640893253857,
            1032.6
          ],
          [
            140.038456739063,
            37.62622893190933,
            1036.6
          ],
          [
            140.03846732383965,
            37.6260489312801,
            1040.9
          ],
          [
            140.0384779086163,
            37.62586893065087,
            1045.9
          ],
          [
            140.03848849339298,
            37.62568893002163,
            1049.3
          ],
          [
            140.03849907816962,
            37.625508929392396,
            1054.0
          ],
          [
            140.03850966294627,
            37.62532892876316,
            1056.5
          ],
          [
            140.03852024772291,
            37.62514892813393,
            1057.9
          ],
          [
            140.03853083249956,
            37.624968927504696,
            1057.1
          ],
          [
            140.0385414172762,
            37.62478892687546,
            1057.4
          ],
          [
            140.03855200205285,
            37.624608926246225,
            1057.5
          ],
          [
            140.0385625868295,
            37.62442892561699,
            1058.1
          ],
          [
            140.03857317160615,
            37.62424892498776,
            1058.8
          ],
          [
            140.03858375638282,
            37.624068924358525,
            1059.7
          ],
          [
            140.03859434115947,
            37.62388892372929,
            1060.6
          ],
          [
            140.0386049259361,
            37.623708923100054,
            1061.9
          ],
          [
            140.03861551071276,
            37.62352892247082,
            1063.3
          ],
          [
            140.03862506188304,
            37.62336649895282,
            1065.5
          ]
        ]
      }
    },
    {
      "type": "Feature",
      "properties": {
        "name": "ディープキャットチェア",
        "horizontal_dist_map": 821,
        "slope_dist_map": 863,
        "elevation_diff_map": 219.1
      },
      "geometry": {
        "type": "LineString",
        "coordinates": [
          [
            140.03380596999372,
            37.620109299321506,
            1116.8
          ],
          [
            140.03365892394584,
            37.61997222431549,
            1117.5
          ],
          [
            140.03351187789795,
            37.619835149309466,
            1120.4
          ],
          [
            140.03336483185007,
            37.61969807430345,
            1123.8
          ],
          [
            140.03321778580218,
            37.61956099929743,
            1126.5
          ],
          [
            140.0330707397543,
            37.61942392429141,
            1128.5
          ],
          [
            140.0329236937064,
            37.61928684928539,
            1131.6
          ],
          [
            140.0327766476585,
            37.61914977427937,
            1133.6
          ],
          [
            140.0326296016106,
            37.61901269927335,
            1136.1
          ],
          [
            140.03248255556272,
            37.61887562426733,
            1138.3
          ],
          [
            140.03233550951484,
            37.61873854926131,
            1141.3
          ],
          [
            140.03218846346695,
            37.61860147425529,
            1143.7
          ],
          [
            140.03204141741907,
            37.61846439924927,
            1146.3
          ],
          [
            140.03189437137118,
            37.61832732424325,
            1149.6
          ],
          [
            140.0317473253233,
            37.61819024923723,
            1152.5
          ],
          [
            140.0316002792754,
            37.618053174231214,
            1155.3
          ],
          [
            140.03145323322752,
            37.61791609922519,
            1158.5
          ],
          [
            140.03130618717964,
            37.617779024219175,
            1166.6
          ],
          [
            140.03115914113175,
            37.61764194921315,
            1174.4
          ],
          [
            140.03101209508387,
            37.617504874207135,
            1181.9
          ],
          [
            140.03086504903595,
            37.61736779920111,
            1190.6
          ],
          [
            140.03071800298807,
            37.617230724195096,
            1198.7
          ],
          [
            140.03057095694018,
            37.61709364918908,
            1206.4
          ],
          [
            140.0304239108923,
            37.61695657418306,
            1210.4
          ],
          [
            140.0302768648444,
            37.61681949917704,
            1213.0
          ],
          [
            140.03012981879652,
            37.61668242417102,
            1214.1
          ],
          [
            140.02998277274864,
            37.616545349165,
            1215.1
          ],
          [
            140.02983572670075,
            37.61640827415898,
            1219.3
          ],
          [
            140.02968868065287,
            37.61627119915296,
            1219.1
          ],
          [
            140.02954163460498,
            37.61613412414694,
            1220.0
          ],
          [
            140.0293945885571,
            37.61599704914092,
            1227.2
          ],
          [
            140.0292475425092,
            37.6158599741349,
            1235.4
          ],
          [
            140.02910049646133,
            37.61572289912888,
            1241.7
          ],
          [
            140.02895345041344,
            37.61558582412286,
            1247.3
          ],
          [
            140.02880640436553,
            37.615448749116844,
            1259.0
          ],
          [
            140.02865935831764,
            37.61531167411082,
            1267.8
          ],
          [
            140.02851231226975,
            37.615174599104805,
            1283.1
          ],
          [
            140.02836526622187,
            37.61503752409878,
            1295.1
          ],
          [
            140.02821822017398,
            37.614900449092765,
            1306.5
          ],
          [
            140.0280711741261,
            37.61476337408674,
            1317.4
          ],
          [
            140.0279241280782,
            37.614626299080726,
            1329.5
          ],
          [
            140.02777708203033,
            37.6144892240747,
            1335.9
          ],
          [
            140.02776292379292,
            37.61447602589288,
            1335.9
          ]
        ]
      }
    },
    {
      "type": "Feature",
      "properties": {
        "name": "デビルキャットチェア",
        "horizontal_dist_map": 669,
        "slope_dist_map": 699,
        "elevation_diff_map": 181.5
      },
      "geometry": {
        "type": "LineString",
        "coordinates": [
          [
            140.03684691618562,
            37.62702346124225,
            1030.5
          ],
          [
            140.03663831232484,
            37.626953154283704,
            1030.8
          ],
          [
            140.03642970846403,
            37.626882847325156,
            1033.3
          ],
          [
            140.03622110460324,
            37.62681254036661,
            1036.4
          ],
          [
            140.03601250074243,
            37.62674223340806,
            1039.9
          ],
          [
            140.03580389688165,
            37.62667192644951,
            1043.2
          ],
          [
            140.03559529302083,
            37.62660161949096,
            1046.2
          ],
          [
            140.03538668916005,
            37.62653131253242,
            1048.7
          ],
          [
            140.03517808529926,
            37.62646100557387,
            1051.7
          ],
          [
            140.03496948143845,
            37.626390698615324,
            1054.5
          ],
          [
            140.03476087757767,
            37.626320391656776,
            1057.4
          ],
          [
            140.03455227371686,
            37.62625008469823,
            1060.5
          ],
          [
            140.03434366985607,
            37.62617977773968,
            1064.1
          ],
          [
            140.03413506599526,
            37.62610947078113,
            1067.7
          ],
          [
            140.03392646213447,
            37.62603916382258,
            1071.0
          ],
          [
            140.0337178582737,
            37.625968856864034,
            1074.1
          ],
          [
            140.03350925441288,
            37.625898549905486,
            1078.9
          ],
          [
            140.0333006505521,
            37.62582824294694,
            1082.6
          ],
          [
            140.03309204669128,
            37.62575793598839,
            1086.9
          ],
          [
            140.0328834428305,
            37.62568762902984,
            1091.1
          ],
          [
            140.03267483896968,
            37.62561732207129,
            1100.1
          ],
          [
            140.0324662351089,
            37.62554701511275,
            1110.0
          ],
          [
            140.03225763124811,
            37.6254767081542,
            1119.4
          ],
          [
            140.0320490273873,
            37.625406401195654,
            1129.4
          ],
          [
            140.03184042352652,
            37.625336094237106,
            1139.4
          ],
          [
            140.0316318196657,
            37.62526578727856,
            1149.8
          ],
          [
            140.03142321580492,
            37.62519548032001,
            1158.0
          ],
          [
            140.0312146119441,
            37.62512517336146,
            1165.2
          ],
          [
            140.03100600808332,
            37.62505486640291,
            1172.5
          ],
          [
            140.03079740422254,
            37.624984559444364,
            1178.4
          ],
          [
            140.03058880036173,
            37.624914252485816,
            1185.3
          ],
          [
            140.03038019650094,
            37.62484394552727,
            1195.8
          ],
          [
            140.03017159264013,
            37.62477363856872,
            1203.2
          ],
          [
            140.02996298877935,
            37.62470333161017,
            1209.6
          ],
          [
            140.0298620758102,
            37.624669320331996,
            1212.0
          ]
        ]
      }
    },
    {
      "type": "Feature",
      "properties": {
        "name": "フォレストキャットチェア",
        "horizontal_dist_map": 654,
        "slope_dist_map": 682,
        "elevation_diff_map": 170.9
      },
      "geometry": {
        "type": "LineString",
        "coordinates": [
          [
            140.0374338476502,
            37.626521926449996,
            1030.8
          ],
          [
            140.03727660505956,
            37.62639219877282,
            1031.5
          ],
          [
            140.03711936246896,
            37.62626247109564,
            1036.3
          ],
          [
            140.03696211987832,
            37.62613274341847,
            1040.7
          ],
          [
            140.0368048772877,
            37.62600301574129,
            1043.9
          ],
          [
            140.03664763469706,
            37.62587328806411,
            1046.7
          ],
          [
            140.03649039210646,
            37.62574356038694,
            1049.2
          ],
          [
            140.03633314951583,
            37.62561383270976,
            1050.8
          ],
          [
            140.0361759069252,
            37.625484105032584,
            1053.4
          ],
          [
            140.0360186643346,
            37.62535437735541,
            1056.4
          ],
          [
            140.03586142174396,
            37.62522464967823,
            1059.5
          ],
          [
            140.03570417915333,
            37.625094922001054,
            1062.7
          ],
          [
            140.0355469365627,
            37.62496519432388,
            1066.0
          ],
          [
            140.0353896939721,
            37.6248354666467,
            1068.8
          ],
          [
            140.03523245138146,
            37.624705738969524,
            1072.0
          ],
          [
            140.03507520879083,
            37.62457601129235,
            1075.5
          ],
          [
            140.03491796620023,
            37.62444628361517,
            1077.8
          ],
          [
            140.0347607236096,
            37.624316555937995,
            1082.8
          ],
          [
            140.03460348101896,
            37.62418682826082,
            1090.3
          ],
          [
            140.03444623842833,
            37.624057100583634,
            1096.9
          ],
          [
            140.03428899583773,
            37.62392737290646,
            1105.9
          ],
          [
            140.0341317532471,
            37.62379764522928,
            1114.1
          ],
          [
            140.03397451065646,
            37.623667917552105,
            1122.6
          ],
          [
            140.03381726806586,
            37.62353818987493,
            1131.8
          ],
          [
            140.03366002547523,
            37.62340846219775,
            1139.9
          ],
          [
            140.0335027828846,
            37.623278734520575,
            1146.0
          ],
          [
            140.03334554029396,
            37.6231490068434,
            1154.1
          ],
          [
            140.03318829770336,
            37.62301927916622,
            1163.7
          ],
          [
            140.03303105511273,
            37.622889551489045,
            1172.0
          ],
          [
            140.0328738125221,
            37.62275982381187,
            1182.4
          ],
          [
            140.0327165699315,
            37.62263009613469,
            1189.8
          ],
          [
            140.03255932734086,
            37.622500368457516,
            1195.4
          ],
          [
            140.03240208475023,
            37.62237064078034,
            1201.0
          ],
          [
            140.03228454257243,
            37.62227366658501,
            1201.7
          ]
        ]
      }
    },
    {
      "type": "Feature",
      "properties": {
        "name": "ロックチェア",
        "horizontal_dist_map": 489,
        "slope_dist_map": 515,
        "elevation_diff_map": 143.0
      },
      "geometry": {
        "type": "LineString",
        "coordinates": [
          [
            140.0424003,
            37.6062966,
            1048.0
          ],
          [
            140.04219185609665,
            37.60636710915116,
            1048.5
          ],
          [
            140.0419834121933,
            37.60643761830231,
            1054.5
          ],
          [
            140.04177496828993,
            37.606508127453466,
            1059.4
          ],
          [
            140.04156652438658,
            37.60657863660462,
            1062.9
          ],
          [
            140.04135808048323,
            37.606649145755775,
            1067.6
          ],
          [
            140.0411496365799,
            37.606719654906925,
            1071.1
          ],
          [
            140.04094119267654,
            37.60679016405808,
            1073.9
          ],
          [
            140.04073274877317,
            37.60686067320924,
            1077.8
          ],
          [
            140.04052430486982,
            37.60693118236039,
            1081.3
          ],
          [
            140.04031586096647,
            37.60700169151155,
            1083.0
          ],
          [
            140.04010741706313,
            37.6070722006627,
            1088.1
          ],
          [
            140.03989897315978,
            37.60714270981386,
            1092.4
          ],
          [
            140.0396905292564,
            37.60721321896501,
            1098.7
          ],
          [
            140.03948208535306,
            37.607283728116165,
            1105.6
          ],
          [
            140.0392736414497,
            37.60735423726732,
            1113.6
          ],
          [
            140.03906519754636,
            37.607424746418474,
            1121.8
          ],
          [
            140.038856753643,
            37.60749525556963,
            1131.4
          ],
          [
            140.03864830973964,
            37.60756576472078,
            1138.2
          ],
          [
            140.0384398658363,
            37.60763627387194,
            1150.8
          ],
          [
            140.03823142193295,
            37.60770678302309,
            1163.9
          ],
          [
            140.0380229780296,
            37.60777729217425,
            1171.2
          ],
          [
            140.03781453412623,
            37.607847801325406,
            1179.0
          ],
          [
            140.03760609022288,
            37.607918310476556,
            1189.2
          ],
          [
            140.03739764631953,
            37.607988819627714,
            1190.8
          ],
          [
            140.0372966,
            37.608023,
            1191.0
          ]
        ]
      }
    },
    {
      "type": "Feature",
      "properties": {
        "name": "ニャルツチェア",
        "horizontal_dist_map": 816,
        "slope_dist_map": 845,
        "elevation_diff_map": 109.9
      },
      "geometry": {
        "type": "LineString",
        "coordinates": [
          [
            140.03599827490285,
            37.61028421369201,
            1177.7
          ],
          [
            140.0360595101694,
            37.61045770245055,
            1180.2
          ],
          [
            140.03612074543594,
            37.61063119120909,
            1183.3
          ],
          [
            140.03618198070248,
            37.61080467996763,
            1186.3
          ],
          [
            140.03624321596902,
            37.61097816872617,
            1190.8
          ],
          [
            140.03630445123557,
            37.611151657484704,
            1195.1
          ],
          [
            140.0363656865021,
            37.611325146243246,
            1199.7
          ],
          [
            140.03642692176865,
            37.61149863500179,
            1204.7
          ],
          [
            140.0364881570352,
            37.61167212376032,
            1210.4
          ],
          [
            140.03654939230174,
            37.61184561251886,
            1216.4
          ],
          [
            140.03661062756828,
            37.6120191012774,
            1223.3
          ],
          [
            140.03667186283482,
            37.61219259003594,
            1232.0
          ],
          [
            140.03673309810137,
            37.61236607879448,
            1240.1
          ],
          [
            140.0367943333679,
            37.612539567553014,
            1249.6
          ],
          [
            140.03685556863445,
            37.612713056311556,
            1259.8
          ],
          [
            140.036916803901,
            37.6128865450701,
            1269.4
          ],
          [
            140.0369780391675,
            37.61306003382863,
            1280.1
          ],
          [
            140.03703927443405,
            37.61323352258717,
            1293.1
          ],
          [
            140.0371005097006,
            37.613407011345714,
            1303.5
          ],
          [
            140.03716174496714,
            37.61358050010425,
            1311.3
          ],
          [
            140.03722298023368,
            37.61375398886279,
            1310.4
          ],
          [
            140.03728421550022,
            37.61392747762133,
            1307.1
          ],
          [
            140.03734545076676,
            37.614100966379866,
            1305.3
          ],
          [
            140.0374066860333,
            37.61427445513841,
            1304.8
          ],
          [
            140.03746792129985,
            37.61444794389694,
            1303.2
          ],
          [
            140.0375291565664,
            37.61462143265548,
            1302.3
          ],
          [
            140.03759039183294,
            37.614794921414024,
            1301.8
          ],
          [
            140.03765162709948,
            37.61496841017256,
            1299.4
          ],
          [
            140.03771286236602,
            37.6151418989311,
            1297.9
          ],
          [
            140.03777409763256,
            37.61531538768964,
            1295.7
          ],
          [
            140.0378353328991,
            37.615488876448175,
            1293.3
          ],
          [
            140.03789656816565,
            37.61566236520672,
            1291.5
          ],
          [
            140.0379578034322,
            37.61583585396526,
            1290.2
          ],
          [
            140.03801903869874,
            37.61600934272379,
            1288.5
          ],
          [
            140.03808027396528,
            37.616182831482334,
            1286.4
          ],
          [
            140.03814150923182,
            37.616356320240875,
            1282.4
          ],
          [
            140.03820274449836,
            37.61652980899941,
            1279.9
          ],
          [
            140.0382639797649,
            37.61670329775795,
            1280.2
          ],
          [
            140.03832521503145,
            37.616876786516485,
            1285.5
          ],
          [
            140.038386450298,
            37.61705027527503,
            1286.3
          ],
          [
            140.03844768556453,
            37.61722376403357,
            1286.4
          ],
          [
            140.0384974732379,
            37.61736482003171,
            1287.6
          ]
        ]
      }
    }
  ]
}