{
  "type": "FeatureCollection",
  "features": [
    {
      "type": "Feature",
      "properties": {
        "name": "アルペンブリック第1ペア",
        "horizontal_dist_map": 1112,
        "slope_dist_map": 1132,
        "elevation_diff_map": 202.5,
        "midstation": null
      },
      "geometry": {
        "type": "LineString",
        "coordinates": [
          [
            138.1671898,
            36.8697269,
            820.2
          ],
          [
            138.16697952536026,
            36.869789653997124,
            822.0
          ],
          [
            138.16676925072056,
            36.869852407994244,
            825.1
          ],
          [
            138.16655897608084,
            36.86991516199137,
            826.6
          ],
          [
            138.16634870144114,
            36.86997791598849,
            829.7
          ],
          [
            138.1661384268014,
            36.87004066998561,
            831.5
          ],
          [
            138.1659281521617,
            36.870103423982734,
            833.3
          ],
          [
            138.16571787752198,
            36.870166177979854,
            837.5
          ],
          [
            138.1655076028823,
            36.870228931976975,
            840.8
          ],
          [
            138.16529732824256,
            36.8702916859741,
            844.2
          ],
          [
            138.16508705360286,
            36.87035443997122,
            847.9
          ],
          [
            138.16487677896313,
            36.87041719396834,
            850.6
          ],
          [
            138.16466650432343,
            36.870479947965464,
            852.3
          ],
          [
            138.1644562296837,
            36.870542701962584,
            854.3
          ],
          [
            138.164245955044,
            36.87060545595971,
            856.0
          ],
          [
            138.16403568040428,
            36.87066820995683,
            859.1
          ],
          [
            138.16382540576458,
            36.87073096395395,
            861.6
          ],
          [
            138.16361513112486,
            36.870793717951074,
            863.9
          ],
          [
            138.16340485648516,
            36.870856471948194,
            867.6
          ],
          [
            138.16319458184543,
            36.87091922594532,
            872.3
          ],
          [
            138.1629843072057,
            36.87098197994244,
            875.8
          ],
          [
            138.162774032566,
            36.87104473393956,
            878.2
          ],
          [
            138.16256375792628,
            36.87110748793668,
            881.1
          ],
          [
            138.16235348328658,
            36.871170241933804,
            885.4
          ],
          [
            138.16214320864685,
            36.871232995930924,
            890.4
          ],
          [
            138.16193293400715,
            36.87129574992805,
            894.5
          ],
          [
            138.16172265936743,
            36.87135850392517,
            898.0
          ],
          [
            138.16151238472773,
            36.87142125792229,
            902.0
          ],
          [
            138.161302110088,
            36.871484011919414,
            907.0
          ],
          [
            138.1610918354483,
            36.871546765916534,
            912.5
          ],
          [
            138.16088156080858,
            36.87160951991366,
            916.8
          ],
          [
            138.16067128616888,
            36.87167227391078,
            920.5
          ],
          [
            138.16046101152915,
            36.8717350279079,
            923.2
          ],
          [
            138.16025073688945,
            36.87179778190502,
            926.3
          ],
          [
            138.16004046224973,
            36.871860535902144,
            929.2
          ],
          [
            138.15983018761003,
            36.871923289899264,
            932.7
          ],
          [
            138.1596199129703,
            36.87198604389639,
            936.5
          ],
          [
            138.1594096383306,
            36.87204879789351,
            940.5
          ],
          [
            138.15919936369087,
            36.87211155189063,
            945.3
          ],
          [
            138.15898908905115,
            36.872174305887754,
            948.3
          ],
          [
            138.15877881441145,
            36.872237059884874,
            951.6
          ],
          [
            138.15856853977172,
            36.872299813882,
            957.1
          ],
          [
            138.15835826513202,
            36.87236256787912,
            960.6
          ],
          [
            138.1581479904923,
            36.87242532187624,
            965.4
          ],
          [
            138.1579377158526,
            36.87248807587336,
            970.2
          ],
          [
            138.15772744121287,
            36.872550829870484,
            975.5
          ],
          [
            138.15751716657317,
            36.87261358386761,
            978.9
          ],
          [
            138.15730689193344,
            36.87267633786473,
            981.3
          ],
          [
            138.15709661729375,
            36.87273909186185,
            986.5
          ],
          [
            138.15688634265402,
            36.87280184585897,
            988.8
          ],
          [
            138.15667606801432,
            36.87286459985609,
            994.7
          ],
          [
            138.1564657933746,
            36.872927353853214,
            999.8
          ],
          [
            138.1562555187349,
            36.87299010785034,
            1005.2
          ],
          [
            138.15604524409517,
            36.87305286184746,
            1009.4
          ],
          [
            138.15583496945547,
            36.87311561584458,
            1015.7
          ],
          [
            138.15562469481574,
            36.8731783698417,
            1020.5
          ],
          [
            138.15549426890055,
            36.8732172939246,
            1022.7
          ]
        ]
      }
    },
    {
      "type": "Feature",
      "properties": {
        "name": "池の平クワッド",
        "horizontal_dist_map": 1563,
        "slope_dist_map": 1620,
        "elevation_diff_map": 415.1,
        "midstation": null
      },
      "geometry": {
        "type": "LineString",
        "coordinates": [
          [
            138.1575354,
            36.8736389,
            993.2
          ],
          [
            138.15732154902528,
            36.873693326564194,
            992.4
          ],
          [
            138.15710769805057,
            36.873747753128384,
            998.1
          ],
          [
            138.15689384707585,
            36.873802179692575,
            1006.1
          ],
          [
            138.15667999610113,
            36.873856606256766,
            1011.4
          ],
          [
            138.15646614512642,
            36.87391103282095,
            1015.7
          ],
          [
            138.1562522941517,
            36.87396545938514,
            1019.8
          ],
          [
            138.15603844317695,
            36.87401988594933,
            1024.2
          ],
          [
            138.15582459220224,
            36.87407431251352,
            1028.8
          ],
          [
            138.15561074122752,
            36.87412873907771,
            1033.3
          ],
          [
            138.1553968902528,
            36.8741831656419,
            1039.2
          ],
          [
            138.15518303927809,
            36.87423759220609,
            1045.6
          ],
          [
            138.15496918830337,
            36.874292018770284,
            1049.3
          ],
          [
            138.15475533732865,
            36.874346445334474,
            1053.1
          ],
          [
            138.15454148635393,
            36.874400871898665,
            1058.4
          ],
          [
            138.15432763537922,
            36.87445529846285,
            1063.5
          ],
          [
            138.1541137844045,
            36.87450972502704,
            1067.8
          ],
          [
            138.15389993342978,
            36.87456415159123,
            1074.2
          ],
          [
            138.15368608245507,
            36.87461857815542,
            1080.3
          ],
          [
            138.15347223148035,
            36.87467300471961,
            1086.1
          ],
          [
            138.15325838050563,
            36.8747274312838,
            1090.9
          ],
          [
            138.1530445295309,
            36.87478185784799,
            1095.5
          ],
          [
            138.15283067855617,
            36.87483628441218,
            1099.4
          ],
          [
            138.15261682758145,
            36.87489071097637,
            1104.2
          ],
          [
            138.15240297660674,
            36.87494513754056,
            1107.9
          ],
          [
            138.15218912563202,
            36.87499956410475,
            1112.1
          ],
          [
            138.1519752746573,
            36.87505399066894,
            1115.3
          ],
          [
            138.1517614236826,
            36.87510841723313,
            1119.4
          ],
          [
            138.15154757270787,
            36.87516284379732,
            1124.1
          ],
          [
            138.15133372173315,
            36.87521727036151,
            1128.4
          ],
          [
            138.15111987075844,
            36.8752716969257,
            1132.6
          ],
          [
            138.15090601978372,
            36.87532612348989,
            1137.8
          ],
          [
            138.150692168809,
            36.87538055005408,
            1141.9
          ],
          [
            138.15047831783428,
            36.87543497661827,
            1148.4
          ],
          [
            138.15026446685954,
            36.875489403182456,
            1152.7
          ],
          [
            138.15005061588482,
            36.87554382974665,
            1156.8
          ],
          [
            138.1498367649101,
            36.87559825631084,
            1160.6
          ],
          [
            138.1496229139354,
            36.87565268287503,
            1167.0
          ],
          [
            138.14940906296067,
            36.87570710943922,
            1172.9
          ],
          [
            138.14919521198595,
            36.87576153600341,
            1180.6
          ],
          [
            138.14898136101124,
            36.8758159625676,
            1186.8
          ],
          [
            138.14876751003652,
            36.87587038913179,
            1191.8
          ],
          [
            138.1485536590618,
            36.87592481569598,
            1195.8
          ],
          [
            138.1483398080871,
            36.87597924226017,
            1201.8
          ],
          [
            138.14812595711237,
            36.876033668824356,
            1209.9
          ],
          [
            138.14791210613765,
            36.876088095388546,
            1216.0
          ],
          [
            138.14769825516294,
            36.87614252195274,
            1221.0
          ],
          [
            138.14748440418822,
            36.87619694851693,
            1226.9
          ],
          [
            138.14727055321347,
            36.87625137508112,
            1232.9
          ],
          [
            138.14705670223876,
            36.87630580164531,
            1239.2
          ],
          [
            138.14684285126404,
            36.8763602282095,
            1245.0
          ],
          [
            138.14662900028932,
            36.87641465477369,
            1250.9
          ],
          [
            138.1464151493146,
            36.87646908133788,
            1256.6
          ],
          [
            138.1462012983399,
            36.876523507902064,
            1261.7
          ],
          [
            138.14598744736517,
            36.876577934466255,
            1266.6
          ],
          [
            138.14577359639046,
            36.876632361030445,
            1272.1
          ],
          [
            138.14555974541574,
            36.876686787594636,
            1277.5
          ],
          [
            138.14534589444102,
            36.87674121415883,
            1283.1
          ],
          [
            138.1451320434663,
            36.87679564072302,
            1288.7
          ],
          [
            138.1449181924916,
            36.87685006728721,
            1294.5
          ],
          [
            138.14470434151687,
            36.8769044938514,
            1300.8
          ],
          [
            138.14449049054213,
            36.87695892041559,
            1306.0
          ],
          [
            138.1442766395674,
            36.87701334697978,
            1310.9
          ],
          [
            138.1440627885927,
            36.87706777354396,
            1318.0
          ],
          [
            138.14384893761797,
            36.877122200108154,
            1323.9
          ],
          [
            138.14363508664326,
            36.877176626672345,
            1329.2
          ],
          [
            138.14342123566854,
            36.877231053236535,
            1335.7
          ],
          [
            138.14320738469382,
            36.877285479800726,
            1341.3
          ],
          [
            138.1429935337191,
            36.87733990636492,
            1346.5
          ],
          [
            138.1427796827444,
            36.87739433292911,
            1351.8
          ],
          [
            138.14256583176967,
            36.8774487594933,
            1357.5
          ],
          [
            138.14235198079496,
            36.87750318605749,
            1363.7
          ],
          [
            138.14213812982024,
            36.87755761262167,
            1368.7
          ],
          [
            138.14192427884552,
            36.87761203918586,
            1375.7
          ],
          [
            138.14171042787078,
            36.87766646575005,
            1382.6
          ],
          [
            138.14149657689606,
            36.877720892314244,
            1389.8
          ],
          [
            138.14128272592134,
            36.877775318878435,
            1397.3
          ],
          [
            138.14106887494663,
            36.877829745442625,
            1403.2
          ],
          [
            138.1408550239719,
            36.877884172006816,
            1408.4
          ],
          [
            138.14082084237927,
            36.87789287146048,
            1408.3
          ]
        ]
      }
    },
    {
      "type": "Feature",
      "properties": {
        "name": "しらかばカプセルペア",
        "horizontal_dist_map": 1712,
        "slope_dist_map": 1748,
        "elevation_diff_map": 338.5,
        "midstation": null
      },
      "geometry": {
        "type": "LineString",
        "coordinates": [
          [
            138.1719223,
            36.8725882,
            759.6
          ],
          [
            138.1717027735915,
            36.87262526010955,
            759.5
          ],
          [
            138.17148324718303,
            36.8726623202191,
            760.3
          ],
          [
            138.17126372077453,
            36.87269938032865,
            766.8
          ],
          [
            138.17104419436606,
            36.872736440438196,
            773.2
          ],
          [
            138.17082466795756,
            36.87277350054775,
            776.7
          ],
          [
            138.1706051415491,
            36.8728105606573,
            778.5
          ],
          [
            138.1703856151406,
            36.87284762076685,
            781.6
          ],
          [
            138.1701660887321,
            36.872884680876396,
            785.0
          ],
          [
            138.16994656232362,
            36.872921740985944,
            787.5
          ],
          [
            138.16972703591512,
            36.87295880109549,
            790.4
          ],
          [
            138.16950750950664,
            36.87299586120504,
            794.2
          ],
          [
            138.16928798309814,
            36.87303292131459,
            797.6
          ],
          [
            138.16906845668964,
            36.87306998142414,
            800.8
          ],
          [
            138.16884893028117,
            36.87310704153369,
            803.5
          ],
          [
            138.16862940387267,
            36.87314410164324,
            805.0
          ],
          [
            138.1684098774642,
            36.87318116175279,
            809.0
          ],
          [
            138.1681903510557,
            36.87321822186234,
            812.2
          ],
          [
            138.16797082464723,
            36.873255281971886,
            814.7
          ],
          [
            138.16775129823873,
            36.873292342081434,
            818.1
          ],
          [
            138.16753177183023,
            36.87332940219098,
            821.1
          ],
          [
            138.16731224542175,
            36.87336646230053,
            824.2
          ],
          [
            138.16709271901325,
            36.87340352241008,
            826.8
          ],
          [
            138.16687319260478,
            36.873440582519635,
            830.0
          ],
          [
            138.16665366619628,
            36.87347764262918,
            833.3
          ],
          [
            138.16643413978778,
            36.87351470273873,
            836.8
          ],
          [
            138.1662146133793,
            36.87355176284828,
            840.0
          ],
          [
            138.1659950869708,
            36.87358882295783,
            842.7
          ],
          [
            138.16577556056234,
            36.873625883067376,
            846.0
          ],
          [
            138.16555603415384,
            36.873662943176925,
            850.0
          ],
          [
            138.16533650774537,
            36.87370000328647,
            854.4
          ],
          [
            138.16511698133687,
            36.87373706339602,
            859.0
          ],
          [
            138.16489745492837,
            36.87377412350558,
            863.0
          ],
          [
            138.1646779285199,
            36.873811183615125,
            867.3
          ],
          [
            138.1644584021114,
            36.87384824372467,
            871.9
          ],
          [
            138.16423887570292,
            36.87388530383422,
            876.9
          ],
          [
            138.16401934929442,
            36.87392236394377,
            883.1
          ],
          [
            138.16379982288592,
            36.87395942405332,
            886.5
          ],
          [
            138.16358029647745,
            36.873996484162866,
            890.2
          ],
          [
            138.16336077006895,
            36.874033544272415,
            894.1
          ],
          [
            138.16314124366048,
            36.87407060438196,
            898.5
          ],
          [
            138.16292171725198,
            36.87410766449152,
            903.0
          ],
          [
            138.1627021908435,
            36.87414472460107,
            907.0
          ],
          [
            138.162482664435,
            36.874181784710615,
            910.7
          ],
          [
            138.1622631380265,
            36.87421884482016,
            914.3
          ],
          [
            138.16204361161803,
            36.87425590492971,
            919.1
          ],
          [
            138.16182408520953,
            36.87429296503926,
            923.8
          ],
          [
            138.16160455880106,
            36.87433002514881,
            929.2
          ],
          [
            138.16138503239256,
            36.874367085258356,
            933.7
          ],
          [
            138.16116550598406,
            36.874404145367905,
            938.5
          ],
          [
            138.1609459795756,
            36.87444120547746,
            942.5
          ],
          [
            138.1607264531671,
            36.87447826558701,
            946.3
          ],
          [
            138.16050692675861,
            36.87451532569656,
            950.2
          ],
          [
            138.16028740035011,
            36.874552385806105,
            953.9
          ],
          [
            138.16006787394164,
            36.87458944591565,
            958.7
          ],
          [
            138.15984834753314,
            36.8746265060252,
            962.0
          ],
          [
            138.15962882112464,
            36.87466356613475,
            965.8
          ],
          [
            138.15940929471617,
            36.8747006262443,
            970.1
          ],
          [
            138.15918976830767,
            36.874737686353846,
            973.6
          ],
          [
            138.1589702418992,
            36.8747747464634,
            977.1
          ],
          [
            138.1587507154907,
            36.87481180657295,
            981.1
          ],
          [
            138.1585311890822,
            36.8748488666825,
            984.7
          ],
          [
            138.15831166267373,
            36.87488592679205,
            990.3
          ],
          [
            138.15809213626522,
            36.874922986901595,
            994.1
          ],
          [
            138.15787260985675,
            36.87496004701114,
            999.5
          ],
          [
            138.15765308344825,
            36.87499710712069,
            1003.2
          ],
          [
            138.15743355703978,
            36.87503416723024,
            1007.4
          ],
          [
            138.15721403063128,
            36.875071227339795,
            1011.0
          ],
          [
            138.15699450422278,
            36.87510828744934,
            1015.2
          ],
          [
            138.1567749778143,
            36.87514534755889,
            1019.9
          ],
          [
            138.1565554514058,
            36.87518240766844,
            1024.7
          ],
          [
            138.15633592499734,
            36.87521946777799,
            1032.0
          ],
          [
            138.15611639858884,
            36.87525652788754,
            1037.4
          ],
          [
            138.15589687218034,
            36.875293587997085,
            1042.5
          ],
          [
            138.15567734577186,
            36.87533064810663,
            1047.9
          ],
          [
            138.15545781936336,
            36.87536770821618,
            1052.1
          ],
          [
            138.1552382929549,
            36.87540476832574,
            1055.9
          ],
          [
            138.1550187665464,
            36.875441828435285,
            1059.8
          ],
          [
            138.15479924013792,
            36.87547888854483,
            1063.0
          ],
          [
            138.15457971372942,
            36.87551594865438,
            1066.9
          ],
          [
            138.15436018732092,
            36.87555300876393,
            1071.4
          ],
          [
            138.15414066091245,
            36.87559006887348,
            1076.3
          ],
          [
            138.15392113450395,
            36.87562712898303,
            1081.2
          ],
          [
            138.15370160809547,
            36.875664189092575,
            1085.7
          ],
          [
            138.15348208168697,
            36.87570124920212,
            1090.5
          ],
          [
            138.15326255527847,
            36.87573830931168,
            1095.4
          ],
          [
            138.153124,
            36.8757617,
            1098.1
          ]
        ]
      }
    },
    {
      "type": "Feature",
      "properties": {
        "name": "アルペンブリック第2ペア",
        "horizontal_dist_map": 1117,
        "slope_dist_map": 1159,
        "elevation_diff_map": 299.4,
        "midstation": null
      },
      "geometry": {
        "type": "LineString",
        "coordinates": [
          [
            138.15491838531213,
            36.871621840705274,
            1012.7
          ],
          [
            138.15471260165822,
            36.87169357445542,
            1014.2
          ],
          [
            138.1545068180043,
            36.87176530820557,
            1020.8
          ],
          [
            138.1543010343504,
            36.871837041955715,
            1027.4
          ],
          [
            138.15409525069649,
            36.87190877570586,
            1033.3
          ],
          [
            138.15388946704255,
            36.87198050945601,
            1038.4
          ],
          [
            138.15368368338864,
            36.872052243206156,
            1041.3
          ],
          [
            138.15347789973472,
            36.8721239769563,
            1048.2
          ],
          [
            138.1532721160808,
            36.87219571070645,
            1057.9
          ],
          [
            138.1530663324269,
            36.8722674444566,
            1065.4
          ],
          [
            138.152860548773,
            36.87233917820675,
            1071.7
          ],
          [
            138.15265476511908,
            36.8724109119569,
            1074.9
          ],
          [
            138.15244898146517,
            36.872482645707045,
            1078.7
          ],
          [
            138.15224319781123,
            36.87255437945719,
            1083.4
          ],
          [
            138.15203741415732,
            36.87262611320734,
            1089.1
          ],
          [
            138.1518316305034,
            36.872697846957486,
            1093.6
          ],
          [
            138.1516258468495,
            36.87276958070763,
            1098.6
          ],
          [
            138.1514200631956,
            36.87284131445778,
            1103.3
          ],
          [
            138.15121427954168,
            36.87291304820793,
            1107.7
          ],
          [
            138.15100849588777,
            36.872984781958074,
            1113.6
          ],
          [
            138.15080271223385,
            36.87305651570822,
            1117.3
          ],
          [
            138.15059692857992,
            36.87312824945837,
            1123.4
          ],
          [
            138.150391144926,
            36.873199983208515,
            1130.0
          ],
          [
            138.1501853612721,
            36.87327171695866,
            1137.5
          ],
          [
            138.14997957761818,
            36.87334345070881,
            1143.5
          ],
          [
            138.14977379396427,
            36.873415184458956,
            1147.2
          ],
          [
            138.14956801031036,
            36.8734869182091,
            1152.0
          ],
          [
            138.14936222665645,
            36.87355865195925,
            1157.3
          ],
          [
            138.14915644300254,
            36.8736303857094,
            1162.2
          ],
          [
            138.14895065934863,
            36.873702119459544,
            1165.7
          ],
          [
            138.1487448756947,
            36.8737738532097,
            1169.2
          ],
          [
            138.14853909204078,
            36.873845586959845,
            1175.0
          ],
          [
            138.14833330838687,
            36.87391732070999,
            1181.6
          ],
          [
            138.14812752473296,
            36.87398905446014,
            1187.5
          ],
          [
            138.14792174107905,
            36.874060788210286,
            1194.8
          ],
          [
            138.14771595742513,
            36.87413252196043,
            1199.3
          ],
          [
            138.14751017377122,
            36.87420425571058,
            1204.2
          ],
          [
            138.1473043901173,
            36.87427598946073,
            1209.4
          ],
          [
            138.14709860646337,
            36.874347723210875,
            1215.0
          ],
          [
            138.14689282280946,
            36.87441945696102,
            1220.8
          ],
          [
            138.14668703915555,
            36.87449119071117,
            1224.9
          ],
          [
            138.14648125550164,
            36.874562924461316,
            1230.4
          ],
          [
            138.14627547184773,
            36.87463465821146,
            1236.9
          ],
          [
            138.14606968819382,
            36.87470639196161,
            1243.4
          ],
          [
            138.1458639045399,
            36.87477812571176,
            1248.9
          ],
          [
            138.145658120886,
            36.874849859461904,
            1254.2
          ],
          [
            138.1454523372321,
            36.87492159321205,
            1259.1
          ],
          [
            138.14524655357815,
            36.8749933269622,
            1264.6
          ],
          [
            138.14504076992424,
            36.875065060712345,
            1270.1
          ],
          [
            138.14483498627033,
            36.87513679446249,
            1274.1
          ],
          [
            138.14462920261641,
            36.875208528212646,
            1279.4
          ],
          [
            138.1444234189625,
            36.87528026196279,
            1285.5
          ],
          [
            138.1442176353086,
            36.87535199571294,
            1291.6
          ],
          [
            138.14401185165468,
            36.87542372946309,
            1297.0
          ],
          [
            138.14380606800077,
            36.875495463213234,
            1302.7
          ],
          [
            138.14360028434683,
            36.87556719696338,
            1307.6
          ],
          [
            138.14342093541717,
            36.87562971588102,
            1312.1
          ]
        ]
      }
    },
    {
      "type": "Feature",
      "properties": {
        "name": "カラマツペア",
        "horizontal_dist_map": 491,
        "slope_dist_map": 498,
        "elevation_diff_map": 76.0,
        "midstation": null
      },
      "geometry": {
        "type": "LineString",
        "coordinates": [
          [
            138.171639,
            36.8720704,
            762.8
          ],
          [
            138.17141660890428,
            36.87209395456855,
            766.8
          ],
          [
            138.17119421780856,
            36.87211750913709,
            770.4
          ],
          [
            138.17097182671284,
            36.87214106370564,
            774.7
          ],
          [
            138.17074943561713,
            36.87216461827419,
            778.0
          ],
          [
            138.1705270445214,
            36.87218817284273,
            781.0
          ],
          [
            138.1703046534257,
            36.87221172741128,
            784.4
          ],
          [
            138.17008226232997,
            36.87223528197983,
            786.7
          ],
          [
            138.16985987123425,
            36.87225883654838,
            789.1
          ],
          [
            138.16963748013853,
            36.872282391116926,
            791.9
          ],
          [
            138.16941508904281,
            36.872305945685476,
            793.7
          ],
          [
            138.1691926979471,
            36.872329500254025,
            795.7
          ],
          [
            138.16897030685138,
            36.87235305482257,
            796.5
          ],
          [
            138.1687479157557,
            36.87237660939112,
            797.7
          ],
          [
            138.16852552465997,
            36.87240016395967,
            803.8
          ],
          [
            138.16830313356425,
            36.87242371852821,
            807.7
          ],
          [
            138.16808074246853,
            36.87244727309676,
            810.5
          ],
          [
            138.16785835137281,
            36.87247082766531,
            813.2
          ],
          [
            138.1676359602771,
            36.87249438223385,
            816.2
          ],
          [
            138.16741356918138,
            36.8725179368024,
            819.7
          ],
          [
            138.16719117808566,
            36.87254149137095,
            823.3
          ],
          [
            138.16696878698994,
            36.872565045939496,
            826.6
          ],
          [
            138.16674639589422,
            36.872588600508045,
            829.4
          ],
          [
            138.1665240047985,
            36.872612155076595,
            833.1
          ],
          [
            138.16630161370279,
            36.872635709645145,
            838.1
          ],
          [
            138.1661733,
            36.8726493,
            838.8
          ]
        ]
      }
    }
  ]
}