{
  "type": "FeatureCollection",
  "features": [
    {
      "type": "Feature",
      "properties": {
        "name": "第3ペア",
        "horizontal_dist_map": 953,
        "slope_dist_map": 976,
        "elevation_diff_map": 207.1
      },
      "geometry": {
        "type": "LineString",
        "coordinates": [
          [
            140.3335364,
            40.6304181,
            321.4
          ],
          [
            140.33338319765454,
            40.63055526844388,
            322.9
          ],
          [
            140.33322999530907,
            40.630692436887756,
            327.6
          ],
          [
            140.3330767929636,
            40.630829605331634,
            333.3
          ],
          [
            140.33292359061812,
            40.63096677377551,
            336.5
          ],
          [
            140.33277038827262,
            40.63110394221939,
            340.5
          ],
          [
            140.33261718592715,
            40.63124111066326,
            343.3
          ],
          [
            140.33246398358168,
            40.63137827910714,
            347.1
          ],
          [
            140.3323107812362,
            40.63151544755102,
            350.9
          ],
          [
            140.33215757889073,
            40.631652615994895,
            353.7
          ],
          [
            140.33200437654526,
            40.63178978443877,
            359.7
          ],
          [
            140.33185117419978,
            40.63192695288265,
            364.1
          ],
          [
            140.3316979718543,
            40.63206412132653,
            366.4
          ],
          [
            140.33154476950884,
            40.63220128977041,
            369.5
          ],
          [
            140.33139156716334,
            40.632338458214285,
            372.4
          ],
          [
            140.33123836481786,
            40.63247562665816,
            376.4
          ],
          [
            140.3310851624724,
            40.63261279510204,
            379.1
          ],
          [
            140.33093196012692,
            40.63274996354592,
            384.6
          ],
          [
            140.33077875778145,
            40.63288713198979,
            387.9
          ],
          [
            140.33062555543597,
            40.63302430043367,
            393.2
          ],
          [
            140.3304723530905,
            40.633161468877546,
            397.5
          ],
          [
            140.33031915074503,
            40.633298637321424,
            400.0
          ],
          [
            140.33016594839955,
            40.6334358057653,
            404.3
          ],
          [
            140.33001274605408,
            40.63357297420918,
            408.5
          ],
          [
            140.32985954370858,
            40.63371014265306,
            411.8
          ],
          [
            140.3297063413631,
            40.633847311096936,
            414.7
          ],
          [
            140.32955313901763,
            40.633984479540814,
            417.7
          ],
          [
            140.32939993667216,
            40.63412164798469,
            422.5
          ],
          [
            140.3292467343267,
            40.63425881642857,
            427.7
          ],
          [
            140.32909353198121,
            40.63439598487245,
            432.0
          ],
          [
            140.32894032963574,
            40.63453315331632,
            436.6
          ],
          [
            140.32878712729027,
            40.6346703217602,
            441.9
          ],
          [
            140.3286339249448,
            40.634807490204075,
            447.3
          ],
          [
            140.3284807225993,
            40.63494465864795,
            453.3
          ],
          [
            140.32832752025382,
            40.63508182709183,
            458.2
          ],
          [
            140.32817431790835,
            40.63521899553571,
            463.1
          ],
          [
            140.32802111556288,
            40.63535616397959,
            468.4
          ],
          [
            140.3278679132174,
            40.635493332423465,
            472.6
          ],
          [
            140.32771471087193,
            40.63563050086734,
            478.9
          ],
          [
            140.32756150852646,
            40.63576766931122,
            482.9
          ],
          [
            140.32740830618098,
            40.6359048377551,
            487.8
          ],
          [
            140.3272551038355,
            40.63604200619898,
            494.7
          ],
          [
            140.32710190149,
            40.63617917464285,
            499.5
          ],
          [
            140.32694869914454,
            40.636316343086726,
            503.1
          ],
          [
            140.32679549679906,
            40.636453511530604,
            508.0
          ],
          [
            140.3266422944536,
            40.63659067997448,
            514.1
          ],
          [
            140.32648909210812,
            40.63672784841836,
            519.0
          ],
          [
            140.32633588976265,
            40.63686501686224,
            524.6
          ],
          [
            140.3262355,
            40.6369549,
            528.5
          ]
        ]
      }
    },
    {
      "type": "Feature",
      "properties": {
        "name": "第1ペア",
        "horizontal_dist_map": 1061,
        "slope_dist_map": 1084,
        "elevation_diff_map": 203.1
      },
      "geometry": {
        "type": "LineString",
        "coordinates": [
          [
            140.33115949413988,
            40.628016550238655,
            321.9
          ],
          [
            140.3310533497893,
            40.62817747944746,
            322.5
          ],
          [
            140.33094720543875,
            40.62833840865626,
            325.3
          ],
          [
            140.33084106108817,
            40.628499337865065,
            328.2
          ],
          [
            140.33073491673758,
            40.628660267073876,
            330.0
          ],
          [
            140.33062877238703,
            40.62882119628268,
            331.7
          ],
          [
            140.33052262803645,
            40.62898212549148,
            333.6
          ],
          [
            140.33041648368587,
            40.629143054700286,
            336.4
          ],
          [
            140.33031033933528,
            40.62930398390909,
            338.0
          ],
          [
            140.33020419498473,
            40.62946491311789,
            339.6
          ],
          [
            140.33009805063415,
            40.629625842326696,
            339.6
          ],
          [
            140.32999190628357,
            40.6297867715355,
            343.7
          ],
          [
            140.329885761933,
            40.62994770074431,
            346.6
          ],
          [
            140.32977961758243,
            40.630108629953114,
            349.8
          ],
          [
            140.32967347323185,
            40.63026955916192,
            352.9
          ],
          [
            140.3295673288813,
            40.63043048837072,
            355.8
          ],
          [
            140.32946118453071,
            40.630591417579524,
            358.4
          ],
          [
            140.32935504018013,
            40.63075234678833,
            361.9
          ],
          [
            140.32924889582955,
            40.63091327599713,
            366.0
          ],
          [
            140.329142751479,
            40.631074205205934,
            373.5
          ],
          [
            140.32903660712842,
            40.631235134414744,
            381.0
          ],
          [
            140.32893046277783,
            40.63139606362355,
            385.4
          ],
          [
            140.32882431842728,
            40.63155699283235,
            390.0
          ],
          [
            140.3287181740767,
            40.631717922041155,
            394.4
          ],
          [
            140.32861202972612,
            40.63187885124996,
            399.3
          ],
          [
            140.32850588537556,
            40.63203978045876,
            403.0
          ],
          [
            140.32839974102498,
            40.632200709667565,
            406.3
          ],
          [
            140.3282935966744,
            40.63236163887637,
            410.9
          ],
          [
            140.32818745232382,
            40.63252256808518,
            415.4
          ],
          [
            140.32808130797326,
            40.63268349729398,
            418.2
          ],
          [
            140.32797516362268,
            40.632844426502785,
            421.4
          ],
          [
            140.3278690192721,
            40.63300535571159,
            424.1
          ],
          [
            140.32776287492155,
            40.63316628492039,
            427.8
          ],
          [
            140.32765673057096,
            40.633327214129196,
            430.1
          ],
          [
            140.32755058622038,
            40.633488143338,
            433.0
          ],
          [
            140.32744444186983,
            40.6336490725468,
            435.7
          ],
          [
            140.32733829751925,
            40.63381000175561,
            439.3
          ],
          [
            140.32723215316867,
            40.633970930964416,
            442.7
          ],
          [
            140.32712600881808,
            40.63413186017322,
            446.3
          ],
          [
            140.32701986446753,
            40.63429278938202,
            449.8
          ],
          [
            140.32691372011695,
            40.63445371859083,
            453.5
          ],
          [
            140.32680757576637,
            40.63461464779963,
            457.6
          ],
          [
            140.3267014314158,
            40.63477557700843,
            462.2
          ],
          [
            140.32659528706523,
            40.63493650621724,
            467.1
          ],
          [
            140.32648914271465,
            40.63509743542605,
            471.5
          ],
          [
            140.3263829983641,
            40.63525836463485,
            477.2
          ],
          [
            140.3262768540135,
            40.635419293843654,
            482.2
          ],
          [
            140.32617070966293,
            40.63558022305246,
            487.6
          ],
          [
            140.32606456531235,
            40.63574115226126,
            493.4
          ],
          [
            140.3259584209618,
            40.635902081470064,
            498.9
          ],
          [
            140.32585227661122,
            40.63606301067887,
            504.1
          ],
          [
            140.32574613226063,
            40.63622393988767,
            510.6
          ],
          [
            140.32563998791008,
            40.63638486909648,
            517.5
          ],
          [
            140.3255338435595,
            40.636545798305285,
            523.7
          ],
          [
            140.32552405895427,
            40.63656063309177,
            525.0
          ]
        ]
      }
    },
    {
      "type": "Feature",
      "properties": {
        "name": "第2ペア",
        "horizontal_dist_map": 724,
        "slope_dist_map": 760,
        "elevation_diff_map": 216.8
      },
      "geometry": {
        "type": "LineString",
        "coordinates": [
          [
            140.3256956,
            40.6366742,
            528.0
          ],
          [
            140.3255355238825,
            40.636806743290144,
            529.3
          ],
          [
            140.32537544776505,
            40.63693928658028,
            535.2
          ],
          [
            140.32521537164757,
            40.63707182987042,
            536.3
          ],
          [
            140.3250552955301,
            40.63720437316056,
            534.2
          ],
          [
            140.3248952194126,
            40.6373369164507,
            538.0
          ],
          [
            140.32473514329516,
            40.637469459740835,
            543.9
          ],
          [
            140.32457506717768,
            40.63760200303098,
            549.4
          ],
          [
            140.3244149910602,
            40.63773454632111,
            557.2
          ],
          [
            140.32425491494274,
            40.637867089611255,
            564.6
          ],
          [
            140.32409483882526,
            40.6379996329014,
            570.7
          ],
          [
            140.32393476270778,
            40.63813217619153,
            577.4
          ],
          [
            140.3237746865903,
            40.638264719481676,
            584.3
          ],
          [
            140.32361461047284,
            40.63839726277181,
            588.6
          ],
          [
            140.32345453435536,
            40.63852980606195,
            594.8
          ],
          [
            140.32329445823788,
            40.63866234935209,
            601.7
          ],
          [
            140.3231343821204,
            40.63879489264223,
            607.1
          ],
          [
            140.32297430600295,
            40.638927435932374,
            612.7
          ],
          [
            140.32281422988547,
            40.63905997922251,
            619.2
          ],
          [
            140.32265415376799,
            40.63919252251265,
            625.3
          ],
          [
            140.32249407765053,
            40.63932506580279,
            631.2
          ],
          [
            140.32233400153305,
            40.63945760909293,
            640.2
          ],
          [
            140.32217392541557,
            40.639590152383064,
            647.8
          ],
          [
            140.3220138492981,
            40.63972269567321,
            656.4
          ],
          [
            140.32185377318064,
            40.63985523896334,
            663.8
          ],
          [
            140.32169369706315,
            40.639987782253485,
            670.5
          ],
          [
            140.32153362094567,
            40.64012032554363,
            677.9
          ],
          [
            140.32137354482822,
            40.64025286883376,
            686.3
          ],
          [
            140.32121346871074,
            40.640385412123905,
            695.6
          ],
          [
            140.32105339259326,
            40.64051795541404,
            704.3
          ],
          [
            140.32089331647578,
            40.64065049870418,
            711.6
          ],
          [
            140.32073324035832,
            40.64078304199432,
            716.6
          ],
          [
            140.32057316424084,
            40.64091558528446,
            721.6
          ],
          [
            140.32041308812336,
            40.6410481285746,
            727.3
          ],
          [
            140.32025301200588,
            40.64118067186474,
            732.0
          ],
          [
            140.32009293588843,
            40.64131321515488,
            737.7
          ],
          [
            140.31993285977094,
            40.641445758445016,
            743.5
          ],
          [
            140.3198938,
            40.6414781,
            744.8
          ]
        ]
      }
    }
  ]
}