{
  "type": "FeatureCollection",
  "features": [
    {
      "type": "Feature",
      "properties": {
        "name": "高速ペア",
        "horizontal_dist_map": 1117,
        "slope_dist_map": 1173,
        "elevation_diff_map": 325.7
      },
      "geometry": {
        "type": "LineString",
        "coordinates": [
          [
            140.96284042865827,
            39.81621466167044,
            655.2
          ],
          [
            140.96286740354657,
            39.81639358623917,
            654.8
          ],
          [
            140.9628943784349,
            39.8165725108079,
            660.8
          ],
          [
            140.9629213533232,
            39.81675143537664,
            666.9
          ],
          [
            140.9629483282115,
            39.81693035994537,
            670.0
          ],
          [
            140.96297530309982,
            39.817109284514096,
            672.9
          ],
          [
            140.96300227798812,
            39.817288209082825,
            675.9
          ],
          [
            140.96302925287642,
            39.81746713365156,
            677.8
          ],
          [
            140.96305622776472,
            39.81764605822029,
            682.4
          ],
          [
            140.96308320265305,
            39.81782498278902,
            684.9
          ],
          [
            140.96311017754135,
            39.81800390735775,
            689.4
          ],
          [
            140.96313715242965,
            39.81818283192648,
            692.9
          ],
          [
            140.96316412731798,
            39.818361756495214,
            695.4
          ],
          [
            140.96319110220628,
            39.81854068106394,
            698.8
          ],
          [
            140.96321807709458,
            39.81871960563267,
            703.1
          ],
          [
            140.9632450519829,
            39.8188985302014,
            704.3
          ],
          [
            140.9632720268712,
            39.81907745477013,
            706.6
          ],
          [
            140.9632990017595,
            39.81925637933887,
            707.4
          ],
          [
            140.9633259766478,
            39.819435303907596,
            712.4
          ],
          [
            140.96335295153614,
            39.819614228476325,
            716.2
          ],
          [
            140.96337992642444,
            39.819793153045055,
            717.0
          ],
          [
            140.96340690131274,
            39.81997207761379,
            724.0
          ],
          [
            140.96343387620107,
            39.82015100218252,
            734.4
          ],
          [
            140.96346085108937,
            39.82032992675125,
            744.2
          ],
          [
            140.96348782597767,
            39.82050885131998,
            756.5
          ],
          [
            140.963514800866,
            39.82068777588871,
            767.9
          ],
          [
            140.9635417757543,
            39.820866700457444,
            780.0
          ],
          [
            140.9635687506426,
            39.82104562502617,
            790.7
          ],
          [
            140.9635957255309,
            39.8212245495949,
            800.4
          ],
          [
            140.96362270041922,
            39.82140347416363,
            807.1
          ],
          [
            140.96364967530752,
            39.82158239873236,
            812.6
          ],
          [
            140.96367665019582,
            39.8217613233011,
            821.2
          ],
          [
            140.96370362508415,
            39.821940247869826,
            826.9
          ],
          [
            140.96373059997245,
            39.822119172438555,
            836.2
          ],
          [
            140.96375757486075,
            39.822298097007284,
            842.8
          ],
          [
            140.96378454974908,
            39.82247702157602,
            847.4
          ],
          [
            140.96381152463738,
            39.82265594614475,
            854.5
          ],
          [
            140.96383849952568,
            39.82283487071348,
            859.3
          ],
          [
            140.96386547441398,
            39.82301379528221,
            865.6
          ],
          [
            140.9638924493023,
            39.82319271985094,
            870.7
          ],
          [
            140.9639194241906,
            39.82337164441967,
            878.0
          ],
          [
            140.9639463990789,
            39.8235505689884,
            884.1
          ],
          [
            140.96397337396724,
            39.82372949355713,
            889.1
          ],
          [
            140.96400034885554,
            39.82390841812586,
            896.0
          ],
          [
            140.96402732374384,
            39.82408734269459,
            900.5
          ],
          [
            140.96405429863216,
            39.824266267263326,
            907.5
          ],
          [
            140.96408127352046,
            39.824445191832055,
            913.3
          ],
          [
            140.96410824840876,
            39.824624116400784,
            918.8
          ],
          [
            140.9641352232971,
            39.82480304096951,
            924.7
          ],
          [
            140.9641621981854,
            39.82498196553825,
            931.5
          ],
          [
            140.9641891730737,
            39.82516089010698,
            938.2
          ],
          [
            140.964216147962,
            39.82533981467571,
            944.4
          ],
          [
            140.96424312285032,
            39.82551873924444,
            951.1
          ],
          [
            140.96427009773862,
            39.825697663813166,
            957.7
          ],
          [
            140.96429707262692,
            39.8258765883819,
            966.3
          ],
          [
            140.96432404751525,
            39.82605551295063,
            973.2
          ],
          [
            140.9643477,
            39.8262124,
            980.9
          ]
        ]
      }
    },
    {
      "type": "Feature",
      "properties": {
        "name": "第4ペア",
        "horizontal_dist_map": 710,
        "slope_dist_map": 754,
        "elevation_diff_map": 249.4
      },
      "geometry": {
        "type": "LineString",
        "coordinates": [
          [
            140.9616387,
            39.8256521,
            955.6
          ],
          [
            140.96175463426584,
            39.825808485613464,
            959.3
          ],
          [
            140.96187056853168,
            39.82596487122694,
            965.8
          ],
          [
            140.9619865027975,
            39.8261212568404,
            972.9
          ],
          [
            140.96210243706332,
            39.82627764245387,
            979.5
          ],
          [
            140.96221837132916,
            39.82643402806734,
            984.3
          ],
          [
            140.962334305595,
            39.826590413680805,
            991.2
          ],
          [
            140.96245023986083,
            39.82674679929427,
            996.9
          ],
          [
            140.96256617412664,
            39.826903184907735,
            1003.5
          ],
          [
            140.96268210839247,
            39.82705957052121,
            1011.3
          ],
          [
            140.9627980426583,
            39.82721595613467,
            1019.1
          ],
          [
            140.96291397692414,
            39.82737234174814,
            1026.9
          ],
          [
            140.96302991118995,
            39.82752872736161,
            1036.7
          ],
          [
            140.96314584545578,
            39.827685112975075,
            1045.3
          ],
          [
            140.96326177972162,
            39.82784149858854,
            1056.2
          ],
          [
            140.96337771398746,
            39.82799788420201,
            1065.2
          ],
          [
            140.9634936482533,
            39.82815426981548,
            1074.5
          ],
          [
            140.9636095825191,
            39.82831065542894,
            1081.5
          ],
          [
            140.96372551678493,
            39.828467041042416,
            1088.7
          ],
          [
            140.96384145105077,
            39.82862342665588,
            1095.6
          ],
          [
            140.9639573853166,
            39.828779812269346,
            1102.6
          ],
          [
            140.96407331958244,
            39.82893619788282,
            1109.0
          ],
          [
            140.96418925384825,
            39.82909258349628,
            1117.3
          ],
          [
            140.96430518811408,
            39.82924896910975,
            1125.1
          ],
          [
            140.96442112237992,
            39.829405354723214,
            1130.3
          ],
          [
            140.96453705664575,
            39.829561740336686,
            1136.5
          ],
          [
            140.9646529909116,
            39.82971812595015,
            1145.5
          ],
          [
            140.9647689251774,
            39.82987451156362,
            1153.5
          ],
          [
            140.96488485944323,
            39.83003089717709,
            1159.0
          ],
          [
            140.96500079370907,
            39.830187282790554,
            1165.2
          ],
          [
            140.9651167279749,
            39.83034366840402,
            1171.9
          ],
          [
            140.96523266224074,
            39.83050005401749,
            1178.3
          ],
          [
            140.96534859650654,
            39.83065643963096,
            1184.7
          ],
          [
            140.96546453077238,
            39.83081282524442,
            1189.5
          ],
          [
            140.96558046503822,
            39.830969210857894,
            1195.6
          ],
          [
            140.96569639930405,
            39.83112559647136,
            1202.1
          ],
          [
            140.9657586,
            39.8312095,
            1205.0
          ]
        ]
      }
    },
    {
      "type": "Feature",
      "properties": {
        "name": "第3ペア",
        "horizontal_dist_map": 745,
        "slope_dist_map": 769,
        "elevation_diff_map": 180.1
      },
      "geometry": {
        "type": "LineString",
        "coordinates": [
          [
            140.9691516,
            39.8181391,
            718.6
          ],
          [
            140.9691711038192,
            39.8183186006145,
            719.2
          ],
          [
            140.9691906076384,
            39.81849810122898,
            727.8
          ],
          [
            140.96921011145758,
            39.818677601843476,
            731.5
          ],
          [
            140.9692296152768,
            39.81885710245797,
            735.3
          ],
          [
            140.969249119096,
            39.81903660307246,
            740.9
          ],
          [
            140.9692686229152,
            39.81921610368695,
            745.2
          ],
          [
            140.9692881267344,
            39.81939560430144,
            752.5
          ],
          [
            140.96930763055357,
            39.819575104915934,
            758.9
          ],
          [
            140.96932713437278,
            39.81975460553042,
            764.8
          ],
          [
            140.96934663819198,
            39.81993410614491,
            771.5
          ],
          [
            140.96936614201118,
            39.820113606759406,
            779.0
          ],
          [
            140.96938564583039,
            39.82029310737389,
            784.8
          ],
          [
            140.96940514964956,
            39.820472607988386,
            789.2
          ],
          [
            140.96942465346876,
            39.82065210860288,
            791.4
          ],
          [
            140.96944415728797,
            39.82083160921737,
            793.0
          ],
          [
            140.96946366110717,
            39.82101110983186,
            796.0
          ],
          [
            140.96948316492637,
            39.82119061044635,
            797.4
          ],
          [
            140.96950266874555,
            39.821370111060844,
            801.0
          ],
          [
            140.96952217256475,
            39.82154961167533,
            803.6
          ],
          [
            140.96954167638395,
            39.82172911228982,
            809.9
          ],
          [
            140.96956118020316,
            39.821908612904316,
            815.5
          ],
          [
            140.96958068402233,
            39.82208811351881,
            822.1
          ],
          [
            140.96960018784154,
            39.822267614133295,
            828.8
          ],
          [
            140.96961969166074,
            39.82244711474779,
            834.7
          ],
          [
            140.96963919547994,
            39.82262661536228,
            839.6
          ],
          [
            140.96965869929915,
            39.82280611597677,
            842.6
          ],
          [
            140.96967820311832,
            39.82298561659126,
            848.0
          ],
          [
            140.96969770693752,
            39.823165117205754,
            851.5
          ],
          [
            140.96971721075673,
            39.82334461782024,
            856.1
          ],
          [
            140.96973671457593,
            39.82352411843473,
            861.1
          ],
          [
            140.96975621839513,
            39.823703619049226,
            865.6
          ],
          [
            140.9697757222143,
            39.82388311966372,
            871.6
          ],
          [
            140.9697952260335,
            39.824062620278205,
            877.3
          ],
          [
            140.96981472985271,
            39.8242421208927,
            883.1
          ],
          [
            140.96983423367192,
            39.82442162150719,
            887.3
          ],
          [
            140.96985373749112,
            39.82460112212168,
            893.2
          ],
          [
            140.9698732413103,
            39.82478062273617,
            897.5
          ],
          [
            140.9698784,
            39.8248281,
            898.7
          ]
        ]
      }
    },
    {
      "type": "Feature",
      "properties": {
        "name": "第2ペア",
        "horizontal_dist_map": 750,
        "slope_dist_map": 775,
        "elevation_diff_map": 176.5
      },
      "geometry": {
        "type": "LineString",
        "coordinates": [
          [
            140.9660844,
            39.8145142,
            646.2
          ],
          [
            140.96609459214295,
            39.81469415810639,
            647.3
          ],
          [
            140.96610478428587,
            39.81487411621279,
            652.2
          ],
          [
            140.96611497642883,
            39.815054074319185,
            656.4
          ],
          [
            140.96612516857178,
            39.81523403242558,
            662.8
          ],
          [
            140.9661353607147,
            39.81541399053198,
            665.2
          ],
          [
            140.96614555285765,
            39.81559394863837,
            665.5
          ],
          [
            140.9661557450006,
            39.815773906744774,
            666.3
          ],
          [
            140.96616593714353,
            39.81595386485117,
            667.1
          ],
          [
            140.96617612928648,
            39.81613382295756,
            667.5
          ],
          [
            140.96618632142943,
            39.81631378106396,
            669.1
          ],
          [
            140.96619651357236,
            39.816493739170355,
            671.1
          ],
          [
            140.9662067057153,
            39.81667369727675,
            671.9
          ],
          [
            140.96621689785826,
            39.81685365538315,
            674.4
          ],
          [
            140.96622709000118,
            39.81703361348954,
            679.2
          ],
          [
            140.96623728214414,
            39.817213571595936,
            684.7
          ],
          [
            140.9662474742871,
            39.817393529702336,
            690.1
          ],
          [
            140.96625766643004,
            39.81757348780873,
            696.4
          ],
          [
            140.96626785857296,
            39.81775344591513,
            700.0
          ],
          [
            140.9662780507159,
            39.817933404021524,
            706.0
          ],
          [
            140.96628824285887,
            39.81811336212792,
            711.7
          ],
          [
            140.9662984350018,
            39.81829332023432,
            717.9
          ],
          [
            140.96630862714474,
            39.81847327834071,
            723.8
          ],
          [
            140.9663188192877,
            39.818653236447105,
            729.5
          ],
          [
            140.96632901143062,
            39.818833194553505,
            736.0
          ],
          [
            140.96633920357357,
            39.8190131526599,
            741.2
          ],
          [
            140.96634939571652,
            39.81919311076629,
            747.3
          ],
          [
            140.96635958785944,
            39.81937306887269,
            752.9
          ],
          [
            140.9663697800024,
            39.81955302697909,
            759.8
          ],
          [
            140.96637997214535,
            39.81973298508549,
            765.0
          ],
          [
            140.96639016428827,
            39.81991294319188,
            771.7
          ],
          [
            140.96640035643122,
            39.820092901298274,
            776.9
          ],
          [
            140.96641054857417,
            39.820272859404675,
            785.2
          ],
          [
            140.9664207407171,
            39.82045281751107,
            793.0
          ],
          [
            140.96643093286005,
            39.82063277561746,
            799.2
          ],
          [
            140.966441125003,
            39.82081273372386,
            806.7
          ],
          [
            140.96645131714592,
            39.820992691830256,
            813.2
          ],
          [
            140.96646150928888,
            39.82117264993665,
            820.1
          ],
          [
            140.9664667,
            39.8212643,
            822.7
          ]
        ]
      }
    },
    {
      "type": "Feature",
      "properties": {
        "name": "第1ペア パラレルA",
        "horizontal_dist_map": 613,
        "slope_dist_map": 623,
        "elevation_diff_map": 100.8
      },
      "geometry": {
        "type": "LineString",
        "coordinates": [
          [
            140.96696562054063,
            39.81398189291315,
            646.3
          ],
          [
            140.96707019689504,
            39.81414296178442,
            646.6
          ],
          [
            140.96717477324944,
            39.8143040306557,
            651.1
          ],
          [
            140.96727934960387,
            39.81446509952697,
            655.7
          ],
          [
            140.96738392595827,
            39.81462616839824,
            660.9
          ],
          [
            140.96748850231268,
            39.81478723726951,
            666.0
          ],
          [
            140.96759307866708,
            39.81494830614079,
            670.2
          ],
          [
            140.9676976550215,
            39.815109375012064,
            673.9
          ],
          [
            140.9678022313759,
            39.815270443883335,
            675.3
          ],
          [
            140.96790680773032,
            39.815431512754614,
            677.3
          ],
          [
            140.96801138408472,
            39.815592581625886,
            679.2
          ],
          [
            140.96811596043912,
            39.81575365049716,
            681.8
          ],
          [
            140.96822053679355,
            39.81591471936843,
            684.2
          ],
          [
            140.96832511314796,
            39.81607578823971,
            687.5
          ],
          [
            140.96842968950236,
            39.81623685711098,
            690.2
          ],
          [
            140.96853426585676,
            39.81639792598225,
            693.0
          ],
          [
            140.9686388422112,
            39.81655899485353,
            695.7
          ],
          [
            140.9687434185656,
            39.8167200637248,
            697.7
          ],
          [
            140.96884799492,
            39.81688113259607,
            700.5
          ],
          [
            140.9689525712744,
            39.817042201467345,
            702.7
          ],
          [
            140.9690571476288,
            39.817203270338624,
            702.9
          ],
          [
            140.96916172398323,
            39.817364339209895,
            704.9
          ],
          [
            140.96926630033764,
            39.81752540808117,
            709.1
          ],
          [
            140.96937087669204,
            39.817686476952446,
            713.7
          ],
          [
            140.96947545304644,
            39.81784754582372,
            716.7
          ],
          [
            140.96958002940087,
            39.81800861469499,
            719.3
          ],
          [
            140.96968460575528,
            39.81816968356627,
            725.8
          ],
          [
            140.96978918210968,
            39.81833075243754,
            730.4
          ],
          [
            140.96989375846408,
            39.81849182130881,
            734.9
          ],
          [
            140.96999833481848,
            39.81865289018008,
            738.9
          ],
          [
            140.97010291117292,
            39.81881395905136,
            743.6
          ],
          [
            140.97017281193058,
            39.818921620445785,
            747.1
          ]
        ]
      }
    },
    {
      "type": "Feature",
      "properties": {
        "name": "ゴンドラ",
        "horizontal_dist_map": 1837,
        "slope_dist_map": 1931,
        "elevation_diff_map": 556.0
      },
      "geometry": {
        "type": "LineString",
        "coordinates": [
          [
            140.9648842,
            39.8150962,
            649.6
          ],
          [
            140.96490542730638,
            39.8152755842925,
            649.4
          ],
          [
            140.96492665461278,
            39.81545496858501,
            652.7
          ],
          [
            140.96494788191916,
            39.81563435287751,
            655.5
          ],
          [
            140.96496910922556,
            39.81581373717002,
            657.5
          ],
          [
            140.96499033653194,
            39.81599312146252,
            660.8
          ],
          [
            140.96501156383835,
            39.81617250575503,
            664.2
          ],
          [
            140.96503279114472,
            39.81635189004753,
            668.1
          ],
          [
            140.96505401845113,
            39.816531274340036,
            672.1
          ],
          [
            140.9650752457575,
            39.81671065863254,
            675.9
          ],
          [
            140.96509647306388,
            39.816890042925046,
            681.8
          ],
          [
            140.96511770037029,
            39.81706942721755,
            684.6
          ],
          [
            140.96513892767666,
            39.81724881151005,
            688.1
          ],
          [
            140.96516015498307,
            39.817428195802556,
            689.2
          ],
          [
            140.96518138228944,
            39.81760758009506,
            695.4
          ],
          [
            140.96520260959585,
            39.817786964387565,
            698.5
          ],
          [
            140.96522383690223,
            39.817966348680066,
            708.2
          ],
          [
            140.96524506420863,
            39.818145732972575,
            709.8
          ],
          [
            140.965266291515,
            39.818325117265076,
            720.8
          ],
          [
            140.9652875188214,
            39.818504501557584,
            726.9
          ],
          [
            140.9653087461278,
            39.818683885850085,
            736.0
          ],
          [
            140.96532997343417,
            39.818863270142586,
            741.6
          ],
          [
            140.96535120074057,
            39.819042654435094,
            746.3
          ],
          [
            140.96537242804695,
            39.819222038727595,
            752.8
          ],
          [
            140.96539365535335,
            39.8194014230201,
            756.7
          ],
          [
            140.96541488265973,
            39.819580807312605,
            761.4
          ],
          [
            140.96543610996613,
            39.81976019160511,
            767.0
          ],
          [
            140.9654573372725,
            39.819939575897614,
            771.1
          ],
          [
            140.96547856457892,
            39.82011896019012,
            776.7
          ],
          [
            140.9654997918853,
            39.82029834448262,
            783.6
          ],
          [
            140.96552101919167,
            39.82047772877513,
            792.9
          ],
          [
            140.96554224649807,
            39.82065711306763,
            800.5
          ],
          [
            140.96556347380445,
            39.82083649736013,
            806.9
          ],
          [
            140.96558470111086,
            39.82101588165264,
            812.9
          ],
          [
            140.96560592841723,
            39.82119526594514,
            818.9
          ],
          [
            140.96562715572364,
            39.82137465023765,
            824.0
          ],
          [
            140.96564838303001,
            39.82155403453015,
            828.1
          ],
          [
            140.96566961033642,
            39.82173341882266,
            833.6
          ],
          [
            140.9656908376428,
            39.82191280311516,
            838.8
          ],
          [
            140.96571206494917,
            39.82209218740767,
            845.4
          ],
          [
            140.96573329225558,
            39.82227157170017,
            850.7
          ],
          [
            140.96575451956195,
            39.82245095599268,
            856.7
          ],
          [
            140.96577574686836,
            39.82263034028518,
            860.4
          ],
          [
            140.96579697417474,
            39.82280972457768,
            865.3
          ],
          [
            140.96581820148114,
            39.82298910887019,
            868.3
          ],
          [
            140.96583942878752,
            39.82316849316269,
            872.9
          ],
          [
            140.96586065609392,
            39.8233478774552,
            879.5
          ],
          [
            140.9658818834003,
            39.8235272617477,
            885.9
          ],
          [
            140.9659031107067,
            39.82370664604021,
            891.3
          ],
          [
            140.96592433801308,
            39.82388603033271,
            898.9
          ],
          [
            140.96594556531946,
            39.82406541462522,
            906.5
          ],
          [
            140.96596679262586,
            39.82424479891772,
            912.6
          ],
          [
            140.96598801993224,
            39.82442418321022,
            915.5
          ],
          [
            140.96600924723865,
            39.82460356750273,
            921.5
          ],
          [
            140.96603047454502,
            39.82478295179523,
            923.6
          ],
          [
            140.96605170185143,
            39.82496233608774,
            928.9
          ],
          [
            140.9660729291578,
            39.82514172038024,
            933.5
          ],
          [
            140.9660941564642,
            39.825321104672746,
            941.1
          ],
          [
            140.96611538377059,
            39.82550048896525,
            946.2
          ],
          [
            140.96613661107696,
            39.825679873257755,
            955.4
          ],
          [
            140.96615783838337,
            39.825859257550256,
            959.7
          ],
          [
            140.96617906568974,
            39.826038641842764,
            965.8
          ],
          [
            140.96620029299615,
            39.826218026135265,
            969.7
          ],
          [
            140.96622152030253,
            39.82639741042777,
            975.0
          ],
          [
            140.96624274760893,
            39.826576794720275,
            980.2
          ],
          [
            140.9662639749153,
            39.826756179012776,
            988.3
          ],
          [
            140.9662852022217,
            39.826935563305284,
            995.9
          ],
          [
            140.9663064295281,
            39.827114947597785,
            1004.4
          ],
          [
            140.9663276568345,
            39.82729433189029,
            1011.5
          ],
          [
            140.96634888414087,
            39.827473716182794,
            1018.7
          ],
          [
            140.96637011144725,
            39.8276531004753,
            1024.9
          ],
          [
            140.96639133875365,
            39.827832484767804,
            1033.4
          ],
          [
            140.96641256606003,
            39.82801186906031,
            1041.5
          ],
          [
            140.96643379336643,
            39.82819125335281,
            1050.3
          ],
          [
            140.9664550206728,
            39.828370637645314,
            1058.0
          ],
          [
            140.96647624797922,
            39.82855002193782,
            1066.2
          ],
          [
            140.9664974752856,
            39.82872940623032,
            1073.2
          ],
          [
            140.966518702592,
            39.82890879052283,
            1081.4
          ],
          [
            140.96653992989837,
            39.82908817481533,
            1089.2
          ],
          [
            140.96656115720475,
            39.82926755910784,
            1095.4
          ],
          [
            140.96658238451116,
            39.82944694340034,
            1103.8
          ],
          [
            140.96660361181753,
            39.82962632769285,
            1109.5
          ],
          [
            140.96662483912394,
            39.82980571198535,
            1116.2
          ],
          [
            140.96664606643031,
            39.82998509627785,
            1124.5
          ],
          [
            140.96666729373672,
            39.83016448057036,
            1137.5
          ],
          [
            140.9666885210431,
            39.83034386486286,
            1141.4
          ],
          [
            140.9667097483495,
            39.83052324915537,
            1153.0
          ],
          [
            140.96673097565588,
            39.83070263344787,
            1162.2
          ],
          [
            140.96675220296225,
            39.83088201774038,
            1170.9
          ],
          [
            140.96677343026866,
            39.83106140203288,
            1183.7
          ],
          [
            140.96679465757504,
            39.83124078632539,
            1192.5
          ],
          [
            140.96681588488144,
            39.83142017061789,
            1201.5
          ],
          [
            140.9668341,
            39.8315741,
            1205.6
          ]
        ]
      }
    },
    {
      "type": "Feature",
      "properties": {
        "name": "第1ペア パラレルB",
        "horizontal_dist_map": 612,
        "slope_dist_map": 622,
        "elevation_diff_map": 100.6
      },
      "geometry": {
        "type": "LineString",
        "coordinates": [
          [
            140.96706184321465,
            39.81395467569382,
            646.2
          ],
          [
            140.96716573706914,
            39.81411600699311,
            646.9
          ],
          [
            140.96726963092365,
            39.81427733829239,
            651.8
          ],
          [
            140.96737352477814,
            39.81443866959168,
            656.6
          ],
          [
            140.96747741863263,
            39.81460000089096,
            661.1
          ],
          [
            140.96758131248714,
            39.81476133219025,
            666.2
          ],
          [
            140.96768520634163,
            39.81492266348953,
            670.8
          ],
          [
            140.96778910019611,
            39.81508399478882,
            673.9
          ],
          [
            140.9678929940506,
            39.81524532608811,
            675.4
          ],
          [
            140.96799688790512,
            39.81540665738739,
            677.7
          ],
          [
            140.9681007817596,
            39.81556798868668,
            680.0
          ],
          [
            140.9682046756141,
            39.81572931998596,
            682.8
          ],
          [
            140.9683085694686,
            39.81589065128525,
            685.1
          ],
          [
            140.9684124633231,
            39.81605198258453,
            687.7
          ],
          [
            140.96851635717758,
            39.81621331388382,
            690.0
          ],
          [
            140.9686202510321,
            39.8163746451831,
            693.1
          ],
          [
            140.96872414488658,
            39.81653597648239,
            695.6
          ],
          [
            140.96882803874107,
            39.81669730778168,
            697.9
          ],
          [
            140.96893193259555,
            39.81685863908096,
            700.5
          ],
          [
            140.96903582645007,
            39.81701997038025,
            703.3
          ],
          [
            140.96913972030455,
            39.81718130167953,
            704.0
          ],
          [
            140.96924361415904,
            39.81734263297882,
            707.4
          ],
          [
            140.96934750801356,
            39.8175039642781,
            710.6
          ],
          [
            140.96945140186804,
            39.81766529557739,
            713.5
          ],
          [
            140.96955529572253,
            39.81782662687668,
            717.1
          ],
          [
            140.96965918957704,
            39.81798795817596,
            720.4
          ],
          [
            140.96976308343153,
            39.81814928947525,
            726.7
          ],
          [
            140.96986697728602,
            39.81831062077453,
            730.4
          ],
          [
            140.9699708711405,
            39.81847195207382,
            734.5
          ],
          [
            140.97007476499502,
            39.8186332833731,
            739.3
          ],
          [
            140.9701786588495,
            39.81879461467239,
            744.6
          ],
          [
            140.97024520647545,
            39.81889795297869,
            746.8
          ]
        ]
      }
    }
  ]
}