{
  "type": "FeatureCollection",
  "features": [
    {
      "type": "Feature",
      "properties": {
        "name": "パノラマ第3ロマンス",
        "horizontal_dist_map": 921,
        "slope_dist_map": 954,
        "elevation_diff_map": 215.0
      },
      "geometry": {
        "type": "LineString",
        "coordinates": [
          [
            138.7892786,
            37.0442858,
            528.0
          ],
          [
            138.78934587139076,
            37.04411384252395,
            532.0
          ],
          [
            138.78941314278154,
            37.0439418850479,
            526.0
          ],
          [
            138.78948041417232,
            37.04376992757185,
            524.0
          ],
          [
            138.78954768556306,
            37.0435979700958,
            533.0
          ],
          [
            138.78961495695384,
            37.04342601261975,
            538.0
          ],
          [
            138.78968222834462,
            37.0432540551437,
            544.0
          ],
          [
            138.7897494997354,
            37.04308209766765,
            549.0
          ],
          [
            138.78981677112617,
            37.0429101401916,
            555.0
          ],
          [
            138.78988404251695,
            37.04273818271555,
            559.0
          ],
          [
            138.78995131390772,
            37.042566225239504,
            564.0
          ],
          [
            138.79001858529847,
            37.042394267763456,
            567.0
          ],
          [
            138.79008585668925,
            37.04222231028741,
            573.0
          ],
          [
            138.79015312808002,
            37.04205035281136,
            578.0
          ],
          [
            138.7902203994708,
            37.0418783953353,
            585.0
          ],
          [
            138.79028767086157,
            37.041706437859254,
            590.0
          ],
          [
            138.79035494225235,
            37.041534480383206,
            592.0
          ],
          [
            138.7904222136431,
            37.04136252290716,
            597.0
          ],
          [
            138.79048948503387,
            37.04119056543111,
            602.0
          ],
          [
            138.79055675642465,
            37.04101860795506,
            606.0
          ],
          [
            138.79062402781543,
            37.04084665047901,
            612.0
          ],
          [
            138.7906912992062,
            37.04067469300296,
            621.0
          ],
          [
            138.79075857059698,
            37.040502735526914,
            629.0
          ],
          [
            138.79082584198775,
            37.04033077805086,
            633.0
          ],
          [
            138.7908931133785,
            37.04015882057481,
            638.0
          ],
          [
            138.79096038476928,
            37.03998686309876,
            641.0
          ],
          [
            138.79102765616005,
            37.03981490562271,
            645.0
          ],
          [
            138.79109492755083,
            37.039642948146664,
            648.0
          ],
          [
            138.7911621989416,
            37.039470990670615,
            652.0
          ],
          [
            138.79122947033238,
            37.03929903319457,
            656.0
          ],
          [
            138.79129674172316,
            37.03912707571852,
            659.0
          ],
          [
            138.7913640131139,
            37.03895511824247,
            662.0
          ],
          [
            138.79143128450468,
            37.038783160766414,
            667.0
          ],
          [
            138.79149855589546,
            37.038611203290365,
            671.0
          ],
          [
            138.79156582728623,
            37.03843924581432,
            673.0
          ],
          [
            138.791633098677,
            37.03826728833827,
            677.0
          ],
          [
            138.7917003700678,
            37.03809533086222,
            681.0
          ],
          [
            138.79176764145856,
            37.03792337338617,
            684.0
          ],
          [
            138.7918349128493,
            37.03775141591012,
            688.0
          ],
          [
            138.7919021842401,
            37.037579458434074,
            690.0
          ],
          [
            138.79196945563086,
            37.037407500958025,
            699.0
          ],
          [
            138.79203672702164,
            37.03723554348197,
            709.0
          ],
          [
            138.79210399841241,
            37.03706358600592,
            716.0
          ],
          [
            138.7921712698032,
            37.03689162852987,
            722.0
          ],
          [
            138.79223854119397,
            37.036719671053824,
            731.0
          ],
          [
            138.79230581258471,
            37.036547713577775,
            738.0
          ],
          [
            138.7923730839755,
            37.03637575610173,
            743.0
          ],
          [
            138.7923796,
            37.0363591,
            743.0
          ]
        ]
      }
    },
    {
      "type": "Feature",
      "properties": {
        "name": "パノラマ第2ロマンス",
        "horizontal_dist_map": 869,
        "slope_dist_map": 910,
        "elevation_diff_map": 197.0
      },
      "geometry": {
        "type": "LineString",
        "coordinates": [
          [
            138.7894235,
            37.0447391,
            523.0
          ],
          [
            138.78962750051426,
            37.044663364714225,
            523.0
          ],
          [
            138.78983150102852,
            37.04458762942845,
            522.0
          ],
          [
            138.79003550154275,
            37.04451189414267,
            513.0
          ],
          [
            138.790239502057,
            37.0444361588569,
            508.0
          ],
          [
            138.79044350257126,
            37.04436042357112,
            514.0
          ],
          [
            138.79064750308552,
            37.044284688285344,
            527.0
          ],
          [
            138.79085150359978,
            37.04420895299957,
            539.0
          ],
          [
            138.79105550411404,
            37.04413321771379,
            550.0
          ],
          [
            138.79125950462827,
            37.04405748242802,
            550.0
          ],
          [
            138.79146350514253,
            37.04398174714225,
            546.0
          ],
          [
            138.7916675056568,
            37.04390601185647,
            556.0
          ],
          [
            138.79187150617105,
            37.043830276570695,
            567.0
          ],
          [
            138.7920755066853,
            37.04375454128492,
            576.0
          ],
          [
            138.79227950719954,
            37.04367880599914,
            582.0
          ],
          [
            138.7924835077138,
            37.04360307071337,
            584.0
          ],
          [
            138.79268750822806,
            37.04352733542759,
            586.0
          ],
          [
            138.79289150874231,
            37.043451600141815,
            592.0
          ],
          [
            138.79309550925657,
            37.04337586485604,
            598.0
          ],
          [
            138.7932995097708,
            37.04330012957026,
            608.0
          ],
          [
            138.79350351028506,
            37.043224394284486,
            611.0
          ],
          [
            138.79370751079932,
            37.04314865899871,
            612.0
          ],
          [
            138.79391151131358,
            37.043072923712934,
            615.0
          ],
          [
            138.79411551182784,
            37.04299718842716,
            622.0
          ],
          [
            138.7943195123421,
            37.04292145314138,
            630.0
          ],
          [
            138.79452351285633,
            37.04284571785561,
            636.0
          ],
          [
            138.7947275133706,
            37.04276998256984,
            641.0
          ],
          [
            138.79493151388485,
            37.04269424728406,
            649.0
          ],
          [
            138.7951355143991,
            37.042618511998285,
            653.0
          ],
          [
            138.79533951491337,
            37.04254277671251,
            658.0
          ],
          [
            138.7955435154276,
            37.04246704142673,
            666.0
          ],
          [
            138.79574751594185,
            37.042391306140956,
            672.0
          ],
          [
            138.7959515164561,
            37.04231557085518,
            679.0
          ],
          [
            138.79615551697037,
            37.042239835569404,
            684.0
          ],
          [
            138.79635951748463,
            37.04216410028363,
            689.0
          ],
          [
            138.7965635179989,
            37.04208836499785,
            692.0
          ],
          [
            138.79676751851312,
            37.042012629712076,
            695.0
          ],
          [
            138.79697151902738,
            37.0419368944263,
            699.0
          ],
          [
            138.79717551954164,
            37.041861159140524,
            702.0
          ],
          [
            138.7973795200559,
            37.04178542385475,
            705.0
          ],
          [
            138.79758352057016,
            37.04170968856897,
            709.0
          ],
          [
            138.7977875210844,
            37.0416339532832,
            711.0
          ],
          [
            138.79799152159865,
            37.04155821799743,
            714.0
          ],
          [
            138.7981955221129,
            37.04148248271165,
            718.0
          ],
          [
            138.7982946,
            37.0414457,
            720.0
          ]
        ]
      }
    },
    {
      "type": "Feature",
      "properties": {
        "name": "パノラマクワッド",
        "horizontal_dist_map": 1027,
        "slope_dist_map": 1059,
        "elevation_diff_map": 203.0
      },
      "geometry": {
        "type": "LineString",
        "coordinates": [
          [
            138.8089497,
            37.0379,
            520.0
          ],
          [
            138.80873747995062,
            37.03795945338668,
            525.0
          ],
          [
            138.80852525990122,
            37.03801890677336,
            532.0
          ],
          [
            138.80831303985184,
            37.038078360160036,
            536.0
          ],
          [
            138.80810081980243,
            37.03813781354671,
            542.0
          ],
          [
            138.80788859975306,
            37.03819726693339,
            545.0
          ],
          [
            138.80767637970365,
            37.03825672032007,
            551.0
          ],
          [
            138.80746415965427,
            37.03831617370675,
            556.0
          ],
          [
            138.8072519396049,
            37.03837562709342,
            565.0
          ],
          [
            138.8070397195555,
            37.038435080480106,
            569.0
          ],
          [
            138.8068274995061,
            37.03849453386678,
            577.0
          ],
          [
            138.8066152794567,
            37.03855398725346,
            586.0
          ],
          [
            138.80640305940733,
            37.03861344064014,
            597.0
          ],
          [
            138.80619083935792,
            37.03867289402682,
            606.0
          ],
          [
            138.80597861930855,
            37.03873234741349,
            610.0
          ],
          [
            138.80576639925917,
            37.03879180080017,
            609.0
          ],
          [
            138.80555417920976,
            37.03885125418685,
            616.0
          ],
          [
            138.8053419591604,
            37.03891070757353,
            626.0
          ],
          [
            138.80512973911098,
            37.038970160960204,
            632.0
          ],
          [
            138.8049175190616,
            37.03902961434689,
            634.0
          ],
          [
            138.80470529901223,
            37.03908906773356,
            637.0
          ],
          [
            138.80449307896282,
            37.03914852112024,
            640.0
          ],
          [
            138.80428085891344,
            37.03920797450692,
            643.0
          ],
          [
            138.80406863886404,
            37.0392674278936,
            647.0
          ],
          [
            138.80385641881466,
            37.039326881280275,
            651.0
          ],
          [
            138.80364419876526,
            37.03938633466695,
            660.0
          ],
          [
            138.80343197871588,
            37.039445788053634,
            657.0
          ],
          [
            138.8032197586665,
            37.03950524144031,
            653.0
          ],
          [
            138.8030075386171,
            37.039564694826986,
            656.0
          ],
          [
            138.80279531856772,
            37.03962414821367,
            662.0
          ],
          [
            138.8025830985183,
            37.039683601600345,
            666.0
          ],
          [
            138.80237087846893,
            37.03974305498702,
            671.0
          ],
          [
            138.80215865841953,
            37.039802508373704,
            672.0
          ],
          [
            138.80194643837015,
            37.03986196176038,
            673.0
          ],
          [
            138.80173421832077,
            37.039921415147056,
            674.0
          ],
          [
            138.80152199827137,
            37.03998086853373,
            676.0
          ],
          [
            138.801309778222,
            37.040040321920415,
            679.0
          ],
          [
            138.8010975581726,
            37.04009977530709,
            687.0
          ],
          [
            138.8008853381232,
            37.04015922869377,
            690.0
          ],
          [
            138.8006731180738,
            37.04021868208045,
            691.0
          ],
          [
            138.80046089802443,
            37.040278135467126,
            692.0
          ],
          [
            138.80024867797505,
            37.0403375888538,
            694.0
          ],
          [
            138.80003645792564,
            37.04039704224048,
            696.0
          ],
          [
            138.79982423787627,
            37.04045649562716,
            698.0
          ],
          [
            138.79961201782686,
            37.04051594901384,
            700.0
          ],
          [
            138.79939979777748,
            37.04057540240051,
            701.0
          ],
          [
            138.79918757772808,
            37.0406348557872,
            704.0
          ],
          [
            138.7989753576787,
            37.04069430917387,
            706.0
          ],
          [
            138.79876313762932,
            37.04075376256055,
            711.0
          ],
          [
            138.79855091757992,
            37.04081321594723,
            720.0
          ],
          [
            138.79833869753054,
            37.04087266933391,
            723.0
          ],
          [
            138.79812647748113,
            37.040932122720584,
            724.0
          ],
          [
            138.7980491,
            37.0409538,
            723.0
          ]
        ]
      }
    },
    {
      "type": "Feature",
      "properties": {
        "name": "美奈第1トリプル",
        "horizontal_dist_map": 476,
        "slope_dist_map": 498,
        "elevation_diff_map": 132.0
      },
      "geometry": {
        "type": "LineString",
        "coordinates": [
          [
            138.8137529,
            37.035495,
            388.0
          ],
          [
            138.8135807847657,
            37.035610926330634,
            392.0
          ],
          [
            138.81340866953138,
            37.03572685266127,
            399.0
          ],
          [
            138.81323655429708,
            37.03584277899191,
            405.0
          ],
          [
            138.81306443906277,
            37.03595870532255,
            411.0
          ],
          [
            138.81289232382846,
            37.036074631653186,
            415.0
          ],
          [
            138.81272020859416,
            37.03619055798382,
            418.0
          ],
          [
            138.81254809335985,
            37.03630648431446,
            422.0
          ],
          [
            138.81237597812554,
            37.0364224106451,
            431.0
          ],
          [
            138.81220386289124,
            37.03653833697574,
            433.0
          ],
          [
            138.81203174765696,
            37.036654263306374,
            437.0
          ],
          [
            138.81185963242265,
            37.03677018963701,
            437.0
          ],
          [
            138.81168751718835,
            37.03688611596765,
            441.0
          ],
          [
            138.81151540195404,
            37.03700204229829,
            448.0
          ],
          [
            138.81134328671973,
            37.03711796862893,
            453.0
          ],
          [
            138.81117117148543,
            37.03723389495956,
            459.0
          ],
          [
            138.81099905625112,
            37.0373498212902,
            462.0
          ],
          [
            138.8108269410168,
            37.037465747620836,
            467.0
          ],
          [
            138.8106548257825,
            37.03758167395148,
            475.0
          ],
          [
            138.8104827105482,
            37.037697600282115,
            486.0
          ],
          [
            138.8103105953139,
            37.03781352661275,
            498.0
          ],
          [
            138.8101384800796,
            37.03792945294339,
            507.0
          ],
          [
            138.80996636484528,
            37.038045379274024,
            512.0
          ],
          [
            138.80979424961097,
            37.03816130560466,
            516.0
          ],
          [
            138.8096503156344,
            37.03825825075787,
            520.0
          ]
        ]
      }
    },
    {
      "type": "Feature",
      "properties": {
        "name": "長峰クワッド",
        "horizontal_dist_map": 1019,
        "slope_dist_map": 1053,
        "elevation_diff_map": 204.4
      },
      "geometry": {
        "type": "LineString",
        "coordinates": [
          [
            138.8195156,
            37.0336758,
            312.6
          ],
          [
            138.8193246628004,
            37.0337709143764,
            313.6
          ],
          [
            138.81913372560084,
            37.033866028752804,
            319.0
          ],
          [
            138.81894278840124,
            37.033961143129204,
            326.7
          ],
          [
            138.81875185120165,
            37.03405625750561,
            332.4
          ],
          [
            138.8185609140021,
            37.03415137188201,
            338.9
          ],
          [
            138.8183699768025,
            37.03424648625842,
            343.5
          ],
          [
            138.8181790396029,
            37.03434160063482,
            347.9
          ],
          [
            138.81798810240335,
            37.03443671501122,
            352.3
          ],
          [
            138.81779716520376,
            37.034531829387625,
            356.4
          ],
          [
            138.81760622800417,
            37.034626943764025,
            361.5
          ],
          [
            138.8174152908046,
            37.03472205814043,
            363.8
          ],
          [
            138.817224353605,
            37.03481717251683,
            365.8
          ],
          [
            138.81703341640542,
            37.03491228689324,
            367.1
          ],
          [
            138.81684247920586,
            37.03500740126964,
            368.3
          ],
          [
            138.81665154200627,
            37.03510251564604,
            369.6
          ],
          [
            138.81646060480668,
            37.035197630022445,
            371.4
          ],
          [
            138.81626966760712,
            37.035292744398845,
            374.4
          ],
          [
            138.81607873040753,
            37.03538785877525,
            379.6
          ],
          [
            138.81588779320793,
            37.03548297315165,
            387.0
          ],
          [
            138.81569685600837,
            37.03557808752806,
            392.4
          ],
          [
            138.81550591880878,
            37.03567320190446,
            398.4
          ],
          [
            138.8153149816092,
            37.03576831628086,
            402.1
          ],
          [
            138.81512404440963,
            37.035863430657265,
            402.4
          ],
          [
            138.81493310721004,
            37.035958545033665,
            402.0
          ],
          [
            138.81474217001045,
            37.03605365941007,
            393.9
          ],
          [
            138.81455123281089,
            37.03614877378647,
            388.0
          ],
          [
            138.8143602956113,
            37.03624388816288,
            387.0
          ],
          [
            138.8141693584117,
            37.03633900253928,
            390.0
          ],
          [
            138.81397842121214,
            37.03643411691568,
            394.0
          ],
          [
            138.81378748401255,
            37.036529231292086,
            399.0
          ],
          [
            138.81359654681296,
            37.036624345668486,
            403.0
          ],
          [
            138.8134056096134,
            37.03671946004489,
            407.0
          ],
          [
            138.8132146724138,
            37.03681457442129,
            412.0
          ],
          [
            138.81302373521422,
            37.0369096887977,
            419.0
          ],
          [
            138.81283279801465,
            37.0370048031741,
            425.0
          ],
          [
            138.81264186081506,
            37.0370999175505,
            432.0
          ],
          [
            138.81245092361547,
            37.037195031926906,
            438.0
          ],
          [
            138.8122599864159,
            37.037290146303306,
            441.0
          ],
          [
            138.81206904921632,
            37.03738526067971,
            439.0
          ],
          [
            138.81187811201673,
            37.03748037505611,
            443.0
          ],
          [
            138.81168717481717,
            37.03757548943252,
            452.0
          ],
          [
            138.81149623761758,
            37.03767060380892,
            459.0
          ],
          [
            138.81130530041798,
            37.03776571818532,
            465.0
          ],
          [
            138.81111436321842,
            37.03786083256173,
            470.0
          ],
          [
            138.81092342601883,
            37.037955946938126,
            478.0
          ],
          [
            138.81073248881924,
            37.03805106131453,
            489.0
          ],
          [
            138.81054155161968,
            37.03814617569093,
            498.0
          ],
          [
            138.8103506144201,
            37.03824129006734,
            506.0
          ],
          [
            138.8101596772205,
            37.03833640444374,
            510.0
          ],
          [
            138.8099687400209,
            37.03843151882014,
            513.0
          ],
          [
            138.8097861,
            37.0385225,
            517.0
          ]
        ]
      }
    },
    {
      "type": "Feature",
      "properties": {
        "name": "大別当トリプル",
        "horizontal_dist_map": 622,
        "slope_dist_map": 668,
        "elevation_diff_map": 205.0
      },
      "geometry": {
        "type": "LineString",
        "coordinates": [
          [
            138.8134124,
            37.0348911,
            380.0
          ],
          [
            138.8131882979828,
            37.034876993430665,
            382.0
          ],
          [
            138.8129641959656,
            37.03486288686132,
            385.0
          ],
          [
            138.8127400939484,
            37.03484878029198,
            390.0
          ],
          [
            138.81251599193118,
            37.034834673722635,
            396.0
          ],
          [
            138.81229188991398,
            37.0348205671533,
            406.0
          ],
          [
            138.81206778789678,
            37.03480646058396,
            417.0
          ],
          [
            138.81184368587958,
            37.03479235401461,
            425.0
          ],
          [
            138.81161958386238,
            37.034778247445274,
            433.0
          ],
          [
            138.81139548184518,
            37.03476414087593,
            437.0
          ],
          [
            138.81117137982798,
            37.03475003430659,
            437.0
          ],
          [
            138.81094727781078,
            37.03473592773725,
            441.0
          ],
          [
            138.81072317579356,
            37.034721821167906,
            448.0
          ],
          [
            138.81049907377636,
            37.03470771459857,
            463.0
          ],
          [
            138.81027497175916,
            37.03469360802922,
            478.0
          ],
          [
            138.81005086974196,
            37.034679501459884,
            485.0
          ],
          [
            138.80982676772476,
            37.03466539489054,
            498.0
          ],
          [
            138.80960266570756,
            37.0346512883212,
            506.0
          ],
          [
            138.80937856369036,
            37.03463718175186,
            519.0
          ],
          [
            138.80915446167313,
            37.034623075182516,
            530.0
          ],
          [
            138.80893035965593,
            37.03460896861318,
            536.0
          ],
          [
            138.80870625763873,
            37.03459486204383,
            546.0
          ],
          [
            138.80848215562153,
            37.034580755474494,
            552.0
          ],
          [
            138.80825805360433,
            37.034566648905155,
            560.0
          ],
          [
            138.80803395158713,
            37.03455254233581,
            566.0
          ],
          [
            138.80780984956994,
            37.03453843576647,
            569.0
          ],
          [
            138.8075857475527,
            37.034524329197126,
            570.0
          ],
          [
            138.8073616455355,
            37.03451022262779,
            565.0
          ],
          [
            138.8071375435183,
            37.03449611605845,
            568.0
          ],
          [
            138.8069134415011,
            37.0344820094891,
            579.0
          ],
          [
            138.8066893394839,
            37.034467902919765,
            582.0
          ],
          [
            138.8064652374667,
            37.03445379635042,
            585.0
          ],
          [
            138.8064367,
            37.034452,
            585.0
          ]
        ]
      }
    },
    {
      "type": "Feature",
      "properties": {
        "name": "大沢第1トリプル",
        "horizontal_dist_map": 1073,
        "slope_dist_map": 1108,
        "elevation_diff_map": 248.3
      },
      "geometry": {
        "type": "LineString",
        "coordinates": [
          [
            138.8064462,
            37.0250707,
            367.7
          ],
          [
            138.80640224185225,
            37.02524743581508,
            367.0
          ],
          [
            138.80635828370453,
            37.02542417163016,
            370.3
          ],
          [
            138.80631432555677,
            37.025600907445245,
            374.2
          ],
          [
            138.806270367409,
            37.025777643260334,
            377.7
          ],
          [
            138.80622640926128,
            37.025954379075415,
            380.8
          ],
          [
            138.80618245111353,
            37.0261311148905,
            384.0
          ],
          [
            138.8061384929658,
            37.02630785070558,
            386.2
          ],
          [
            138.80609453481804,
            37.02648458652066,
            388.2
          ],
          [
            138.8060505766703,
            37.02666132233574,
            390.0
          ],
          [
            138.80600661852256,
            37.02683805815082,
            392.2
          ],
          [
            138.8059626603748,
            37.027014793965904,
            398.0
          ],
          [
            138.80591870222705,
            37.02719152978099,
            402.0
          ],
          [
            138.80587474407932,
            37.027368265596074,
            406.0
          ],
          [
            138.80583078593156,
            37.027545001411156,
            409.0
          ],
          [
            138.80578682778383,
            37.02772173722624,
            415.0
          ],
          [
            138.80574286963608,
            37.02789847304132,
            420.0
          ],
          [
            138.80569891148832,
            37.0280752088564,
            425.0
          ],
          [
            138.8056549533406,
            37.02825194467148,
            429.0
          ],
          [
            138.80561099519284,
            37.02842868048656,
            436.0
          ],
          [
            138.80556703704508,
            37.02860541630165,
            442.0
          ],
          [
            138.80552307889735,
            37.02878215211673,
            447.0
          ],
          [
            138.8054791207496,
            37.028958887931815,
            451.0
          ],
          [
            138.80543516260187,
            37.029135623746896,
            455.0
          ],
          [
            138.8053912044541,
            37.02931235956198,
            459.0
          ],
          [
            138.80534724630635,
            37.02948909537706,
            465.0
          ],
          [
            138.80530328815863,
            37.02966583119214,
            468.0
          ],
          [
            138.80525933001087,
            37.02984256700723,
            474.0
          ],
          [
            138.8052153718631,
            37.03001930282231,
            477.0
          ],
          [
            138.80517141371539,
            37.03019603863739,
            482.0
          ],
          [
            138.80512745556763,
            37.03037277445247,
            488.0
          ],
          [
            138.8050834974199,
            37.030549510267555,
            493.0
          ],
          [
            138.80503953927214,
            37.03072624608264,
            501.0
          ],
          [
            138.8049955811244,
            37.03090298189772,
            504.0
          ],
          [
            138.80495162297666,
            37.0310797177128,
            516.0
          ],
          [
            138.8049076648289,
            37.03125645352789,
            520.0
          ],
          [
            138.80486370668115,
            37.03143318934297,
            529.0
          ],
          [
            138.80481974853342,
            37.03160992515805,
            533.0
          ],
          [
            138.80477579038566,
            37.03178666097313,
            541.0
          ],
          [
            138.80473183223793,
            37.031963396788214,
            542.0
          ],
          [
            138.80468787409018,
            37.032140132603296,
            547.0
          ],
          [
            138.80464391594242,
            37.03231686841838,
            549.0
          ],
          [
            138.8045999577947,
            37.03249360423346,
            556.0
          ],
          [
            138.80455599964694,
            37.03267034004855,
            561.0
          ],
          [
            138.80451204149918,
            37.03284707586363,
            565.0
          ],
          [
            138.80446808335145,
            37.03302381167871,
            568.0
          ],
          [
            138.8044241252037,
            37.03320054749379,
            578.0
          ],
          [
            138.80438016705597,
            37.03337728330887,
            584.0
          ],
          [
            138.8043362089082,
            37.033554019123955,
            592.0
          ],
          [
            138.80429225076045,
            37.033730754939036,
            596.0
          ],
          [
            138.80424829261273,
            37.033907490754125,
            602.0
          ],
          [
            138.80420433446497,
            37.034084226569206,
            603.0
          ],
          [
            138.8041603763172,
            37.03426096238429,
            606.0
          ],
          [
            138.80411641816949,
            37.03443769819937,
            611.0
          ],
          [
            138.8040858,
            37.0345608,
            616.0
          ]
        ]
      }
    },
    {
      "type": "Feature",
      "properties": {
        "name": "ホテル前ロマンス",
        "horizontal_dist_map": 91,
        "slope_dist_map": 93,
        "elevation_diff_map": 18.6
      },
      "geometry": {
        "type": "LineString",
        "coordinates": [
          [
            138.82046133644437,
            37.0336695457034,
            310.5
          ],
          [
            138.8206375735991,
            37.033557678381456,
            312.0
          ],
          [
            138.82081381075383,
            37.03344581105951,
            316.7
          ],
          [
            138.82099004790857,
            37.03333394373757,
            321.1
          ],
          [
            138.8211662850633,
            37.03322207641562,
            327.1
          ],
          [
            138.82126700105994,
            37.03315814648644,
            329.1
          ]
        ]
      }
    },
    {
      "type": "Feature",
      "properties": {
        "name": "リーゼン第2ロマンスB線",
        "horizontal_dist_map": 614,
        "slope_dist_map": 629,
        "elevation_diff_map": 114.9
      },
      "geometry": {
        "type": "LineString",
        "coordinates": [
          [
            138.8275718,
            37.0300778,
            214.8
          ],
          [
            138.82737879532132,
            37.03017017802963,
            215.3
          ],
          [
            138.82718579064266,
            37.03026255605925,
            219.1
          ],
          [
            138.826992785964,
            37.03035493408888,
            224.8
          ],
          [
            138.82679978128536,
            37.0304473121185,
            232.2
          ],
          [
            138.8266067766067,
            37.030539690148125,
            235.7
          ],
          [
            138.82641377192803,
            37.03063206817775,
            240.0
          ],
          [
            138.82622076724937,
            37.03072444620737,
            242.1
          ],
          [
            138.8260277625707,
            37.030816824237,
            242.6
          ],
          [
            138.82583475789204,
            37.03090920226662,
            242.6
          ],
          [
            138.82564175321338,
            37.03100158029625,
            243.1
          ],
          [
            138.8254487485347,
            37.031093958325876,
            244.6
          ],
          [
            138.82525574385608,
            37.031186336355496,
            247.0
          ],
          [
            138.8250627391774,
            37.031278714385124,
            248.9
          ],
          [
            138.82486973449875,
            37.03137109241475,
            253.3
          ],
          [
            138.82467672982008,
            37.03146347044437,
            258.4
          ],
          [
            138.82448372514142,
            37.031555848474,
            263.3
          ],
          [
            138.82429072046276,
            37.03164822650362,
            264.6
          ],
          [
            138.8240977157841,
            37.03174060453325,
            265.7
          ],
          [
            138.82390471110543,
            37.031832982562875,
            267.0
          ],
          [
            138.8237117064268,
            37.031925360592496,
            270.3
          ],
          [
            138.82351870174813,
            37.03201773862212,
            272.7
          ],
          [
            138.82332569706946,
            37.032110116651744,
            276.5
          ],
          [
            138.8231326923908,
            37.03220249468137,
            281.0
          ],
          [
            138.82293968771214,
            37.032294872711,
            289.8
          ],
          [
            138.82274668303347,
            37.03238725074062,
            299.6
          ],
          [
            138.8225536783548,
            37.03247962877025,
            307.2
          ],
          [
            138.82236067367614,
            37.03257200679987,
            313.4
          ],
          [
            138.8221676689975,
            37.032664384829495,
            319.7
          ],
          [
            138.82197466431884,
            37.03275676285912,
            325.2
          ],
          [
            138.82178165964018,
            37.03284914088874,
            328.2
          ],
          [
            138.8216403,
            37.0329168,
            329.7
          ]
        ]
      }
    },
    {
      "type": "Feature",
      "properties": {
        "name": "リーゼン第2ロマンスA線",
        "horizontal_dist_map": 615,
        "slope_dist_map": 630,
        "elevation_diff_map": 115.3
      },
      "geometry": {
        "type": "LineString",
        "coordinates": [
          [
            138.8275402,
            37.0300321,
            214.4
          ],
          [
            138.8273469107014,
            37.03012409455369,
            215.5
          ],
          [
            138.82715362140283,
            37.030216089107384,
            219.2
          ],
          [
            138.82696033210425,
            37.030308083661076,
            226.2
          ],
          [
            138.8267670428057,
            37.03040007821477,
            231.7
          ],
          [
            138.82657375350712,
            37.03049207276846,
            236.8
          ],
          [
            138.82638046420854,
            37.03058406732215,
            239.8
          ],
          [
            138.82618717490996,
            37.030676061875845,
            243.1
          ],
          [
            138.82599388561138,
            37.03076805642954,
            243.4
          ],
          [
            138.8258005963128,
            37.03086005098323,
            242.8
          ],
          [
            138.82560730701422,
            37.030952045536914,
            243.2
          ],
          [
            138.82541401771564,
            37.031044040090606,
            244.6
          ],
          [
            138.8252207284171,
            37.0311360346443,
            246.7
          ],
          [
            138.82502743911851,
            37.03122802919799,
            249.1
          ],
          [
            138.82483414981994,
            37.03132002375168,
            252.5
          ],
          [
            138.82464086052136,
            37.031412018305375,
            258.9
          ],
          [
            138.82444757122278,
            37.03150401285907,
            263.2
          ],
          [
            138.8242542819242,
            37.03159600741276,
            264.4
          ],
          [
            138.82406099262562,
            37.03168800196645,
            265.7
          ],
          [
            138.82386770332704,
            37.03177999652014,
            267.7
          ],
          [
            138.8236744140285,
            37.031871991073835,
            269.9
          ],
          [
            138.8234811247299,
            37.03196398562753,
            273.2
          ],
          [
            138.82328783543133,
            37.03205598018122,
            276.1
          ],
          [
            138.82309454613275,
            37.03214797473491,
            281.2
          ],
          [
            138.82290125683417,
            37.032239969288604,
            288.9
          ],
          [
            138.8227079675356,
            37.032331963842296,
            299.9
          ],
          [
            138.822514678237,
            37.03242395839599,
            306.5
          ],
          [
            138.82232138893846,
            37.03251595294968,
            313.0
          ],
          [
            138.82212809963988,
            37.03260794750337,
            319.1
          ],
          [
            138.8219348103413,
            37.032699942057064,
            325.3
          ],
          [
            138.82174152104272,
            37.03279193661075,
            328.1
          ],
          [
            138.821592,
            37.0328631,
            329.7
          ]
        ]
      }
    },
    {
      "type": "Feature",
      "properties": {
        "name": "長峰第2ロマンスB線",
        "horizontal_dist_map": 435,
        "slope_dist_map": 448,
        "elevation_diff_map": 91.1
      },
      "geometry": {
        "type": "LineString",
        "coordinates": [
          [
            138.8193841,
            37.0335625,
            312.7
          ],
          [
            138.81919302621688,
            37.033657433085004,
            314.6
          ],
          [
            138.81900195243375,
            37.033752366170006,
            323.8
          ],
          [
            138.81881087865062,
            37.03384729925501,
            331.1
          ],
          [
            138.8186198048675,
            37.03394223234001,
            337.7
          ],
          [
            138.81842873108437,
            37.034037165425005,
            343.8
          ],
          [
            138.81823765730124,
            37.03413209851001,
            349.6
          ],
          [
            138.8180465835181,
            37.03422703159501,
            355.1
          ],
          [
            138.81785550973498,
            37.03432196468001,
            357.4
          ],
          [
            138.81766443595185,
            37.03441689776501,
            359.5
          ],
          [
            138.81747336216873,
            37.034511830850015,
            362.1
          ],
          [
            138.8172822883856,
            37.03460676393502,
            363.4
          ],
          [
            138.81709121460247,
            37.03470169702002,
            364.4
          ],
          [
            138.81690014081934,
            37.03479663010502,
            365.5
          ],
          [
            138.81670906703621,
            37.03489156319002,
            366.2
          ],
          [
            138.8165179932531,
            37.03498649627502,
            368.8
          ],
          [
            138.81632691946996,
            37.03508142936002,
            371.1
          ],
          [
            138.81613584568683,
            37.03517636244502,
            374.4
          ],
          [
            138.8159447719037,
            37.03527129553002,
            379.5
          ],
          [
            138.81575369812057,
            37.035366228615025,
            386.2
          ],
          [
            138.81556262433745,
            37.03546116170003,
            392.9
          ],
          [
            138.81537155055432,
            37.03555609478503,
            401.3
          ],
          [
            138.8152228,
            37.03563,
            403.8
          ]
        ]
      }
    },
    {
      "type": "Feature",
      "properties": {
        "name": "長峰第2ロマンスA線",
        "horizontal_dist_map": 436,
        "slope_dist_map": 448,
        "elevation_diff_map": 90.9
      },
      "geometry": {
        "type": "LineString",
        "coordinates": [
          [
            138.8193516,
            37.0335096,
            312.8
          ],
          [
            138.81916046811116,
            37.03360445770898,
            315.0
          ],
          [
            138.81896933622232,
            37.033699315417955,
            323.1
          ],
          [
            138.81877820433348,
            37.033794173126935,
            330.1
          ],
          [
            138.81858707244461,
            37.033889030835915,
            337.0
          ],
          [
            138.81839594055577,
            37.03398388854489,
            343.1
          ],
          [
            138.81820480866693,
            37.03407874625387,
            350.0
          ],
          [
            138.8180136767781,
            37.03417360396285,
            354.3
          ],
          [
            138.81782254488925,
            37.03426846167183,
            357.1
          ],
          [
            138.8176314130004,
            37.0343633193808,
            359.5
          ],
          [
            138.81744028111157,
            37.03445817708978,
            362.1
          ],
          [
            138.8172491492227,
            37.03455303479876,
            363.2
          ],
          [
            138.81705801733386,
            37.034647892507735,
            364.2
          ],
          [
            138.81686688544502,
            37.034742750216715,
            364.7
          ],
          [
            138.81667575355618,
            37.034837607925695,
            365.9
          ],
          [
            138.81648462166734,
            37.03493246563467,
            367.9
          ],
          [
            138.8162934897785,
            37.03502732334365,
            370.3
          ],
          [
            138.81610235788966,
            37.03512218105263,
            373.8
          ],
          [
            138.8159112260008,
            37.0352170387616,
            378.5
          ],
          [
            138.81572009411195,
            37.03531189647058,
            386.3
          ],
          [
            138.8155289622231,
            37.03540675417956,
            391.9
          ],
          [
            138.81533783033427,
            37.035501611888535,
            400.1
          ],
          [
            138.8151821,
            37.0355789,
            403.7
          ]
        ]
      }
    },
    {
      "type": "Feature",
      "properties": {
        "name": "当間第4クワッド",
        "horizontal_dist_map": 1507,
        "slope_dist_map": 1548,
        "elevation_diff_map": 290.0
      },
      "geometry": {
        "type": "LineString",
        "coordinates": [
          [
            138.781885,
            37.0284516,
            640.0
          ],
          [
            138.781748248365,
            37.02830858088026,
            643.0
          ],
          [
            138.78161149673002,
            37.02816556176052,
            649.0
          ],
          [
            138.78147474509504,
            37.02802254264078,
            654.0
          ],
          [
            138.78133799346006,
            37.02787952352104,
            660.0
          ],
          [
            138.78120124182507,
            37.0277365044013,
            663.0
          ],
          [
            138.7810644901901,
            37.02759348528156,
            667.0
          ],
          [
            138.7809277385551,
            37.02745046616182,
            670.0
          ],
          [
            138.78079098692012,
            37.027307447042084,
            672.0
          ],
          [
            138.78065423528514,
            37.027164427922344,
            677.0
          ],
          [
            138.78051748365016,
            37.027021408802604,
            679.0
          ],
          [
            138.78038073201517,
            37.026878389682864,
            686.0
          ],
          [
            138.7802439803802,
            37.026735370563124,
            691.0
          ],
          [
            138.78010722874518,
            37.026592351443384,
            701.0
          ],
          [
            138.7799704771102,
            37.026449332323644,
            710.0
          ],
          [
            138.7798337254752,
            37.026306313203904,
            711.0
          ],
          [
            138.77969697384023,
            37.026163294084164,
            712.0
          ],
          [
            138.77956022220525,
            37.026020274964424,
            713.0
          ],
          [
            138.77942347057026,
            37.025877255844684,
            713.0
          ],
          [
            138.77928671893528,
            37.025734236724944,
            712.0
          ],
          [
            138.7791499673003,
            37.025591217605204,
            713.0
          ],
          [
            138.77901321566532,
            37.02544819848546,
            714.0
          ],
          [
            138.77887646403033,
            37.02530517936572,
            719.0
          ],
          [
            138.77873971239535,
            37.02516216024598,
            720.0
          ],
          [
            138.77860296076037,
            37.02501914112625,
            722.0
          ],
          [
            138.77846620912538,
            37.02487612200651,
            725.0
          ],
          [
            138.7783294574904,
            37.02473310288677,
            727.0
          ],
          [
            138.77819270585542,
            37.02459008376703,
            728.0
          ],
          [
            138.77805595422043,
            37.02444706464729,
            728.0
          ],
          [
            138.77791920258545,
            37.02430404552755,
            727.0
          ],
          [
            138.77778245095047,
            37.02416102640781,
            726.0
          ],
          [
            138.77764569931549,
            37.02401800728807,
            725.0
          ],
          [
            138.7775089476805,
            37.02387498816833,
            727.0
          ],
          [
            138.77737219604552,
            37.02373196904859,
            729.0
          ],
          [
            138.77723544441054,
            37.02358894992885,
            732.0
          ],
          [
            138.77709869277555,
            37.02344593080911,
            736.0
          ],
          [
            138.77696194114057,
            37.02330291168937,
            739.0
          ],
          [
            138.7768251895056,
            37.02315989256963,
            741.0
          ],
          [
            138.77668843787058,
            37.02301687344989,
            741.0
          ],
          [
            138.7765516862356,
            37.02287385433015,
            744.0
          ],
          [
            138.7764149346006,
            37.02273083521042,
            747.0
          ],
          [
            138.77627818296563,
            37.02258781609068,
            748.0
          ],
          [
            138.77614143133064,
            37.02244479697094,
            752.0
          ],
          [
            138.77600467969566,
            37.0223017778512,
            755.0
          ],
          [
            138.77586792806068,
            37.02215875873146,
            758.0
          ],
          [
            138.7757311764257,
            37.02201573961172,
            760.0
          ],
          [
            138.7755944247907,
            37.02187272049198,
            768.0
          ],
          [
            138.77545767315573,
            37.02172970137224,
            774.0
          ],
          [
            138.77532092152074,
            37.0215866822525,
            780.0
          ],
          [
            138.77518416988576,
            37.02144366313276,
            785.0
          ],
          [
            138.77504741825078,
            37.02130064401302,
            787.0
          ],
          [
            138.7749106666158,
            37.02115762489328,
            789.0
          ],
          [
            138.7747739149808,
            37.02101460577354,
            792.0
          ],
          [
            138.77463716334583,
            37.0208715866538,
            795.0
          ],
          [
            138.77450041171085,
            37.02072856753406,
            798.0
          ],
          [
            138.77436366007586,
            37.02058554841432,
            803.0
          ],
          [
            138.77422690844088,
            37.020442529294584,
            809.0
          ],
          [
            138.7740901568059,
            37.020299510174844,
            817.0
          ],
          [
            138.77395340517091,
            37.020156491055104,
            825.0
          ],
          [
            138.77381665353593,
            37.020013471935364,
            829.0
          ],
          [
            138.77367990190095,
            37.019870452815624,
            838.0
          ],
          [
            138.77354315026597,
            37.019727433695884,
            846.0
          ],
          [
            138.77340639863098,
            37.019584414576144,
            851.0
          ],
          [
            138.77326964699597,
            37.019441395456404,
            857.0
          ],
          [
            138.773132895361,
            37.019298376336664,
            861.0
          ],
          [
            138.772996143726,
            37.019155357216924,
            869.0
          ],
          [
            138.77285939209102,
            37.019012338097184,
            877.0
          ],
          [
            138.77272264045604,
            37.018869318977444,
            883.0
          ],
          [
            138.77258588882106,
            37.018726299857704,
            894.0
          ],
          [
            138.77244913718607,
            37.018583280737964,
            900.0
          ],
          [
            138.7723123855511,
            37.018440261618224,
            904.0
          ],
          [
            138.7721756339161,
            37.018297242498484,
            907.0
          ],
          [
            138.77203888228112,
            37.01815422337875,
            909.0
          ],
          [
            138.77190213064614,
            37.01801120425901,
            914.0
          ],
          [
            138.77176537901116,
            37.01786818513927,
            920.0
          ],
          [
            138.77162862737617,
            37.01772516601953,
            928.0
          ],
          [
            138.7715776,
            37.0176718,
            930.0
          ]
        ]
      }
    },
    {
      "type": "Feature",
      "properties": {
        "name": "当間第3ロマンス",
        "horizontal_dist_map": 500,
        "slope_dist_map": 513,
        "elevation_diff_map": 4.0
      },
      "geometry": {
        "type": "LineString",
        "coordinates": [
          [
            138.7719203,
            37.0236723,
            815.0
          ],
          [
            138.77195270062407,
            37.02385063341886,
            814.0
          ],
          [
            138.77198510124816,
            37.02402896683771,
            814.0
          ],
          [
            138.77201750187223,
            37.02420730025657,
            819.0
          ],
          [
            138.7720499024963,
            37.02438563367542,
            819.0
          ],
          [
            138.77208230312036,
            37.02456396709428,
            819.0
          ],
          [
            138.77211470374445,
            37.02474230051313,
            825.0
          ],
          [
            138.7721471043685,
            37.02492063393199,
            829.0
          ],
          [
            138.77217950499258,
            37.02509896735085,
            841.0
          ],
          [
            138.77221190561664,
            37.0252773007697,
            850.0
          ],
          [
            138.77224430624074,
            37.02545563418856,
            848.0
          ],
          [
            138.7722767068648,
            37.02563396760741,
            846.0
          ],
          [
            138.77230910748887,
            37.02581230102627,
            844.0
          ],
          [
            138.77234150811296,
            37.02599063444512,
            841.0
          ],
          [
            138.77237390873702,
            37.02616896786398,
            838.0
          ],
          [
            138.7724063093611,
            37.02634730128284,
            834.0
          ],
          [
            138.77243870998515,
            37.02652563470169,
            831.0
          ],
          [
            138.77247111060925,
            37.02670396812055,
            823.0
          ],
          [
            138.7725035112333,
            37.0268823015394,
            815.0
          ],
          [
            138.77253591185737,
            37.02706063495826,
            809.0
          ],
          [
            138.77256831248144,
            37.02723896837711,
            805.0
          ],
          [
            138.77260071310553,
            37.02741730179597,
            804.0
          ],
          [
            138.7726331137296,
            37.02759563521483,
            806.0
          ],
          [
            138.77266551435366,
            37.02777396863368,
            807.0
          ],
          [
            138.77269791497775,
            37.02795230205254,
            810.0
          ],
          [
            138.77273031560182,
            37.02813063547139,
            811.0
          ],
          [
            138.7727304,
            37.0281311,
            811.0
          ]
        ]
      }
    },
    {
      "type": "Feature",
      "properties": {
        "name": "当間第2ロマンス",
        "horizontal_dist_map": 929,
        "slope_dist_map": 952,
        "elevation_diff_map": 177.0
      },
      "geometry": {
        "type": "LineString",
        "coordinates": [
          [
            138.7675774,
            37.0359466,
            628.0
          ],
          [
            138.767678362715,
            37.03578558562451,
            631.0
          ],
          [
            138.76777932543,
            37.03562457124902,
            634.0
          ],
          [
            138.76788028814502,
            37.03546355687353,
            638.0
          ],
          [
            138.76798125086003,
            37.03530254249804,
            644.0
          ],
          [
            138.76808221357504,
            37.035141528122544,
            648.0
          ],
          [
            138.76818317629008,
            37.03498051374706,
            652.0
          ],
          [
            138.7682841390051,
            37.034819499371565,
            655.0
          ],
          [
            138.7683851017201,
            37.03465848499607,
            656.0
          ],
          [
            138.7684860644351,
            37.034497470620586,
            659.0
          ],
          [
            138.76858702715012,
            37.03433645624509,
            662.0
          ],
          [
            138.76868798986513,
            37.0341754418696,
            664.0
          ],
          [
            138.76878895258014,
            37.034014427494114,
            667.0
          ],
          [
            138.76888991529515,
            37.03385341311862,
            672.0
          ],
          [
            138.76899087801016,
            37.03369239874313,
            677.0
          ],
          [
            138.76909184072517,
            37.033531384367635,
            682.0
          ],
          [
            138.7691928034402,
            37.03337036999215,
            689.0
          ],
          [
            138.76929376615522,
            37.033209355616656,
            693.0
          ],
          [
            138.76939472887022,
            37.03304834124116,
            697.0
          ],
          [
            138.76949569158523,
            37.032887326865676,
            698.0
          ],
          [
            138.76959665430024,
            37.03272631249018,
            701.0
          ],
          [
            138.76969761701525,
            37.03256529811469,
            712.0
          ],
          [
            138.76979857973026,
            37.0324042837392,
            717.0
          ],
          [
            138.76989954244527,
            37.03224326936371,
            721.0
          ],
          [
            138.77000050516028,
            37.03208225498822,
            725.0
          ],
          [
            138.7701014678753,
            37.031921240612725,
            724.0
          ],
          [
            138.77020243059033,
            37.03176022623724,
            727.0
          ],
          [
            138.77030339330534,
            37.031599211861746,
            729.0
          ],
          [
            138.77040435602035,
            37.03143819748625,
            729.0
          ],
          [
            138.77050531873536,
            37.03127718311077,
            730.0
          ],
          [
            138.77060628145037,
            37.031116168735274,
            735.0
          ],
          [
            138.77070724416538,
            37.03095515435978,
            739.0
          ],
          [
            138.7708082068804,
            37.03079413998429,
            744.0
          ],
          [
            138.7709091695954,
            37.0306331256088,
            753.0
          ],
          [
            138.7710101323104,
            37.03047211123331,
            760.0
          ],
          [
            138.77111109502542,
            37.030311096857815,
            764.0
          ],
          [
            138.77121205774046,
            37.03015008248233,
            764.0
          ],
          [
            138.77131302045547,
            37.029989068106836,
            765.0
          ],
          [
            138.77141398317048,
            37.02982805373134,
            775.0
          ],
          [
            138.77151494588549,
            37.02966703935585,
            781.0
          ],
          [
            138.7716159086005,
            37.029506024980364,
            785.0
          ],
          [
            138.7717168713155,
            37.02934501060487,
            789.0
          ],
          [
            138.77181783403051,
            37.02918399622938,
            791.0
          ],
          [
            138.77191879674552,
            37.02902298185389,
            794.0
          ],
          [
            138.77201975946053,
            37.0288619674784,
            798.0
          ],
          [
            138.77212072217554,
            37.028700953102906,
            800.0
          ],
          [
            138.77222168489058,
            37.02853993872742,
            803.0
          ],
          [
            138.7722688,
            37.0284648,
            805.0
          ]
        ]
      }
    },
    {
      "type": "Feature",
      "properties": {
        "name": "当間第6ロマンス",
        "horizontal_dist_map": 444,
        "slope_dist_map": 449,
        "elevation_diff_map": 23.0
      },
      "geometry": {
        "type": "LineString",
        "coordinates": [
          [
            138.7872177,
            37.0299482,
            740.0
          ],
          [
            138.7874198830103,
            37.030026951400075,
            735.0
          ],
          [
            138.7876220660206,
            37.03010570280016,
            730.0
          ],
          [
            138.7878242490309,
            37.03018445420023,
            729.0
          ],
          [
            138.7880264320412,
            37.030263205600306,
            729.0
          ],
          [
            138.78822861505148,
            37.03034195700039,
            735.0
          ],
          [
            138.78843079806177,
            37.03042070840046,
            739.0
          ],
          [
            138.78863298107208,
            37.03049945980054,
            740.0
          ],
          [
            138.78883516408237,
            37.03057821120062,
            740.0
          ],
          [
            138.78903734709266,
            37.030656962600695,
            738.0
          ],
          [
            138.78923953010295,
            37.03073571400077,
            735.0
          ],
          [
            138.78944171311323,
            37.03081446540085,
            730.0
          ],
          [
            138.78964389612355,
            37.030893216800926,
            727.0
          ],
          [
            138.78984607913384,
            37.03097196820101,
            725.0
          ],
          [
            138.79004826214413,
            37.03105071960108,
            722.0
          ],
          [
            138.7902504451544,
            37.03112947100116,
            719.0
          ],
          [
            138.79045262816473,
            37.03120822240124,
            718.0
          ],
          [
            138.79065481117502,
            37.031286973801315,
            719.0
          ],
          [
            138.7908569941853,
            37.03136572520139,
            719.0
          ],
          [
            138.7910591771956,
            37.03144447660147,
            718.0
          ],
          [
            138.7912613602059,
            37.03152322800155,
            718.0
          ],
          [
            138.7914635432162,
            37.03160197940162,
            718.0
          ],
          [
            138.79166572622648,
            37.0316807308017,
            717.0
          ],
          [
            138.7917134,
            37.0316993,
            717.0
          ]
        ]
      }
    },
    {
      "type": "Feature",
      "properties": {
        "name": "パノラマ第4ロマンス",
        "horizontal_dist_map": 471,
        "slope_dist_map": 476,
        "elevation_diff_map": 24.0
      },
      "geometry": {
        "type": "LineString",
        "coordinates": [
          [
            138.7931454,
            37.0361572,
            741.0
          ],
          [
            138.79309745868062,
            37.0359811307826,
            740.0
          ],
          [
            138.79304951736123,
            37.0358050615652,
            740.0
          ],
          [
            138.79300157604186,
            37.0356289923478,
            736.0
          ],
          [
            138.79295363472247,
            37.0354529231304,
            733.0
          ],
          [
            138.7929056934031,
            37.035276853913004,
            730.0
          ],
          [
            138.7928577520837,
            37.0351007846956,
            727.0
          ],
          [
            138.79280981076434,
            37.034924715478205,
            724.0
          ],
          [
            138.79276186944494,
            37.0347486462608,
            723.0
          ],
          [
            138.79271392812558,
            37.034572577043406,
            721.0
          ],
          [
            138.79266598680618,
            37.034396507826,
            719.0
          ],
          [
            138.79261804548682,
            37.03422043860861,
            717.0
          ],
          [
            138.79257010416742,
            37.03404436939121,
            714.0
          ],
          [
            138.79252216284806,
            37.03386830017381,
            711.0
          ],
          [
            138.79247422152866,
            37.03369223095641,
            706.0
          ],
          [
            138.7924262802093,
            37.03351616173901,
            703.0
          ],
          [
            138.7923783388899,
            37.03334009252161,
            709.0
          ],
          [
            138.79233039757054,
            37.03316402330421,
            707.0
          ],
          [
            138.79228245625114,
            37.03298795408681,
            705.0
          ],
          [
            138.79223451493178,
            37.03281188486941,
            707.0
          ],
          [
            138.79218657361238,
            37.032635815652014,
            711.0
          ],
          [
            138.79213863229302,
            37.03245974643462,
            714.0
          ],
          [
            138.79209069097362,
            37.032283677217215,
            717.0
          ],
          [
            138.79204274965426,
            37.03210760799982,
            717.0
          ],
          [
            138.7920159,
            37.032009,
            717.0
          ]
        ]
      }
    },
    {
      "type": "Feature",
      "properties": {
        "name": "当間第5ロマンス",
        "horizontal_dist_map": 438,
        "slope_dist_map": 458,
        "elevation_diff_map": 105.0
      },
      "geometry": {
        "type": "LineString",
        "coordinates": [
          [
            138.7817759,
            37.0289702,
            635.0
          ],
          [
            138.78199608735343,
            37.02900642863303,
            631.0
          ],
          [
            138.78221627470683,
            37.02904265726606,
            629.0
          ],
          [
            138.78243646206025,
            37.02907888589909,
            634.0
          ],
          [
            138.78265664941364,
            37.02911511453212,
            646.0
          ],
          [
            138.78287683676706,
            37.02915134316515,
            657.0
          ],
          [
            138.78309702412045,
            37.029187571798175,
            663.0
          ],
          [
            138.78331721147387,
            37.029223800431204,
            666.0
          ],
          [
            138.78353739882726,
            37.02926002906424,
            672.0
          ],
          [
            138.78375758618068,
            37.02929625769727,
            676.0
          ],
          [
            138.78397777353408,
            37.0293324863303,
            682.0
          ],
          [
            138.7841979608875,
            37.029368714963326,
            689.0
          ],
          [
            138.78441814824092,
            37.029404943596354,
            693.0
          ],
          [
            138.7846383355943,
            37.02944117222938,
            700.0
          ],
          [
            138.78485852294773,
            37.02947740086241,
            706.0
          ],
          [
            138.78507871030112,
            37.02951362949544,
            714.0
          ],
          [
            138.78529889765454,
            37.02954985812847,
            721.0
          ],
          [
            138.78551908500793,
            37.0295860867615,
            729.0
          ],
          [
            138.78573927236135,
            37.029622315394526,
            732.0
          ],
          [
            138.78595945971475,
            37.029658544027555,
            732.0
          ],
          [
            138.78617964706817,
            37.029694772660584,
            734.0
          ],
          [
            138.7863998344216,
            37.02973100129361,
            736.0
          ],
          [
            138.7866089,
            37.0297654,
            740.0
          ]
        ]
      }
    },
    {
      "type": "Feature",
      "properties": {
        "name": "当間第1ロマンス",
        "horizontal_dist_map": 923,
        "slope_dist_map": 941,
        "elevation_diff_map": 166.0
      },
      "geometry": {
        "type": "LineString",
        "coordinates": [
          [
            138.7630948,
            37.04354,
            522.0
          ],
          [
            138.76325424500308,
            37.043412955226664,
            524.0
          ],
          [
            138.7634136900062,
            37.043285910453335,
            526.0
          ],
          [
            138.76357313500927,
            37.04315886568,
            529.0
          ],
          [
            138.76373258001237,
            37.04303182090667,
            533.0
          ],
          [
            138.76389202501545,
            37.042904776133334,
            536.0
          ],
          [
            138.76405147001853,
            37.042777731360005,
            539.0
          ],
          [
            138.76421091502164,
            37.04265068658667,
            542.0
          ],
          [
            138.7643703600247,
            37.04252364181333,
            547.0
          ],
          [
            138.76452980502782,
            37.04239659704,
            551.0
          ],
          [
            138.7646892500309,
            37.04226955226667,
            555.0
          ],
          [
            138.76484869503398,
            37.04214250749334,
            561.0
          ],
          [
            138.76500814003708,
            37.04201546272,
            565.0
          ],
          [
            138.76516758504016,
            37.041888417946666,
            569.0
          ],
          [
            138.76532703004327,
            37.04176137317334,
            575.0
          ],
          [
            138.76548647504634,
            37.0416343284,
            581.0
          ],
          [
            138.76564592004945,
            37.04150728362667,
            584.0
          ],
          [
            138.76580536505253,
            37.041380238853336,
            588.0
          ],
          [
            138.7659648100556,
            37.04125319408001,
            594.0
          ],
          [
            138.7661242550587,
            37.04112614930667,
            599.0
          ],
          [
            138.7662837000618,
            37.040999104533334,
            601.0
          ],
          [
            138.7664431450649,
            37.040872059760005,
            603.0
          ],
          [
            138.76660259006798,
            37.04074501498667,
            605.0
          ],
          [
            138.76676203507105,
            37.04061797021334,
            606.0
          ],
          [
            138.76692148007416,
            37.040490925440004,
            609.0
          ],
          [
            138.76708092507724,
            37.040363880666675,
            614.0
          ],
          [
            138.76724037008034,
            37.04023683589334,
            621.0
          ],
          [
            138.76739981508342,
            37.04010979112,
            624.0
          ],
          [
            138.7675592600865,
            37.03998274634667,
            628.0
          ],
          [
            138.7677187050896,
            37.03985570157334,
            632.0
          ],
          [
            138.76787815009268,
            37.03972865680001,
            634.0
          ],
          [
            138.7680375950958,
            37.03960161202667,
            638.0
          ],
          [
            138.76819704009887,
            37.039474567253336,
            640.0
          ],
          [
            138.76835648510195,
            37.03934752248001,
            644.0
          ],
          [
            138.76851593010505,
            37.03922047770667,
            649.0
          ],
          [
            138.76867537510813,
            37.03909343293334,
            651.0
          ],
          [
            138.76883482011124,
            37.038966388160006,
            654.0
          ],
          [
            138.76899426511432,
            37.03883934338668,
            656.0
          ],
          [
            138.7691537101174,
            37.03871229861334,
            659.0
          ],
          [
            138.7693131551205,
            37.038585253840004,
            662.0
          ],
          [
            138.76947260012358,
            37.038458209066675,
            663.0
          ],
          [
            138.76963204512668,
            37.03833116429334,
            664.0
          ],
          [
            138.76979149012976,
            37.03820411952001,
            666.0
          ],
          [
            138.76995093513287,
            37.038077074746674,
            668.0
          ],
          [
            138.77011038013595,
            37.037950029973345,
            673.0
          ],
          [
            138.77026982513902,
            37.03782298520001,
            681.0
          ],
          [
            138.77042927014213,
            37.03769594042667,
            688.0
          ],
          [
            138.7704553,
            37.0376752,
            688.0
          ]
        ]
      }
    }
  ]
}