{
  "type": "FeatureCollection",
  "features": [
    {
      "type": "Feature",
      "properties": {
        "name": "キロロゴンドラ",
        "horizontal_dist_map": 3171,
        "slope_dist_map": 3292,
        "elevation_diff_map": 611.0
      },
      "geometry": {
        "type": "LineString",
        "coordinates": [
          [
            141.0266955,
            43.0566659,
            1180.0
          ],
          [
            141.02647158599837,
            43.056739718495464,
            1177.0
          ],
          [
            141.02624637374672,
            43.05681132492875,
            1174.0
          ],
          [
            141.0260193214246,
            43.05687979610291,
            1171.0
          ],
          [
            141.02579226910245,
            43.05694826727708,
            1168.0
          ],
          [
            141.02556521678034,
            43.057016738451246,
            1165.0
          ],
          [
            141.0253381642545,
            43.057085209641606,
            1163.0
          ],
          [
            141.02511111101538,
            43.05715368088868,
            1159.0
          ],
          [
            141.02488405777626,
            43.05722215213575,
            1155.0
          ],
          [
            141.02465700453712,
            43.057290623382826,
            1152.0
          ],
          [
            141.0244299507089,
            43.057359094973776,
            1149.0
          ],
          [
            141.0242028967481,
            43.057427566642104,
            1147.0
          ],
          [
            141.02397584278734,
            43.057496038310425,
            1144.0
          ],
          [
            141.02374878882654,
            43.057564509978754,
            1142.0
          ],
          [
            141.02352173511565,
            43.05763298402595,
            1139.0
          ],
          [
            141.0232946815548,
            43.057701459501644,
            1134.0
          ],
          [
            141.02306762799395,
            43.05776993497734,
            1128.0
          ],
          [
            141.0228405744331,
            43.05783841045304,
            1124.0
          ],
          [
            141.02261352087228,
            43.05790688592873,
            1118.0
          ],
          [
            141.02238646731143,
            43.057975361404424,
            1112.0
          ],
          [
            141.0221594137506,
            43.05804383688012,
            1113.0
          ],
          [
            141.02193236018974,
            43.05811231235581,
            1109.0
          ],
          [
            141.0217053066289,
            43.0581807878315,
            1106.0
          ],
          [
            141.02147825298925,
            43.05824926337299,
            1104.0
          ],
          [
            141.02125119795554,
            43.058317740078486,
            1099.0
          ],
          [
            141.02102414292185,
            43.05838621678399,
            1096.0
          ],
          [
            141.02079708788816,
            43.05845469348949,
            1090.0
          ],
          [
            141.02057003285444,
            43.05852317019499,
            1085.0
          ],
          [
            141.02034297782075,
            43.05859164690048,
            1082.0
          ],
          [
            141.02011592278703,
            43.05866012360598,
            1074.0
          ],
          [
            141.01988886775334,
            43.05872860031148,
            1068.0
          ],
          [
            141.01966181112093,
            43.05879707551388,
            1069.0
          ],
          [
            141.01943475271645,
            43.05886554905015,
            1067.0
          ],
          [
            141.01920769431197,
            43.05893402258641,
            1065.0
          ],
          [
            141.01898063590747,
            43.05900249612267,
            1065.0
          ],
          [
            141.018753577503,
            43.05907096965894,
            1062.0
          ],
          [
            141.01852651784918,
            43.05913944317551,
            1057.0
          ],
          [
            141.01829945645807,
            43.05920791666469,
            1052.0
          ],
          [
            141.01807239506698,
            43.05927639015387,
            1048.0
          ],
          [
            141.0178453336759,
            43.05934486364305,
            1045.0
          ],
          [
            141.01761827228478,
            43.05941333713223,
            1043.0
          ],
          [
            141.0173912108937,
            43.05948181062141,
            1041.0
          ],
          [
            141.0171641495026,
            43.05955028411059,
            1040.0
          ],
          [
            141.01693708811152,
            43.05961875759977,
            1037.0
          ],
          [
            141.0167100267204,
            43.05968723108895,
            1034.0
          ],
          [
            141.01648296532932,
            43.05975570457813,
            1032.0
          ],
          [
            141.01625590393823,
            43.05982417806731,
            1031.0
          ],
          [
            141.01602884254712,
            43.05989265155649,
            1030.0
          ],
          [
            141.01580178115603,
            43.059961125045675,
            1029.0
          ],
          [
            141.01557471976494,
            43.060029598534854,
            1028.0
          ],
          [
            141.01534765837383,
            43.06009807202403,
            1026.0
          ],
          [
            141.01512059698274,
            43.06016654551321,
            1026.0
          ],
          [
            141.01489353559165,
            43.06023501900239,
            1022.0
          ],
          [
            141.01466647420057,
            43.06030349249157,
            1018.0
          ],
          [
            141.01443941280945,
            43.06037196598075,
            1011.0
          ],
          [
            141.01421235305438,
            43.06044044784092,
            1001.0
          ],
          [
            141.01398529330012,
            43.06050892970525,
            993.0
          ],
          [
            141.01375823354587,
            43.06057741156958,
            985.0
          ],
          [
            141.0135311737916,
            43.06064589343391,
            978.0
          ],
          [
            141.01330411403734,
            43.06071437529824,
            974.0
          ],
          [
            141.0130770533617,
            43.060782855841325,
            965.0
          ],
          [
            141.0128499873337,
            43.06085132870893,
            949.0
          ],
          [
            141.01262292130568,
            43.06091980157653,
            940.0
          ],
          [
            141.01239585527765,
            43.06098827444414,
            927.0
          ],
          [
            141.01216878800875,
            43.061056745747614,
            911.0
          ],
          [
            141.01194171732442,
            43.061125212745836,
            900.0
          ],
          [
            141.0117146466401,
            43.06119367974406,
            891.0
          ],
          [
            141.01148757595573,
            43.06126214674228,
            886.0
          ],
          [
            141.0112605052714,
            43.0613306137405,
            882.0
          ],
          [
            141.01103343458706,
            43.061399080738724,
            877.0
          ],
          [
            141.01080636390273,
            43.061467547736946,
            870.0
          ],
          [
            141.01057929457832,
            43.061536017972394,
            865.0
          ],
          [
            141.01035222806664,
            43.06160449490321,
            854.0
          ],
          [
            141.01012516155495,
            43.06167297183402,
            845.0
          ],
          [
            141.00989809504327,
            43.06174144876484,
            833.0
          ],
          [
            141.0096710285285,
            43.06180992625917,
            823.0
          ],
          [
            141.00944396199958,
            43.06187840632069,
            815.0
          ],
          [
            141.00921689547067,
            43.0619468863822,
            807.0
          ],
          [
            141.00898982894176,
            43.06201536644372,
            804.0
          ],
          [
            141.00876276241286,
            43.06208384650523,
            803.0
          ],
          [
            141.00853569588395,
            43.062152326566746,
            802.0
          ],
          [
            141.00830862935504,
            43.06222080662826,
            795.0
          ],
          [
            141.00808156282613,
            43.06228928668977,
            789.0
          ],
          [
            141.00785449629723,
            43.06235776675128,
            783.0
          ],
          [
            141.00762742976832,
            43.0624262468128,
            782.0
          ],
          [
            141.0074003617349,
            43.06249472529988,
            778.0
          ],
          [
            141.00717328955346,
            43.062563199446096,
            769.0
          ],
          [
            141.00694621737202,
            43.062631673592314,
            760.0
          ],
          [
            141.00671914519057,
            43.062700147738525,
            755.0
          ],
          [
            141.00649207300913,
            43.06276862188474,
            754.0
          ],
          [
            141.00626500082768,
            43.06283709603096,
            754.0
          ],
          [
            141.00603792864624,
            43.06290557017718,
            753.0
          ],
          [
            141.0058108564648,
            43.0629740443234,
            754.0
          ],
          [
            141.00558378428335,
            43.06304251846961,
            753.0
          ],
          [
            141.00535668667132,
            43.06311094905184,
            752.0
          ],
          [
            141.0051296105935,
            43.063179419694116,
            753.0
          ],
          [
            141.0049025345157,
            43.0632478903364,
            755.0
          ],
          [
            141.0046754584379,
            43.063316360978675,
            762.0
          ],
          [
            141.00444838236012,
            43.06338483162095,
            768.0
          ],
          [
            141.00422130628232,
            43.063453302263234,
            772.0
          ],
          [
            141.00399423221265,
            43.06352177703204,
            783.0
          ],
          [
            141.0037671629848,
            43.063590261750285,
            793.0
          ],
          [
            141.00354009564379,
            43.06365874985427,
            795.0
          ],
          [
            141.0033130377311,
            43.06372725571065,
            793.0
          ],
          [
            141.00308594971884,
            43.063795708259434,
            788.0
          ],
          [
            141.00285886170659,
            43.06386416080822,
            779.0
          ],
          [
            141.00263178017642,
            43.06393262677789,
            771.0
          ],
          [
            141.00240469931936,
            43.064001094141126,
            761.0
          ],
          [
            141.00217761846227,
            43.06406956150436,
            745.0
          ],
          [
            141.00195053760518,
            43.0641380288676,
            735.0
          ],
          [
            141.0017234567481,
            43.06420649623084,
            727.0
          ],
          [
            141.00149637589104,
            43.06427496359407,
            711.0
          ],
          [
            141.0012692973842,
            43.06434343624731,
            712.0
          ],
          [
            141.00104222230902,
            43.064411916624564,
            711.0
          ],
          [
            141.00081514723385,
            43.06448039700182,
            705.0
          ],
          [
            141.00058807215868,
            43.06454887737908,
            702.0
          ],
          [
            141.0003609970835,
            43.06461735775633,
            699.0
          ],
          [
            141.00013392200833,
            43.06468583813359,
            700.0
          ],
          [
            140.99990684558105,
            43.06475431852287,
            698.0
          ],
          [
            140.99967976895798,
            43.064822798913895,
            698.0
          ],
          [
            140.9994526923349,
            43.06489127930492,
            697.0
          ],
          [
            140.99922561571185,
            43.064959759695945,
            693.0
          ],
          [
            140.99899853908877,
            43.065028240086974,
            692.0
          ],
          [
            140.9987714624657,
            43.065096720477996,
            688.0
          ],
          [
            140.9985443853768,
            43.065165200283495,
            685.0
          ],
          [
            140.9983173024998,
            43.06523367281372,
            679.0
          ],
          [
            140.9980902196228,
            43.06530214534395,
            674.0
          ],
          [
            140.99786313674585,
            43.06537061787417,
            670.0
          ],
          [
            140.99763605386886,
            43.0654390904044,
            665.0
          ],
          [
            140.99740897099187,
            43.06550756293463,
            660.0
          ],
          [
            140.99718188811488,
            43.06557603546485,
            659.0
          ],
          [
            140.99695480523792,
            43.06564450799508,
            659.0
          ],
          [
            140.9967277221233,
            43.06571298080538,
            654.0
          ],
          [
            140.99650063829918,
            43.065781454451844,
            648.0
          ],
          [
            140.9962735544751,
            43.06584992809832,
            635.0
          ],
          [
            140.99604647065098,
            43.06591840174478,
            630.0
          ],
          [
            140.9958193868269,
            43.065986875391246,
            626.0
          ],
          [
            140.9955923046531,
            43.06605535310024,
            621.0
          ],
          [
            140.99536522356848,
            43.06612383349052,
            617.0
          ],
          [
            140.9951381424839,
            43.06619231388081,
            609.0
          ],
          [
            140.9949110613993,
            43.066260794271095,
            602.0
          ],
          [
            140.99468397494223,
            43.06632926628943,
            599.0
          ],
          [
            140.99445719809444,
            43.06639827160585,
            596.0
          ],
          [
            140.9942325110392,
            43.06647087643922,
            593.0
          ],
          [
            140.99400782398396,
            43.06654348127258,
            592.0
          ],
          [
            140.99378313692873,
            43.06661608610595,
            590.0
          ],
          [
            140.9935584498735,
            43.06668869093932,
            589.0
          ],
          [
            140.99333376281825,
            43.066761295772686,
            587.0
          ],
          [
            140.99310907576302,
            43.066833900606056,
            585.0
          ],
          [
            140.99288438870775,
            43.06690650543943,
            584.0
          ],
          [
            140.9926597016525,
            43.06697911027279,
            582.0
          ],
          [
            140.99243154759884,
            43.06704555663223,
            580.0
          ],
          [
            140.99220239860318,
            43.06711023566338,
            578.0
          ],
          [
            140.9919732496075,
            43.06717491469453,
            574.0
          ],
          [
            140.9917441006118,
            43.06723959372568,
            571.0
          ],
          [
            140.99151495161615,
            43.067304272756836,
            570.0
          ],
          [
            140.99128580262047,
            43.06736895178799,
            571.0
          ],
          [
            140.9910567565558,
            43.06743382385665,
            569.0
          ],
          [
            140.99082859666368,
            43.06750035785955,
            568.0
          ],
          [
            140.9906969557125,
            43.067538745848545,
            569.0
          ]
        ]
      }
    },
    {
      "type": "Feature",
      "properties": {
        "name": "センターエクスプレス",
        "horizontal_dist_map": 1072,
        "slope_dist_map": 1106,
        "elevation_diff_map": 233.0
      },
      "geometry": {
        "type": "LineString",
        "coordinates": [
          [
            141.0030628,
            43.0626789,
            810.0
          ],
          [
            141.00284005997693,
            43.062754638675216,
            805.0
          ],
          [
            141.00261733269213,
            43.06283039761341,
            796.0
          ],
          [
            141.00239458420268,
            43.06290612435724,
            787.0
          ],
          [
            141.0021718337694,
            43.06298184806793,
            781.0
          ],
          [
            141.00194908333611,
            43.06305757177861,
            774.0
          ],
          [
            141.00172633290282,
            43.063133295489294,
            769.0
          ],
          [
            141.00150357901512,
            43.06320901451986,
            761.0
          ],
          [
            141.00128082028272,
            43.06328472698675,
            750.0
          ],
          [
            141.00105806155028,
            43.06336043945363,
            744.0
          ],
          [
            141.00083530281788,
            43.06343615192052,
            736.0
          ],
          [
            141.0006125479541,
            43.06351187088598,
            730.0
          ],
          [
            141.0003898041167,
            43.06358760837389,
            722.0
          ],
          [
            141.00016706027932,
            43.06366334586181,
            717.0
          ],
          [
            140.99994430448137,
            43.063739065166125,
            710.0
          ],
          [
            140.99972154199844,
            43.06381477430729,
            704.0
          ],
          [
            140.99949877951548,
            43.06389048344845,
            702.0
          ],
          [
            140.99927602853708,
            43.06396621217101,
            700.0
          ],
          [
            140.99905327774655,
            43.06404194121335,
            699.0
          ],
          [
            140.99883052695603,
            43.06411767025569,
            698.0
          ],
          [
            140.9986077757533,
            43.06419339893052,
            695.0
          ],
          [
            140.99838502177715,
            43.06426912513271,
            693.0
          ],
          [
            140.99816226780104,
            43.0643448513349,
            689.0
          ],
          [
            140.99793951382492,
            43.06442057753709,
            687.0
          ],
          [
            140.9977167598488,
            43.06449630373929,
            684.0
          ],
          [
            140.99749400587265,
            43.06457202994148,
            682.0
          ],
          [
            140.99727125189654,
            43.06464775614367,
            680.0
          ],
          [
            140.99704849353716,
            43.064723477690926,
            676.0
          ],
          [
            140.9968257342402,
            43.06479919824246,
            673.0
          ],
          [
            140.99660297494324,
            43.064874918794,
            668.0
          ],
          [
            140.99638021564627,
            43.06495063934554,
            664.0
          ],
          [
            140.9961574563493,
            43.065026359897075,
            662.0
          ],
          [
            140.99593469705232,
            43.06510208044861,
            658.0
          ],
          [
            140.99571193813554,
            43.0651778023161,
            655.0
          ],
          [
            140.9954891799249,
            43.06525352662765,
            651.0
          ],
          [
            140.99526642171423,
            43.0653292509392,
            645.0
          ],
          [
            140.99504366224264,
            43.0654049737618,
            639.0
          ],
          [
            140.99482090073664,
            43.06548069418212,
            628.0
          ],
          [
            140.99459813923065,
            43.06555641460244,
            622.0
          ],
          [
            140.99437537982652,
            43.06563213862586,
            612.0
          ],
          [
            140.99415262686117,
            43.06570787368679,
            605.0
          ],
          [
            140.99392985886547,
            43.06578358501916,
            599.0
          ],
          [
            140.99370708895404,
            43.065859294345,
            595.0
          ],
          [
            140.99348433621847,
            43.065935030971524,
            591.0
          ],
          [
            140.9932615834829,
            43.06601076759805,
            589.0
          ],
          [
            140.99303881702866,
            43.06608648457869,
            588.0
          ],
          [
            140.99281605021525,
            43.066162201044946,
            588.0
          ],
          [
            140.99259328340185,
            43.066237917511195,
            587.0
          ],
          [
            140.99237051658844,
            43.06631363397745,
            585.0
          ],
          [
            140.992147749775,
            43.06638935044371,
            582.0
          ],
          [
            140.9919249829616,
            43.066465066909956,
            582.0
          ],
          [
            140.9917020804259,
            43.06654056606758,
            581.0
          ],
          [
            140.99147826321732,
            43.06661460071753,
            580.0
          ],
          [
            140.99125444600872,
            43.06668863536747,
            579.0
          ],
          [
            140.991117,
            43.0667341,
            577.0
          ]
        ]
      }
    },
    {
      "type": "Feature",
      "properties": {
        "name": "余市第１エクスプレス",
        "horizontal_dist_map": 1700,
        "slope_dist_map": 1748,
        "elevation_diff_map": 337.0
      },
      "geometry": {
        "type": "LineString",
        "coordinates": [
          [
            140.9900512,
            43.0665494,
            576.0
          ],
          [
            140.9902097699322,
            43.06641194786768,
            576.0
          ],
          [
            140.99036833986438,
            43.06627449573536,
            578.0
          ],
          [
            140.99052690976944,
            43.06613704362676,
            580.0
          ],
          [
            140.99068547915832,
            43.06599959197009,
            582.0
          ],
          [
            140.99084404854716,
            43.06586214031342,
            583.0
          ],
          [
            140.99100261793603,
            43.06572468865675,
            587.0
          ],
          [
            140.99116118732488,
            43.06558723700008,
            592.0
          ],
          [
            140.99131975462768,
            43.06544978465701,
            596.0
          ],
          [
            140.99147831975696,
            43.065312331598776,
            602.0
          ],
          [
            140.99163688488625,
            43.06517487854053,
            605.0
          ],
          [
            140.99179545001553,
            43.065037425482295,
            608.0
          ],
          [
            140.9919540151448,
            43.06489997242405,
            611.0
          ],
          [
            140.99211258027407,
            43.064762519365814,
            614.0
          ],
          [
            140.99227114540335,
            43.06462506630757,
            615.0
          ],
          [
            140.99242970803067,
            43.064487612366634,
            619.0
          ],
          [
            140.99258826890826,
            43.064350157808406,
            621.0
          ],
          [
            140.99274682978586,
            43.06421270325018,
            624.0
          ],
          [
            140.99290539066345,
            43.06407524869194,
            628.0
          ],
          [
            140.9930639517359,
            43.06393779522437,
            630.0
          ],
          [
            140.9932225128117,
            43.06380034177575,
            636.0
          ],
          [
            140.99338107388755,
            43.06366288832714,
            640.0
          ],
          [
            140.99353963496335,
            43.06352543487852,
            641.0
          ],
          [
            140.9936981960392,
            43.063387981429905,
            641.0
          ],
          [
            140.99385675454175,
            43.06325052699668,
            642.0
          ],
          [
            140.99401531012296,
            43.06311307144565,
            651.0
          ],
          [
            140.99417386570417,
            43.06297561589461,
            653.0
          ],
          [
            140.99433242128535,
            43.06283816034357,
            655.0
          ],
          [
            140.99449097686656,
            43.06270070479253,
            659.0
          ],
          [
            140.99464953244774,
            43.06256324924149,
            663.0
          ],
          [
            140.99480808802895,
            43.06242579369045,
            670.0
          ],
          [
            140.9949666429532,
            43.06228833893948,
            672.0
          ],
          [
            140.99512519781916,
            43.062150884259445,
            675.0
          ],
          [
            140.99528375268517,
            43.0620134295794,
            680.0
          ],
          [
            140.99544230755114,
            43.06187597489936,
            685.0
          ],
          [
            140.99560086241715,
            43.06173852021932,
            690.0
          ],
          [
            140.99575941773045,
            43.06160106613707,
            688.0
          ],
          [
            140.99591797400888,
            43.06146361334448,
            686.0
          ],
          [
            140.9960765302873,
            43.06132616055189,
            687.0
          ],
          [
            140.9962350865657,
            43.0611887077593,
            692.0
          ],
          [
            140.99639363961884,
            43.06105125332405,
            699.0
          ],
          [
            140.99655219022415,
            43.06091379764211,
            704.0
          ],
          [
            140.99671075125994,
            43.06077634864667,
            713.0
          ],
          [
            140.99686932265658,
            43.06063890629309,
            721.0
          ],
          [
            140.99702788501156,
            43.06050145860664,
            732.0
          ],
          [
            140.99718644056463,
            43.06036400690834,
            739.0
          ],
          [
            140.99734499547358,
            43.06022655483372,
            745.0
          ],
          [
            140.99750353505917,
            43.06008909380665,
            748.0
          ],
          [
            140.99766207464478,
            43.05995163277959,
            751.0
          ],
          [
            140.9978206178257,
            43.05981417414455,
            756.0
          ],
          [
            140.99797917097814,
            43.059676722143735,
            759.0
          ],
          [
            140.99813772413057,
            43.05953927014293,
            769.0
          ],
          [
            140.99829627640273,
            43.059401817837795,
            777.0
          ],
          [
            140.99845482723194,
            43.05926436503384,
            783.0
          ],
          [
            140.99861337806118,
            43.059126912229885,
            788.0
          ],
          [
            140.99877192610913,
            43.05898945791204,
            791.0
          ],
          [
            140.99893046940412,
            43.05885200100707,
            796.0
          ],
          [
            140.99908901355735,
            43.05871454469569,
            798.0
          ],
          [
            140.99924756610088,
            43.058577094187285,
            800.0
          ],
          [
            140.9994061186444,
            43.058439643678874,
            804.0
          ],
          [
            140.99956467118793,
            43.05830219317046,
            807.0
          ],
          [
            140.99972321456966,
            43.05816473713218,
            811.0
          ],
          [
            140.99988173238114,
            43.05802726566018,
            811.0
          ],
          [
            141.0000402845851,
            43.057889815863575,
            810.0
          ],
          [
            141.00019884695575,
            43.05775237247439,
            810.0
          ],
          [
            141.00035696553925,
            43.05761465904359,
            810.0
          ],
          [
            141.00051197564667,
            43.057475054125135,
            812.0
          ],
          [
            141.0006669750517,
            43.05733544338314,
            818.0
          ],
          [
            141.00082197122816,
            43.05719583088436,
            822.0
          ],
          [
            141.0009769674046,
            43.05705621838558,
            827.0
          ],
          [
            141.00113196358103,
            43.056916605886805,
            832.0
          ],
          [
            141.0012869597575,
            43.05677699338803,
            838.0
          ],
          [
            141.00144195593393,
            43.05663738088925,
            842.0
          ],
          [
            141.00159692997795,
            43.0564977560582,
            850.0
          ],
          [
            141.0017519037847,
            43.05635813109493,
            861.0
          ],
          [
            141.00190688215037,
            43.05621850895407,
            872.0
          ],
          [
            141.00206188413006,
            43.05607890143261,
            880.0
          ],
          [
            141.00221688610978,
            43.055939293911166,
            885.0
          ],
          [
            141.00237188808947,
            43.05579968638972,
            891.0
          ],
          [
            141.00252688218205,
            43.05566007477282,
            896.0
          ],
          [
            141.0026818758277,
            43.05552046292385,
            901.0
          ],
          [
            141.00283686947336,
            43.055380851074894,
            904.0
          ],
          [
            141.00299186248407,
            43.05524123948259,
            906.0
          ],
          [
            141.00314685541173,
            43.05510162792387,
            909.0
          ],
          [
            141.0033018483394,
            43.054962016365145,
            912.0
          ],
          [
            141.00345684126705,
            43.05482240480643,
            913.0
          ],
          [
            141.0034594,
            43.0548201,
            913.0
          ]
        ]
      }
    },
    {
      "type": "Feature",
      "properties": {
        "name": "朝里第２エクスプレス",
        "horizontal_dist_map": 923,
        "slope_dist_map": 973,
        "elevation_diff_map": 257.0
      },
      "geometry": {
        "type": "LineString",
        "coordinates": [
          [
            141.0157264,
            43.0529197,
            918.0
          ],
          [
            141.01595337537358,
            43.05298828248698,
            919.0
          ],
          [
            141.01618035074713,
            43.05305686497396,
            921.0
          ],
          [
            141.01640733670646,
            43.05312542970443,
            922.0
          ],
          [
            141.01663432649977,
            43.05319398800379,
            924.0
          ],
          [
            141.01686131629307,
            43.053262546303145,
            926.0
          ],
          [
            141.01708830608638,
            43.053331104602506,
            930.0
          ],
          [
            141.01731529103176,
            43.053399672396225,
            932.0
          ],
          [
            141.01754226867854,
            43.05346825448389,
            935.0
          ],
          [
            141.01776924632532,
            43.05353683657156,
            938.0
          ],
          [
            141.0179962239721,
            43.053605418659224,
            941.0
          ],
          [
            141.01822320161887,
            43.053674000746895,
            951.0
          ],
          [
            141.018450168397,
            43.05374260211975,
            956.0
          ],
          [
            141.01867715364395,
            43.05381117295781,
            959.0
          ],
          [
            141.01890413889086,
            43.053879743795875,
            962.0
          ],
          [
            141.0191311241378,
            43.053948314633935,
            965.0
          ],
          [
            141.01935810938474,
            43.054016885472,
            970.0
          ],
          [
            141.01958509458433,
            43.05408545702104,
            973.0
          ],
          [
            141.01981207965537,
            43.054154030500584,
            976.0
          ],
          [
            141.02003906472643,
            43.05422260398013,
            979.0
          ],
          [
            141.02026604979747,
            43.054291177459675,
            983.0
          ],
          [
            141.0204930348685,
            43.05435975093922,
            987.0
          ],
          [
            141.02072001993955,
            43.054428324418765,
            991.0
          ],
          [
            141.02094701305424,
            43.05449688499736,
            995.0
          ],
          [
            141.02117400922396,
            43.0545654406761,
            998.0
          ],
          [
            141.02140100539367,
            43.05463399635484,
            1000.0
          ],
          [
            141.0216279868498,
            43.05470257887759,
            1004.0
          ],
          [
            141.02185495630047,
            43.05477118330361,
            1007.0
          ],
          [
            141.02208193451358,
            43.054839772620625,
            1011.0
          ],
          [
            141.02230892441986,
            43.05490834177531,
            1013.0
          ],
          [
            141.02253591432614,
            43.05497691092999,
            1017.0
          ],
          [
            141.0227629011859,
            43.05504548605958,
            1023.0
          ],
          [
            141.02298988506865,
            43.05511406702781,
            1034.0
          ],
          [
            141.02321687316203,
            43.05518264100764,
            1047.0
          ],
          [
            141.0234438644211,
            43.05525120973332,
            1066.0
          ],
          [
            141.02367085498625,
            43.05531978015338,
            1076.0
          ],
          [
            141.02389784499582,
            43.05538835193016,
            1090.0
          ],
          [
            141.024124841917,
            43.05545691230172,
            1100.0
          ],
          [
            141.02435183968038,
            43.05552547128353,
            1109.0
          ],
          [
            141.02457883649453,
            43.055594032062615,
            1122.0
          ],
          [
            141.02480581922907,
            43.055662619499934,
            1129.0
          ],
          [
            141.02503280196362,
            43.05573120693725,
            1135.0
          ],
          [
            141.02525978469814,
            43.055799794374565,
            1144.0
          ],
          [
            141.02548676743268,
            43.055868381811884,
            1154.0
          ],
          [
            141.02571376776132,
            43.055936938300064,
            1164.0
          ],
          [
            141.02594076643217,
            43.05600549874739,
            1171.0
          ],
          [
            141.0261710517789,
            43.05606784047437,
            1173.0
          ],
          [
            141.0262069,
            43.0560774,
            1175.0
          ]
        ]
      }
    },
    {
      "type": "Feature",
      "properties": {
        "name": "余市第２",
        "horizontal_dist_map": 389,
        "slope_dist_map": 397,
        "elevation_diff_map": 72.0
      },
      "geometry": {
        "type": "LineString",
        "coordinates": [
          [
            141.0043239,
            43.0545022,
            914.0
          ],
          [
            141.00443128179091,
            43.05434030811236,
            913.0
          ],
          [
            141.0045386635818,
            43.054178416224715,
            911.0
          ],
          [
            141.0046460453727,
            43.05401652433707,
            909.0
          ],
          [
            141.0047534271636,
            43.05385463244943,
            905.0
          ],
          [
            141.00486009953366,
            43.05369248982401,
            900.0
          ],
          [
            141.0049660137766,
            43.05353007924606,
            896.0
          ],
          [
            141.0050719280195,
            43.0533676686681,
            888.0
          ],
          [
            141.00517784226244,
            43.05320525809015,
            885.0
          ],
          [
            141.00528375404028,
            43.05304284690293,
            882.0
          ],
          [
            141.00538966459845,
            43.05288043541426,
            878.0
          ],
          [
            141.00549557515663,
            43.05271802392559,
            872.0
          ],
          [
            141.0056014857148,
            43.052555612436926,
            869.0
          ],
          [
            141.0057074022991,
            43.052393203188366,
            863.0
          ],
          [
            141.00581333219972,
            43.05223079888996,
            859.0
          ],
          [
            141.00591926210038,
            43.052068394591544,
            853.0
          ],
          [
            141.006025192001,
            43.05190599029313,
            850.0
          ],
          [
            141.00613112190166,
            43.05174358599472,
            848.0
          ],
          [
            141.00623594897704,
            43.0515807976477,
            846.0
          ],
          [
            141.00634075398466,
            43.05141800161579,
            843.0
          ],
          [
            141.006392,
            43.0513384,
            842.0
          ]
        ]
      }
    },
    {
      "type": "Feature",
      "properties": {
        "name": "朝里第１",
        "horizontal_dist_map": 619,
        "slope_dist_map": 625,
        "elevation_diff_map": 82.0
      },
      "geometry": {
        "type": "LineString",
        "coordinates": [
          [
            141.0077181,
            43.051948,
            849.0
          ],
          [
            141.00792116332306,
            43.05204915934154,
            850.0
          ],
          [
            141.00812422664612,
            43.05215031868308,
            852.0
          ],
          [
            141.00832747001598,
            43.052251283216876,
            855.0
          ],
          [
            141.00853110648404,
            43.05235182242475,
            859.0
          ],
          [
            141.00873474295213,
            43.052452361632625,
            861.0
          ],
          [
            141.0089383794202,
            43.052552900840496,
            864.0
          ],
          [
            141.00914201588824,
            43.05265344004837,
            867.0
          ],
          [
            141.0093456525715,
            43.05275397929959,
            870.0
          ],
          [
            141.00954929043715,
            43.052854518789,
            874.0
          ],
          [
            141.00975292830282,
            43.0529550582784,
            875.0
          ],
          [
            141.00995656616846,
            43.05305559776781,
            878.0
          ],
          [
            141.01016020403412,
            43.05315613725722,
            880.0
          ],
          [
            141.0103638447503,
            43.053256674097504,
            882.0
          ],
          [
            141.01056749186768,
            43.053357204988814,
            885.0
          ],
          [
            141.01077113898506,
            43.053457735880116,
            887.0
          ],
          [
            141.01097478610245,
            43.053558266771425,
            889.0
          ],
          [
            141.01117844062773,
            43.05365879087486,
            891.0
          ],
          [
            141.01138209560102,
            43.05375931456778,
            892.0
          ],
          [
            141.0115857505743,
            43.05385983826069,
            896.0
          ],
          [
            141.01178940554763,
            43.053960361953614,
            898.0
          ],
          [
            141.0119930224329,
            43.05406092786574,
            901.0
          ],
          [
            141.01219665250585,
            43.05416148006413,
            907.0
          ],
          [
            141.01240030087212,
            43.05426201264599,
            911.0
          ],
          [
            141.01260394923838,
            43.054362545227846,
            916.0
          ],
          [
            141.0128076002328,
            43.054463075842186,
            920.0
          ],
          [
            141.01301125209497,
            43.05456360580688,
            922.0
          ],
          [
            141.01321490395716,
            43.05466413577157,
            925.0
          ],
          [
            141.01341855581933,
            43.05476466573626,
            927.0
          ],
          [
            141.01362220968016,
            43.05486519469787,
            929.0
          ],
          [
            141.0138258636011,
            43.05496572362932,
            931.0
          ],
          [
            141.0140207,
            43.0550619,
            931.0
          ]
        ]
      }
    },
    {
      "type": "Feature",
      "properties": {
        "name": "ファミリー",
        "horizontal_dist_map": 220,
        "slope_dist_map": 221,
        "elevation_diff_map": 15.0
      },
      "geometry": {
        "type": "LineString",
        "coordinates": [
          [
            140.9886899,
            43.0665963,
            577.0
          ],
          [
            140.98880000115932,
            43.06643538570696,
            579.0
          ],
          [
            140.98891010231864,
            43.06627447141392,
            580.0
          ],
          [
            140.98902020355217,
            43.06611355720747,
            582.0
          ],
          [
            140.98913030502212,
            43.0659526432769,
            582.0
          ],
          [
            140.98924040584,
            43.06579172913355,
            583.0
          ],
          [
            140.98935050101602,
            43.06563081314911,
            585.0
          ],
          [
            140.98946059619203,
            43.06546989716468,
            588.0
          ],
          [
            140.98957069336402,
            43.06530898194156,
            590.0
          ],
          [
            140.9896808114511,
            43.065148074695905,
            590.0
          ],
          [
            140.98979092953823,
            43.064987167450255,
            590.0
          ],
          [
            140.98990104762532,
            43.0648262602046,
            592.0
          ],
          [
            140.9899041,
            43.0648218,
            592.0
          ]
        ]
      }
    },
    {
      "type": "Feature",
      "properties": {
        "name": "ゲートウェイエクスプレス",
        "horizontal_dist_map": 899,
        "slope_dist_map": 902,
        "elevation_diff_map": 49.0
      },
      "geometry": {
        "type": "LineString",
        "coordinates": [
          [
            140.9843785,
            43.0745097,
            523.0
          ],
          [
            140.98445038976155,
            43.07433755955616,
            524.0
          ],
          [
            140.98452227952313,
            43.074165419112326,
            525.0
          ],
          [
            140.9845941692847,
            43.07399327866848,
            527.0
          ],
          [
            140.98466605904628,
            43.073821138224645,
            529.0
          ],
          [
            140.98473794880783,
            43.07364899778081,
            530.0
          ],
          [
            140.98480983856942,
            43.07347685733697,
            532.0
          ],
          [
            140.98488172833098,
            43.07330471689313,
            534.0
          ],
          [
            140.98496071607033,
            43.07313432708203,
            536.0
          ],
          [
            140.98504535686268,
            43.07296533152997,
            538.0
          ],
          [
            140.98512999765504,
            43.07279633597792,
            541.0
          ],
          [
            140.9852146384474,
            43.07262734042586,
            543.0
          ],
          [
            140.98529927923974,
            43.0724583448738,
            546.0
          ],
          [
            140.9853839200321,
            43.07228934932174,
            548.0
          ],
          [
            140.98546856082447,
            43.072120353769684,
            551.0
          ],
          [
            140.98555320161682,
            43.07195135821763,
            553.0
          ],
          [
            140.9856358390213,
            43.071781837531674,
            554.0
          ],
          [
            140.98571659441092,
            43.07161182352647,
            554.0
          ],
          [
            140.98579734980055,
            43.07144180952126,
            555.0
          ],
          [
            140.98587810519018,
            43.071271795516054,
            556.0
          ],
          [
            140.98595886057979,
            43.07110178151084,
            556.0
          ],
          [
            140.98603961596942,
            43.070931767505634,
            557.0
          ],
          [
            140.98612015325799,
            43.0707616980933,
            557.0
          ],
          [
            140.98620053045732,
            43.07059158801136,
            556.0
          ],
          [
            140.98628090765666,
            43.070421477929415,
            555.0
          ],
          [
            140.98636437102022,
            43.07025217094595,
            554.0
          ],
          [
            140.98644824272884,
            43.07008297022425,
            554.0
          ],
          [
            140.98653262497157,
            43.069913907337124,
            554.0
          ],
          [
            140.9866183491747,
            43.06974520675397,
            552.0
          ],
          [
            140.98670407337787,
            43.06957650617081,
            551.0
          ],
          [
            140.98678979758103,
            43.06940780558766,
            550.0
          ],
          [
            140.98687552178416,
            43.0692391050045,
            553.0
          ],
          [
            140.98696124598732,
            43.069070404421346,
            555.0
          ],
          [
            140.98704697019048,
            43.068901703838186,
            554.0
          ],
          [
            140.9871326943936,
            43.06873300325503,
            553.0
          ],
          [
            140.98721841859677,
            43.068564302671874,
            557.0
          ],
          [
            140.98730414279993,
            43.06839560208872,
            559.0
          ],
          [
            140.98738972601512,
            43.06822686334348,
            560.0
          ],
          [
            140.98747429553438,
            43.06805785021493,
            561.0
          ],
          [
            140.98755886505364,
            43.067888837086365,
            562.0
          ],
          [
            140.98764343457287,
            43.0677198239578,
            563.0
          ],
          [
            140.98772800409213,
            43.06755081082924,
            565.0
          ],
          [
            140.9878156269063,
            43.06738266686771,
            567.0
          ],
          [
            140.9879087540913,
            43.06721608980941,
            569.0
          ],
          [
            140.98800188127632,
            43.06704951275112,
            571.0
          ],
          [
            140.9880905,
            43.066891,
            572.0
          ]
        ]
      }
    },
    {
      "type": "Feature",
      "properties": {
        "name": "長峰第1エクスプレス",
        "horizontal_dist_map": 1516,
        "slope_dist_map": 1540,
        "elevation_diff_map": 208.0
      },
      "geometry": {
        "type": "LineString",
        "coordinates": [
          [
            140.99087136959417,
            43.06779506742575,
            565.0
          ],
          [
            140.99109584809878,
            43.06786804151862,
            564.0
          ],
          [
            140.99132032660336,
            43.0679410156115,
            566.0
          ],
          [
            140.99154480510796,
            43.068013989704376,
            570.0
          ],
          [
            140.99176928361254,
            43.068086963797256,
            577.0
          ],
          [
            140.99199376211715,
            43.06815993789013,
            581.0
          ],
          [
            140.99221824062172,
            43.06823291198301,
            587.0
          ],
          [
            140.99244271912633,
            43.06830588607588,
            593.0
          ],
          [
            140.9926671976309,
            43.068378860168764,
            599.0
          ],
          [
            140.9928916761355,
            43.06845183426164,
            610.0
          ],
          [
            140.99311615464012,
            43.06852480835452,
            615.0
          ],
          [
            140.9933406331447,
            43.06859778244739,
            621.0
          ],
          [
            140.9935651116493,
            43.06867075654027,
            630.0
          ],
          [
            140.99378959015388,
            43.068743730633145,
            636.0
          ],
          [
            140.9940140686585,
            43.06881670472602,
            641.0
          ],
          [
            140.99423854716306,
            43.0688896788189,
            645.0
          ],
          [
            140.99446302566767,
            43.06896265291177,
            646.0
          ],
          [
            140.99468750417225,
            43.06903562700465,
            645.0
          ],
          [
            140.99491198267685,
            43.069108601097525,
            644.0
          ],
          [
            140.99513646118143,
            43.069181575190406,
            642.0
          ],
          [
            140.99536093968604,
            43.06925454928328,
            641.0
          ],
          [
            140.99558541819064,
            43.06932752337616,
            644.0
          ],
          [
            140.99580989669522,
            43.06940049746903,
            644.0
          ],
          [
            140.99603437519983,
            43.06947347156191,
            645.0
          ],
          [
            140.9962588537044,
            43.06954644565479,
            645.0
          ],
          [
            140.996483332209,
            43.06961941974766,
            646.0
          ],
          [
            140.9967078107136,
            43.06969239384054,
            647.0
          ],
          [
            140.9969322892182,
            43.069765367933414,
            648.0
          ],
          [
            140.99715676772277,
            43.069838342026294,
            652.0
          ],
          [
            140.99738124622738,
            43.06991131611917,
            654.0
          ],
          [
            140.99760572473198,
            43.06998429021205,
            656.0
          ],
          [
            140.99783020323656,
            43.07005726430492,
            659.0
          ],
          [
            140.99805468174117,
            43.0701302383978,
            662.0
          ],
          [
            140.99827916024574,
            43.070203212490675,
            666.0
          ],
          [
            140.99850363875035,
            43.070276186583555,
            671.0
          ],
          [
            140.99872811725493,
            43.07034916067643,
            676.0
          ],
          [
            140.99895259575953,
            43.07042213476931,
            680.0
          ],
          [
            140.9991770742641,
            43.07049510886218,
            685.0
          ],
          [
            140.99940155276872,
            43.070568082955056,
            691.0
          ],
          [
            140.9996260312733,
            43.070641057047936,
            693.0
          ],
          [
            140.9998505097779,
            43.07071403114081,
            696.0
          ],
          [
            141.0000749882825,
            43.07078700523369,
            698.0
          ],
          [
            141.00029946678708,
            43.07085997932656,
            700.0
          ],
          [
            141.0005239452917,
            43.070932953419444,
            702.0
          ],
          [
            141.00074842379627,
            43.07100592751232,
            704.0
          ],
          [
            141.00097290230087,
            43.0710789016052,
            707.0
          ],
          [
            141.00119738080545,
            43.07115187569807,
            710.0
          ],
          [
            141.00142185931006,
            43.07122484979095,
            712.0
          ],
          [
            141.00164633781463,
            43.071297823883825,
            714.0
          ],
          [
            141.00187081631924,
            43.0713707979767,
            716.0
          ],
          [
            141.00209529482385,
            43.07144377206958,
            719.0
          ],
          [
            141.00231977332842,
            43.07151674616245,
            722.0
          ],
          [
            141.00254425183303,
            43.07158972025533,
            724.0
          ],
          [
            141.0027687303376,
            43.071662694348205,
            728.0
          ],
          [
            141.0029932088422,
            43.071735668441086,
            730.0
          ],
          [
            141.0032176873468,
            43.07180864253396,
            732.0
          ],
          [
            141.0034421658514,
            43.07188161662684,
            734.0
          ],
          [
            141.00366664435597,
            43.07195459071971,
            736.0
          ],
          [
            141.00389112286058,
            43.07202756481259,
            738.0
          ],
          [
            141.00411560136519,
            43.07210053890547,
            741.0
          ],
          [
            141.00434007986976,
            43.07217351299835,
            743.0
          ],
          [
            141.00456455837437,
            43.07224648709122,
            745.0
          ],
          [
            141.00478903687895,
            43.072319461184094,
            747.0
          ],
          [
            141.00501351538355,
            43.072392435276974,
            749.0
          ],
          [
            141.00523799388813,
            43.07246540936985,
            752.0
          ],
          [
            141.00546247239274,
            43.07253838346273,
            753.0
          ],
          [
            141.0056869508973,
            43.0726113575556,
            755.0
          ],
          [
            141.00591142940192,
            43.07268433164848,
            756.0
          ],
          [
            141.0061359079065,
            43.072757305741355,
            756.0
          ],
          [
            141.0063603864111,
            43.072830279834236,
            755.0
          ],
          [
            141.0065848649157,
            43.07290325392711,
            758.0
          ],
          [
            141.0068093434203,
            43.07297622801999,
            756.0
          ],
          [
            141.0070338219249,
            43.07304920211286,
            759.0
          ],
          [
            141.00725830042947,
            43.07312217620574,
            762.0
          ],
          [
            141.00748277893408,
            43.073195150298616,
            770.0
          ],
          [
            141.00770725743865,
            43.07326812439149,
            771.0
          ],
          [
            141.00789348372314,
            43.0733286633469,
            773.0
          ]
        ]
      }
    },
    {
      "type": "Feature",
      "properties": {
        "name": "長峰第2エクスプレス",
        "horizontal_dist_map": 965,
        "slope_dist_map": 1020,
        "elevation_diff_map": 323.0
      },
      "geometry": {
        "type": "LineString",
        "coordinates": [
          [
            141.00769417062088,
            43.071378295754954,
            744.0
          ],
          [
            141.00793805914537,
            43.071399277126396,
            749.0
          ],
          [
            141.0081819476699,
            43.07142025849784,
            754.0
          ],
          [
            141.0084258361944,
            43.07144123986927,
            759.0
          ],
          [
            141.0086697247189,
            43.071462221240715,
            770.0
          ],
          [
            141.0089136132434,
            43.07148320261216,
            775.0
          ],
          [
            141.0091575017679,
            43.0715041839836,
            782.0
          ],
          [
            141.00940139029242,
            43.071525165355034,
            789.0
          ],
          [
            141.00964527881692,
            43.071546146726476,
            797.0
          ],
          [
            141.00988916734144,
            43.07156712809792,
            805.0
          ],
          [
            141.01013305586594,
            43.07158810946936,
            813.0
          ],
          [
            141.01037694439043,
            43.071609090840795,
            820.0
          ],
          [
            141.01062083291495,
            43.07163007221224,
            827.0
          ],
          [
            141.01086472143945,
            43.07165105358368,
            834.0
          ],
          [
            141.01110860996394,
            43.07167203495512,
            842.0
          ],
          [
            141.01135249848846,
            43.071693016326556,
            847.0
          ],
          [
            141.01159638701296,
            43.071713997698,
            854.0
          ],
          [
            141.01184027553748,
            43.07173497906944,
            862.0
          ],
          [
            141.01208416406197,
            43.07175596044088,
            867.0
          ],
          [
            141.01232805258647,
            43.07177694181232,
            876.0
          ],
          [
            141.012571941111,
            43.07179792318376,
            884.0
          ],
          [
            141.01281582963549,
            43.0718189045552,
            891.0
          ],
          [
            141.01305971816,
            43.07183988592664,
            900.0
          ],
          [
            141.0133036066845,
            43.07186086729808,
            907.0
          ],
          [
            141.013547495209,
            43.07188184866952,
            912.0
          ],
          [
            141.01379138373352,
            43.07190283004096,
            920.0
          ],
          [
            141.014035272258,
            43.071923811412404,
            926.0
          ],
          [
            141.01427916078254,
            43.07194479278384,
            932.0
          ],
          [
            141.01452304930703,
            43.07196577415528,
            937.0
          ],
          [
            141.01476693783152,
            43.07198675552672,
            945.0
          ],
          [
            141.01501082635605,
            43.072007736898165,
            951.0
          ],
          [
            141.01525471488054,
            43.07202871826961,
            956.0
          ],
          [
            141.01549860340504,
            43.07204969964104,
            962.0
          ],
          [
            141.01574249192956,
            43.072070681012484,
            970.0
          ],
          [
            141.01598638045405,
            43.072091662383926,
            977.0
          ],
          [
            141.01623026897857,
            43.07211264375537,
            984.0
          ],
          [
            141.01647415750307,
            43.0721336251268,
            995.0
          ],
          [
            141.01671804602756,
            43.072154606498245,
            1001.0
          ],
          [
            141.01696193455209,
            43.07217558786969,
            1006.0
          ],
          [
            141.01720582307658,
            43.07219656924113,
            1011.0
          ],
          [
            141.0174497116011,
            43.072217550612564,
            1017.0
          ],
          [
            141.0176936001256,
            43.072238531984006,
            1022.0
          ],
          [
            141.0179374886501,
            43.07225951335545,
            1027.0
          ],
          [
            141.0181813771746,
            43.07228049472689,
            1032.0
          ],
          [
            141.0184252656991,
            43.072301476098325,
            1040.0
          ],
          [
            141.01866915422363,
            43.07232245746977,
            1047.0
          ],
          [
            141.01891304274812,
            43.07234343884121,
            1055.0
          ],
          [
            141.01915693127262,
            43.07236442021265,
            1062.0
          ],
          [
            141.01940081979714,
            43.072385401584086,
            1067.0
          ],
          [
            141.01946247124778,
            43.07239070536781,
            1067.0
          ]
        ]
      }
    }
  ]
}