{
  "type": "FeatureCollection",
  "features": [
    {
      "type": "Feature",
      "properties": {
        "name": "ロマンスリフト",
        "horizontal_dist_map": 597,
        "slope_dist_map": 635,
        "elevation_diff_map": 199.6
      },
      "geometry": {
        "type": "LineString",
        "coordinates": [
          [
            142.1373467,
            44.0131682,
            159.4
          ],
          [
            142.13715706738498,
            44.01328512254007,
            159.4
          ],
          [
            142.13696743476999,
            44.013402045080134,
            160.7
          ],
          [
            142.13677780215497,
            44.0135189676202,
            163.2
          ],
          [
            142.13658816953995,
            44.01363589016027,
            168.6
          ],
          [
            142.13639853692496,
            44.01375281270034,
            180.0
          ],
          [
            142.13620890430994,
            44.013869735240405,
            190.0
          ],
          [
            142.13601927169492,
            44.01398665778047,
            195.0
          ],
          [
            142.13582963907993,
            44.01410358032054,
            203.0
          ],
          [
            142.1356400064649,
            44.0142205028606,
            214.0
          ],
          [
            142.13545037384992,
            44.01433742540067,
            225.0
          ],
          [
            142.1352607412349,
            44.014454347940735,
            235.0
          ],
          [
            142.13507110861988,
            44.01457127048081,
            247.0
          ],
          [
            142.1348814760049,
            44.01468819302087,
            258.0
          ],
          [
            142.13469184338987,
            44.01480511556094,
            267.0
          ],
          [
            142.13450221077485,
            44.014922038101005,
            275.0
          ],
          [
            142.13431257815986,
            44.01503896064107,
            281.0
          ],
          [
            142.13412294554485,
            44.01515588318114,
            287.0
          ],
          [
            142.13393331292983,
            44.0152728057212,
            296.0
          ],
          [
            142.13374368031484,
            44.01538972826127,
            303.0
          ],
          [
            142.13355404769982,
            44.01550665080134,
            310.0
          ],
          [
            142.1333644150848,
            44.01562357334141,
            315.0
          ],
          [
            142.1331747824698,
            44.015740495881474,
            319.0
          ],
          [
            142.1329851498548,
            44.01585741842154,
            323.0
          ],
          [
            142.13279551723977,
            44.015974340961606,
            328.0
          ],
          [
            142.13260588462478,
            44.01609126350167,
            335.0
          ],
          [
            142.13241625200976,
            44.01620818604174,
            339.0
          ],
          [
            142.13222661939477,
            44.0163251085818,
            343.0
          ],
          [
            142.13203698677975,
            44.016442031121876,
            348.0
          ],
          [
            142.13184735416473,
            44.01655895366194,
            355.0
          ],
          [
            142.1316812,
            44.0166614,
            359.0
          ]
        ]
      }
    }
  ]
}