{
  "type": "FeatureCollection",
  "features": [
    {
      "type": "Feature",
      "properties": {
        "name": "第1トリプル",
        "horizontal_dist_map": 324,
        "slope_dist_map": 343,
        "elevation_diff_map": 99.6,
        "midstation": null
      },
      "geometry": {
        "type": "LineString",
        "coordinates": [
          [
            132.87523152654407,
            33.718822514442465,
            895.4
          ],
          [
            132.87542429269052,
            33.71890354109444,
            897.6
          ],
          [
            132.87561705883698,
            33.718984567746425,
            902.9
          ],
          [
            132.8758098249834,
            33.7190655943984,
            906.2
          ],
          [
            132.87600259112986,
            33.719146621050385,
            910.5
          ],
          [
            132.87619535727632,
            33.71922764770236,
            914.2
          ],
          [
            132.87638812342277,
            33.719308674354345,
            919.0
          ],
          [
            132.8765808895692,
            33.71938970100632,
            924.5
          ],
          [
            132.87677365571565,
            33.719470727658305,
            927.4
          ],
          [
            132.8769664218621,
            33.71955175431028,
            935.2
          ],
          [
            132.87715918800856,
            33.719632780962264,
            947.1
          ],
          [
            132.877351954155,
            33.71971380761424,
            959.2
          ],
          [
            132.87754472030144,
            33.719794834266224,
            971.2
          ],
          [
            132.8777374864479,
            33.7198758609182,
            978.0
          ],
          [
            132.87793025259435,
            33.71995688757018,
            983.2
          ],
          [
            132.87812301874078,
            33.72003791422216,
            987.3
          ],
          [
            132.87831578488723,
            33.72011894087414,
            995.4
          ],
          [
            132.8783597,
            33.7201374,
            995.0
          ]
        ]
      }
    },
    {
      "type": "Feature",
      "properties": {
        "name": "第2トリプル",
        "horizontal_dist_map": 325,
        "slope_dist_map": 344,
        "elevation_diff_map": 100.2,
        "midstation": null
      },
      "geometry": {
        "type": "LineString",
        "coordinates": [
          [
            132.87527126931587,
            33.718743707125185,
            895.1
          ],
          [
            132.87546395679865,
            33.71882486404729,
            896.4
          ],
          [
            132.8756566442814,
            33.71890602096939,
            903.5
          ],
          [
            132.8758493317642,
            33.7189871778915,
            906.8
          ],
          [
            132.87604201924697,
            33.7190683348136,
            911.1
          ],
          [
            132.87623470672972,
            33.719149491735706,
            914.6
          ],
          [
            132.8764273942125,
            33.719230648657806,
            919.4
          ],
          [
            132.87662008169528,
            33.71931180557991,
            923.4
          ],
          [
            132.87681276917803,
            33.71939296250201,
            927.7
          ],
          [
            132.8770054566608,
            33.71947411942412,
            933.1
          ],
          [
            132.87719814414356,
            33.71955527634622,
            941.1
          ],
          [
            132.87739083162634,
            33.71963643326833,
            955.9
          ],
          [
            132.87758351910912,
            33.71971759019043,
            968.6
          ],
          [
            132.87777620659188,
            33.719798747112534,
            976.6
          ],
          [
            132.87796889407466,
            33.719879904034634,
            983.0
          ],
          [
            132.87816158155744,
            33.71996106095674,
            989.0
          ],
          [
            132.8783542690402,
            33.72004221787884,
            995.8
          ],
          [
            132.87840569892043,
            33.72006387933149,
            995.3
          ]
        ]
      }
    }
  ]
}