{
  "type": "FeatureCollection",
  "features": [
    {
      "type": "Feature",
      "properties": {
        "name": "West Express",
        "horizontal_dist_map": 941,
        "slope_dist_map": 990,
        "elevation_diff_map": 274.0
      },
      "geometry": {
        "type": "LineString",
        "coordinates": [
          [
            140.5385335460108,
            38.437894069356354,
            733.0
          ],
          [
            140.5386538493664,
            38.43774074591432,
            735.0
          ],
          [
            140.53877415272203,
            38.43758742247228,
            740.0
          ],
          [
            140.53889445607763,
            38.43743409903025,
            745.0
          ],
          [
            140.53901475943326,
            38.43728077558821,
            754.0
          ],
          [
            140.53913506278886,
            38.43712745214618,
            760.0
          ],
          [
            140.53925536614446,
            38.43697412870414,
            771.0
          ],
          [
            140.5393756695001,
            38.43682080526211,
            776.0
          ],
          [
            140.5394959728557,
            38.43666748182007,
            781.0
          ],
          [
            140.53961627621132,
            38.43651415837804,
            787.0
          ],
          [
            140.53973657956692,
            38.436360834936,
            792.0
          ],
          [
            140.53985688292252,
            38.43620751149397,
            796.0
          ],
          [
            140.53997718627815,
            38.43605418805193,
            800.0
          ],
          [
            140.54009748963375,
            38.4359008646099,
            802.0
          ],
          [
            140.54021779298938,
            38.43574754116786,
            805.0
          ],
          [
            140.54033809634498,
            38.43559421772583,
            806.0
          ],
          [
            140.54045839970058,
            38.43544089428379,
            808.0
          ],
          [
            140.5405787030562,
            38.43528757084176,
            810.0
          ],
          [
            140.5406990064118,
            38.43513424739972,
            817.0
          ],
          [
            140.54081930976744,
            38.43498092395769,
            824.0
          ],
          [
            140.54093961312304,
            38.43482760051565,
            831.0
          ],
          [
            140.54105991647864,
            38.43467427707362,
            836.0
          ],
          [
            140.54118021983427,
            38.43452095363158,
            840.0
          ],
          [
            140.54130052318988,
            38.43436763018955,
            841.0
          ],
          [
            140.5414208265455,
            38.43421430674751,
            844.0
          ],
          [
            140.5415411299011,
            38.43406098330548,
            846.0
          ],
          [
            140.5416614332567,
            38.43390765986344,
            848.0
          ],
          [
            140.54178173661234,
            38.43375433642141,
            851.0
          ],
          [
            140.54190203996794,
            38.43360101297937,
            855.0
          ],
          [
            140.54202234332357,
            38.43344768953734,
            861.0
          ],
          [
            140.54214264667917,
            38.4332943660953,
            865.0
          ],
          [
            140.54226295003477,
            38.43314104265327,
            872.0
          ],
          [
            140.5423832533904,
            38.43298771921123,
            879.0
          ],
          [
            140.542503556746,
            38.4328343957692,
            889.0
          ],
          [
            140.54262386010163,
            38.43268107232716,
            904.0
          ],
          [
            140.54274416345723,
            38.43252774888513,
            912.0
          ],
          [
            140.54286446681283,
            38.43237442544309,
            921.0
          ],
          [
            140.54298477016846,
            38.43222110200105,
            927.0
          ],
          [
            140.54310507352406,
            38.432067778559016,
            936.0
          ],
          [
            140.5432253768797,
            38.43191445511698,
            942.0
          ],
          [
            140.5433456802353,
            38.431761131674946,
            948.0
          ],
          [
            140.5434659835909,
            38.43160780823291,
            957.0
          ],
          [
            140.54358628694652,
            38.431454484790876,
            968.0
          ],
          [
            140.54370659030212,
            38.43130116134884,
            977.0
          ],
          [
            140.54382689365775,
            38.431147837906806,
            986.0
          ],
          [
            140.54394719701335,
            38.43099451446477,
            995.0
          ],
          [
            140.54406750036895,
            38.430841191022736,
            1003.0
          ],
          [
            140.54418780372458,
            38.4306878675807,
            1007.0
          ],
          [
            140.54419865664786,
            38.430674035817276,
            1007.0
          ]
        ]
      }
    },
    {
      "type": "Feature",
      "properties": {
        "name": "Jungle Pair",
        "horizontal_dist_map": 390,
        "slope_dist_map": 404,
        "elevation_diff_map": 100.0
      },
      "geometry": {
        "type": "LineString",
        "coordinates": [
          [
            140.53959389368384,
            38.43826737056024,
            729.0
          ],
          [
            140.53969966925317,
            38.438107556537815,
            732.0
          ],
          [
            140.53980544482246,
            38.4379477425154,
            736.0
          ],
          [
            140.5399112203918,
            38.43778792849297,
            744.0
          ],
          [
            140.54001699596108,
            38.43762811447055,
            751.0
          ],
          [
            140.5401227715304,
            38.43746830044813,
            759.0
          ],
          [
            140.54022854709973,
            38.43730848642571,
            766.0
          ],
          [
            140.54033432266903,
            38.43714867240328,
            771.0
          ],
          [
            140.54044009823835,
            38.43698885838086,
            777.0
          ],
          [
            140.54054587380764,
            38.43682904435844,
            782.0
          ],
          [
            140.54065164937697,
            38.436669230336015,
            784.0
          ],
          [
            140.5407574249463,
            38.43650941631359,
            788.0
          ],
          [
            140.5408632005156,
            38.43634960229117,
            791.0
          ],
          [
            140.5409689760849,
            38.43618978826875,
            798.0
          ],
          [
            140.5410747516542,
            38.436029974246324,
            803.0
          ],
          [
            140.54118052722353,
            38.43587016022391,
            806.0
          ],
          [
            140.54128630279286,
            38.43571034620148,
            809.0
          ],
          [
            140.54139207836215,
            38.43555053217906,
            817.0
          ],
          [
            140.54149785393147,
            38.43539071815663,
            822.0
          ],
          [
            140.5416036295008,
            38.435230904134215,
            828.0
          ],
          [
            140.54166035819424,
            38.435145193976886,
            829.0
          ]
        ]
      }
    },
    {
      "type": "Feature",
      "properties": {
        "name": "East Express",
        "horizontal_dist_map": 1213,
        "slope_dist_map": 1268,
        "elevation_diff_map": 317.0
      },
      "geometry": {
        "type": "LineString",
        "coordinates": [
          [
            140.54187660673935,
            38.439819496041345,
            714.0
          ],
          [
            140.54201861707202,
            38.439678125171724,
            714.0
          ],
          [
            140.54216062740468,
            38.4395367543021,
            719.0
          ],
          [
            140.54230263773735,
            38.439395383432476,
            727.0
          ],
          [
            140.54244464807002,
            38.43925401256285,
            737.0
          ],
          [
            140.54258665840268,
            38.43911264169323,
            744.0
          ],
          [
            140.54272866873535,
            38.4389712708236,
            754.0
          ],
          [
            140.54287067906802,
            38.43882989995398,
            765.0
          ],
          [
            140.54301268940068,
            38.43868852908435,
            773.0
          ],
          [
            140.54315469973335,
            38.43854715821473,
            784.0
          ],
          [
            140.54329671006602,
            38.438405787345104,
            793.0
          ],
          [
            140.54343872039868,
            38.438264416475484,
            796.0
          ],
          [
            140.54358073073135,
            38.438123045605856,
            802.0
          ],
          [
            140.54372274106402,
            38.437981674736236,
            807.0
          ],
          [
            140.54386475139668,
            38.437840303866615,
            810.0
          ],
          [
            140.54400676172932,
            38.43769893299699,
            812.0
          ],
          [
            140.544148772062,
            38.43755756212737,
            814.0
          ],
          [
            140.54429078239465,
            38.43741619125774,
            816.0
          ],
          [
            140.54443279272732,
            38.43727482038812,
            818.0
          ],
          [
            140.54457480306,
            38.43713344951849,
            819.0
          ],
          [
            140.54471681339265,
            38.43699207864887,
            818.0
          ],
          [
            140.54485882372532,
            38.43685070777924,
            817.0
          ],
          [
            140.545000834058,
            38.43670933690962,
            820.0
          ],
          [
            140.54514284439065,
            38.436567966039995,
            823.0
          ],
          [
            140.54528485472332,
            38.436426595170374,
            828.0
          ],
          [
            140.545426865056,
            38.436285224300754,
            830.0
          ],
          [
            140.54556887538865,
            38.436143853431126,
            838.0
          ],
          [
            140.54571088572132,
            38.436002482561506,
            843.0
          ],
          [
            140.545852896054,
            38.43586111169188,
            846.0
          ],
          [
            140.54599490638665,
            38.43571974082226,
            851.0
          ],
          [
            140.54613691671932,
            38.43557836995263,
            858.0
          ],
          [
            140.546278927052,
            38.43543699908301,
            869.0
          ],
          [
            140.54642093738465,
            38.43529562821338,
            878.0
          ],
          [
            140.54656294771732,
            38.43515425734376,
            887.0
          ],
          [
            140.54670495805,
            38.435012886474134,
            894.0
          ],
          [
            140.54684696838265,
            38.43487151560451,
            903.0
          ],
          [
            140.54698897871532,
            38.434730144734885,
            912.0
          ],
          [
            140.547130989048,
            38.434588773865265,
            915.0
          ],
          [
            140.54727299938065,
            38.434447402995644,
            920.0
          ],
          [
            140.54741500971332,
            38.43430603212602,
            921.0
          ],
          [
            140.54755702004599,
            38.434164661256396,
            922.0
          ],
          [
            140.54769903037865,
            38.43402329038677,
            924.0
          ],
          [
            140.54784104071132,
            38.43388191951715,
            925.0
          ],
          [
            140.54798305104399,
            38.43374054864752,
            927.0
          ],
          [
            140.54812506137662,
            38.4335991777779,
            928.0
          ],
          [
            140.5482670717093,
            38.43345780690827,
            930.0
          ],
          [
            140.54840908204196,
            38.43331643603865,
            935.0
          ],
          [
            140.54855109237462,
            38.433175065169024,
            940.0
          ],
          [
            140.5486931027073,
            38.433033694299404,
            946.0
          ],
          [
            140.54883511303996,
            38.43289232342978,
            951.0
          ],
          [
            140.54897712337262,
            38.432750952560156,
            956.0
          ],
          [
            140.5491191337053,
            38.432609581690535,
            963.0
          ],
          [
            140.54926114403796,
            38.43246821082091,
            969.0
          ],
          [
            140.54940315437062,
            38.43232683995129,
            979.0
          ],
          [
            140.5495451647033,
            38.43218546908166,
            989.0
          ],
          [
            140.54968717503596,
            38.43204409821204,
            995.0
          ],
          [
            140.54982918536862,
            38.43190272734241,
            1001.0
          ],
          [
            140.5499711957013,
            38.43176135647279,
            1012.0
          ],
          [
            140.55011320603396,
            38.43161998560316,
            1020.0
          ],
          [
            140.55025521636662,
            38.43147861473354,
            1025.0
          ],
          [
            140.5503972266993,
            38.431337243863915,
            1029.0
          ],
          [
            140.5504913306298,
            38.43124356367712,
            1031.0
          ]
        ]
      }
    }
  ]
}