{
  "type": "FeatureCollection",
  "features": [
    {
      "type": "Feature",
      "properties": {
        "name": "第2クワッド",
        "horizontal_dist_map": 591,
        "slope_dist_map": 610,
        "elevation_diff_map": 129.0
      },
      "geometry": {
        "type": "LineString",
        "coordinates": [
          [
            138.283438869143,
            36.850977852203165,
            919.0
          ],
          [
            138.2833223150332,
            36.85082388709002,
            920.0
          ],
          [
            138.28320576092338,
            36.85066992197688,
            922.0
          ],
          [
            138.28308920681357,
            36.85051595686374,
            926.0
          ],
          [
            138.28297265270373,
            36.85036199175059,
            926.0
          ],
          [
            138.28285609859392,
            36.850208026637446,
            928.0
          ],
          [
            138.28273954448412,
            36.850054061524304,
            931.0
          ],
          [
            138.2826229903743,
            36.84990009641116,
            935.0
          ],
          [
            138.2825064362645,
            36.84974613129802,
            941.0
          ],
          [
            138.2823898821547,
            36.84959216618488,
            945.0
          ],
          [
            138.28227332804488,
            36.849438201071735,
            948.0
          ],
          [
            138.28215677393507,
            36.84928423595859,
            955.0
          ],
          [
            138.28204021982523,
            36.84913027084544,
            961.0
          ],
          [
            138.28192366571542,
            36.8489763057323,
            964.0
          ],
          [
            138.28180711160562,
            36.84882234061916,
            969.0
          ],
          [
            138.2816905574958,
            36.848668375506016,
            974.0
          ],
          [
            138.281574003386,
            36.84851441039287,
            978.0
          ],
          [
            138.2814574492762,
            36.84836044527973,
            985.0
          ],
          [
            138.28134089516638,
            36.84820648016659,
            989.0
          ],
          [
            138.28122434105657,
            36.848052515053446,
            993.0
          ],
          [
            138.28110778694673,
            36.8478985499403,
            997.0
          ],
          [
            138.28099123283693,
            36.847744584827154,
            1003.0
          ],
          [
            138.28087467872712,
            36.84759061971401,
            1014.0
          ],
          [
            138.2807581246173,
            36.84743665460087,
            1027.0
          ],
          [
            138.2806415705075,
            36.84728268948773,
            1034.0
          ],
          [
            138.2805250163977,
            36.847128724374585,
            1041.0
          ],
          [
            138.28040846228788,
            36.84697475926144,
            1042.0
          ],
          [
            138.28029190817807,
            36.8468207941483,
            1045.0
          ],
          [
            138.28017535406823,
            36.84666682903515,
            1046.0
          ],
          [
            138.28005879995843,
            36.84651286392201,
            1049.0
          ],
          [
            138.27999306847974,
            36.84642603425491,
            1048.0
          ]
        ]
      }
    },
    {
      "type": "Feature",
      "properties": {
        "name": "スーパークワッド",
        "horizontal_dist_map": 938,
        "slope_dist_map": 982,
        "elevation_diff_map": 251.0
      },
      "geometry": {
        "type": "LineString",
        "coordinates": [
          [
            138.28474485852124,
            36.85044952378044,
            920.0
          ],
          [
            138.28461701369602,
            36.85030146133253,
            922.0
          ],
          [
            138.2844891688708,
            36.85015339888462,
            924.0
          ],
          [
            138.2843613240456,
            36.85000533643671,
            925.0
          ],
          [
            138.2842334792204,
            36.8498572739888,
            926.0
          ],
          [
            138.2841056343952,
            36.84970921154089,
            927.0
          ],
          [
            138.28397778956997,
            36.849561149092985,
            929.0
          ],
          [
            138.28384994474476,
            36.84941308664507,
            931.0
          ],
          [
            138.28372209991954,
            36.849265024197166,
            935.0
          ],
          [
            138.28359425509433,
            36.84911696174925,
            938.0
          ],
          [
            138.2834664102691,
            36.84896889930135,
            940.0
          ],
          [
            138.28333856544393,
            36.848820836853434,
            943.0
          ],
          [
            138.2832107206187,
            36.84867277440552,
            946.0
          ],
          [
            138.2830828757935,
            36.848524711957616,
            950.0
          ],
          [
            138.28295503096828,
            36.8483766495097,
            953.0
          ],
          [
            138.28282718614307,
            36.8482285870618,
            960.0
          ],
          [
            138.28269934131785,
            36.848080524613884,
            965.0
          ],
          [
            138.28257149649264,
            36.84793246216598,
            972.0
          ],
          [
            138.28244365166745,
            36.847784399718066,
            976.0
          ],
          [
            138.28231580684223,
            36.84763633727016,
            982.0
          ],
          [
            138.28218796201702,
            36.84748827482225,
            988.0
          ],
          [
            138.2820601171918,
            36.847340212374334,
            995.0
          ],
          [
            138.2819322723666,
            36.84719214992643,
            996.0
          ],
          [
            138.28180442754137,
            36.847044087478515,
            1002.0
          ],
          [
            138.28167658271616,
            36.84689602503061,
            1004.0
          ],
          [
            138.28154873789094,
            36.8467479625827,
            1009.0
          ],
          [
            138.28142089306576,
            36.84659990013479,
            1010.0
          ],
          [
            138.28129304824054,
            36.84645183768688,
            1018.0
          ],
          [
            138.28116520341533,
            36.84630377523897,
            1026.0
          ],
          [
            138.2810373585901,
            36.84615571279106,
            1036.0
          ],
          [
            138.2809095137649,
            36.846007650343154,
            1042.0
          ],
          [
            138.28078166893968,
            36.84585958789524,
            1050.0
          ],
          [
            138.28065382411447,
            36.84571152544733,
            1054.0
          ],
          [
            138.28052597928928,
            36.84556346299942,
            1061.0
          ],
          [
            138.28039813446406,
            36.84541540055151,
            1068.0
          ],
          [
            138.28027028963885,
            36.8452673381036,
            1077.0
          ],
          [
            138.28014244481363,
            36.84511927565569,
            1081.0
          ],
          [
            138.28001459998842,
            36.844971213207785,
            1089.0
          ],
          [
            138.2798867551632,
            36.84482315075987,
            1093.0
          ],
          [
            138.279758910338,
            36.844675088311966,
            1100.0
          ],
          [
            138.2796310655128,
            36.84452702586405,
            1104.0
          ],
          [
            138.2795032206876,
            36.84437896341614,
            1115.0
          ],
          [
            138.27937537586237,
            36.844230900968235,
            1122.0
          ],
          [
            138.27924753103716,
            36.84408283852032,
            1127.0
          ],
          [
            138.27911968621194,
            36.843934776072416,
            1143.0
          ],
          [
            138.27899184138673,
            36.8437867136245,
            1150.0
          ],
          [
            138.2788639965615,
            36.8436386511766,
            1163.0
          ],
          [
            138.27874387044025,
            36.84349952808308,
            1171.0
          ]
        ]
      }
    },
    {
      "type": "Feature",
      "properties": {
        "name": "第1トリプルC線",
        "horizontal_dist_map": 449,
        "slope_dist_map": 458,
        "elevation_diff_map": 76.0
      },
      "geometry": {
        "type": "LineString",
        "coordinates": [
          [
            138.2850025222222,
            36.8515101630054,
            919.0
          ],
          [
            138.2852152758108,
            36.85156714062604,
            920.0
          ],
          [
            138.28542802939944,
            36.85162411824668,
            922.0
          ],
          [
            138.28564078298805,
            36.85168109586732,
            926.0
          ],
          [
            138.2858535365767,
            36.85173807348796,
            928.0
          ],
          [
            138.2860662901653,
            36.8517950511086,
            931.0
          ],
          [
            138.28627904375392,
            36.85185202872924,
            930.0
          ],
          [
            138.28649179734256,
            36.85190900634988,
            929.0
          ],
          [
            138.28670455093118,
            36.85196598397052,
            931.0
          ],
          [
            138.28691730451982,
            36.85202296159116,
            935.0
          ],
          [
            138.28713005810843,
            36.8520799392118,
            938.0
          ],
          [
            138.28734281169704,
            36.85213691683244,
            941.0
          ],
          [
            138.2875555652857,
            36.85219389445308,
            945.0
          ],
          [
            138.2877683188743,
            36.852250872073725,
            951.0
          ],
          [
            138.28798107246294,
            36.85230784969436,
            956.0
          ],
          [
            138.28819382605155,
            36.852364827315,
            960.0
          ],
          [
            138.28840657964017,
            36.852421804935645,
            965.0
          ],
          [
            138.2886193332288,
            36.85247878255628,
            973.0
          ],
          [
            138.28883208681742,
            36.85253576017692,
            980.0
          ],
          [
            138.28904484040606,
            36.852592737797565,
            986.0
          ],
          [
            138.28925759399468,
            36.8526497154182,
            990.0
          ],
          [
            138.2894703475833,
            36.85270669303884,
            993.0
          ],
          [
            138.28968310117193,
            36.852763670659485,
            995.0
          ],
          [
            138.28977905717238,
            36.85278936867298,
            995.0
          ]
        ]
      }
    },
    {
      "type": "Feature",
      "properties": {
        "name": "第3ペア",
        "horizontal_dist_map": 467,
        "slope_dist_map": 525,
        "elevation_diff_map": 234.0
      },
      "geometry": {
        "type": "LineString",
        "coordinates": [
          [
            138.2792912,
            36.8460322,
            1057.0
          ],
          [
            138.27916007736553,
            36.8458860033826,
            1062.0
          ],
          [
            138.2790289547311,
            36.8457398067652,
            1070.0
          ],
          [
            138.27889783209665,
            36.845593610147795,
            1079.0
          ],
          [
            138.2787667094622,
            36.845447413530394,
            1090.0
          ],
          [
            138.27863558682776,
            36.84530121691299,
            1098.0
          ],
          [
            138.2785044641933,
            36.84515502029559,
            1108.0
          ],
          [
            138.27837334155885,
            36.845008823678185,
            1121.0
          ],
          [
            138.27824221892442,
            36.844862627060785,
            1130.0
          ],
          [
            138.27811109628996,
            36.844716430443384,
            1138.0
          ],
          [
            138.27797997365553,
            36.84457023382598,
            1144.0
          ],
          [
            138.27784885102108,
            36.84442403720858,
            1151.0
          ],
          [
            138.27771772838662,
            36.844277840591175,
            1160.0
          ],
          [
            138.2775866057522,
            36.844131643973775,
            1172.0
          ],
          [
            138.27745548311773,
            36.843985447356374,
            1180.0
          ],
          [
            138.27732436048328,
            36.843839250738974,
            1192.0
          ],
          [
            138.27719323784885,
            36.843693054121566,
            1204.0
          ],
          [
            138.2770621152144,
            36.843546857504165,
            1218.0
          ],
          [
            138.27693099257993,
            36.843400660886765,
            1230.0
          ],
          [
            138.2767998699455,
            36.843254464269364,
            1240.0
          ],
          [
            138.27666874731105,
            36.843108267651964,
            1253.0
          ],
          [
            138.2765376246766,
            36.842962071034556,
            1265.0
          ],
          [
            138.27640650204216,
            36.842815874417155,
            1275.0
          ],
          [
            138.2762753794077,
            36.842669677799755,
            1289.0
          ],
          [
            138.27622479966445,
            36.842613283361025,
            1291.0
          ]
        ]
      }
    },
    {
      "type": "Feature",
      "properties": {
        "name": "第5トリプル",
        "horizontal_dist_map": 518,
        "slope_dist_map": 526,
        "elevation_diff_map": 67.0
      },
      "geometry": {
        "type": "LineString",
        "coordinates": [
          [
            138.2857674,
            36.8500401,
            927.0
          ],
          [
            138.2856931454104,
            36.849870046269864,
            929.0
          ],
          [
            138.28561889082076,
            36.849699992539726,
            929.0
          ],
          [
            138.28554463623115,
            36.84952993880959,
            929.0
          ],
          [
            138.28547038164155,
            36.84935988507945,
            930.0
          ],
          [
            138.2853961270519,
            36.849189831349314,
            934.0
          ],
          [
            138.2853218724623,
            36.849019777619176,
            935.0
          ],
          [
            138.2852476178727,
            36.84884972388904,
            937.0
          ],
          [
            138.28517336328306,
            36.8486796701589,
            939.0
          ],
          [
            138.28509910869346,
            36.848509616428764,
            939.0
          ],
          [
            138.28502485410385,
            36.84833956269863,
            940.0
          ],
          [
            138.28495059951422,
            36.84816950896849,
            945.0
          ],
          [
            138.2848763449246,
            36.84799945523835,
            950.0
          ],
          [
            138.284802090335,
            36.847829401508214,
            952.0
          ],
          [
            138.28472783574537,
            36.84765934777808,
            952.0
          ],
          [
            138.28465358115577,
            36.84748929404794,
            952.0
          ],
          [
            138.28457932656616,
            36.8473192403178,
            950.0
          ],
          [
            138.28450507197653,
            36.84714918658766,
            951.0
          ],
          [
            138.28443081738692,
            36.84697913285752,
            954.0
          ],
          [
            138.2843565627973,
            36.84680907912738,
            956.0
          ],
          [
            138.28428230820768,
            36.846639025397245,
            959.0
          ],
          [
            138.28420805361807,
            36.84646897166711,
            960.0
          ],
          [
            138.28413379902847,
            36.84629891793697,
            967.0
          ],
          [
            138.28405954443883,
            36.84612886420683,
            973.0
          ],
          [
            138.28398528984923,
            36.845958810476695,
            981.0
          ],
          [
            138.28391103525962,
            36.84578875674656,
            987.0
          ],
          [
            138.2838433,
            36.84563363322331,
            994.0
          ]
        ]
      }
    },
    {
      "type": "Feature",
      "properties": {
        "name": "第13",
        "horizontal_dist_map": 533,
        "slope_dist_map": 590,
        "elevation_diff_map": 243.0
      },
      "geometry": {
        "type": "LineString",
        "coordinates": [
          [
            138.2748846,
            36.8462183,
            1099.0
          ],
          [
            138.27490007796317,
            36.846038508630954,
            1106.0
          ],
          [
            138.2749155559263,
            36.845858717261905,
            1111.0
          ],
          [
            138.27493103388946,
            36.84567892589286,
            1119.0
          ],
          [
            138.2749465118526,
            36.84549913452382,
            1124.0
          ],
          [
            138.27496198981575,
            36.84531934315477,
            1135.0
          ],
          [
            138.27497746777888,
            36.84513955178573,
            1145.0
          ],
          [
            138.27499294574204,
            36.844959760416685,
            1152.0
          ],
          [
            138.27500842370517,
            36.844779969047636,
            1164.0
          ],
          [
            138.27502390166833,
            36.84460017767859,
            1171.0
          ],
          [
            138.27503937963147,
            36.844420386309544,
            1181.0
          ],
          [
            138.27505485759463,
            36.8442405949405,
            1197.0
          ],
          [
            138.27507033555776,
            36.84406080357146,
            1205.0
          ],
          [
            138.27508581352092,
            36.84388101220241,
            1217.0
          ],
          [
            138.27510129148405,
            36.84370122083337,
            1227.0
          ],
          [
            138.2751167694472,
            36.843521429464325,
            1234.0
          ],
          [
            138.27513224741034,
            36.843341638095275,
            1250.0
          ],
          [
            138.2751477253735,
            36.84316184672623,
            1257.0
          ],
          [
            138.27516320333663,
            36.84298205535719,
            1265.0
          ],
          [
            138.2751786812998,
            36.84280226398814,
            1271.0
          ],
          [
            138.27519415926292,
            36.8426224726191,
            1276.0
          ],
          [
            138.27520963722608,
            36.842442681250056,
            1286.0
          ],
          [
            138.27522511518922,
            36.842262889881006,
            1296.0
          ],
          [
            138.27524059315238,
            36.842083098511964,
            1308.0
          ],
          [
            138.2752560711155,
            36.84190330714292,
            1320.0
          ],
          [
            138.27527154907867,
            36.84172351577387,
            1326.0
          ],
          [
            138.2752870270418,
            36.84154372440483,
            1336.0
          ],
          [
            138.2752976487778,
            36.84142034276613,
            1342.0
          ]
        ]
      }
    },
    {
      "type": "Feature",
      "properties": {
        "name": "第11トリプルB線",
        "horizontal_dist_map": 473,
        "slope_dist_map": 482,
        "elevation_diff_map": 65.0
      },
      "geometry": {
        "type": "LineString",
        "coordinates": [
          [
            138.2787044,
            36.8535068,
            944.0
          ],
          [
            138.27856183093388,
            36.85336768748384,
            944.0
          ],
          [
            138.27841926186773,
            36.85322857496767,
            945.0
          ],
          [
            138.2782766928016,
            36.853089462451514,
            947.0
          ],
          [
            138.27813412373544,
            36.85295034993535,
            946.0
          ],
          [
            138.2779915546693,
            36.85281123741919,
            949.0
          ],
          [
            138.27784898560316,
            36.85267212490302,
            952.0
          ],
          [
            138.27770641653703,
            36.852533012386864,
            953.0
          ],
          [
            138.2775638474709,
            36.852393899870705,
            960.0
          ],
          [
            138.27742127840474,
            36.85225478735454,
            964.0
          ],
          [
            138.27727870933862,
            36.85211567483838,
            964.0
          ],
          [
            138.27713614027246,
            36.851976562322214,
            961.0
          ],
          [
            138.27699357120633,
            36.851837449806055,
            960.0
          ],
          [
            138.27685100214018,
            36.85169833728989,
            964.0
          ],
          [
            138.27670843307405,
            36.85155922477373,
            972.0
          ],
          [
            138.27656586400792,
            36.85142011225757,
            979.0
          ],
          [
            138.27642329494176,
            36.851280999741405,
            982.0
          ],
          [
            138.27628072587564,
            36.851141887225246,
            985.0
          ],
          [
            138.27613815680948,
            36.85100277470908,
            988.0
          ],
          [
            138.27599558774335,
            36.85086366219292,
            991.0
          ],
          [
            138.27585301867722,
            36.850724549676755,
            993.0
          ],
          [
            138.27571044961107,
            36.850585437160596,
            993.0
          ],
          [
            138.27556788054494,
            36.85044632464443,
            999.0
          ],
          [
            138.27542531147878,
            36.85030721212827,
            1004.0
          ],
          [
            138.275326910242,
            36.85021119660391,
            1009.0
          ]
        ]
      }
    },
    {
      "type": "Feature",
      "properties": {
        "name": "第12ペア",
        "horizontal_dist_map": 430,
        "slope_dist_map": 444,
        "elevation_diff_map": 104.0
      },
      "geometry": {
        "type": "LineString",
        "coordinates": [
          [
            138.2753147,
            36.8497965,
            1015.0
          ],
          [
            138.27524566420396,
            36.849625031950914,
            1018.0
          ],
          [
            138.27517662840793,
            36.84945356390183,
            1020.0
          ],
          [
            138.2751075926119,
            36.84928209585275,
            1022.0
          ],
          [
            138.27503855681584,
            36.84911062780367,
            1027.0
          ],
          [
            138.2749695210198,
            36.84893915975458,
            1029.0
          ],
          [
            138.27490048522378,
            36.8487676917055,
            1034.0
          ],
          [
            138.27483144942775,
            36.848596223656415,
            1037.0
          ],
          [
            138.27476241363172,
            36.84842475560733,
            1042.0
          ],
          [
            138.2746933778357,
            36.84825328755825,
            1045.0
          ],
          [
            138.27462434203963,
            36.84808181950917,
            1049.0
          ],
          [
            138.2745553062436,
            36.84791035146009,
            1052.0
          ],
          [
            138.27448627044757,
            36.847738883411004,
            1057.0
          ],
          [
            138.27441723465154,
            36.84756741536192,
            1060.0
          ],
          [
            138.2743481988555,
            36.84739594731283,
            1067.0
          ],
          [
            138.27427916305948,
            36.84722447926375,
            1072.0
          ],
          [
            138.27421012726342,
            36.84705301121467,
            1080.0
          ],
          [
            138.27414109146738,
            36.84688154316559,
            1087.0
          ],
          [
            138.27407205567135,
            36.846710075116505,
            1095.0
          ],
          [
            138.27400301987532,
            36.84653860706742,
            1101.0
          ],
          [
            138.2739339840793,
            36.84636713901834,
            1108.0
          ],
          [
            138.27386494828326,
            36.84619567096926,
            1115.0
          ],
          [
            138.27383017138052,
            36.84610929364031,
            1119.0
          ]
        ]
      }
    },
    {
      "type": "Feature",
      "properties": {
        "name": "第15トリプル",
        "horizontal_dist_map": 451,
        "slope_dist_map": 482,
        "elevation_diff_map": 128.0
      },
      "geometry": {
        "type": "LineString",
        "coordinates": [
          [
            138.27504891057154,
            36.84977794263484,
            1018.0
          ],
          [
            138.27485669484884,
            36.849685120871165,
            1017.0
          ],
          [
            138.27466447912613,
            36.8495922991075,
            1016.0
          ],
          [
            138.27447226340345,
            36.84949947734383,
            1010.0
          ],
          [
            138.27428004768075,
            36.84940665558016,
            1012.0
          ],
          [
            138.27408783195804,
            36.84931383381649,
            1019.0
          ],
          [
            138.27389561623534,
            36.849221012052816,
            1023.0
          ],
          [
            138.27370340051263,
            36.84912819028915,
            1028.0
          ],
          [
            138.27351118478995,
            36.84903536852548,
            1030.0
          ],
          [
            138.27331896906725,
            36.848942546761805,
            1033.0
          ],
          [
            138.27312675334454,
            36.84884972499814,
            1035.0
          ],
          [
            138.27293453762184,
            36.84875690323447,
            1038.0
          ],
          [
            138.27274232189913,
            36.8486640814708,
            1043.0
          ],
          [
            138.27255010617645,
            36.84857125970713,
            1052.0
          ],
          [
            138.27235789045375,
            36.848478437943456,
            1056.0
          ],
          [
            138.27216567473104,
            36.84838561617979,
            1059.0
          ],
          [
            138.27197345900834,
            36.84829279441612,
            1069.0
          ],
          [
            138.27178124328566,
            36.84819997265245,
            1079.0
          ],
          [
            138.27158902756295,
            36.84810715088878,
            1092.0
          ],
          [
            138.27139681184025,
            36.84801432912511,
            1104.0
          ],
          [
            138.27120459611754,
            36.84792150736144,
            1113.0
          ],
          [
            138.27101238039484,
            36.84782868559777,
            1122.0
          ],
          [
            138.27082016467216,
            36.847735863834096,
            1139.0
          ],
          [
            138.27071354606275,
            36.84768437726877,
            1146.0
          ]
        ]
      }
    },
    {
      "type": "Feature",
      "properties": {
        "name": "第1ペアB線",
        "horizontal_dist_map": 436,
        "slope_dist_map": 446,
        "elevation_diff_map": 78.0
      },
      "geometry": {
        "type": "LineString",
        "coordinates": [
          [
            138.2851607027551,
            36.85144637855959,
            919.0
          ],
          [
            138.28537372443756,
            36.85150270493634,
            920.0
          ],
          [
            138.28558674612,
            36.85155903131308,
            922.0
          ],
          [
            138.28579976780247,
            36.85161535768983,
            928.0
          ],
          [
            138.28601278948491,
            36.851671684066574,
            930.0
          ],
          [
            138.28622581116738,
            36.851728010443324,
            933.0
          ],
          [
            138.28643883284983,
            36.85178433682007,
            931.0
          ],
          [
            138.2866518545323,
            36.85184066319682,
            931.0
          ],
          [
            138.28686487621476,
            36.85189698957357,
            932.0
          ],
          [
            138.2870778978972,
            36.85195331595031,
            938.0
          ],
          [
            138.28729091957968,
            36.85200964232706,
            941.0
          ],
          [
            138.28750394126212,
            36.852065968703805,
            946.0
          ],
          [
            138.2877169629446,
            36.852122295080555,
            949.0
          ],
          [
            138.28792998462706,
            36.852178621457305,
            954.0
          ],
          [
            138.2881430063095,
            36.85223494783405,
            958.0
          ],
          [
            138.28835602799197,
            36.8522912742108,
            965.0
          ],
          [
            138.2885690496744,
            36.85234760058754,
            970.0
          ],
          [
            138.28878207135688,
            36.85240392696429,
            981.0
          ],
          [
            138.28899509303932,
            36.852460253341036,
            985.0
          ],
          [
            138.2892081147218,
            36.852516579717786,
            991.0
          ],
          [
            138.28942113640426,
            36.85257290609454,
            992.0
          ],
          [
            138.2896341580867,
            36.85262923247128,
            995.0
          ],
          [
            138.2898074043609,
            36.852675041587034,
            997.0
          ]
        ]
      }
    }
  ]
}