{
  "type": "FeatureCollection",
  "features": [
    {
      "type": "Feature",
      "properties": {
        "name": "第1ペア",
        "horizontal_dist_map": 700,
        "slope_dist_map": 716,
        "elevation_diff_map": 119.8
      },
      "geometry": {
        "type": "LineString",
        "coordinates": [
          [
            139.3304506,
            36.8158213,
            1383.4
          ],
          [
            139.33067234144107,
            36.81579495080784,
            1383.3
          ],
          [
            139.33089408288214,
            36.81576860161568,
            1389.6
          ],
          [
            139.33111582517967,
            36.81574225744083,
            1394.2
          ],
          [
            139.33133756942502,
            36.815715924676255,
            1396.4
          ],
          [
            139.33155931367037,
            36.81568959191168,
            1399.9
          ],
          [
            139.3317810563934,
            36.81566325180356,
            1404.6
          ],
          [
            139.33200279634724,
            36.8156368983368,
            1409.8
          ],
          [
            139.33222453630108,
            36.81561054487005,
            1415.6
          ],
          [
            139.3324462762549,
            36.81558419140329,
            1423.6
          ],
          [
            139.33266801620874,
            36.81555783793654,
            1428.2
          ],
          [
            139.33288975616256,
            36.81553148446978,
            1435.5
          ],
          [
            139.3331114961164,
            36.81550513100303,
            1444.2
          ],
          [
            139.33333323607025,
            36.81547877753627,
            1449.3
          ],
          [
            139.33355497602406,
            36.81545242406952,
            1453.3
          ],
          [
            139.3337767159779,
            36.81542607060276,
            1461.8
          ],
          [
            139.3339984559322,
            36.81539971845908,
            1464.7
          ],
          [
            139.33422019588704,
            36.81537336772002,
            1464.8
          ],
          [
            139.33444193584188,
            36.81534701698095,
            1465.8
          ],
          [
            139.3346636759372,
            36.815320667380945,
            1464.2
          ],
          [
            139.33488541665793,
            36.81529432285133,
            1464.3
          ],
          [
            139.33510715737864,
            36.815267978321714,
            1463.3
          ],
          [
            139.33532889809936,
            36.8152416337921,
            1463.4
          ],
          [
            139.33555063882008,
            36.81521528926249,
            1465.8
          ],
          [
            139.33577237954077,
            36.815188944732874,
            1467.3
          ],
          [
            139.3359941202615,
            36.81516260020326,
            1469.6
          ],
          [
            139.33621586132023,
            36.81513625852526,
            1476.3
          ],
          [
            139.3364376024897,
            36.81510991815386,
            1479.9
          ],
          [
            139.3366593410125,
            36.81508356415909,
            1481.1
          ],
          [
            139.33688107953535,
            36.81505721016432,
            1484.3
          ],
          [
            139.33710281964957,
            36.81503086554272,
            1488.4
          ],
          [
            139.33732456049674,
            36.81500452523797,
            1492.5
          ],
          [
            139.33754630134388,
            36.814978184933224,
            1496.6
          ],
          [
            139.33776803903143,
            36.81495182860962,
            1496.6
          ],
          [
            139.33798977668442,
            36.81492547211085,
            1499.1
          ],
          [
            139.33821151433744,
            36.81489911561208,
            1503.2
          ],
          [
            139.3382209,
            36.814898,
            1503.2
          ]
        ]
      }
    },
    {
      "type": "Feature",
      "properties": {
        "name": "日光白根山ロープウェイ",
        "horizontal_dist_map": 2400,
        "slope_dist_map": 2547,
        "elevation_diff_map": 601.9
      },
      "geometry": {
        "type": "LineString",
        "coordinates": [
          [
            139.3298759,
            36.8143153,
            1390.5
          ],
          [
            139.3300860375654,
            36.81425258755966,
            1390.5
          ],
          [
            139.33029613621505,
            36.81418979226146,
            1391.1
          ],
          [
            139.33050621993587,
            36.81412696517727,
            1397.2
          ],
          [
            139.33071630365666,
            36.81406413809309,
            1401.4
          ],
          [
            139.33092638737747,
            36.8140013110089,
            1404.1
          ],
          [
            139.33113647109826,
            36.813938483924716,
            1405.6
          ],
          [
            139.33134655481908,
            36.81387565684054,
            1407.7
          ],
          [
            139.33155663853987,
            36.81381282975635,
            1410.9
          ],
          [
            139.33176672226068,
            36.813750002672165,
            1414.2
          ],
          [
            139.33197680598147,
            36.81368717558798,
            1419.0
          ],
          [
            139.33218689152412,
            36.81362435504713,
            1425.4
          ],
          [
            139.33239697730167,
            36.81356153534997,
            1429.6
          ],
          [
            139.33260706307922,
            36.813498715652806,
            1434.0
          ],
          [
            139.33281714885678,
            36.81343589595564,
            1438.1
          ],
          [
            139.33302723463433,
            36.81337307625848,
            1442.3
          ],
          [
            139.33323732041188,
            36.813310256561316,
            1445.1
          ],
          [
            139.33344740618944,
            36.813247436864145,
            1450.1
          ],
          [
            139.33365748539987,
            36.81318460505463,
            1452.8
          ],
          [
            139.33386756343486,
            36.81312177107717,
            1456.9
          ],
          [
            139.3340776414699,
            36.81305893709971,
            1456.3
          ],
          [
            139.33428771950489,
            36.81299610312226,
            1456.4
          ],
          [
            139.33449779753988,
            36.8129332691448,
            1461.1
          ],
          [
            139.3347078755749,
            36.81287043516734,
            1466.2
          ],
          [
            139.33491795498475,
            36.81280760505129,
            1465.7
          ],
          [
            139.33512803567447,
            36.812744778383845,
            1465.0
          ],
          [
            139.33533812069425,
            36.81268196241968,
            1467.5
          ],
          [
            139.33554820571402,
            36.81261914645551,
            1470.2
          ],
          [
            139.33575829073376,
            36.81255633049135,
            1473.4
          ],
          [
            139.33596837575354,
            36.81249351452718,
            1476.7
          ],
          [
            139.3361784607733,
            36.81243069856302,
            1480.1
          ],
          [
            139.33638854579306,
            36.81236788259885,
            1487.2
          ],
          [
            139.33659862694927,
            36.81230505968941,
            1493.0
          ],
          [
            139.33680870601097,
            36.81224223301476,
            1496.8
          ],
          [
            139.33701878507267,
            36.8121794063401,
            1495.5
          ],
          [
            139.33722886413437,
            36.81211657966545,
            1494.5
          ],
          [
            139.33743894319605,
            36.81205375299079,
            1492.4
          ],
          [
            139.33764901247469,
            36.81199090567803,
            1494.4
          ],
          [
            139.33785909465308,
            36.81192808799424,
            1498.5
          ],
          [
            139.33806917683148,
            36.811865270310456,
            1506.6
          ],
          [
            139.33827925900988,
            36.811802452626665,
            1517.0
          ],
          [
            139.33848934118828,
            36.811739634942874,
            1529.2
          ],
          [
            139.33869942336668,
            36.81167681725909,
            1547.7
          ],
          [
            139.33890950554508,
            36.8116139995753,
            1564.5
          ],
          [
            139.33911958257227,
            36.811551172166624,
            1578.4
          ],
          [
            139.3393296580118,
            36.81148834176065,
            1581.8
          ],
          [
            139.33953973345135,
            36.81142551135468,
            1597.1
          ],
          [
            139.33974980856445,
            36.81136268045463,
            1610.5
          ],
          [
            139.33995988134686,
            36.81129984602703,
            1613.5
          ],
          [
            139.3401699541293,
            36.81123701159943,
            1622.2
          ],
          [
            139.3403800269117,
            36.811174177171836,
            1625.8
          ],
          [
            139.3405900996941,
            36.81111134274424,
            1627.5
          ],
          [
            139.34080017247655,
            36.81104850831664,
            1635.6
          ],
          [
            139.3410102494836,
            36.810985683801846,
            1642.9
          ],
          [
            139.34122033131771,
            36.81092287061352,
            1645.4
          ],
          [
            139.34143041315184,
            36.810860057425195,
            1651.9
          ],
          [
            139.3416404939223,
            36.810797242116095,
            1653.0
          ],
          [
            139.3418505658669,
            36.81073440920944,
            1657.1
          ],
          [
            139.34206063781153,
            36.810671576302774,
            1659.2
          ],
          [
            139.34227070975612,
            36.81060874339611,
            1665.2
          ],
          [
            139.34248078170071,
            36.810545910489445,
            1669.1
          ],
          [
            139.34269085364534,
            36.81048307758279,
            1678.2
          ],
          [
            139.34290094886293,
            36.81042029568717,
            1687.2
          ],
          [
            139.3431110231511,
            36.81035746992517,
            1698.9
          ],
          [
            139.34332109743923,
            36.81029464416317,
            1715.9
          ],
          [
            139.3435311717274,
            36.81023181840117,
            1728.4
          ],
          [
            139.34374124601553,
            36.81016899263917,
            1750.5
          ],
          [
            139.34395131986264,
            36.81010616627579,
            1769.6
          ],
          [
            139.34416139251448,
            36.81004333828252,
            1772.8
          ],
          [
            139.34437146029134,
            36.80998049979325,
            1788.0
          ],
          [
            139.34458152091312,
            36.80991764681849,
            1786.0
          ],
          [
            139.34479159982402,
            36.809854833838656,
            1783.9
          ],
          [
            139.3450016787349,
            36.80979202085883,
            1785.7
          ],
          [
            139.34521175764579,
            36.809729207878995,
            1788.4
          ],
          [
            139.34542183655665,
            36.80966639489916,
            1788.4
          ],
          [
            139.3456318947539,
            36.80960353841868,
            1783.6
          ],
          [
            139.3458419680309,
            36.809540714855196,
            1783.1
          ],
          [
            139.3460520413079,
            36.80947789129171,
            1777.3
          ],
          [
            139.34626211296538,
            36.80941506427151,
            1773.3
          ],
          [
            139.34647219300763,
            36.809352257004974,
            1770.5
          ],
          [
            139.34668226372466,
            36.80928943015387,
            1763.8
          ],
          [
            139.3468923344417,
            36.80922660330276,
            1770.4
          ],
          [
            139.34710240515875,
            36.80916377645165,
            1780.7
          ],
          [
            139.34731247587578,
            36.80910094960054,
            1792.5
          ],
          [
            139.3475225465928,
            36.809038122749435,
            1805.4
          ],
          [
            139.34773261730984,
            36.80897529589833,
            1820.3
          ],
          [
            139.3479426880269,
            36.80891246904722,
            1830.2
          ],
          [
            139.3481527584738,
            36.80884964442477,
            1834.7
          ],
          [
            139.34836282891422,
            36.808786819855676,
            1834.7
          ],
          [
            139.34857289935462,
            36.80872399528658,
            1838.8
          ],
          [
            139.34878296979505,
            36.808661170717485,
            1841.0
          ],
          [
            139.34899304023548,
            36.808598346148386,
            1843.3
          ],
          [
            139.34920311067592,
            36.808535521579294,
            1851.2
          ],
          [
            139.34941318111632,
            36.8084726970102,
            1864.0
          ],
          [
            139.34962325136672,
            36.808409872132756,
            1878.5
          ],
          [
            139.34983331708406,
            36.80834703989945,
            1881.2
          ],
          [
            139.35004338280137,
            36.80828420766615,
            1887.8
          ],
          [
            139.35025344851869,
            36.808221375432844,
            1898.0
          ],
          [
            139.350463514236,
            36.80815854319954,
            1904.4
          ],
          [
            139.3506735799533,
            36.808095710966235,
            1919.0
          ],
          [
            139.35088364694914,
            36.80803288181933,
            1922.2
          ],
          [
            139.3510937183152,
            36.80797006322231,
            1930.4
          ],
          [
            139.35130378871702,
            36.807907243194016,
            1931.6
          ],
          [
            139.35151385734898,
            36.807844420538814,
            1927.4
          ],
          [
            139.35172392598096,
            36.80778159788361,
            1929.7
          ],
          [
            139.35193399461295,
            36.80771877522841,
            1929.7
          ],
          [
            139.35214406324494,
            36.807655952573214,
            1933.1
          ],
          [
            139.35235413187692,
            36.80759312991801,
            1940.5
          ],
          [
            139.35256420050888,
            36.80753030726281,
            1948.2
          ],
          [
            139.35277426914087,
            36.807467484607606,
            1952.2
          ],
          [
            139.3529846227913,
            36.80740529532482,
            1955.2
          ],
          [
            139.35319599478282,
            36.80734536901544,
            1956.5
          ],
          [
            139.35340736677435,
            36.80728544270605,
            1958.3
          ],
          [
            139.3536187387659,
            36.80722551639666,
            1961.8
          ],
          [
            139.35383011075743,
            36.80716559008728,
            1966.8
          ],
          [
            139.35404148274895,
            36.8071056637779,
            1971.7
          ],
          [
            139.35425285474048,
            36.80704573746851,
            1976.3
          ],
          [
            139.35446422673203,
            36.80698581115913,
            1982.4
          ],
          [
            139.3546756595363,
            36.80692602520032,
            1987.3
          ],
          [
            139.35488661890818,
            36.806865199146365,
            1989.3
          ],
          [
            139.35509613979644,
            36.80680120948365,
            1992.4
          ],
          [
            139.3551001,
            36.8068,
            1992.4
          ]
        ]
      }
    },
    {
      "type": "Feature",
      "properties": {
        "name": "第8ペア",
        "horizontal_dist_map": 305,
        "slope_dist_map": 311,
        "elevation_diff_map": 56.5
      },
      "geometry": {
        "type": "LineString",
        "coordinates": [
          [
            139.344525148779,
            36.813710142128144,
            1597.9
          ],
          [
            139.34466854029998,
            36.813571624653186,
            1598.3
          ],
          [
            139.34481193182094,
            36.81343310717823,
            1602.0
          ],
          [
            139.3449553233419,
            36.81329458970326,
            1604.4
          ],
          [
            139.34509871486284,
            36.8131560722283,
            1606.6
          ],
          [
            139.3452421063838,
            36.813017554753344,
            1608.3
          ],
          [
            139.34538549790477,
            36.812879037278385,
            1610.9
          ],
          [
            139.34552888942574,
            36.81274051980343,
            1614.9
          ],
          [
            139.3456722809467,
            36.81260200232846,
            1619.4
          ],
          [
            139.34581567246767,
            36.8124634848535,
            1624.2
          ],
          [
            139.3459590639886,
            36.812324967378544,
            1628.5
          ],
          [
            139.34610245550957,
            36.812186449903585,
            1634.0
          ],
          [
            139.34624584703053,
            36.81204793242863,
            1639.6
          ],
          [
            139.3463892385515,
            36.81190941495366,
            1644.6
          ],
          [
            139.34653263007246,
            36.8117708974787,
            1649.4
          ],
          [
            139.34667602159342,
            36.81163238000374,
            1653.5
          ],
          [
            139.34671545207195,
            36.81159428981343,
            1654.4
          ]
        ]
      }
    },
    {
      "type": "Feature",
      "properties": {
        "name": "第2ペア",
        "horizontal_dist_map": 592,
        "slope_dist_map": 615,
        "elevation_diff_map": 139.5
      },
      "geometry": {
        "type": "LineString",
        "coordinates": [
          [
            139.3376791,
            36.8140863,
            1485.9
          ],
          [
            139.3378919457604,
            36.81402980110408,
            1485.8
          ],
          [
            139.33810478097115,
            36.81397327704821,
            1486.7
          ],
          [
            139.33831761497476,
            36.81391675011342,
            1489.2
          ],
          [
            139.33853045657145,
            36.81386024249398,
            1491.4
          ],
          [
            139.33874329886473,
            36.81380373664658,
            1493.2
          ],
          [
            139.33895614224832,
            36.81374723357722,
            1495.0
          ],
          [
            139.3391689923706,
            36.81369074767796,
            1495.4
          ],
          [
            139.33938183996926,
            36.81363425616125,
            1500.1
          ],
          [
            139.3395946814199,
            36.81357775095898,
            1507.7
          ],
          [
            139.3398075228705,
            36.813521245756704,
            1513.3
          ],
          [
            139.34002036432113,
            36.81346474055443,
            1517.8
          ],
          [
            139.34023320577177,
            36.813408235352156,
            1523.8
          ],
          [
            139.34044604722237,
            36.81335173014989,
            1529.9
          ],
          [
            139.340658888673,
            36.813295224947616,
            1535.8
          ],
          [
            139.3408717301236,
            36.81323871974534,
            1539.7
          ],
          [
            139.3410845653999,
            36.81318220072984,
            1547.8
          ],
          [
            139.34129739624154,
            36.813125671793095,
            1558.3
          ],
          [
            139.34151022708318,
            36.81306914285634,
            1569.6
          ],
          [
            139.34172306041717,
            36.81301262024323,
            1579.2
          ],
          [
            139.34193590024074,
            36.81295611409538,
            1587.6
          ],
          [
            139.34214874711358,
            36.81289962559664,
            1593.4
          ],
          [
            139.34236159649117,
            36.81284314336903,
            1600.2
          ],
          [
            139.34257442928734,
            36.812786621669424,
            1603.4
          ],
          [
            139.34278725948846,
            36.81273009379239,
            1609.0
          ],
          [
            139.34300008968958,
            36.812673565915354,
            1614.9
          ],
          [
            139.3432129228233,
            36.812617045493774,
            1620.5
          ],
          [
            139.34342576632696,
            36.81256055143494,
            1622.5
          ],
          [
            139.3436386098306,
            36.8125040573761,
            1622.0
          ],
          [
            139.34385145333425,
            36.81244756331727,
            1623.5
          ],
          [
            139.3439877,
            36.8124114,
            1625.4
          ]
        ]
      }
    },
    {
      "type": "Feature",
      "properties": {
        "name": "第5スーパーツイン",
        "horizontal_dist_map": 719,
        "slope_dist_map": 744,
        "elevation_diff_map": 168.2
      },
      "geometry": {
        "type": "LineString",
        "coordinates": [
          [
            139.3355709,
            36.8139102,
            1471.2
          ],
          [
            139.3357810043794,
            36.81384741848797,
            1470.3
          ],
          [
            139.33599110875886,
            36.81378463697594,
            1472.4
          ],
          [
            139.33620121313828,
            36.8137218554639,
            1476.2
          ],
          [
            139.3364113088985,
            36.813659056142214,
            1478.1
          ],
          [
            139.33662140055333,
            36.81359624833766,
            1479.5
          ],
          [
            139.33683149220815,
            36.81353344053311,
            1480.6
          ],
          [
            139.33704158715722,
            36.81347064029828,
            1483.2
          ],
          [
            139.33725168810392,
            36.81340785384516,
            1484.5
          ],
          [
            139.3374617890506,
            36.81334506739204,
            1486.4
          ],
          [
            139.33767188999727,
            36.81328228093892,
            1489.4
          ],
          [
            139.3378819936503,
            36.8132195013357,
            1490.7
          ],
          [
            139.3380920975726,
            36.81315672241392,
            1493.4
          ],
          [
            139.3383021984681,
            36.81309393730534,
            1497.1
          ],
          [
            139.33851229568933,
            36.81303114468651,
            1501.3
          ],
          [
            139.33872239018135,
            36.812968346712516,
            1506.5
          ],
          [
            139.33893248278926,
            36.81290554504163,
            1513.0
          ],
          [
            139.33914257539718,
            36.812842743370744,
            1518.7
          ],
          [
            139.3393526722826,
            36.812779951439325,
            1522.8
          ],
          [
            139.33956277436334,
            36.81271717133723,
            1525.4
          ],
          [
            139.33977287644413,
            36.81265439123515,
            1529.1
          ],
          [
            139.33998297628622,
            36.81259160691644,
            1532.2
          ],
          [
            139.34019307502905,
            36.812528820503914,
            1538.0
          ],
          [
            139.340403169582,
            36.81246602598667,
            1543.0
          ],
          [
            139.340613264135,
            36.81240323146944,
            1550.1
          ],
          [
            139.34082335868794,
            36.812340436952205,
            1556.4
          ],
          [
            139.3410334534694,
            36.81227764296481,
            1562.3
          ],
          [
            139.34124355437748,
            36.81221486318527,
            1569.4
          ],
          [
            139.34145364427283,
            36.81215206016191,
            1576.9
          ],
          [
            139.34166373066128,
            36.812089249736715,
            1584.9
          ],
          [
            139.3418738170497,
            36.81202643931152,
            1595.1
          ],
          [
            139.34208390580943,
            36.81196363479428,
            1602.7
          ],
          [
            139.34229399691208,
            36.81190083564717,
            1609.8
          ],
          [
            139.3425040956293,
            36.81183805382364,
            1615.8
          ],
          [
            139.3427141943465,
            36.81177527200011,
            1624.4
          ],
          [
            139.34292429306373,
            36.81171249017658,
            1634.4
          ],
          [
            139.3431294,
            36.8116512,
            1639.4
          ]
        ]
      }
    },
    {
      "type": "Feature",
      "properties": {
        "name": "第3ペア",
        "horizontal_dist_map": 519,
        "slope_dist_map": 580,
        "elevation_diff_map": 235.5
      },
      "geometry": {
        "type": "LineString",
        "coordinates": [
          [
            139.3444759,
            36.8129869,
            1600.9
          ],
          [
            139.34452008352565,
            36.81281021402757,
            1602.1
          ],
          [
            139.3445642670513,
            36.81263352805514,
            1608.8
          ],
          [
            139.34460843990547,
            36.812456840378154,
            1615.0
          ],
          [
            139.34465261203405,
            36.81228015258598,
            1620.9
          ],
          [
            139.34469679475103,
            36.81210346652811,
            1624.7
          ],
          [
            139.344740977468,
            36.81192678047024,
            1629.5
          ],
          [
            139.3447851573631,
            36.81175009398057,
            1636.4
          ],
          [
            139.34482933648292,
            36.811573407372265,
            1644.5
          ],
          [
            139.34487351560273,
            36.811396720763966,
            1654.5
          ],
          [
            139.34491768807024,
            36.81122003309586,
            1667.1
          ],
          [
            139.34496185195823,
            36.81104334406091,
            1680.9
          ],
          [
            139.34500601584625,
            36.810866655025976,
            1696.0
          ],
          [
            139.34505018849856,
            36.810689967425745,
            1713.5
          ],
          [
            139.3450943718569,
            36.810513281578096,
            1730.9
          ],
          [
            139.34513855521527,
            36.81033659573045,
            1745.8
          ],
          [
            139.3451827385736,
            36.81015990988279,
            1760.4
          ],
          [
            139.345226910789,
            36.809983222243225,
            1771.5
          ],
          [
            139.3452710490698,
            36.80980652914658,
            1782.4
          ],
          [
            139.34531519146807,
            36.80962983671883,
            1792.5
          ],
          [
            139.34535936936604,
            36.80945315005808,
            1803.8
          ],
          [
            139.345403547264,
            36.80927646339734,
            1814.0
          ],
          [
            139.34544772516196,
            36.809099776736595,
            1820.4
          ],
          [
            139.3454919032276,
            36.80892309010663,
            1823.5
          ],
          [
            139.3455360829312,
            36.80874640377732,
            1828.7
          ],
          [
            139.3455802626348,
            36.808569717448016,
            1833.7
          ],
          [
            139.3456238,
            36.8083956,
            1836.4
          ]
        ]
      }
    },
    {
      "type": "Feature",
      "properties": {
        "name": "中央ペア",
        "horizontal_dist_map": 380,
        "slope_dist_map": 390,
        "elevation_diff_map": 85.1
      },
      "geometry": {
        "type": "LineString",
        "coordinates": [
          [
            139.3309951,
            36.8148679,
            1394.2
          ],
          [
            139.33121658581152,
            36.814840210042206,
            1394.4
          ],
          [
            139.33143807162307,
            36.814812520084416,
            1400.2
          ],
          [
            139.3316595576697,
            36.814784831390604,
            1407.6
          ],
          [
            139.33188104860764,
            36.81475716899424,
            1413.9
          ],
          [
            139.3321025395456,
            36.81472950659788,
            1418.7
          ],
          [
            139.33232401943914,
            36.814701787918956,
            1423.6
          ],
          [
            139.33254549887246,
            36.81467406689471,
            1428.8
          ],
          [
            139.33276698631994,
            36.81464638803281,
            1434.1
          ],
          [
            139.33298847483806,
            36.814618714803494,
            1439.8
          ],
          [
            139.3332099632767,
            36.81459104190379,
            1445.7
          ],
          [
            139.333431451342,
            36.81456336715567,
            1450.0
          ],
          [
            139.33365292990356,
            36.814535644043886,
            1454.1
          ],
          [
            139.33387440922294,
            36.81450792491126,
            1457.8
          ],
          [
            139.33409589742573,
            36.81448025242432,
            1461.5
          ],
          [
            139.33431738578062,
            36.81445258091343,
            1465.6
          ],
          [
            139.33453887463904,
            36.81442491263363,
            1470.2
          ],
          [
            139.33476036247393,
            36.81439723917311,
            1474.0
          ],
          [
            139.33498184336787,
            36.81436953057951,
            1476.5
          ],
          [
            139.3352033242618,
            36.814341821985906,
            1479.3
          ],
          [
            139.3352035,
            36.8143418,
            1479.3
          ]
        ]
      }
    },
    {
      "type": "Feature",
      "properties": {
        "name": "第4スーパーツイン",
        "horizontal_dist_map": 583,
        "slope_dist_map": 591,
        "elevation_diff_map": 88.1
      },
      "geometry": {
        "type": "LineString",
        "coordinates": [
          [
            139.3312338,
            36.8127335,
            1408.0
          ],
          [
            139.33145793746652,
            36.81273453479901,
            1407.0
          ],
          [
            139.33168207493304,
            36.812735569598026,
            1409.3
          ],
          [
            139.33190621239956,
            36.81273660439704,
            1411.8
          ],
          [
            139.33213034987742,
            36.81273763776503,
            1414.2
          ],
          [
            139.33235448742826,
            36.81273866192565,
            1418.2
          ],
          [
            139.33257862498223,
            36.812739685993726,
            1422.7
          ],
          [
            139.33280276255022,
            36.81274070964503,
            1427.0
          ],
          [
            139.33302690011823,
            36.812741733296335,
            1431.5
          ],
          [
            139.33325103768624,
            36.81274275694764,
            1436.0
          ],
          [
            139.33347517525422,
            36.81274378059894,
            1440.9
          ],
          [
            139.33369931282223,
            36.81274480425025,
            1445.1
          ],
          [
            139.33392345039024,
            36.81274582790156,
            1448.4
          ],
          [
            139.33414758795573,
            36.81274685206679,
            1451.1
          ],
          [
            139.33437172547417,
            36.81274788592278,
            1455.1
          ],
          [
            139.33459586299261,
            36.81274891977878,
            1458.0
          ],
          [
            139.33482000051106,
            36.81274995363478,
            1460.7
          ],
          [
            139.3350441380295,
            36.81275098749077,
            1463.6
          ],
          [
            139.33526827554792,
            36.81275202134677,
            1466.6
          ],
          [
            139.33549241306636,
            36.81275305520276,
            1469.4
          ],
          [
            139.3357165505848,
            36.812754089058764,
            1472.5
          ],
          [
            139.33594068810325,
            36.81275512291476,
            1477.4
          ],
          [
            139.33616482594704,
            36.812756112012956,
            1480.9
          ],
          [
            139.33638896375123,
            36.81275710728316,
            1484.7
          ],
          [
            139.33661310140332,
            36.812758125165324,
            1484.9
          ],
          [
            139.3368372390554,
            36.81275914304749,
            1485.9
          ],
          [
            139.3370613764809,
            36.81276019354887,
            1487.5
          ],
          [
            139.3372855138651,
            36.81276124999693,
            1490.8
          ],
          [
            139.33750965124932,
            36.812762306444995,
            1492.8
          ],
          [
            139.33773378906324,
            36.812763302844395,
            1495.8
          ],
          [
            139.3377784,
            36.8127635,
            1496.1
          ]
        ]
      }
    }
  ]
}