{
  "type": "FeatureCollection",
  "features": [
    {
      "type": "Feature",
      "properties": {
        "name": "第2ペア",
        "horizontal_dist_map": 546,
        "slope_dist_map": 570,
        "elevation_diff_map": 154.0,
        "midstation": null
      },
      "geometry": {
        "type": "LineString",
        "coordinates": [
          [
            141.53354823771105,
            43.80878966486112,
            164.0
          ],
          [
            141.5337965040649,
            43.80879842582417,
            167.0
          ],
          [
            141.53404477041875,
            43.80880718678723,
            169.0
          ],
          [
            141.5342930367726,
            43.808815947750276,
            170.0
          ],
          [
            141.53454130312642,
            43.80882470871333,
            172.0
          ],
          [
            141.53478956948027,
            43.80883346967638,
            175.0
          ],
          [
            141.53503783583412,
            43.808842230639435,
            180.0
          ],
          [
            141.53528610218797,
            43.80885099160248,
            187.0
          ],
          [
            141.53553436854182,
            43.80885975256554,
            194.0
          ],
          [
            141.53578263489567,
            43.80886851352859,
            202.0
          ],
          [
            141.53603090124952,
            43.80887727449164,
            209.0
          ],
          [
            141.53627916760334,
            43.80888603545469,
            216.0
          ],
          [
            141.5365274339572,
            43.808894796417746,
            224.0
          ],
          [
            141.53677570031104,
            43.808903557380795,
            229.0
          ],
          [
            141.5370239666649,
            43.80891231834385,
            235.0
          ],
          [
            141.53727223301874,
            43.8089210793069,
            242.0
          ],
          [
            141.5375204993726,
            43.808929840269954,
            247.0
          ],
          [
            141.53776876572644,
            43.808938601233,
            253.0
          ],
          [
            141.5380170320803,
            43.80894736219606,
            259.0
          ],
          [
            141.5382652984341,
            43.808956123159106,
            265.0
          ],
          [
            141.53851356478796,
            43.80896488412216,
            271.0
          ],
          [
            141.5387618311418,
            43.80897364508521,
            279.0
          ],
          [
            141.53901009749566,
            43.808982406048266,
            285.0
          ],
          [
            141.5392583638495,
            43.808991167011314,
            294.0
          ],
          [
            141.53950663020336,
            43.80899992797437,
            302.0
          ],
          [
            141.5397548965572,
            43.80900868893742,
            308.0
          ],
          [
            141.54000316291103,
            43.80901744990047,
            312.0
          ],
          [
            141.54025142926488,
            43.80902621086352,
            316.0
          ],
          [
            141.54033304584226,
            43.80902909099532,
            318.0
          ]
        ]
      }
    },
    {
      "type": "Feature",
      "properties": {
        "name": "第1ペア",
        "horizontal_dist_map": 822,
        "slope_dist_map": 839,
        "elevation_diff_map": 158.0,
        "midstation": null
      },
      "geometry": {
        "type": "LineString",
        "coordinates": [
          [
            141.52953009923087,
            43.80947357082995,
            128.0
          ],
          [
            141.52972178560222,
            43.80935898306691,
            130.0
          ],
          [
            141.52991347197357,
            43.80924439530386,
            134.0
          ],
          [
            141.53010515834492,
            43.80912980754081,
            138.0
          ],
          [
            141.53029684471628,
            43.80901521977777,
            141.0
          ],
          [
            141.53048853108763,
            43.808900632014726,
            145.0
          ],
          [
            141.53068021745898,
            43.808786044251676,
            150.0
          ],
          [
            141.53087190383033,
            43.80867145648863,
            157.0
          ],
          [
            141.53106359020168,
            43.80855686872559,
            161.0
          ],
          [
            141.53125527657303,
            43.808442280962545,
            162.0
          ],
          [
            141.53144696294441,
            43.808327693199494,
            163.0
          ],
          [
            141.53163864931577,
            43.80821310543645,
            168.0
          ],
          [
            141.53183033568712,
            43.80809851767341,
            170.0
          ],
          [
            141.53202202205847,
            43.80798392991036,
            173.0
          ],
          [
            141.53221370842982,
            43.80786934214731,
            177.0
          ],
          [
            141.53240539480117,
            43.80775475438427,
            184.0
          ],
          [
            141.53259708117253,
            43.807640166621226,
            187.0
          ],
          [
            141.53278876754388,
            43.807525578858176,
            190.0
          ],
          [
            141.53298045391523,
            43.80741099109513,
            192.0
          ],
          [
            141.53317214028658,
            43.80729640333209,
            195.0
          ],
          [
            141.53336382665793,
            43.807181815569045,
            198.0
          ],
          [
            141.53355551302928,
            43.807067227805994,
            201.0
          ],
          [
            141.53374719940064,
            43.80695264004295,
            205.0
          ],
          [
            141.533938885772,
            43.80683805227991,
            208.0
          ],
          [
            141.53413057214334,
            43.806723464516864,
            212.0
          ],
          [
            141.5343222585147,
            43.80660887675381,
            216.0
          ],
          [
            141.53451394488604,
            43.80649428899077,
            219.0
          ],
          [
            141.5347056312574,
            43.806379701227726,
            224.0
          ],
          [
            141.53489731762875,
            43.806265113464676,
            229.0
          ],
          [
            141.53508900400013,
            43.80615052570163,
            234.0
          ],
          [
            141.53528069037148,
            43.80603593793859,
            238.0
          ],
          [
            141.53547237674283,
            43.805921350175545,
            243.0
          ],
          [
            141.53566406311418,
            43.805806762412494,
            251.0
          ],
          [
            141.53585574948553,
            43.80569217464945,
            256.0
          ],
          [
            141.5360474358569,
            43.80557758688641,
            260.0
          ],
          [
            141.53623912222824,
            43.805462999123364,
            264.0
          ],
          [
            141.5364308085996,
            43.80534841136031,
            267.0
          ],
          [
            141.53662249497094,
            43.80523382359727,
            271.0
          ],
          [
            141.5368141813423,
            43.805119235834226,
            275.0
          ],
          [
            141.53700586771365,
            43.805004648071176,
            279.0
          ],
          [
            141.537197554085,
            43.80489006030813,
            282.0
          ],
          [
            141.53738924045635,
            43.80477547254509,
            286.0
          ],
          [
            141.5374178,
            43.8047584,
            286.0
          ]
        ]
      }
    }
  ]
}