{
  "type": "FeatureCollection",
  "features": [
    {
      "type": "Feature",
      "properties": {
        "name": "ダンサーズ4",
        "horizontal_dist_map": 741,
        "slope_dist_map": 767,
        "elevation_diff_map": 189.0,
        "midstation": null
      },
      "geometry": {
        "type": "LineString",
        "coordinates": [
          [
            141.97729052409724,
            43.04997976487287,
            383.0
          ],
          [
            141.97743984795596,
            43.049836879699335,
            388.0
          ],
          [
            141.97758917181469,
            43.049693994525796,
            392.0
          ],
          [
            141.9777384956734,
            43.04955110935226,
            398.0
          ],
          [
            141.97788781953213,
            43.04940822417872,
            402.0
          ],
          [
            141.97803714339085,
            43.04926533900519,
            404.0
          ],
          [
            141.9781864672496,
            43.04912245383165,
            407.0
          ],
          [
            141.97833579110832,
            43.04897956865811,
            409.0
          ],
          [
            141.97848511496704,
            43.04883668348457,
            415.0
          ],
          [
            141.97863443882576,
            43.048693798311035,
            422.0
          ],
          [
            141.9787837626845,
            43.0485509131375,
            429.0
          ],
          [
            141.9789330865432,
            43.04840802796396,
            434.0
          ],
          [
            141.97908241040193,
            43.04826514279042,
            439.0
          ],
          [
            141.97923173426065,
            43.04812225761689,
            442.0
          ],
          [
            141.97938105811937,
            43.04797937244335,
            446.0
          ],
          [
            141.9795303819781,
            43.04783648726981,
            451.0
          ],
          [
            141.97967970583682,
            43.047693602096274,
            455.0
          ],
          [
            141.97982902969554,
            43.047550716922736,
            460.0
          ],
          [
            141.9799783535543,
            43.0474078317492,
            466.0
          ],
          [
            141.980127677413,
            43.04726494657566,
            472.0
          ],
          [
            141.98027700127173,
            43.04712206140212,
            479.0
          ],
          [
            141.98042632513045,
            43.04697917622859,
            484.0
          ],
          [
            141.98057564898917,
            43.04683629105505,
            490.0
          ],
          [
            141.9807249728479,
            43.04669340588151,
            495.0
          ],
          [
            141.98087429670662,
            43.046550520707974,
            502.0
          ],
          [
            141.98102362056534,
            43.046407635534436,
            507.0
          ],
          [
            141.98117294442406,
            43.0462647503609,
            512.0
          ],
          [
            141.98132226828278,
            43.04612186518736,
            519.0
          ],
          [
            141.9814715921415,
            43.04597898001382,
            523.0
          ],
          [
            141.98162091600025,
            43.04583609484029,
            527.0
          ],
          [
            141.98177023985897,
            43.04569320966675,
            535.0
          ],
          [
            141.9819195637177,
            43.04555032449321,
            543.0
          ],
          [
            141.98206888757642,
            43.045407439319675,
            547.0
          ],
          [
            141.98221821143514,
            43.04526455414614,
            553.0
          ],
          [
            141.98236753529386,
            43.0451216689726,
            558.0
          ],
          [
            141.98251685915258,
            43.04497878379906,
            565.0
          ],
          [
            141.9826661830113,
            43.04483589862552,
            570.0
          ],
          [
            141.98281550687003,
            43.04469301345199,
            572.0
          ],
          [
            141.98282611580817,
            43.04468286195993,
            572.0
          ]
        ]
      }
    },
    {
      "type": "Feature",
      "properties": {
        "name": "ビギナーズ4",
        "horizontal_dist_map": 574,
        "slope_dist_map": 581,
        "elevation_diff_map": 82.4,
        "midstation": null
      },
      "geometry": {
        "type": "LineString",
        "coordinates": [
          [
            141.97042756846517,
            43.05149575280861,
            298.6
          ],
          [
            141.970657424042,
            43.05143255699327,
            297.7
          ],
          [
            141.97088727961886,
            43.05136936117793,
            302.6
          ],
          [
            141.9711171351957,
            43.05130616536259,
            308.0
          ],
          [
            141.97134699077256,
            43.051242969547246,
            312.8
          ],
          [
            141.9715768463494,
            43.0511797737319,
            316.7
          ],
          [
            141.97180670192625,
            43.05111657791657,
            320.7
          ],
          [
            141.9720365575031,
            43.05105338210122,
            325.3
          ],
          [
            141.97226641307995,
            43.05099018628588,
            329.1
          ],
          [
            141.97249626865678,
            43.050926990470536,
            332.9
          ],
          [
            141.97272612423365,
            43.0508637946552,
            337.2
          ],
          [
            141.97295597981048,
            43.05080059883986,
            340.2
          ],
          [
            141.97318583538734,
            43.05073740302451,
            343.3
          ],
          [
            141.97341569096417,
            43.05067420720918,
            345.7
          ],
          [
            141.97364554654104,
            43.05061101139383,
            348.3
          ],
          [
            141.97387540211787,
            43.05054781557849,
            350.9
          ],
          [
            141.97410525769473,
            43.05048461976315,
            355.0
          ],
          [
            141.97433511327156,
            43.05042142394781,
            356.0
          ],
          [
            141.97456496884843,
            43.05035822813247,
            357.0
          ],
          [
            141.97479482442526,
            43.05029503231712,
            359.0
          ],
          [
            141.9750246800021,
            43.05023183650178,
            359.0
          ],
          [
            141.97525453557896,
            43.050168640686444,
            360.0
          ],
          [
            141.9754843911558,
            43.0501054448711,
            362.0
          ],
          [
            141.97571424673265,
            43.05004224905576,
            363.0
          ],
          [
            141.97594410230948,
            43.04997905324041,
            366.0
          ],
          [
            141.97617395788635,
            43.04991585742508,
            369.0
          ],
          [
            141.97640381346318,
            43.049852661609734,
            371.0
          ],
          [
            141.97663366904004,
            43.04978946579439,
            374.0
          ],
          [
            141.97686352461687,
            43.049726269979054,
            378.0
          ],
          [
            141.9770251117505,
            43.04968184368843,
            381.0
          ]
        ]
      }
    },
    {
      "type": "Feature",
      "properties": {
        "name": "シャトル6",
        "horizontal_dist_map": 1729,
        "slope_dist_map": 1818,
        "elevation_diff_map": 400.4,
        "midstation": null
      },
      "geometry": {
        "type": "LineString",
        "coordinates": [
          [
            141.96965628273546,
            43.05081261373482,
            300.6
          ],
          [
            141.96988590419713,
            43.0507489800757,
            300.8
          ],
          [
            141.9701155256588,
            43.050685346416586,
            302.9
          ],
          [
            141.9703451471205,
            43.05062171275747,
            308.3
          ],
          [
            141.97057476858217,
            43.050558079098344,
            308.4
          ],
          [
            141.97080439004384,
            43.05049444543923,
            310.8
          ],
          [
            141.9710340115055,
            43.05043081178011,
            315.6
          ],
          [
            141.9712636329672,
            43.05036717812099,
            315.2
          ],
          [
            141.97149325442888,
            43.050303544461876,
            314.4
          ],
          [
            141.97172287589055,
            43.05023991080276,
            311.1
          ],
          [
            141.97195249735222,
            43.05017627714364,
            309.1
          ],
          [
            141.9721821188139,
            43.05011264348452,
            311.1
          ],
          [
            141.9724117402756,
            43.0500490098254,
            312.7
          ],
          [
            141.97264136173726,
            43.04998537616628,
            315.4
          ],
          [
            141.97287098319893,
            43.049921742507166,
            318.3
          ],
          [
            141.9731006046606,
            43.04985810884805,
            320.1
          ],
          [
            141.97333022612227,
            43.04979447518893,
            320.0
          ],
          [
            141.97355984758397,
            43.049730841529815,
            322.0
          ],
          [
            141.97378946904564,
            43.04966720787069,
            329.0
          ],
          [
            141.9740190905073,
            43.049603574211574,
            335.0
          ],
          [
            141.97424871196898,
            43.04953994055246,
            339.0
          ],
          [
            141.97447833343068,
            43.04947630689334,
            348.0
          ],
          [
            141.97470795489235,
            43.04941267323422,
            346.0
          ],
          [
            141.97493757635402,
            43.049349039575105,
            348.0
          ],
          [
            141.9751671978157,
            43.04928540591599,
            352.0
          ],
          [
            141.97539681927736,
            43.049221772256864,
            352.0
          ],
          [
            141.97562644073906,
            43.04915813859775,
            354.0
          ],
          [
            141.97585606220073,
            43.04909450493863,
            362.0
          ],
          [
            141.9760856836624,
            43.04903087127951,
            372.0
          ],
          [
            141.97631530512407,
            43.048967237620396,
            378.0
          ],
          [
            141.97654492658577,
            43.04890360396128,
            380.0
          ],
          [
            141.97677454804744,
            43.04883997030216,
            376.0
          ],
          [
            141.97700416950912,
            43.04877633664304,
            372.0
          ],
          [
            141.97723379097079,
            43.04871270298392,
            374.0
          ],
          [
            141.97746341243246,
            43.0486490693248,
            384.0
          ],
          [
            141.97769303389416,
            43.048585435665686,
            394.0
          ],
          [
            141.97792265535583,
            43.04852180200657,
            401.0
          ],
          [
            141.9781522768175,
            43.04845816834745,
            409.0
          ],
          [
            141.97838189827917,
            43.048394534688335,
            419.0
          ],
          [
            141.97861151974087,
            43.04833090102921,
            425.0
          ],
          [
            141.97884114120254,
            43.04826726737009,
            433.0
          ],
          [
            141.9790707626642,
            43.048203633710976,
            439.0
          ],
          [
            141.97930038412588,
            43.04814000005186,
            443.0
          ],
          [
            141.97953000558755,
            43.04807636639274,
            448.0
          ],
          [
            141.97975962704925,
            43.048012732733625,
            452.0
          ],
          [
            141.97998924851092,
            43.04794909907451,
            456.0
          ],
          [
            141.9802188699726,
            43.04788546541538,
            463.0
          ],
          [
            141.98044849143426,
            43.047821831756266,
            468.0
          ],
          [
            141.98067811289593,
            43.04775819809715,
            471.0
          ],
          [
            141.98090773435763,
            43.04769456443803,
            474.0
          ],
          [
            141.9811373558193,
            43.047630930778915,
            484.0
          ],
          [
            141.98136697728097,
            43.0475672971198,
            491.0
          ],
          [
            141.98159659874264,
            43.04750366346068,
            498.0
          ],
          [
            141.98182622020434,
            43.04744002980156,
            511.0
          ],
          [
            141.982055841666,
            43.04737639614244,
            515.0
          ],
          [
            141.98228546312768,
            43.04731276248332,
            526.0
          ],
          [
            141.98251508458935,
            43.047249128824205,
            541.0
          ],
          [
            141.98274470605102,
            43.04718549516509,
            548.0
          ],
          [
            141.98297432751272,
            43.04712186150597,
            554.0
          ],
          [
            141.9832039489744,
            43.047058227846854,
            558.0
          ],
          [
            141.98343357043606,
            43.04699459418773,
            561.0
          ],
          [
            141.98366319189773,
            43.04693096052861,
            567.0
          ],
          [
            141.98389281335943,
            43.046867326869496,
            575.0
          ],
          [
            141.9841224348211,
            43.04680369321038,
            583.0
          ],
          [
            141.98435205628277,
            43.04674005955126,
            593.0
          ],
          [
            141.98458167774444,
            43.046676425892144,
            601.0
          ],
          [
            141.98481129920611,
            43.04661279223303,
            607.0
          ],
          [
            141.9850409206678,
            43.0465491585739,
            615.0
          ],
          [
            141.98527054212948,
            43.046485524914786,
            621.0
          ],
          [
            141.98550016359115,
            43.04642189125567,
            627.0
          ],
          [
            141.98572978505283,
            43.04635825759655,
            635.0
          ],
          [
            141.9859594065145,
            43.046294623937435,
            644.0
          ],
          [
            141.9861890279762,
            43.04623099027832,
            650.0
          ],
          [
            141.98641864943787,
            43.0461673566192,
            654.0
          ],
          [
            141.98664827089954,
            43.046103722960076,
            664.0
          ],
          [
            141.9868778923612,
            43.04604008930096,
            673.0
          ],
          [
            141.9871075138229,
            43.04597645564184,
            677.0
          ],
          [
            141.98733713528458,
            43.045912821982725,
            680.0
          ],
          [
            141.98756675674625,
            43.04584918832361,
            677.0
          ],
          [
            141.98779637820792,
            43.04578555466449,
            668.0
          ],
          [
            141.9880259996696,
            43.045721921005374,
            658.0
          ],
          [
            141.9882556211313,
            43.04565828734625,
            668.0
          ],
          [
            141.98848524259296,
            43.04559465368713,
            684.0
          ],
          [
            141.98871486405463,
            43.045531020028015,
            697.0
          ],
          [
            141.9889444855163,
            43.0454673863689,
            701.0
          ],
          [
            141.989174106978,
            43.04540375270978,
            701.0
          ],
          [
            141.98940372843967,
            43.045340119050664,
            701.0
          ],
          [
            141.9895124646776,
            43.04530998560996,
            701.0
          ]
        ]
      }
    },
    {
      "type": "Feature",
      "properties": {
        "name": "スウィンガーズ2",
        "horizontal_dist_map": 906,
        "slope_dist_map": 938,
        "elevation_diff_map": 204.6,
        "midstation": null
      },
      "geometry": {
        "type": "LineString",
        "coordinates": [
          [
            141.96969806949863,
            43.050542363592996,
            302.4
          ],
          [
            141.96987917172217,
            43.05042083907121,
            301.7
          ],
          [
            141.97006027394568,
            43.05029931454943,
            308.5
          ],
          [
            141.9702413761692,
            43.05017779002764,
            315.5
          ],
          [
            141.97042247839272,
            43.05005626550585,
            320.5
          ],
          [
            141.97060358061626,
            43.04993474098407,
            324.3
          ],
          [
            141.9707846828398,
            43.04981321646228,
            328.5
          ],
          [
            141.9709657850633,
            43.0496916919405,
            331.5
          ],
          [
            141.97114688728684,
            43.049570167418715,
            335.3
          ],
          [
            141.97132798951034,
            43.04944864289693,
            338.9
          ],
          [
            141.97150909173388,
            43.049327118375146,
            343.2
          ],
          [
            141.9716901939574,
            43.04920559385336,
            348.4
          ],
          [
            141.97187129618092,
            43.04908406933157,
            353.0
          ],
          [
            141.97205239840446,
            43.04896254480979,
            357.8
          ],
          [
            141.97223350062796,
            43.048841020288,
            360.0
          ],
          [
            141.9724146028515,
            43.048719495766214,
            366.0
          ],
          [
            141.972595705075,
            43.04859797124443,
            373.0
          ],
          [
            141.97277680729854,
            43.048476446722646,
            382.0
          ],
          [
            141.97295790952208,
            43.04835492220086,
            389.0
          ],
          [
            141.9731390117456,
            43.04823339767908,
            392.0
          ],
          [
            141.97332011396912,
            43.04811187315729,
            394.0
          ],
          [
            141.97350121619263,
            43.04799034863551,
            395.0
          ],
          [
            141.97368231841617,
            43.04786882411372,
            397.0
          ],
          [
            141.9738634206397,
            43.04774729959193,
            398.0
          ],
          [
            141.9740445228632,
            43.04762577507015,
            399.0
          ],
          [
            141.97422562508675,
            43.047504250548364,
            399.0
          ],
          [
            141.97440672731025,
            43.04738272602658,
            399.0
          ],
          [
            141.9745878295338,
            43.047261201504796,
            399.0
          ],
          [
            141.9747689317573,
            43.04713967698301,
            404.0
          ],
          [
            141.97495003398083,
            43.04701815246122,
            411.0
          ],
          [
            141.97513113620437,
            43.04689662793944,
            420.0
          ],
          [
            141.97531223842788,
            43.04677510341765,
            428.0
          ],
          [
            141.9754933406514,
            43.04665357889587,
            440.0
          ],
          [
            141.97567444287492,
            43.04653205437408,
            450.0
          ],
          [
            141.97585554509845,
            43.046410529852295,
            458.0
          ],
          [
            141.976036647322,
            43.046289005330514,
            463.0
          ],
          [
            141.9762177495455,
            43.04616748080873,
            467.0
          ],
          [
            141.97639885176903,
            43.04604595628694,
            472.0
          ],
          [
            141.97657995399254,
            43.04592443176516,
            475.0
          ],
          [
            141.97676105621608,
            43.04580290724337,
            481.0
          ],
          [
            141.9769421584396,
            43.04568138272158,
            488.0
          ],
          [
            141.97712326066312,
            43.0455598581998,
            494.0
          ],
          [
            141.97730436288666,
            43.045438333678014,
            501.0
          ],
          [
            141.97748546511016,
            43.045316809156226,
            504.0
          ],
          [
            141.9776665673337,
            43.045195284634445,
            505.0
          ],
          [
            141.97784766955724,
            43.04507376011266,
            507.0
          ],
          [
            141.97790939815565,
            43.045032338542796,
            507.0
          ]
        ]
      }
    }
  ]
}