{
  "type": "FeatureCollection",
  "features": [
    {
      "type": "Feature",
      "properties": {
        "name": "第1ペア",
        "horizontal_dist_map": 664,
        "slope_dist_map": 695,
        "elevation_diff_map": 200.0,
        "midstation": null
      },
      "geometry": {
        "type": "LineString",
        "coordinates": [
          [
            142.5147874,
            44.4026702,
            214.0
          ],
          [
            142.51472522701513,
            44.40284457971764,
            218.0
          ],
          [
            142.51466305403028,
            44.40301895943527,
            222.0
          ],
          [
            142.5146008810454,
            44.40319333915291,
            227.0
          ],
          [
            142.51453870806054,
            44.40336771887054,
            231.0
          ],
          [
            142.5144765350757,
            44.40354209858818,
            238.0
          ],
          [
            142.51441436209083,
            44.40371647830582,
            242.0
          ],
          [
            142.51435218910598,
            44.40389085802345,
            246.0
          ],
          [
            142.51429001612112,
            44.40406523774109,
            251.0
          ],
          [
            142.51422784313624,
            44.40423961745872,
            256.0
          ],
          [
            142.51416567015139,
            44.404413997176356,
            261.0
          ],
          [
            142.51410349716653,
            44.40458837689399,
            268.0
          ],
          [
            142.51404132418168,
            44.404762756611625,
            274.0
          ],
          [
            142.51397915119682,
            44.404937136329266,
            279.0
          ],
          [
            142.51391697821197,
            44.4051115160469,
            287.0
          ],
          [
            142.51385480522708,
            44.405285895764536,
            295.0
          ],
          [
            142.51379263224223,
            44.40546027548217,
            301.0
          ],
          [
            142.51373045925737,
            44.405634655199805,
            307.0
          ],
          [
            142.51366828627252,
            44.40580903491744,
            315.0
          ],
          [
            142.51360611328766,
            44.405983414635074,
            322.0
          ],
          [
            142.5135439403028,
            44.40615779435271,
            329.0
          ],
          [
            142.51348176731793,
            44.40633217407034,
            336.0
          ],
          [
            142.51341959433307,
            44.406506553787985,
            342.0
          ],
          [
            142.51335742134822,
            44.40668093350562,
            347.0
          ],
          [
            142.51329524836336,
            44.406855313223254,
            353.0
          ],
          [
            142.5132330753785,
            44.40702969294089,
            359.0
          ],
          [
            142.51317090239365,
            44.40720407265852,
            366.0
          ],
          [
            142.51310872940877,
            44.40737845237616,
            373.0
          ],
          [
            142.51304655642392,
            44.40755283209379,
            381.0
          ],
          [
            142.51298438343906,
            44.40772721181143,
            388.0
          ],
          [
            142.5129222104542,
            44.40790159152906,
            392.0
          ],
          [
            142.51286003746935,
            44.4080759712467,
            397.0
          ],
          [
            142.51279786448447,
            44.40825035096434,
            404.0
          ],
          [
            142.5127356914996,
            44.40842473068197,
            412.0
          ],
          [
            142.5127203,
            44.4084679,
            414.0
          ]
        ]
      }
    },
    {
      "type": "Feature",
      "properties": {
        "name": "第2ペア",
        "horizontal_dist_map": 385,
        "slope_dist_map": 398,
        "elevation_diff_map": 100.0,
        "midstation": null
      },
      "geometry": {
        "type": "LineString",
        "coordinates": [
          [
            142.5122607,
            44.4084247,
            415.0
          ],
          [
            142.5121914167494,
            44.4085976979485,
            422.0
          ],
          [
            142.5121221334988,
            44.408770695897005,
            429.0
          ],
          [
            142.51205285024818,
            44.40894369384551,
            434.0
          ],
          [
            142.5119835669976,
            44.40911669179401,
            440.0
          ],
          [
            142.511914283747,
            44.409289689742515,
            446.0
          ],
          [
            142.51184500049638,
            44.40946268769102,
            453.0
          ],
          [
            142.51177571724577,
            44.40963568563952,
            458.0
          ],
          [
            142.51170643399516,
            44.409808683588025,
            461.0
          ],
          [
            142.51163715074455,
            44.409981681536536,
            466.0
          ],
          [
            142.51156786749397,
            44.41015467948504,
            470.0
          ],
          [
            142.51149858424336,
            44.41032767743354,
            474.0
          ],
          [
            142.51142930099275,
            44.410500675382046,
            478.0
          ],
          [
            142.51136001774213,
            44.41067367333055,
            483.0
          ],
          [
            142.51129073449152,
            44.41084667127905,
            487.0
          ],
          [
            142.5112214512409,
            44.41101966922756,
            492.0
          ],
          [
            142.5111521679903,
            44.41119266717606,
            497.0
          ],
          [
            142.51108288473972,
            44.41136566512456,
            503.0
          ],
          [
            142.5110136014891,
            44.41153866307307,
            510.0
          ],
          [
            142.5109443182385,
            44.41171166102157,
            514.0
          ],
          [
            142.51092575513286,
            44.41175801247254,
            515.0
          ]
        ]
      }
    },
    {
      "type": "Feature",
      "properties": {
        "name": "第3ペア",
        "horizontal_dist_map": 592,
        "slope_dist_map": 631,
        "elevation_diff_map": 205.0,
        "midstation": null
      },
      "geometry": {
        "type": "LineString",
        "coordinates": [
          [
            142.5099292,
            44.4101067,
            457.0
          ],
          [
            142.50988290774566,
            44.41028360013256,
            459.0
          ],
          [
            142.50983661549134,
            44.41046050026512,
            463.0
          ],
          [
            142.509790323237,
            44.410637400397675,
            469.0
          ],
          [
            142.5097440309827,
            44.41081430053023,
            477.0
          ],
          [
            142.50969773872836,
            44.410991200662785,
            484.0
          ],
          [
            142.50965144647404,
            44.411168100795344,
            490.0
          ],
          [
            142.5096051542197,
            44.4113450009279,
            497.0
          ],
          [
            142.5095588619654,
            44.41152190106046,
            503.0
          ],
          [
            142.50951256971106,
            44.41169880119302,
            509.0
          ],
          [
            142.50946627745674,
            44.41187570132558,
            518.0
          ],
          [
            142.5094199852024,
            44.41205260145813,
            527.0
          ],
          [
            142.5093736929481,
            44.41222950159069,
            537.0
          ],
          [
            142.50932740069376,
            44.412406401723246,
            547.0
          ],
          [
            142.50928110843944,
            44.412583301855804,
            560.0
          ],
          [
            142.5092348161851,
            44.41276020198836,
            572.0
          ],
          [
            142.5091885239308,
            44.41293710212092,
            580.0
          ],
          [
            142.50914223167646,
            44.41311400225348,
            589.0
          ],
          [
            142.50909593942214,
            44.41329090238604,
            599.0
          ],
          [
            142.5090496471678,
            44.41346780251859,
            609.0
          ],
          [
            142.5090033549135,
            44.41364470265115,
            617.0
          ],
          [
            142.50895706265916,
            44.413821602783706,
            623.0
          ],
          [
            142.50891077040484,
            44.413998502916264,
            627.0
          ],
          [
            142.50886447815054,
            44.41417540304882,
            631.0
          ],
          [
            142.50881818589622,
            44.41435230318138,
            636.0
          ],
          [
            142.5087718936419,
            44.41452920331394,
            639.0
          ],
          [
            142.50872560138757,
            44.41470610344649,
            644.0
          ],
          [
            142.50867930913324,
            44.41488300357905,
            649.0
          ],
          [
            142.50863301687892,
            44.41505990371161,
            654.0
          ],
          [
            142.5085867246246,
            44.41523680384417,
            658.0
          ],
          [
            142.5085576,
            44.4153481,
            662.0
          ]
        ]
      }
    }
  ]
}