{
  "type": "FeatureCollection",
  "features": [
    {
      "type": "Feature",
      "properties": {
        "name": "スカイラビット",
        "horizontal_dist_map": 1013,
        "slope_dist_map": 1060,
        "elevation_diff_map": 281.3
      },
      "geometry": {
        "type": "LineString",
        "coordinates": [
          [
            137.72642835160323,
            36.04934800650525,
            1831.4
          ],
          [
            137.7266437452672,
            36.049304507505944,
            1830.3
          ],
          [
            137.72685913893116,
            36.04926100850665,
            1833.2
          ],
          [
            137.72707453259514,
            36.04921750950734,
            1837.9
          ],
          [
            137.7272899262591,
            36.04917401050804,
            1839.5
          ],
          [
            137.72750531992307,
            36.04913051150874,
            1839.9
          ],
          [
            137.72772071358705,
            36.04908701250944,
            1840.7
          ],
          [
            137.727936107251,
            36.04904351351014,
            1842.2
          ],
          [
            137.72815150091498,
            36.04900001451084,
            1843.8
          ],
          [
            137.72836689457895,
            36.048956515511534,
            1845.1
          ],
          [
            137.7285822882429,
            36.04891301651224,
            1846.2
          ],
          [
            137.72879768190688,
            36.048869517512934,
            1847.9
          ],
          [
            137.72901307557083,
            36.04882601851363,
            1849.9
          ],
          [
            137.7292284692348,
            36.04878251951433,
            1854.1
          ],
          [
            137.7294438628988,
            36.04873902051503,
            1858.7
          ],
          [
            137.72965925656274,
            36.04869552151573,
            1865.3
          ],
          [
            137.72987465022672,
            36.04865202251643,
            1873.6
          ],
          [
            137.73009004389067,
            36.048608523517125,
            1882.1
          ],
          [
            137.73030543755465,
            36.04856502451783,
            1889.6
          ],
          [
            137.73052083121863,
            36.048521525518524,
            1895.6
          ],
          [
            137.73073622488258,
            36.04847802651922,
            1901.8
          ],
          [
            137.73095161854656,
            36.04843452751992,
            1908.7
          ],
          [
            137.73116701221053,
            36.04839102852062,
            1916.0
          ],
          [
            137.73138240587448,
            36.04834752952132,
            1923.3
          ],
          [
            137.73159779953846,
            36.04830403052202,
            1930.5
          ],
          [
            137.7318131932024,
            36.048260531522715,
            1937.8
          ],
          [
            137.7320285868664,
            36.04821703252342,
            1945.3
          ],
          [
            137.73224398053037,
            36.048173533524114,
            1951.8
          ],
          [
            137.73245937419432,
            36.04813003452481,
            1958.4
          ],
          [
            137.7326747678583,
            36.04808653552551,
            1966.2
          ],
          [
            137.73289016152225,
            36.04804303652621,
            1971.1
          ],
          [
            137.73310555518623,
            36.04799953752691,
            1976.3
          ],
          [
            137.7333209488502,
            36.04795603852761,
            1979.7
          ],
          [
            137.73353634251416,
            36.047912539528305,
            1985.6
          ],
          [
            137.73375173617814,
            36.04786904052901,
            1990.9
          ],
          [
            137.73396712984209,
            36.047825541529704,
            1996.4
          ],
          [
            137.73418252350606,
            36.0477820425304,
            2001.6
          ],
          [
            137.73439791717004,
            36.0477385435311,
            2008.0
          ],
          [
            137.734613310834,
            36.0476950445318,
            2012.2
          ],
          [
            137.73482870449797,
            36.0476515455325,
            2019.7
          ],
          [
            137.73504409816195,
            36.0476080465332,
            2026.7
          ],
          [
            137.7352594918259,
            36.047564547533895,
            2035.4
          ],
          [
            137.73547488548988,
            36.0475210485346,
            2044.0
          ],
          [
            137.73569027915383,
            36.047477549535294,
            2052.7
          ],
          [
            137.7359056728178,
            36.04743405053599,
            2062.3
          ],
          [
            137.7361210664818,
            36.047390551536694,
            2071.3
          ],
          [
            137.73633646014574,
            36.04734705253739,
            2080.3
          ],
          [
            137.73655185380971,
            36.04730355353809,
            2088.1
          ],
          [
            137.73676724747367,
            36.04726005453879,
            2095.6
          ],
          [
            137.73698264113764,
            36.047216555539485,
            2102.2
          ],
          [
            137.73719803480162,
            36.04717305654019,
            2108.4
          ],
          [
            137.73734755553608,
            36.04714286065511,
            2112.7
          ]
        ]
      }
    },
    {
      "type": "Feature",
      "properties": {
        "name": "第1ペア",
        "horizontal_dist_map": 609,
        "slope_dist_map": 628,
        "elevation_diff_map": 131.3
      },
      "geometry": {
        "type": "LineString",
        "coordinates": [
          [
            137.70928433970008,
            36.04837578847811,
            1437.8
          ],
          [
            137.70950627726623,
            36.04837801620783,
            1437.3
          ],
          [
            137.7097282148324,
            36.048380243937544,
            1439.4
          ],
          [
            137.70995015239856,
            36.04838247166726,
            1443.9
          ],
          [
            137.71017208996474,
            36.04838469939698,
            1450.0
          ],
          [
            137.7103940275309,
            36.0483869271267,
            1456.1
          ],
          [
            137.71061596509708,
            36.048389154856416,
            1460.0
          ],
          [
            137.71083790266323,
            36.04839138258613,
            1462.2
          ],
          [
            137.7110598402294,
            36.04839361031585,
            1463.8
          ],
          [
            137.71128177779556,
            36.048395838045565,
            1465.6
          ],
          [
            137.71150371536174,
            36.04839806577528,
            1469.1
          ],
          [
            137.7117256529279,
            36.048400293505004,
            1475.0
          ],
          [
            137.71194759049405,
            36.04840252123472,
            1481.4
          ],
          [
            137.71216952806023,
            36.04840474896444,
            1488.3
          ],
          [
            137.71239146562638,
            36.04840697669415,
            1494.8
          ],
          [
            137.71261340319256,
            36.04840920442387,
            1496.9
          ],
          [
            137.71283534075872,
            36.048411432153586,
            1497.0
          ],
          [
            137.7130572783249,
            36.0484136598833,
            1495.8
          ],
          [
            137.71327921589105,
            36.048415887613025,
            1497.1
          ],
          [
            137.71350115345723,
            36.04841811534274,
            1502.3
          ],
          [
            137.71372309102338,
            36.04842034307246,
            1508.1
          ],
          [
            137.71394502858956,
            36.048422570802174,
            1515.3
          ],
          [
            137.71416696615572,
            36.04842479853189,
            1525.7
          ],
          [
            137.7143889037219,
            36.048427026261606,
            1533.8
          ],
          [
            137.71461084128805,
            36.04842925399132,
            1539.5
          ],
          [
            137.7148327788542,
            36.048431481721046,
            1544.0
          ],
          [
            137.71505471642038,
            36.04843370945076,
            1549.0
          ],
          [
            137.71527665398654,
            36.04843593718048,
            1553.6
          ],
          [
            137.71549859155272,
            36.048438164910195,
            1557.5
          ],
          [
            137.71572052911887,
            36.04844039263991,
            1561.5
          ],
          [
            137.71594246668505,
            36.04844262036963,
            1567.1
          ],
          [
            137.7160520411181,
            36.0484437202385,
            1569.1
          ]
        ]
      }
    },
    {
      "type": "Feature",
      "properties": {
        "name": "第5ペア",
        "horizontal_dist_map": 292,
        "slope_dist_map": 295,
        "elevation_diff_map": 37.8
      },
      "geometry": {
        "type": "LineString",
        "coordinates": [
          [
            137.70810217664223,
            36.049092264229664,
            1433.1
          ],
          [
            137.7083211182429,
            36.049121874328875,
            1433.9
          ],
          [
            137.70854005984359,
            36.04915148442809,
            1436.0
          ],
          [
            137.70875900144426,
            36.0491810945273,
            1439.2
          ],
          [
            137.70897794304494,
            36.04921070462651,
            1442.0
          ],
          [
            137.70919688464562,
            36.04924031472572,
            1444.8
          ],
          [
            137.7094158262463,
            36.049269924824934,
            1447.6
          ],
          [
            137.70963476784695,
            36.049299534924145,
            1451.0
          ],
          [
            137.70985370944763,
            36.04932914502336,
            1453.6
          ],
          [
            137.7100726510483,
            36.04935875512257,
            1456.4
          ],
          [
            137.71029159264899,
            36.04938836522178,
            1459.2
          ],
          [
            137.71051053424966,
            36.04941797532099,
            1461.9
          ],
          [
            137.71072947585034,
            36.049447585420204,
            1464.8
          ],
          [
            137.71094841745102,
            36.049477195519415,
            1466.8
          ],
          [
            137.7111673590517,
            36.04950680561863,
            1468.7
          ],
          [
            137.7113058183739,
            36.0495255311338,
            1470.9
          ]
        ]
      }
    },
    {
      "type": "Feature",
      "properties": {
        "name": "スカイライナー",
        "horizontal_dist_map": 1500,
        "slope_dist_map": 1572,
        "elevation_diff_map": 392.9
      },
      "geometry": {
        "type": "LineString",
        "coordinates": [
          [
            137.7093219444791,
            36.04844011040713,
            1438.3
          ],
          [
            137.70954387809465,
            36.048442604617435,
            1437.8
          ],
          [
            137.70976581171024,
            36.048445098827735,
            1440.2
          ],
          [
            137.7099877453258,
            36.04844759303804,
            1445.5
          ],
          [
            137.7102096789414,
            36.04845008724835,
            1451.7
          ],
          [
            137.71043161255696,
            36.048452581458655,
            1458.0
          ],
          [
            137.71065354617255,
            36.048455075668954,
            1462.0
          ],
          [
            137.71087547978811,
            36.04845756987926,
            1464.3
          ],
          [
            137.71109741340368,
            36.04846006408957,
            1466.0
          ],
          [
            137.71131934701927,
            36.04846255829987,
            1468.4
          ],
          [
            137.71154128063483,
            36.048465052510174,
            1472.5
          ],
          [
            137.71176321425042,
            36.04846754672048,
            1478.6
          ],
          [
            137.711985147866,
            36.04847004093078,
            1484.6
          ],
          [
            137.71220708148155,
            36.04847253514109,
            1491.6
          ],
          [
            137.71242901509714,
            36.048475029351394,
            1497.8
          ],
          [
            137.7126509487127,
            36.0484775235617,
            1499.9
          ],
          [
            137.7128728823283,
            36.048480017772,
            1499.9
          ],
          [
            137.71309481594386,
            36.04848251198231,
            1499.7
          ],
          [
            137.71331674955945,
            36.048485006192614,
            1499.6
          ],
          [
            137.71353868317502,
            36.04848750040291,
            1502.9
          ],
          [
            137.71376061679058,
            36.04848999461322,
            1508.8
          ],
          [
            137.71398255040617,
            36.04849248882353,
            1515.4
          ],
          [
            137.71420448402174,
            36.04849498303383,
            1527.3
          ],
          [
            137.71442641763733,
            36.04849747724413,
            1534.8
          ],
          [
            137.7146483512529,
            36.04849997145444,
            1539.3
          ],
          [
            137.71487028486848,
            36.04850246566475,
            1544.9
          ],
          [
            137.71509221848405,
            36.048504959875046,
            1549.7
          ],
          [
            137.7153141520996,
            36.04850745408535,
            1553.5
          ],
          [
            137.7155360857152,
            36.04850994829566,
            1557.0
          ],
          [
            137.71575801933076,
            36.04851244250596,
            1562.1
          ],
          [
            137.71597995294636,
            36.048514936716266,
            1566.9
          ],
          [
            137.71620188656192,
            36.04851743092657,
            1573.2
          ],
          [
            137.71642382017748,
            36.04851992513688,
            1578.5
          ],
          [
            137.71664575379307,
            36.04852241934718,
            1582.9
          ],
          [
            137.71686768740864,
            36.048524913557486,
            1588.3
          ],
          [
            137.71708962102423,
            36.04852740776779,
            1595.0
          ],
          [
            137.7173115546398,
            36.04852990197809,
            1605.7
          ],
          [
            137.71753348825538,
            36.0485323961884,
            1615.7
          ],
          [
            137.71775542187095,
            36.048534890398706,
            1616.3
          ],
          [
            137.7179773554865,
            36.048537384609006,
            1612.8
          ],
          [
            137.7181992891021,
            36.04853987881931,
            1619.9
          ],
          [
            137.71842122271767,
            36.04854237302962,
            1633.1
          ],
          [
            137.71864315633326,
            36.048544867239926,
            1646.1
          ],
          [
            137.71886508994882,
            36.048547361450225,
            1663.8
          ],
          [
            137.71908702356438,
            36.04854985566053,
            1677.9
          ],
          [
            137.71930895717998,
            36.04855234987084,
            1691.7
          ],
          [
            137.71953089079554,
            36.04855484408114,
            1700.4
          ],
          [
            137.71975282441113,
            36.048557338291445,
            1707.7
          ],
          [
            137.7199747580267,
            36.04855983250175,
            1712.2
          ],
          [
            137.7201966916423,
            36.04856232671205,
            1714.1
          ],
          [
            137.72041862525785,
            36.04856482092236,
            1716.7
          ],
          [
            137.7206405588734,
            36.048567315132665,
            1719.1
          ],
          [
            137.720862492489,
            36.04856980934297,
            1721.5
          ],
          [
            137.72108442610457,
            36.04857230355327,
            1724.0
          ],
          [
            137.72130635972016,
            36.04857479776358,
            1729.2
          ],
          [
            137.72152829333572,
            36.048577291973885,
            1734.6
          ],
          [
            137.72175022695131,
            36.048579786184185,
            1740.1
          ],
          [
            137.72197216056688,
            36.04858228039449,
            1746.5
          ],
          [
            137.72219409418244,
            36.0485847746048,
            1752.8
          ],
          [
            137.72241602779803,
            36.048587268815105,
            1758.7
          ],
          [
            137.7226379614136,
            36.048589763025404,
            1766.6
          ],
          [
            137.7228598950292,
            36.04859225723571,
            1772.7
          ],
          [
            137.72308182864475,
            36.04859475144602,
            1778.2
          ],
          [
            137.72330376226031,
            36.04859724565632,
            1784.6
          ],
          [
            137.7235256958759,
            36.048599739866624,
            1790.5
          ],
          [
            137.72374762949147,
            36.04860223407693,
            1796.1
          ],
          [
            137.72396956310706,
            36.04860472828723,
            1803.1
          ],
          [
            137.72419149672263,
            36.04860722249754,
            1808.7
          ],
          [
            137.72441343033822,
            36.048609716707844,
            1815.2
          ],
          [
            137.72463536395378,
            36.04861221091815,
            1821.3
          ],
          [
            137.72485729756934,
            36.04861470512845,
            1826.3
          ],
          [
            137.72507923118494,
            36.04861719933876,
            1830.1
          ],
          [
            137.7253011648005,
            36.048619693549064,
            1830.5
          ],
          [
            137.7255230984161,
            36.048622187759364,
            1830.2
          ],
          [
            137.72574503203165,
            36.04862468196967,
            1830.2
          ],
          [
            137.72596696564725,
            36.04862717617998,
            1831.2
          ],
          [
            137.72597124571732,
            36.048627224281724,
            1831.2
          ]
        ]
      }
    }
  ]
}