{
  "type": "FeatureCollection",
  "features": [
    {
      "type": "Feature",
      "properties": {
        "name": "第2ペア",
        "horizontal_dist_map": 330,
        "slope_dist_map": 343,
        "elevation_diff_map": 88.0,
        "midstation": null
      },
      "geometry": {
        "type": "LineString",
        "coordinates": [
          [
            138.941651146152,
            36.74297881912139,
            823.1
          ],
          [
            138.94145458230517,
            36.742892476076946,
            823.2
          ],
          [
            138.94125801845834,
            36.7428061330325,
            829.8
          ],
          [
            138.94106145461149,
            36.74271978998805,
            838.2
          ],
          [
            138.94086489076466,
            36.74263344694361,
            844.2
          ],
          [
            138.94066832691783,
            36.74254710389916,
            848.6
          ],
          [
            138.940471763071,
            36.74246076085472,
            853.4
          ],
          [
            138.94027519922415,
            36.742374417810275,
            858.3
          ],
          [
            138.94007863537732,
            36.742288074765824,
            864.0
          ],
          [
            138.9398820715305,
            36.74220173172138,
            869.7
          ],
          [
            138.93968550768366,
            36.742115388676936,
            873.4
          ],
          [
            138.9394889438368,
            36.74202904563249,
            878.9
          ],
          [
            138.93929237998998,
            36.74194270258805,
            883.5
          ],
          [
            138.93909581614315,
            36.7418563595436,
            890.3
          ],
          [
            138.93889925229632,
            36.74177001649915,
            897.1
          ],
          [
            138.93870268844947,
            36.74168367345471,
            903.6
          ],
          [
            138.93850612460264,
            36.741597330410265,
            910.1
          ],
          [
            138.93840111476473,
            36.74155120357032,
            911.1
          ]
        ]
      }
    },
    {
      "type": "Feature",
      "properties": {
        "name": "第3クワッド",
        "horizontal_dist_map": 868,
        "slope_dist_map": 908,
        "elevation_diff_map": 241.7,
        "midstation": null
      },
      "geometry": {
        "type": "LineString",
        "coordinates": [
          [
            138.9418285,
            36.7424228,
            823.0
          ],
          [
            138.94164294555367,
            36.74232191002576,
            822.5
          ],
          [
            138.94145739110732,
            36.742221020051524,
            827.1
          ],
          [
            138.94127183666097,
            36.74212013007728,
            836.8
          ],
          [
            138.9410862822146,
            36.74201924010305,
            845.1
          ],
          [
            138.94090072776825,
            36.741918350128806,
            851.0
          ],
          [
            138.9407151733219,
            36.74181746015457,
            856.8
          ],
          [
            138.94052961887556,
            36.74171657018033,
            862.0
          ],
          [
            138.9403440644292,
            36.741615680206095,
            867.7
          ],
          [
            138.94015850998287,
            36.741514790231854,
            871.9
          ],
          [
            138.93997295553652,
            36.74141390025762,
            875.2
          ],
          [
            138.93978740109017,
            36.74131301028338,
            880.6
          ],
          [
            138.9396018466438,
            36.74121212030914,
            884.3
          ],
          [
            138.93941629219745,
            36.7411112303349,
            888.4
          ],
          [
            138.9392307377511,
            36.74101034036067,
            893.5
          ],
          [
            138.93904518330476,
            36.740909450386425,
            897.3
          ],
          [
            138.9388596288584,
            36.74080856041219,
            900.7
          ],
          [
            138.93867407441206,
            36.74070767043795,
            905.7
          ],
          [
            138.93848851996572,
            36.740606780463715,
            907.9
          ],
          [
            138.93830296551934,
            36.74050589048947,
            911.0
          ],
          [
            138.938117411073,
            36.74040500051524,
            913.2
          ],
          [
            138.93793185662665,
            36.740304110541,
            917.9
          ],
          [
            138.9377463021803,
            36.74020322056676,
            926.0
          ],
          [
            138.93756074773395,
            36.74010233059252,
            937.9
          ],
          [
            138.9373751932876,
            36.740001440618286,
            946.6
          ],
          [
            138.93718963884126,
            36.739900550644045,
            951.3
          ],
          [
            138.9370040843949,
            36.7397996606698,
            958.0
          ],
          [
            138.93681852994854,
            36.73969877069557,
            964.0
          ],
          [
            138.9366329755022,
            36.73959788072133,
            967.2
          ],
          [
            138.93644742105585,
            36.73949699074709,
            969.9
          ],
          [
            138.9362618666095,
            36.73939610077285,
            973.3
          ],
          [
            138.93607631216315,
            36.739295210798616,
            978.5
          ],
          [
            138.9358907577168,
            36.739194320824375,
            983.0
          ],
          [
            138.93570520327046,
            36.73909343085014,
            987.5
          ],
          [
            138.93551964882408,
            36.7389925408759,
            991.2
          ],
          [
            138.93533409437774,
            36.738891650901664,
            996.2
          ],
          [
            138.9351485399314,
            36.73879076092742,
            1002.0
          ],
          [
            138.93496298548504,
            36.73868987095319,
            1010.4
          ],
          [
            138.9347774310387,
            36.738588980978946,
            1017.2
          ],
          [
            138.93459187659235,
            36.73848809100471,
            1023.7
          ],
          [
            138.934406322146,
            36.73838720103047,
            1034.8
          ],
          [
            138.93422076769966,
            36.738286311056235,
            1047.9
          ],
          [
            138.93403521325328,
            36.738185421081994,
            1057.3
          ],
          [
            138.93384965880693,
            36.73808453110776,
            1063.1
          ],
          [
            138.93377244013635,
            36.7380425456429,
            1064.7
          ]
        ]
      }
    },
    {
      "type": "Feature",
      "properties": {
        "name": "第4ペア",
        "horizontal_dist_map": 692,
        "slope_dist_map": 721,
        "elevation_diff_map": 181.2,
        "midstation": [
          36.741979125442754,
          138.92883757328212,
          1130.3
        ]
      },
      "geometry": {
        "type": "LineString",
        "coordinates": [
          [
            138.9331365148029,
            36.74022949241444,
            1025.3
          ],
          [
            138.9329366828343,
            36.74031082885819,
            1025.4
          ],
          [
            138.93273685086572,
            36.74039216530194,
            1028.7
          ],
          [
            138.93253701889714,
            36.74047350174568,
            1032.7
          ],
          [
            138.93233718692855,
            36.74055483818943,
            1036.5
          ],
          [
            138.93213735495996,
            36.74063617463318,
            1041.9
          ],
          [
            138.93193752299135,
            36.74071751107693,
            1047.5
          ],
          [
            138.93173769102276,
            36.74079884752068,
            1052.1
          ],
          [
            138.93153785905417,
            36.74088018396442,
            1057.6
          ],
          [
            138.9313380270856,
            36.74096152040817,
            1062.2
          ],
          [
            138.931138195117,
            36.74104285685192,
            1068.2
          ],
          [
            138.9309383631484,
            36.74112419329567,
            1072.7
          ],
          [
            138.93073853117983,
            36.74120552973942,
            1077.8
          ],
          [
            138.93053869921124,
            36.74128686618316,
            1080.0
          ],
          [
            138.93033886724265,
            36.74136820262691,
            1083.7
          ],
          [
            138.93013903527407,
            36.74144953907066,
            1089.0
          ],
          [
            138.92993920330545,
            36.74153087551441,
            1098.9
          ],
          [
            138.92973937133686,
            36.741612211958156,
            1111.3
          ],
          [
            138.92953953936828,
            36.7416935484019,
            1118.9
          ],
          [
            138.9293397073997,
            36.74177488484565,
            1121.5
          ],
          [
            138.9291398754311,
            36.741856221289396,
            1128.8
          ],
          [
            138.92894004346252,
            36.741937557733145,
            1130.1
          ],
          [
            138.92874021149393,
            36.742018894176894,
            1130.6
          ],
          [
            138.92854037952534,
            36.742100230620636,
            1131.9
          ],
          [
            138.92834054755676,
            36.742181567064385,
            1134.1
          ],
          [
            138.92814071558817,
            36.742262903508134,
            1141.2
          ],
          [
            138.92794088361956,
            36.74234423995188,
            1149.9
          ],
          [
            138.92774105165097,
            36.74242557639563,
            1160.6
          ],
          [
            138.92754121968238,
            36.742506912839374,
            1166.8
          ],
          [
            138.9273413877138,
            36.74258824928312,
            1173.5
          ],
          [
            138.9271415557452,
            36.74266958572687,
            1179.5
          ],
          [
            138.92694172377662,
            36.74275092217062,
            1184.0
          ],
          [
            138.92674189180804,
            36.74283225861437,
            1190.5
          ],
          [
            138.92654205983945,
            36.74291359505812,
            1197.6
          ],
          [
            138.92634222787086,
            36.74299493150186,
            1203.4
          ],
          [
            138.92621508728084,
            36.74304668079664,
            1206.5
          ]
        ]
      }
    },
    {
      "type": "Feature",
      "properties": {
        "name": "第1クワッド",
        "horizontal_dist_map": 1389,
        "slope_dist_map": 1461,
        "elevation_diff_map": 390.8,
        "midstation": null
      },
      "geometry": {
        "type": "LineString",
        "coordinates": [
          [
            138.94153535348389,
            36.74374606575104,
            822.8
          ],
          [
            138.9413115631376,
            36.74373948433924,
            822.1
          ],
          [
            138.94108777279126,
            36.743732902927434,
            824.8
          ],
          [
            138.94086398244497,
            36.74372632151564,
            836.3
          ],
          [
            138.94064019209867,
            36.743719740103835,
            840.9
          ],
          [
            138.94041640175234,
            36.74371315869203,
            843.2
          ],
          [
            138.94019261140605,
            36.74370657728023,
            842.4
          ],
          [
            138.93996882105975,
            36.743699995868425,
            843.4
          ],
          [
            138.93974503071342,
            36.74369341445662,
            846.1
          ],
          [
            138.93952124036713,
            36.743686833044826,
            849.7
          ],
          [
            138.93929745002083,
            36.74368025163302,
            854.9
          ],
          [
            138.9390736596745,
            36.74367367022122,
            859.0
          ],
          [
            138.9388498693282,
            36.74366708880942,
            863.5
          ],
          [
            138.9386260789819,
            36.743660507397614,
            867.4
          ],
          [
            138.9384022886356,
            36.74365392598581,
            872.1
          ],
          [
            138.9381784982893,
            36.743647344574015,
            876.9
          ],
          [
            138.937954707943,
            36.74364076316221,
            883.6
          ],
          [
            138.93773091759667,
            36.74363418175041,
            888.5
          ],
          [
            138.93750712725037,
            36.743627600338606,
            892.5
          ],
          [
            138.93728333690404,
            36.7436210189268,
            896.6
          ],
          [
            138.93705954655775,
            36.743614437515,
            899.9
          ],
          [
            138.93683575621145,
            36.7436078561032,
            903.8
          ],
          [
            138.93661196586513,
            36.7436012746914,
            908.0
          ],
          [
            138.93638817551883,
            36.7435946932796,
            912.9
          ],
          [
            138.93616438517253,
            36.743588111867794,
            916.5
          ],
          [
            138.9359405948262,
            36.74358153045599,
            920.0
          ],
          [
            138.9357168044799,
            36.74357494904419,
            926.5
          ],
          [
            138.9354930141336,
            36.74356836763239,
            930.2
          ],
          [
            138.9352692237873,
            36.74356178622059,
            933.8
          ],
          [
            138.935045433441,
            36.743555204808786,
            938.1
          ],
          [
            138.9348216430947,
            36.74354862339698,
            943.3
          ],
          [
            138.93459785274837,
            36.74354204198518,
            953.4
          ],
          [
            138.93437406240207,
            36.743535460573376,
            962.8
          ],
          [
            138.93415027205577,
            36.74352887916158,
            973.2
          ],
          [
            138.93392648170945,
            36.74352229774978,
            982.4
          ],
          [
            138.93370269136315,
            36.743515716337974,
            992.0
          ],
          [
            138.93347890101685,
            36.74350913492617,
            999.4
          ],
          [
            138.93325511067053,
            36.74350255351437,
            1007.5
          ],
          [
            138.93303132032423,
            36.743495972102565,
            1017.0
          ],
          [
            138.93280752997794,
            36.74348939069077,
            1025.2
          ],
          [
            138.9325837396316,
            36.743482809278966,
            1032.7
          ],
          [
            138.9323599492853,
            36.74347622786716,
            1040.1
          ],
          [
            138.93213615893902,
            36.74346964645536,
            1049.0
          ],
          [
            138.9319123685927,
            36.74346306504356,
            1059.3
          ],
          [
            138.9316885782464,
            36.74345648363175,
            1065.5
          ],
          [
            138.9314647879001,
            36.74344990221996,
            1069.9
          ],
          [
            138.93124099755377,
            36.743443320808154,
            1075.4
          ],
          [
            138.93101720720747,
            36.74343673939635,
            1086.7
          ],
          [
            138.93079341686118,
            36.74343015798455,
            1099.0
          ],
          [
            138.93056962651485,
            36.743423576572745,
            1112.5
          ],
          [
            138.93034583616856,
            36.74341699516095,
            1121.4
          ],
          [
            138.93012204582226,
            36.743410413749146,
            1125.1
          ],
          [
            138.92989825547593,
            36.74340383233734,
            1128.2
          ],
          [
            138.92967446512964,
            36.74339725092554,
            1135.3
          ],
          [
            138.9294506747833,
            36.74339066951374,
            1146.4
          ],
          [
            138.929226884437,
            36.743384088101934,
            1154.5
          ],
          [
            138.92900309409072,
            36.74337750669014,
            1159.2
          ],
          [
            138.9287793037444,
            36.743370925278334,
            1160.7
          ],
          [
            138.9285555133981,
            36.74336434386653,
            1165.4
          ],
          [
            138.9283317230518,
            36.74335776245473,
            1171.1
          ],
          [
            138.92810793270547,
            36.743351181042925,
            1167.0
          ],
          [
            138.92788414235918,
            36.74334459963112,
            1166.1
          ],
          [
            138.92766035201288,
            36.743338018219326,
            1177.6
          ],
          [
            138.92743656166655,
            36.74333143680752,
            1186.4
          ],
          [
            138.92721277132026,
            36.74332485539572,
            1193.3
          ],
          [
            138.92698898097396,
            36.74331827398392,
            1199.2
          ],
          [
            138.92676519062763,
            36.743311692572114,
            1204.4
          ],
          [
            138.92654140028134,
            36.74330511116031,
            1209.5
          ],
          [
            138.92631760993504,
            36.743298529748515,
            1212.3
          ],
          [
            138.92609381958871,
            36.74329194833671,
            1213.2
          ],
          [
            138.9259827394376,
            36.74328868159965,
            1213.6
          ]
        ]
      }
    }
  ]
}