{
  "type": "FeatureCollection",
  "features": [
    {
      "type": "Feature",
      "properties": {
        "name": "やまびこ第2フォー",
        "horizontal_dist_map": 695,
        "slope_dist_map": 735,
        "elevation_diff_map": 211.8
      },
      "geometry": {
        "type": "LineString",
        "coordinates": [
          [
            138.4826263,
            36.9056903,
            1395.4
          ],
          [
            138.4827230114251,
            36.905527675993945,
            1390.5
          ],
          [
            138.4828197228502,
            36.90536505198789,
            1388.2
          ],
          [
            138.4829164342753,
            36.905202427981834,
            1394.2
          ],
          [
            138.4830131457004,
            36.905039803975775,
            1392.9
          ],
          [
            138.4831098571255,
            36.90487717996972,
            1396.2
          ],
          [
            138.48320656855057,
            36.904714555963665,
            1401.3
          ],
          [
            138.48330327997567,
            36.90455193195761,
            1406.7
          ],
          [
            138.48339999140077,
            36.904389307951554,
            1410.8
          ],
          [
            138.48349670282587,
            36.904226683945495,
            1420.0
          ],
          [
            138.48359341425098,
            36.904064059939444,
            1426.6
          ],
          [
            138.48369012567608,
            36.903901435933385,
            1435.1
          ],
          [
            138.48378683710118,
            36.903738811927326,
            1445.6
          ],
          [
            138.48388354852628,
            36.903576187921274,
            1456.3
          ],
          [
            138.48398025995138,
            36.903413563915215,
            1463.8
          ],
          [
            138.48407697137648,
            36.903250939909164,
            1471.6
          ],
          [
            138.48417368280158,
            36.903088315903105,
            1480.1
          ],
          [
            138.48427039422666,
            36.902925691897046,
            1489.3
          ],
          [
            138.48436710565176,
            36.902763067890994,
            1496.6
          ],
          [
            138.48446381707686,
            36.902600443884936,
            1504.0
          ],
          [
            138.48456052850196,
            36.90243781987888,
            1511.0
          ],
          [
            138.48465723992706,
            36.902275195872825,
            1515.9
          ],
          [
            138.48475395135216,
            36.902112571866766,
            1523.7
          ],
          [
            138.48485066277726,
            36.90194994786071,
            1531.9
          ],
          [
            138.48494737420236,
            36.901787323854656,
            1536.3
          ],
          [
            138.48504408562746,
            36.9016246998486,
            1540.0
          ],
          [
            138.48514079705257,
            36.901462075842545,
            1547.3
          ],
          [
            138.48523750847767,
            36.901299451836486,
            1555.6
          ],
          [
            138.48533421990274,
            36.90113682783043,
            1565.2
          ],
          [
            138.48543093132784,
            36.900974203824376,
            1572.6
          ],
          [
            138.48552764275294,
            36.90081157981832,
            1580.3
          ],
          [
            138.48562435417804,
            36.90064895581226,
            1586.0
          ],
          [
            138.48572106560314,
            36.900486331806206,
            1591.6
          ],
          [
            138.48581777702825,
            36.90032370780015,
            1596.9
          ],
          [
            138.48591448845335,
            36.90016108379409,
            1603.2
          ],
          [
            138.48598884204367,
            36.90003605535293,
            1607.2
          ]
        ]
      }
    },
    {
      "type": "Feature",
      "properties": {
        "name": "やまびこフォー",
        "horizontal_dist_map": 1059,
        "slope_dist_map": 1101,
        "elevation_diff_map": 274.0
      },
      "geometry": {
        "type": "LineString",
        "coordinates": [
          [
            138.4940793,
            36.9051069,
            1371.0
          ],
          [
            138.49392986527508,
            36.90497244882703,
            1372.0
          ],
          [
            138.49378043055017,
            36.90483799765406,
            1376.0
          ],
          [
            138.49363099582524,
            36.904703546481095,
            1381.0
          ],
          [
            138.4934815594859,
            36.9045690968826,
            1383.0
          ],
          [
            138.49333212262675,
            36.904434647791035,
            1386.0
          ],
          [
            138.49318268560845,
            36.90430019883612,
            1390.0
          ],
          [
            138.49303324409834,
            36.904165753737246,
            1393.0
          ],
          [
            138.49288380258824,
            36.90403130863837,
            1395.0
          ],
          [
            138.49273436107813,
            36.9038968635395,
            1399.0
          ],
          [
            138.49258491956803,
            36.90376241844063,
            1401.0
          ],
          [
            138.49243548471665,
            36.90362796898903,
            1407.0
          ],
          [
            138.492286053723,
            36.90349351701566,
            1411.0
          ],
          [
            138.49213662272936,
            36.9033590650423,
            1414.0
          ],
          [
            138.49198718945158,
            36.903224615213034,
            1415.0
          ],
          [
            138.49183775576842,
            36.90309016576428,
            1419.0
          ],
          [
            138.49168832208525,
            36.90295571631553,
            1422.0
          ],
          [
            138.49153888293495,
            36.902821270887316,
            1427.0
          ],
          [
            138.49138941866676,
            36.90268684393081,
            1429.0
          ],
          [
            138.4912399543986,
            36.9025524169743,
            1435.0
          ],
          [
            138.49109051864718,
            36.902417969948395,
            1438.0
          ],
          [
            138.49094109199478,
            36.90228351651883,
            1445.0
          ],
          [
            138.49079166534239,
            36.90214906308927,
            1451.0
          ],
          [
            138.49064223337723,
            36.90201461394166,
            1455.0
          ],
          [
            138.49049280018883,
            36.901880165779936,
            1458.0
          ],
          [
            138.49034336700043,
            36.90174571761821,
            1474.0
          ],
          [
            138.4901939411816,
            36.901611264420026,
            1483.0
          ],
          [
            138.49004452414866,
            36.901476805217435,
            1490.0
          ],
          [
            138.48989510711573,
            36.90134234601484,
            1493.0
          ],
          [
            138.4897456612828,
            36.90120790800427,
            1498.0
          ],
          [
            138.4895962147374,
            36.90107347051794,
            1505.0
          ],
          [
            138.48944676819198,
            36.90093903303163,
            1507.0
          ],
          [
            138.48929733019654,
            36.9008045896824,
            1514.0
          ],
          [
            138.48914790477872,
            36.900670137708396,
            1525.0
          ],
          [
            138.48899847936087,
            36.90053568573439,
            1533.0
          ],
          [
            138.48884905394306,
            36.90040123376039,
            1538.0
          ],
          [
            138.48869963109294,
            36.90026678060315,
            1545.7
          ],
          [
            138.4885502087137,
            36.90013232722894,
            1550.8
          ],
          [
            138.4884007863344,
            36.89999787385473,
            1557.8
          ],
          [
            138.48825136395513,
            36.89986342048052,
            1564.4
          ],
          [
            138.48810194157588,
            36.899728967106306,
            1572.5
          ],
          [
            138.4879525041725,
            36.89959452543588,
            1576.2
          ],
          [
            138.48780306659197,
            36.89946008390348,
            1582.6
          ],
          [
            138.48765362901142,
            36.89932564237107,
            1587.0
          ],
          [
            138.48750419143087,
            36.89919120083866,
            1594.7
          ],
          [
            138.48735475385035,
            36.899056759306255,
            1601.7
          ],
          [
            138.48720532278656,
            36.89892231386028,
            1607.0
          ],
          [
            138.4870558954913,
            36.898787866151174,
            1611.0
          ],
          [
            138.48690646819605,
            36.898653418442066,
            1618.0
          ],
          [
            138.48675704090078,
            36.89851897073295,
            1623.0
          ],
          [
            138.4866076136055,
            36.89838452302384,
            1627.0
          ],
          [
            138.48645818631024,
            36.898250075314735,
            1633.0
          ],
          [
            138.486308759015,
            36.89811562760562,
            1640.0
          ],
          [
            138.4861648,
            36.8979861,
            1645.0
          ]
        ]
      }
    },
    {
      "type": "Feature",
      "properties": {
        "name": "スカイライン連絡ペア",
        "horizontal_dist_map": 196,
        "slope_dist_map": 203,
        "elevation_diff_map": 48.3
      },
      "geometry": {
        "type": "LineString",
        "coordinates": [
          [
            138.4811457,
            36.9065955,
            1402.7
          ],
          [
            138.48098764880447,
            36.906467558515686,
            1402.3
          ],
          [
            138.4808295976089,
            36.90633961703137,
            1406.0
          ],
          [
            138.48067154641336,
            36.906211675547056,
            1411.6
          ],
          [
            138.48051346370775,
            36.906083759946725,
            1415.8
          ],
          [
            138.48035538017425,
            36.90595584502649,
            1420.7
          ],
          [
            138.48019729664074,
            36.905827930106256,
            1425.5
          ],
          [
            138.48003921310723,
            36.90570001518602,
            1432.5
          ],
          [
            138.47988113590995,
            36.90557209542482,
            1439.7
          ],
          [
            138.4797230713577,
            36.90544416600261,
            1447.0
          ],
          [
            138.4795927,
            36.9053386,
            1451.0
          ]
        ]
      }
    },
    {
      "type": "Feature",
      "properties": {
        "name": "上ノ平フォー",
        "horizontal_dist_map": 1729,
        "slope_dist_map": 1741,
        "elevation_diff_map": 190.3
      },
      "geometry": {
        "type": "LineString",
        "coordinates": [
          [
            138.47809049843843,
            36.922238801551806,
            1219.9
          ],
          [
            138.478139852541,
            36.922062993796565,
            1221.1
          ],
          [
            138.47818920664358,
            36.921887186041324,
            1222.1
          ],
          [
            138.47823856074612,
            36.92171137828608,
            1223.9
          ],
          [
            138.4782879148487,
            36.92153557053085,
            1227.7
          ],
          [
            138.47833726895126,
            36.92135976277561,
            1231.3
          ],
          [
            138.47838662305384,
            36.92118395502037,
            1232.4
          ],
          [
            138.47843597715638,
            36.92100814726513,
            1234.5
          ],
          [
            138.47848533125895,
            36.920832339509886,
            1237.9
          ],
          [
            138.47853468536152,
            36.920656531754645,
            1240.2
          ],
          [
            138.4785840394641,
            36.920480723999404,
            1242.2
          ],
          [
            138.47863339356664,
            36.92030491624416,
            1244.1
          ],
          [
            138.4786827476692,
            36.92012910848893,
            1244.8
          ],
          [
            138.47873210177178,
            36.91995330073369,
            1243.7
          ],
          [
            138.47878145587435,
            36.91977749297845,
            1243.3
          ],
          [
            138.47883080997693,
            36.919601685223206,
            1243.0
          ],
          [
            138.47888016407947,
            36.919425877467965,
            1245.0
          ],
          [
            138.47892951818204,
            36.919250069712724,
            1248.9
          ],
          [
            138.4789788722846,
            36.91907426195748,
            1253.0
          ],
          [
            138.4790282263872,
            36.91889845420224,
            1256.6
          ],
          [
            138.47907758048973,
            36.91872264644701,
            1259.5
          ],
          [
            138.4791269345923,
            36.91854683869177,
            1262.8
          ],
          [
            138.47917628869487,
            36.91837103093653,
            1264.7
          ],
          [
            138.47922564279745,
            36.918195223181286,
            1266.9
          ],
          [
            138.4792749969,
            36.918019415426045,
            1271.1
          ],
          [
            138.47932435100256,
            36.917843607670804,
            1275.0
          ],
          [
            138.47937370510513,
            36.91766779991556,
            1277.7
          ],
          [
            138.4794230592077,
            36.91749199216032,
            1280.2
          ],
          [
            138.47947241331025,
            36.91731618440509,
            1283.2
          ],
          [
            138.47952176741282,
            36.91714037664985,
            1285.7
          ],
          [
            138.4795711215154,
            36.916964568894606,
            1288.5
          ],
          [
            138.47962047561796,
            36.916788761139365,
            1291.6
          ],
          [
            138.47966982972054,
            36.916612953384124,
            1294.5
          ],
          [
            138.47971918382308,
            36.91643714562888,
            1296.8
          ],
          [
            138.47976853792565,
            36.91626133787364,
            1299.3
          ],
          [
            138.47981789202822,
            36.9160855301184,
            1301.7
          ],
          [
            138.4798672461308,
            36.91590972236317,
            1304.6
          ],
          [
            138.47991660023334,
            36.91573391460793,
            1307.0
          ],
          [
            138.4799659543359,
            36.915558106852686,
            1309.8
          ],
          [
            138.48001530843848,
            36.915382299097445,
            1312.1
          ],
          [
            138.48006466254105,
            36.915206491342204,
            1314.7
          ],
          [
            138.4801140166436,
            36.91503068358696,
            1317.0
          ],
          [
            138.48016337074617,
            36.91485487583172,
            1319.4
          ],
          [
            138.48021272484874,
            36.91467906807648,
            1321.3
          ],
          [
            138.4802620789513,
            36.91450326032125,
            1323.4
          ],
          [
            138.48031143305388,
            36.914327452566006,
            1326.1
          ],
          [
            138.48036078715643,
            36.914151644810765,
            1328.8
          ],
          [
            138.480410141259,
            36.913975837055524,
            1331.1
          ],
          [
            138.48045949536157,
            36.91380002930028,
            1333.7
          ],
          [
            138.48050884946414,
            36.91362422154504,
            1335.8
          ],
          [
            138.4805582035667,
            36.9134484137898,
            1337.5
          ],
          [
            138.48060755766926,
            36.91327260603456,
            1338.6
          ],
          [
            138.48065691177183,
            36.91309679827933,
            1339.5
          ],
          [
            138.4807062658744,
            36.912920990524086,
            1341.4
          ],
          [
            138.48075561997695,
            36.912745182768845,
            1343.6
          ],
          [
            138.48080497407952,
            36.912569375013604,
            1346.2
          ],
          [
            138.4808543281821,
            36.91239356725836,
            1348.3
          ],
          [
            138.48090368228466,
            36.91221775950312,
            1350.1
          ],
          [
            138.4809530363872,
            36.91204195174788,
            1352.1
          ],
          [
            138.48100239048978,
            36.91186614399264,
            1353.9
          ],
          [
            138.48105174459235,
            36.911690336237406,
            1355.8
          ],
          [
            138.48110109869492,
            36.911514528482165,
            1357.7
          ],
          [
            138.4811504527975,
            36.911338720726924,
            1360.2
          ],
          [
            138.48119980690004,
            36.91116291297168,
            1362.4
          ],
          [
            138.4812491610026,
            36.91098710521644,
            1364.6
          ],
          [
            138.48129851510518,
            36.9108112974612,
            1366.3
          ],
          [
            138.48134786920775,
            36.91063548970596,
            1368.4
          ],
          [
            138.4813972233103,
            36.91045968195072,
            1370.4
          ],
          [
            138.48144657741287,
            36.910283874195486,
            1371.0
          ],
          [
            138.48149593151544,
            36.910108066440245,
            1372.2
          ],
          [
            138.481545285618,
            36.909932258685004,
            1374.2
          ],
          [
            138.48159463972056,
            36.90975645092976,
            1375.6
          ],
          [
            138.48164399382313,
            36.90958064317452,
            1376.9
          ],
          [
            138.4816933479257,
            36.90940483541928,
            1378.4
          ],
          [
            138.48174270202827,
            36.90922902766404,
            1380.3
          ],
          [
            138.48179205613084,
            36.9090532199088,
            1382.9
          ],
          [
            138.4818414102334,
            36.908877412153565,
            1384.6
          ],
          [
            138.48189076433596,
            36.908701604398324,
            1386.6
          ],
          [
            138.48194011843853,
            36.90852579664308,
            1388.7
          ],
          [
            138.4819894725411,
            36.90834998888784,
            1391.0
          ],
          [
            138.48203882664365,
            36.9081741811326,
            1394.0
          ],
          [
            138.48208818074622,
            36.90799837337736,
            1396.3
          ],
          [
            138.4821375348488,
            36.90782256562212,
            1398.8
          ],
          [
            138.48218688895136,
            36.90764675786688,
            1401.8
          ],
          [
            138.4822362430539,
            36.907470950111644,
            1404.5
          ],
          [
            138.48228559715648,
            36.9072951423564,
            1406.7
          ],
          [
            138.48233495125905,
            36.90711933460116,
            1408.8
          ],
          [
            138.4823575671114,
            36.907038773066716,
            1410.2
          ]
        ]
      }
    },
    {
      "type": "Feature",
      "properties": {
        "name": "長坂ゴンドラ連絡ペア",
        "horizontal_dist_map": 397,
        "slope_dist_map": 428,
        "elevation_diff_map": 146.0
      },
      "geometry": {
        "type": "LineString",
        "coordinates": [
          [
            138.4435894,
            36.915339,
            562.9
          ],
          [
            138.44381067847178,
            36.91536914761722,
            564.4
          ],
          [
            138.4440319632672,
            36.91539926585466,
            565.2
          ],
          [
            138.44425324955375,
            36.91542937716436,
            569.2
          ],
          [
            138.44447453254995,
            36.91545950470744,
            570.9
          ],
          [
            138.44469581344848,
            36.915489642599475,
            572.7
          ],
          [
            138.44491709434703,
            36.91551978049151,
            577.3
          ],
          [
            138.44513837162967,
            36.91554993617415,
            584.5
          ],
          [
            138.4453596469162,
            36.91558010167772,
            594.7
          ],
          [
            138.44558092619903,
            36.9156102488872,
            604.9
          ],
          [
            138.44580220981825,
            36.91564037624578,
            617.1
          ],
          [
            138.44602349343745,
            36.915670503604375,
            627.9
          ],
          [
            138.44624477705668,
            36.91570063096296,
            640.1
          ],
          [
            138.44646606218282,
            36.9157307516451,
            652.6
          ],
          [
            138.44668734976423,
            36.91576086144931,
            663.7
          ],
          [
            138.44690863405106,
            36.91579098772725,
            671.4
          ],
          [
            138.44712991598698,
            36.915821125760566,
            679.6
          ],
          [
            138.4473511979229,
            36.91585126379389,
            687.6
          ],
          [
            138.44757247985882,
            36.91588140182721,
            696.0
          ],
          [
            138.4477937617947,
            36.915911539860524,
            704.4
          ],
          [
            138.4479829,
            36.9159373,
            708.9
          ]
        ]
      }
    },
    {
      "type": "Feature",
      "properties": {
        "name": "日陰ゴンドラ",
        "horizontal_dist_map": 2141,
        "slope_dist_map": 2281,
        "elevation_diff_map": 567.9
      },
      "geometry": {
        "type": "LineString",
        "coordinates": [
          [
            138.4533811,
            36.9258445,
            652.8
          ],
          [
            138.45359862613188,
            36.92580001698352,
            654.6
          ],
          [
            138.45381615226376,
            36.925755533967056,
            656.1
          ],
          [
            138.45403367839563,
            36.92571105095058,
            656.6
          ],
          [
            138.4542512045275,
            36.925666567934115,
            662.3
          ],
          [
            138.4544687306594,
            36.92562208491764,
            664.5
          ],
          [
            138.4546862567913,
            36.925577601901175,
            668.2
          ],
          [
            138.45490378734138,
            36.92553313402924,
            674.4
          ],
          [
            138.45512135941158,
            36.92548879878968,
            679.5
          ],
          [
            138.4553390987742,
            36.925444996757214,
            683.1
          ],
          [
            138.45555683813683,
            36.92540119472474,
            686.6
          ],
          [
            138.45577457749945,
            36.92535739269228,
            690.2
          ],
          [
            138.45599231686208,
            36.925313590659805,
            693.3
          ],
          [
            138.4562100562247,
            36.92526978862734,
            698.2
          ],
          [
            138.45642779558733,
            36.92522598659487,
            701.3
          ],
          [
            138.45664553494996,
            36.9251821845624,
            704.4
          ],
          [
            138.4568632751253,
            36.9251383874003,
            710.1
          ],
          [
            138.45708101550744,
            36.925094591477446,
            713.3
          ],
          [
            138.45729875588955,
            36.92505079555458,
            715.5
          ],
          [
            138.4575164962717,
            36.92500699963173,
            719.7
          ],
          [
            138.45773423665383,
            36.92496320370886,
            724.7
          ],
          [
            138.45795197703595,
            36.92491940778601,
            728.4
          ],
          [
            138.4581697174181,
            36.92487561186314,
            735.0
          ],
          [
            138.45838738852993,
            36.92483159654251,
            740.0
          ],
          [
            138.45860505506943,
            36.92478756673994,
            743.4
          ],
          [
            138.45882272160893,
            36.92474353693736,
            748.7
          ],
          [
            138.45904082039533,
            36.924700980383996,
            751.4
          ],
          [
            138.45926007385728,
            36.92466235936993,
            757.3
          ],
          [
            138.4594793273192,
            36.924623738355876,
            764.2
          ],
          [
            138.45969745980184,
            36.92458127547922,
            771.6
          ],
          [
            138.4599152741171,
            36.92453772216733,
            780.3
          ],
          [
            138.46013308843234,
            36.924494168855446,
            785.0
          ],
          [
            138.4603509027476,
            36.92445061554356,
            794.5
          ],
          [
            138.46056871706284,
            36.92440706223168,
            801.1
          ],
          [
            138.46078653137812,
            36.92436350891979,
            808.8
          ],
          [
            138.46100415399061,
            36.924319348088844,
            814.1
          ],
          [
            138.4612215825575,
            36.92427457231401,
            819.8
          ],
          [
            138.46143901112438,
            36.92422979653918,
            830.0
          ],
          [
            138.46165643969127,
            36.924185020764355,
            834.8
          ],
          [
            138.46187386825812,
            36.92414024498952,
            842.3
          ],
          [
            138.462091296825,
            36.92409546921469,
            850.7
          ],
          [
            138.4623087253919,
            36.92405069343987,
            856.7
          ],
          [
            138.46252615395878,
            36.924005917665035,
            861.1
          ],
          [
            138.46274383025224,
            36.9239619293605,
            868.3
          ],
          [
            138.46296157164315,
            36.923918147987045,
            881.1
          ],
          [
            138.4631793130341,
            36.92387436661358,
            887.0
          ],
          [
            138.46339705442503,
            36.92383058524012,
            898.1
          ],
          [
            138.46361479581597,
            36.923786803866655,
            910.1
          ],
          [
            138.46383253720688,
            36.92374302249319,
            914.5
          ],
          [
            138.46405027859782,
            36.92369924111973,
            926.1
          ],
          [
            138.46426801998876,
            36.92365545974627,
            937.5
          ],
          [
            138.4644857613797,
            36.92361167837281,
            951.7
          ],
          [
            138.46470350277062,
            36.923567896999344,
            956.9
          ],
          [
            138.46492390883085,
            36.923533899528714,
            964.3
          ],
          [
            138.4651445318986,
            36.923500698847505,
            977.5
          ],
          [
            138.46536515496632,
            36.9234674981663,
            994.1
          ],
          [
            138.46558577803407,
            36.9234342974851,
            1010.1
          ],
          [
            138.46580565291987,
            36.92339804539533,
            1020.2
          ],
          [
            138.46602549737753,
            36.923361669206486,
            1027.8
          ],
          [
            138.46624534183516,
            36.92332529301765,
            1042.5
          ],
          [
            138.46646518629282,
            36.9232889168288,
            1057.1
          ],
          [
            138.46668503075048,
            36.92325254063996,
            1074.4
          ],
          [
            138.46690501953503,
            36.92321673492953,
            1074.9
          ],
          [
            138.467125079729,
            36.923181211477996,
            1080.7
          ],
          [
            138.46734513992294,
            36.923145688026466,
            1093.8
          ],
          [
            138.46756520011692,
            36.92311016457493,
            1107.3
          ],
          [
            138.46778512029752,
            36.92307408884512,
            1108.6
          ],
          [
            138.46800500131428,
            36.923037858634764,
            1115.9
          ],
          [
            138.46822488233101,
            36.923001628424416,
            1122.5
          ],
          [
            138.46844450974712,
            36.922964426272316,
            1127.1
          ],
          [
            138.46866402905684,
            36.9229268097951,
            1129.9
          ],
          [
            138.46888330749607,
            36.92288832388022,
            1131.9
          ],
          [
            138.46910199605833,
            36.92284770876588,
            1131.9
          ],
          [
            138.46932068462058,
            36.922807093651535,
            1128.9
          ],
          [
            138.46953912964625,
            36.92276565262596,
            1126.1
          ],
          [
            138.46975730891288,
            36.9227233103256,
            1122.5
          ],
          [
            138.4699754881795,
            36.92268096802525,
            1113.5
          ],
          [
            138.47019366744613,
            36.922638625724886,
            1101.3
          ],
          [
            138.47041184671275,
            36.922596283424525,
            1090.3
          ],
          [
            138.47063002597937,
            36.922553941124164,
            1103.3
          ],
          [
            138.47084795870867,
            36.922510793822156,
            1111.7
          ],
          [
            138.47106577552628,
            36.92246726804161,
            1108.4
          ],
          [
            138.47128359234392,
            36.92242374226105,
            1101.7
          ],
          [
            138.47150140916153,
            36.9223802164805,
            1098.1
          ],
          [
            138.47171922597917,
            36.92233669069995,
            1094.3
          ],
          [
            138.47193704279678,
            36.922293164919395,
            1091.3
          ],
          [
            138.47215485961442,
            36.92224963913884,
            1099.3
          ],
          [
            138.47237267643203,
            36.92220611335829,
            1103.3
          ],
          [
            138.47259072476942,
            36.92216338092689,
            1109.3
          ],
          [
            138.4728099387707,
            36.922124642877826,
            1111.9
          ],
          [
            138.47302915277197,
            36.922085904828755,
            1116.5
          ],
          [
            138.47324836677322,
            36.92204716677969,
            1124.9
          ],
          [
            138.4734675807745,
            36.92200842873062,
            1136.6
          ],
          [
            138.47368679477577,
            36.92196969068156,
            1146.5
          ],
          [
            138.47390528972733,
            36.92192843192076,
            1152.7
          ],
          [
            138.47412366844276,
            36.921886765680895,
            1158.4
          ],
          [
            138.47434204715822,
            36.921845099441036,
            1164.3
          ],
          [
            138.47456042587365,
            36.92180343320117,
            1171.9
          ],
          [
            138.4747788045891,
            36.9217617669613,
            1176.2
          ],
          [
            138.47499718330454,
            36.921720100721444,
            1182.2
          ],
          [
            138.4752160841471,
            36.92168027620851,
            1187.7
          ],
          [
            138.47543539393854,
            36.921641894202914,
            1193.9
          ],
          [
            138.47565470373002,
            36.921603512197315,
            1198.9
          ],
          [
            138.47587401352146,
            36.921565130191716,
            1205.9
          ],
          [
            138.4760933233129,
            36.92152674818612,
            1209.9
          ],
          [
            138.47631292462145,
            36.92148953913454,
            1213.7
          ],
          [
            138.47653378117684,
            36.92145738071913,
            1217.7
          ],
          [
            138.47675463773223,
            36.921425222303725,
            1220.7
          ],
          [
            138.4767699,
            36.921423,
            1220.7
          ]
        ]
      }
    },
    {
      "type": "Feature",
      "properties": {
        "name": "日陰フォー",
        "horizontal_dist_map": 516,
        "slope_dist_map": 531,
        "elevation_diff_map": 121.5
      },
      "geometry": {
        "type": "LineString",
        "coordinates": [
          [
            138.4541965,
            36.9251969,
            664.2
          ],
          [
            138.45441679554028,
            36.92516230627577,
            664.7
          ],
          [
            138.4546370910806,
            36.925127712551536,
            668.9
          ],
          [
            138.45485738792263,
            36.925093124544595,
            674.7
          ],
          [
            138.45507768731798,
            36.92505854775207,
            678.8
          ],
          [
            138.45529798671336,
            36.92502397095956,
            683.8
          ],
          [
            138.4555182903381,
            36.924989412253545,
            687.2
          ],
          [
            138.45573859683034,
            36.92495486581036,
            691.1
          ],
          [
            138.4559589033226,
            36.92492031936718,
            695.2
          ],
          [
            138.4561792050832,
            36.92488575417232,
            700.0
          ],
          [
            138.45639950230208,
            36.924851170978656,
            704.0
          ],
          [
            138.45661979952098,
            36.92481658778498,
            709.7
          ],
          [
            138.45684009673988,
            36.924782004591314,
            715.5
          ],
          [
            138.45706039385556,
            36.92474742236596,
            719.6
          ],
          [
            138.45728069097063,
            36.92471284014638,
            723.6
          ],
          [
            138.45750098808568,
            36.92467825792679,
            729.0
          ],
          [
            138.4577212876625,
            36.92464368670068,
            734.3
          ],
          [
            138.45794158855716,
            36.9246091213597,
            739.3
          ],
          [
            138.45816188945182,
            36.924574556018726,
            745.3
          ],
          [
            138.45838218880638,
            36.924539984896676,
            750.1
          ],
          [
            138.45860248541118,
            36.9245054034529,
            754.2
          ],
          [
            138.45882278201597,
            36.92447082200912,
            759.4
          ],
          [
            138.45904307862077,
            36.92443624056534,
            765.3
          ],
          [
            138.45926337652554,
            36.92440166472426,
            772.2
          ],
          [
            138.45948367901374,
            36.92436710863742,
            777.2
          ],
          [
            138.4597036084778,
            36.92433108046514,
            780.4
          ],
          [
            138.4598802,
            36.9243011,
            785.7
          ]
        ]
      }
    },
    {
      "type": "Feature",
      "properties": {
        "name": "日陰トリプル",
        "horizontal_dist_map": 179,
        "slope_dist_map": 198,
        "elevation_diff_map": 77.6
      },
      "geometry": {
        "type": "LineString",
        "coordinates": [
          [
            138.4536896,
            36.9244196,
            663.3
          ],
          [
            138.4537272350697,
            36.92424193236293,
            663.2
          ],
          [
            138.4537648701394,
            36.92406426472586,
            670.0
          ],
          [
            138.4538025052091,
            36.92388659708879,
            683.5
          ],
          [
            138.45384012703195,
            36.92370892765532,
            697.4
          ],
          [
            138.45387774258168,
            36.92353125737115,
            709.4
          ],
          [
            138.45391536914346,
            36.923353588598566,
            717.6
          ],
          [
            138.45395300135678,
            36.923175920601736,
            726.0
          ],
          [
            138.45399064307745,
            36.922998253913335,
            735.0
          ],
          [
            138.4540275,
            36.9228243,
            740.9
          ]
        ]
      }
    },
    {
      "type": "Feature",
      "properties": {
        "name": "パラダイスフォー",
        "horizontal_dist_map": 905,
        "slope_dist_map": 922,
        "elevation_diff_map": 147.2
      },
      "geometry": {
        "type": "LineString",
        "coordinates": [
          [
            138.4679267,
            36.9254397,
            1077.5
          ],
          [
            138.4681271707058,
            36.92535862153873,
            1076.9
          ],
          [
            138.4683276414116,
            36.92527754307745,
            1076.4
          ],
          [
            138.4685281121174,
            36.92519646461618,
            1074.7
          ],
          [
            138.46872858282322,
            36.9251153861549,
            1071.8
          ],
          [
            138.4689290533271,
            36.92503430738722,
            1072.3
          ],
          [
            138.46912950753241,
            36.924953203890674,
            1076.6
          ],
          [
            138.46932996173777,
            36.924872100394126,
            1080.0
          ],
          [
            138.4695304205932,
            36.924791004837154,
            1083.7
          ],
          [
            138.46973088342816,
            36.92470991607474,
            1089.1
          ],
          [
            138.46993134626308,
            36.92462882731232,
            1091.9
          ],
          [
            138.47013181108173,
            36.92454774191365,
            1094.0
          ],
          [
            138.4703322852755,
            36.9244666724121,
            1093.3
          ],
          [
            138.47053275946925,
            36.92438560291056,
            1095.2
          ],
          [
            138.470733233663,
            36.924304533409014,
            1098.3
          ],
          [
            138.47093369611588,
            36.92422344582521,
            1104.0
          ],
          [
            138.47113415288842,
            36.92414234949307,
            1112.2
          ],
          [
            138.47133461391908,
            36.9240612604259,
            1115.5
          ],
          [
            138.4715350773648,
            36.923980175479244,
            1121.7
          ],
          [
            138.47173554103648,
            36.92389909116056,
            1126.1
          ],
          [
            138.47193600553464,
            36.9238180091387,
            1127.5
          ],
          [
            138.47213647003278,
            36.92373692711684,
            1131.3
          ],
          [
            138.47233693453094,
            36.923655845094984,
            1136.3
          ],
          [
            138.4725373990291,
            36.92357476307313,
            1140.4
          ],
          [
            138.47273786298302,
            36.923493680753154,
            1146.3
          ],
          [
            138.47293832519708,
            36.9234125974801,
            1150.3
          ],
          [
            138.4731387874111,
            36.92333151420705,
            1153.4
          ],
          [
            138.47333924962516,
            36.923250430934,
            1156.5
          ],
          [
            138.47353971183918,
            36.923169347660945,
            1158.2
          ],
          [
            138.4737401740532,
            36.92308826438789,
            1159.2
          ],
          [
            138.47394063626726,
            36.92300718111484,
            1161.7
          ],
          [
            138.47414109848128,
            36.92292609784179,
            1166.3
          ],
          [
            138.47434156069534,
            36.92284501456873,
            1171.5
          ],
          [
            138.4745420228803,
            36.92276393134028,
            1175.7
          ],
          [
            138.4747424844347,
            36.92268284908058,
            1180.3
          ],
          [
            138.47494294598908,
            36.92260176682088,
            1184.0
          ],
          [
            138.47514340754347,
            36.922520684561185,
            1187.8
          ],
          [
            138.47534385558757,
            36.9224395821158,
            1191.0
          ],
          [
            138.4755443035166,
            36.922358479498534,
            1196.2
          ],
          [
            138.47574475144566,
            36.922277376881276,
            1200.8
          ],
          [
            138.4759451993747,
            36.92219627426401,
            1205.4
          ],
          [
            138.47614566300257,
            36.9221151971637,
            1209.6
          ],
          [
            138.47634764797363,
            36.92203659286641,
            1212.4
          ],
          [
            138.4765496329447,
            36.92195798856912,
            1216.5
          ],
          [
            138.47675161791577,
            36.92187938427183,
            1220.4
          ],
          [
            138.47695360288682,
            36.92180077997454,
            1223.0
          ],
          [
            138.477007,
            36.92178,
            1224.7
          ]
        ]
      }
    },
    {
      "type": "Feature",
      "properties": {
        "name": "カンダハーペア",
        "horizontal_dist_map": 818,
        "slope_dist_map": 877,
        "elevation_diff_map": 303.0
      },
      "geometry": {
        "type": "LineString",
        "coordinates": [
          [
            138.4560351,
            36.9280229,
            684.2
          ],
          [
            138.45603734257162,
            36.928203109669596,
            688.1
          ],
          [
            138.45603958514323,
            36.92838331933919,
            696.7
          ],
          [
            138.45604181050618,
            36.92856352913728,
            703.4
          ],
          [
            138.4560440260474,
            36.9287437390087,
            709.4
          ],
          [
            138.45604624158864,
            36.928923948880126,
            715.9
          ],
          [
            138.4560484800369,
            36.929104158550786,
            721.2
          ],
          [
            138.4560507191055,
            36.929284368216,
            723.0
          ],
          [
            138.45605295817404,
            36.92946457788123,
            727.6
          ],
          [
            138.4560551972426,
            36.929644787546444,
            734.2
          ],
          [
            138.45605740980534,
            36.92982499740809,
            741.1
          ],
          [
            138.4560596126043,
            36.93000520734209,
            751.1
          ],
          [
            138.45606181540325,
            36.93018541727609,
            757.4
          ],
          [
            138.45606404497792,
            36.9303656269802,
            762.9
          ],
          [
            138.45606627852518,
            36.9305458366502,
            767.2
          ],
          [
            138.45606851207245,
            36.93072604632019,
            774.8
          ],
          [
            138.4560707456197,
            36.93090625599019,
            785.7
          ],
          [
            138.45607298069305,
            36.931086465638685,
            793.1
          ],
          [
            138.45607521861493,
            36.931266675247066,
            802.0
          ],
          [
            138.45607745653683,
            36.931446884855454,
            810.1
          ],
          [
            138.4560796944587,
            36.931627094463835,
            819.1
          ],
          [
            138.4560819323806,
            36.931807304072215,
            828.2
          ],
          [
            138.45608416885165,
            36.93198751369021,
            839.9
          ],
          [
            138.45608638770813,
            36.932167723424925,
            849.2
          ],
          [
            138.4560886065646,
            36.93234793315963,
            854.9
          ],
          [
            138.4560908254211,
            36.93252814289434,
            862.1
          ],
          [
            138.45609304427754,
            36.93270835262905,
            873.1
          ],
          [
            138.4560952937332,
            36.932888562101255,
            882.7
          ],
          [
            138.4560975454984,
            36.93306877155365,
            893.5
          ],
          [
            138.45609979726362,
            36.933248981006045,
            903.6
          ],
          [
            138.456102023937,
            36.93342919063493,
            910.9
          ],
          [
            138.45610425057987,
            36.93360940026404,
            919.6
          ],
          [
            138.45610647722273,
            36.93378960989315,
            928.3
          ],
          [
            138.4561087038656,
            36.933969819522254,
            937.5
          ],
          [
            138.45611093050846,
            36.93415002915136,
            946.7
          ],
          [
            138.45611315715132,
            36.93433023878047,
            952.7
          ],
          [
            138.4561153715659,
            36.93451044848088,
            961.8
          ],
          [
            138.45611758514218,
            36.93469065818618,
            969.7
          ],
          [
            138.45611979871848,
            36.93487086789147,
            976.8
          ],
          [
            138.45612201229477,
            36.93505107759677,
            981.4
          ],
          [
            138.45612426229033,
            36.935231286997244,
            985.1
          ],
          [
            138.4561263,
            36.9353941,
            987.2
          ]
        ]
      }
    },
    {
      "type": "Feature",
      "properties": {
        "name": "ユートピアペア",
        "horizontal_dist_map": 388,
        "slope_dist_map": 404,
        "elevation_diff_map": 91.5
      },
      "geometry": {
        "type": "LineString",
        "coordinates": [
          [
            138.4557883,
            36.9270324,
            675.8
          ],
          [
            138.4559774355372,
            36.927129464528896,
            676.3
          ],
          [
            138.4561665710744,
            36.92722652905779,
            677.6
          ],
          [
            138.45635571336365,
            36.927323585788834,
            679.2
          ],
          [
            138.4565448564259,
            36.92742064162714,
            681.0
          ],
          [
            138.45673399948816,
            36.92751769746544,
            683.7
          ],
          [
            138.45692319027685,
            36.927614693901965,
            687.6
          ],
          [
            138.45711233863912,
            36.927711743919424,
            693.0
          ],
          [
            138.45730146593812,
            36.92780882088851,
            702.3
          ],
          [
            138.45749059323714,
            36.9279058978576,
            711.9
          ],
          [
            138.45767974406746,
            36.92800294588384,
            719.4
          ],
          [
            138.45786889933527,
            36.92809998845207,
            729.4
          ],
          [
            138.4580580539627,
            36.928197032139614,
            737.8
          ],
          [
            138.4582472060968,
            36.92829408018518,
            748.9
          ],
          [
            138.45843635823087,
            36.92839112823075,
            756.5
          ],
          [
            138.45862551036498,
            36.92848817627632,
            761.0
          ],
          [
            138.45881466249907,
            36.928585224321886,
            761.6
          ],
          [
            138.45900381463315,
            36.92868227236745,
            762.6
          ],
          [
            138.45919296676723,
            36.92877932041302,
            765.0
          ],
          [
            138.45938211890135,
            36.92887636845858,
            766.6
          ],
          [
            138.4594656,
            36.9289192,
            767.3
          ]
        ]
      }
    },
    {
      "type": "Feature",
      "properties": {
        "name": "チャレンジペア",
        "horizontal_dist_map": 1141,
        "slope_dist_map": 1219,
        "elevation_diff_map": 371.2
      },
      "geometry": {
        "type": "LineString",
        "coordinates": [
          [
            138.4606619,
            36.9287412,
            765.9
          ],
          [
            138.46087224388418,
            36.92867825725852,
            770.8
          ],
          [
            138.4610825877684,
            36.928615314517046,
            779.5
          ],
          [
            138.46129291466437,
            36.928552336260836,
            785.9
          ],
          [
            138.46150323925724,
            36.928489353189825,
            785.3
          ],
          [
            138.46171356385008,
            36.92842637011881,
            799.7
          ],
          [
            138.46192388844293,
            36.928363387047796,
            808.3
          ],
          [
            138.46213422085359,
            36.928300421496374,
            818.1
          ],
          [
            138.46234456088374,
            36.9282374730202,
            826.5
          ],
          [
            138.4625549009139,
            36.92817452454402,
            834.4
          ],
          [
            138.46276523359705,
            36.92811156097779,
            841.0
          ],
          [
            138.46297556085997,
            36.92804858627872,
            849.6
          ],
          [
            138.46318588812287,
            36.92798561157965,
            862.2
          ],
          [
            138.46339621538576,
            36.92792263688059,
            871.6
          ],
          [
            138.4636065516305,
            36.92785968239444,
            884.5
          ],
          [
            138.46381689194502,
            36.927796737067005,
            897.6
          ],
          [
            138.46402723225955,
            36.92773379173957,
            905.9
          ],
          [
            138.46423756290147,
            36.927670826394326,
            918.1
          ],
          [
            138.46444789038566,
            36.927607854514044,
            926.8
          ],
          [
            138.46465821786984,
            36.92754488263377,
            935.9
          ],
          [
            138.46486855021655,
            36.92748192262009,
            940.9
          ],
          [
            138.46507888307372,
            36.92741896385214,
            947.4
          ],
          [
            138.46528921593088,
            36.9273560050842,
            954.6
          ],
          [
            138.46549954878805,
            36.92729304631625,
            963.6
          ],
          [
            138.4657098816452,
            36.92723008754831,
            972.8
          ],
          [
            138.46592020526893,
            36.92716710958523,
            983.8
          ],
          [
            138.46613051749063,
            36.927104107918815,
            990.0
          ],
          [
            138.4663408297123,
            36.9270411062524,
            995.6
          ],
          [
            138.46655115495227,
            36.9269781335205,
            1001.7
          ],
          [
            138.46676148500558,
            36.926915171486776,
            1008.0
          ],
          [
            138.4669718150589,
            36.92685220945305,
            1018.9
          ],
          [
            138.46718214511222,
            36.926789247419336,
            1033.2
          ],
          [
            138.46739247835276,
            36.926726293041256,
            1043.8
          ],
          [
            138.46760281286404,
            36.9266633417155,
            1053.8
          ],
          [
            138.4678131504083,
            36.926600397415704,
            1061.9
          ],
          [
            138.46802348583824,
            36.92653744896603,
            1066.8
          ],
          [
            138.46823381278392,
            36.92647448295999,
            1068.4
          ],
          [
            138.4684441397296,
            36.926411516953955,
            1070.4
          ],
          [
            138.46865446667528,
            36.926348550947914,
            1080.3
          ],
          [
            138.46886479090946,
            36.9262855796893,
            1085.8
          ],
          [
            138.4690751129512,
            36.926222604183515,
            1089.7
          ],
          [
            138.4692854342195,
            36.92615962746486,
            1087.5
          ],
          [
            138.46949575490714,
            36.9260966498357,
            1088.3
          ],
          [
            138.4697060770132,
            36.92603367556356,
            1090.4
          ],
          [
            138.46991640252216,
            36.92597070934521,
            1092.0
          ],
          [
            138.47012672803112,
            36.925907743126864,
            1090.8
          ],
          [
            138.47033705378175,
            36.92584477745595,
            1091.4
          ],
          [
            138.47054738998406,
            36.92578183545945,
            1095.5
          ],
          [
            138.47075772618638,
            36.92571889346295,
            1104.6
          ],
          [
            138.47096806238872,
            36.92565595146645,
            1112.1
          ],
          [
            138.47117838168808,
            36.925592973932986,
            1118.6
          ],
          [
            138.47138869857844,
            36.925529991334805,
            1122.7
          ],
          [
            138.47159902108868,
            36.925467021929585,
            1124.5
          ],
          [
            138.47180934555985,
            36.925404057127594,
            1124.0
          ],
          [
            138.472019670031,
            36.92534109232561,
            1128.1
          ],
          [
            138.47222999450213,
            36.925278127523626,
            1129.6
          ],
          [
            138.47244031897327,
            36.92521516272164,
            1133.3
          ],
          [
            138.47265064344444,
            36.92515219791966,
            1137.1
          ],
          [
            138.472665,
            36.9251479,
            1137.1
          ]
        ]
      }
    },
    {
      "type": "Feature",
      "properties": {
        "name": "長坂トリプル",
        "horizontal_dist_map": 240,
        "slope_dist_map": 276,
        "elevation_diff_map": 126.5
      },
      "geometry": {
        "type": "LineString",
        "coordinates": [
          [
            138.4525104,
            36.9207622,
            620.3
          ],
          [
            138.45266836121527,
            36.92089023662279,
            620.8
          ],
          [
            138.45282632243058,
            36.92101827324557,
            624.8
          ],
          [
            138.45298080196906,
            36.92114898743925,
            638.2
          ],
          [
            138.4531333008285,
            36.921281224866924,
            649.7
          ],
          [
            138.4532843909775,
            36.92141449216293,
            662.0
          ],
          [
            138.45343407427188,
            36.92154878797053,
            672.5
          ],
          [
            138.45358375756626,
            36.92168308377812,
            686.4
          ],
          [
            138.45373344086062,
            36.92181737958572,
            697.3
          ],
          [
            138.45387956091744,
            36.92195417474112,
            709.9
          ],
          [
            138.4540251673108,
            36.922091330193496,
            721.9
          ],
          [
            138.4541707737041,
            36.922228485645874,
            738.7
          ],
          [
            138.45431638009742,
            36.92236564109825,
            746.8
          ],
          [
            138.4543226,
            36.9223715,
            746.8
          ]
        ]
      }
    },
    {
      "type": "Feature",
      "properties": {
        "name": "長坂フォー",
        "horizontal_dist_map": 634,
        "slope_dist_map": 646,
        "elevation_diff_map": 117.3
      },
      "geometry": {
        "type": "LineString",
        "coordinates": [
          [
            138.4521861,
            36.9197059,
            625.9
          ],
          [
            138.4523836126722,
            36.91962029110295,
            626.3
          ],
          [
            138.45258112536897,
            36.919534682247864,
            630.4
          ],
          [
            138.45277864144379,
            36.919449079164565,
            633.2
          ],
          [
            138.45297615751858,
            36.919363476081266,
            636.9
          ],
          [
            138.45317366747537,
            36.919277864243426,
            640.0
          ],
          [
            138.45337116824874,
            36.91919223926467,
            642.7
          ],
          [
            138.4535686690221,
            36.91910661428591,
            647.9
          ],
          [
            138.45376619530887,
            36.91902102776894,
            650.5
          ],
          [
            138.45396372644103,
            36.9189354487328,
            653.1
          ],
          [
            138.45416123954587,
            36.918849843267154,
            657.8
          ],
          [
            138.4543587417883,
            36.91876422229038,
            660.8
          ],
          [
            138.45455624083854,
            36.918678596755306,
            662.9
          ],
          [
            138.4547537398888,
            36.918592971220235,
            668.0
          ],
          [
            138.45495124135977,
            36.91850734937597,
            671.7
          ],
          [
            138.45514876552133,
            36.91842176212727,
            675.1
          ],
          [
            138.4553462890433,
            36.918336173975,
            680.4
          ],
          [
            138.45554380292484,
            36.91825057220408,
            685.7
          ],
          [
            138.45574131680638,
            36.91816497043315,
            691.1
          ],
          [
            138.45593882798786,
            36.91807936500939,
            697.5
          ],
          [
            138.4561363347427,
            36.91799375359689,
            700.6
          ],
          [
            138.45633384149752,
            36.91790814218438,
            704.6
          ],
          [
            138.45653134986964,
            36.9178225333969,
            709.4
          ],
          [
            138.45672886478383,
            36.91773693522793,
            711.8
          ],
          [
            138.45692637969802,
            36.917651337058956,
            717.2
          ],
          [
            138.4571238946122,
            36.917565738889984,
            720.4
          ],
          [
            138.4573213916135,
            36.91748011463202,
            720.7
          ],
          [
            138.45751887741014,
            36.91739447405516,
            724.2
          ],
          [
            138.45771639354476,
            36.91730887909097,
            727.5
          ],
          [
            138.45791392133765,
            36.917223301654815,
            732.2
          ],
          [
            138.45811143244885,
            36.9171376997627,
            735.2
          ],
          [
            138.4583089263935,
            36.9170520727038,
            739.9
          ],
          [
            138.4584544,
            36.916989,
            743.2
          ]
        ]
      }
    },
    {
      "type": "Feature",
      "properties": {
        "name": "長坂ゴンドラ",
        "horizontal_dist_map": 3025,
        "slope_dist_map": 3257,
        "elevation_diff_map": 791.9
      },
      "geometry": {
        "type": "LineString",
        "coordinates": [
          [
            138.4520284,
            36.92014,
            616.1
          ],
          [
            138.45222362042645,
            36.92005108830293,
            622.2
          ],
          [
            138.4524188408529,
            36.91996217660585,
            625.1
          ],
          [
            138.45261406127938,
            36.91987326490877,
            627.2
          ],
          [
            138.45280928170587,
            36.919784353211696,
            631.6
          ],
          [
            138.45300450213233,
            36.91969544151462,
            634.3
          ],
          [
            138.4531997225588,
            36.919606529817536,
            638.1
          ],
          [
            138.45339494298526,
            36.91951761812046,
            641.6
          ],
          [
            138.45359016341172,
            36.91942870642338,
            644.8
          ],
          [
            138.45378538383818,
            36.919339794726305,
            650.9
          ],
          [
            138.45398060426464,
            36.91925088302923,
            652.7
          ],
          [
            138.45417582469113,
            36.91916197133215,
            655.2
          ],
          [
            138.4543710451176,
            36.919073059635075,
            661.1
          ],
          [
            138.45456626554406,
            36.918984147938,
            663.9
          ],
          [
            138.45476148597052,
            36.91889523624092,
            666.0
          ],
          [
            138.45495670639698,
            36.918806324543844,
            672.5
          ],
          [
            138.45515192682345,
            36.91871741284676,
            675.6
          ],
          [
            138.4553471472499,
            36.91862850114968,
            680.0
          ],
          [
            138.45554236767637,
            36.91853958945261,
            683.5
          ],
          [
            138.45573758810286,
            36.91845067775553,
            689.1
          ],
          [
            138.45593280852933,
            36.91836176605845,
            693.5
          ],
          [
            138.4561280289558,
            36.918272854361376,
            699.2
          ],
          [
            138.45632324938225,
            36.9181839426643,
            705.4
          ],
          [
            138.4565184698087,
            36.91809503096722,
            708.8
          ],
          [
            138.45671369023518,
            36.918006119270146,
            712.8
          ],
          [
            138.45690891066164,
            36.91791720757307,
            716.0
          ],
          [
            138.45710413108813,
            36.91782829587599,
            719.9
          ],
          [
            138.4572993515146,
            36.91773938417891,
            723.4
          ],
          [
            138.45749457194106,
            36.91765047248183,
            725.7
          ],
          [
            138.45768979236752,
            36.917561560784755,
            729.0
          ],
          [
            138.45788501279398,
            36.91747264908768,
            732.6
          ],
          [
            138.45808023322044,
            36.9173837373906,
            736.8
          ],
          [
            138.4582754536469,
            36.917294825693524,
            739.4
          ],
          [
            138.4584706740734,
            36.91720591399645,
            743.6
          ],
          [
            138.45866589449986,
            36.91711700229937,
            748.5
          ],
          [
            138.45886111492632,
            36.917028090602294,
            753.1
          ],
          [
            138.45905633535278,
            36.91693917890522,
            753.5
          ],
          [
            138.45925155577925,
            36.91685026720813,
            759.2
          ],
          [
            138.4594467762057,
            36.916761355511056,
            765.2
          ],
          [
            138.45964199663217,
            36.91667244381398,
            767.3
          ],
          [
            138.45983721705863,
            36.9165835321169,
            770.6
          ],
          [
            138.46003243748513,
            36.916494620419826,
            772.4
          ],
          [
            138.4602276579116,
            36.91640570872275,
            774.1
          ],
          [
            138.46042287833805,
            36.91631679702567,
            777.1
          ],
          [
            138.4606180987645,
            36.916227885328595,
            781.1
          ],
          [
            138.46081331919098,
            36.91613897363152,
            785.8
          ],
          [
            138.46100853961744,
            36.91605006193444,
            793.2
          ],
          [
            138.4612037600439,
            36.915961150237365,
            798.6
          ],
          [
            138.4613989804704,
            36.91587223854028,
            799.8
          ],
          [
            138.46159420089685,
            36.915783326843204,
            802.7
          ],
          [
            138.46178942132332,
            36.91569441514613,
            809.7
          ],
          [
            138.46198464174978,
            36.91560550344905,
            812.4
          ],
          [
            138.46217986217624,
            36.915516591751974,
            814.0
          ],
          [
            138.4623750826027,
            36.9154276800549,
            814.5
          ],
          [
            138.46257030302917,
            36.91533876835782,
            821.1
          ],
          [
            138.46276552345566,
            36.91524985666074,
            821.0
          ],
          [
            138.46296074388212,
            36.91516094496367,
            826.6
          ],
          [
            138.46315596430858,
            36.91507203326659,
            840.4
          ],
          [
            138.46335118473505,
            36.914983121569506,
            848.7
          ],
          [
            138.4635464051615,
            36.91489420987243,
            862.6
          ],
          [
            138.46374162558797,
            36.91480529817535,
            880.4
          ],
          [
            138.46393684601443,
            36.914716386478275,
            892.9
          ],
          [
            138.4641320664409,
            36.9146274747812,
            899.2
          ],
          [
            138.4643272868674,
            36.91453856308412,
            907.1
          ],
          [
            138.46452250729385,
            36.914449651387045,
            911.1
          ],
          [
            138.4647177277203,
            36.91436073968997,
            914.7
          ],
          [
            138.46491294814678,
            36.91427182799289,
            924.7
          ],
          [
            138.46510816857324,
            36.914182916295815,
            920.5
          ],
          [
            138.4653033889997,
            36.91409400459874,
            927.7
          ],
          [
            138.46549860942616,
            36.914005092901654,
            941.1
          ],
          [
            138.46569382985265,
            36.91391618120458,
            956.7
          ],
          [
            138.46588905027912,
            36.9138272695075,
            944.9
          ],
          [
            138.46608427070558,
            36.91373835781042,
            937.5
          ],
          [
            138.46627949113204,
            36.91364944611335,
            944.4
          ],
          [
            138.4664747115585,
            36.91356053441627,
            954.9
          ],
          [
            138.46666993198497,
            36.91347162271919,
            967.5
          ],
          [
            138.46686515241143,
            36.913382711022116,
            962.8
          ],
          [
            138.46706037283792,
            36.91329379932504,
            950.5
          ],
          [
            138.46725559326438,
            36.91320488762796,
            939.2
          ],
          [
            138.46745081369085,
            36.913115975930886,
            928.7
          ],
          [
            138.4676460341173,
            36.9130270642338,
            931.8
          ],
          [
            138.46784125454377,
            36.912938152536725,
            935.7
          ],
          [
            138.46803647497023,
            36.91284924083965,
            944.0
          ],
          [
            138.4682316953967,
            36.91276032914257,
            958.9
          ],
          [
            138.46842691582316,
            36.912671417445495,
            977.1
          ],
          [
            138.46862213624965,
            36.91258250574842,
            988.8
          ],
          [
            138.4688173566761,
            36.91249359405134,
            1005.4
          ],
          [
            138.46901257710257,
            36.912404682354264,
            1016.8
          ],
          [
            138.46920779752904,
            36.91231577065719,
            1029.3
          ],
          [
            138.4694030179555,
            36.91222685896011,
            1044.8
          ],
          [
            138.46959823838196,
            36.91213794726303,
            1051.3
          ],
          [
            138.46979345880843,
            36.91204903556595,
            1060.8
          ],
          [
            138.46998867923492,
            36.91196012386887,
            1067.6
          ],
          [
            138.47018389966138,
            36.911871212171796,
            1089.0
          ],
          [
            138.47037912008784,
            36.91178230047472,
            1094.9
          ],
          [
            138.4705743405143,
            36.91169338877764,
            1105.4
          ],
          [
            138.47076956094077,
            36.911604477080566,
            1122.1
          ],
          [
            138.47096478136723,
            36.91151556538349,
            1138.9
          ],
          [
            138.4711600017937,
            36.91142665368641,
            1153.0
          ],
          [
            138.47135522222018,
            36.911337741989335,
            1162.9
          ],
          [
            138.47155044264665,
            36.91124883029226,
            1177.0
          ],
          [
            138.4717456630731,
            36.911159918595175,
            1193.0
          ],
          [
            138.47194088349957,
            36.9110710068981,
            1207.0
          ],
          [
            138.47213610392603,
            36.91098209520102,
            1216.3
          ],
          [
            138.4723313243525,
            36.910893183503944,
            1224.9
          ],
          [
            138.47252654477896,
            36.91080427180687,
            1226.5
          ],
          [
            138.47272176520545,
            36.91071536010979,
            1225.2
          ],
          [
            138.4729169856319,
            36.910626448412714,
            1218.8
          ],
          [
            138.47311220605837,
            36.91053753671564,
            1220.5
          ],
          [
            138.47330742648484,
            36.91044862501856,
            1226.7
          ],
          [
            138.4735026469113,
            36.91035971332148,
            1231.1
          ],
          [
            138.47369786733776,
            36.9102708016244,
            1238.3
          ],
          [
            138.47389308776422,
            36.91018188992732,
            1246.2
          ],
          [
            138.4740883081907,
            36.910092978230246,
            1268.3
          ],
          [
            138.47428352861718,
            36.91000406653317,
            1281.8
          ],
          [
            138.47447874904364,
            36.90991515483609,
            1295.9
          ],
          [
            138.4746739694701,
            36.909826243139015,
            1300.3
          ],
          [
            138.47486918989657,
            36.90973733144194,
            1302.3
          ],
          [
            138.47506441032303,
            36.90964841974486,
            1313.7
          ],
          [
            138.4752596307495,
            36.909559508047785,
            1315.0
          ],
          [
            138.47545485117595,
            36.90947059635071,
            1309.8
          ],
          [
            138.47565007160244,
            36.90938168465363,
            1303.3
          ],
          [
            138.4758452920289,
            36.90929277295655,
            1297.4
          ],
          [
            138.47604051245537,
            36.90920386125947,
            1295.5
          ],
          [
            138.47623573288183,
            36.909114949562394,
            1300.7
          ],
          [
            138.4764309533083,
            36.90902603786532,
            1307.9
          ],
          [
            138.47662617373476,
            36.90893712616824,
            1318.0
          ],
          [
            138.47682139416122,
            36.90884821447116,
            1332.8
          ],
          [
            138.4770166145877,
            36.90875930277409,
            1346.9
          ],
          [
            138.47721183501417,
            36.90867039107701,
            1356.1
          ],
          [
            138.47740705544064,
            36.90858147937993,
            1368.1
          ],
          [
            138.4776022758671,
            36.908492567682856,
            1379.0
          ],
          [
            138.47779749629356,
            36.90840365598577,
            1388.9
          ],
          [
            138.47799271672002,
            36.908314744288695,
            1395.8
          ],
          [
            138.4781879371465,
            36.90822583259162,
            1401.1
          ],
          [
            138.47838315757295,
            36.90813692089454,
            1405.8
          ],
          [
            138.47857837799944,
            36.908048009197465,
            1403.3
          ],
          [
            138.4787735984259,
            36.90795909750039,
            1399.5
          ],
          [
            138.47896881885237,
            36.90787018580331,
            1394.3
          ],
          [
            138.47916403927883,
            36.907781274106235,
            1391.8
          ],
          [
            138.4793592597053,
            36.90769236240916,
            1393.7
          ],
          [
            138.47955448013175,
            36.90760345071208,
            1389.6
          ],
          [
            138.47974970055822,
            36.907514539015004,
            1391.7
          ],
          [
            138.4799449209847,
            36.90742562731792,
            1392.4
          ],
          [
            138.48014014141117,
            36.90733671562084,
            1390.1
          ],
          [
            138.48033536183763,
            36.90724780392377,
            1392.4
          ],
          [
            138.4805305822641,
            36.90715889222669,
            1394.9
          ],
          [
            138.48072580269056,
            36.90706998052961,
            1398.3
          ],
          [
            138.48092102311702,
            36.906981068832536,
            1400.3
          ],
          [
            138.48111624354348,
            36.90689215713546,
            1402.5
          ],
          [
            138.48131146396997,
            36.90680324543838,
            1405.0
          ],
          [
            138.48150668439644,
            36.906714333741306,
            1407.0
          ],
          [
            138.48156506794192,
            36.906687743388005,
            1408.0
          ]
        ]
      }
    }
  ]
}