{
  "type": "FeatureCollection",
  "features": [
    {
      "type": "Feature",
      "properties": {
        "name": "一本松クワッド",
        "horizontal_dist_map": 879,
        "slope_dist_map": 896,
        "elevation_diff_map": 151.2,
        "midstation": null
      },
      "geometry": {
        "type": "LineString",
        "coordinates": [
          [
            140.228924,
            37.6228992,
            894.2
          ],
          [
            140.2291447784681,
            37.622939627774905,
            893.8
          ],
          [
            140.22936555693622,
            37.62298005554981,
            896.6
          ],
          [
            140.22958633540432,
            37.623020483324716,
            897.6
          ],
          [
            140.22980711387243,
            37.62306091109962,
            898.5
          ],
          [
            140.23002789234053,
            37.62310133887453,
            900.9
          ],
          [
            140.23024867080863,
            37.62314176664943,
            904.8
          ],
          [
            140.23046944927674,
            37.62318219442434,
            908.1
          ],
          [
            140.23069022774484,
            37.62322262219924,
            912.0
          ],
          [
            140.23091100621295,
            37.62326304997414,
            916.3
          ],
          [
            140.23113178468105,
            37.62330347774905,
            920.3
          ],
          [
            140.23135256314916,
            37.62334390552395,
            925.6
          ],
          [
            140.23157334161726,
            37.62338433329886,
            930.9
          ],
          [
            140.23179412008534,
            37.623424761073764,
            936.4
          ],
          [
            140.23201489855344,
            37.62346518884867,
            943.1
          ],
          [
            140.23223567702155,
            37.623505616623575,
            950.6
          ],
          [
            140.23245645548965,
            37.62354604439848,
            959.5
          ],
          [
            140.23267723395776,
            37.623586472173386,
            966.0
          ],
          [
            140.23289801242586,
            37.62362689994829,
            970.9
          ],
          [
            140.23311879089397,
            37.6236673277232,
            976.6
          ],
          [
            140.23333956936207,
            37.6237077554981,
            981.4
          ],
          [
            140.23356034783018,
            37.62374818327301,
            986.4
          ],
          [
            140.23378112629828,
            37.623788611047914,
            991.9
          ],
          [
            140.2340019047664,
            37.62382903882282,
            996.0
          ],
          [
            140.2342226832345,
            37.623869466597725,
            999.0
          ],
          [
            140.2344434617026,
            37.62390989437263,
            1002.0
          ],
          [
            140.2346642401707,
            37.62395032214753,
            1004.8
          ],
          [
            140.2348850186388,
            37.623990749922434,
            1007.5
          ],
          [
            140.2351057971069,
            37.62403117769734,
            1008.5
          ],
          [
            140.23532657557502,
            37.624071605472245,
            1011.0
          ],
          [
            140.23554735404312,
            37.62411203324715,
            1013.4
          ],
          [
            140.23576813251123,
            37.62415246102206,
            1015.3
          ],
          [
            140.23598891097933,
            37.62419288879696,
            1017.7
          ],
          [
            140.23620968944743,
            37.62423331657187,
            1022.0
          ],
          [
            140.23643046791554,
            37.62427374434677,
            1025.4
          ],
          [
            140.23665124638364,
            37.62431417212168,
            1028.5
          ],
          [
            140.23687202485175,
            37.624354599896584,
            1031.5
          ],
          [
            140.23709280331985,
            37.62439502767149,
            1034.5
          ],
          [
            140.23731358178793,
            37.624435455446395,
            1036.0
          ],
          [
            140.23753436025603,
            37.6244758832213,
            1037.5
          ],
          [
            140.23775513872414,
            37.624516310996206,
            1038.7
          ],
          [
            140.23797591719224,
            37.62455673877111,
            1040.3
          ],
          [
            140.23819669566035,
            37.62459716654602,
            1041.9
          ],
          [
            140.23841747412845,
            37.624637594320916,
            1043.6
          ],
          [
            140.23863518187855,
            37.62467745980233,
            1045.4
          ]
        ]
      }
    },
    {
      "type": "Feature",
      "properties": {
        "name": "第3ペア",
        "horizontal_dist_map": 222,
        "slope_dist_map": 223,
        "elevation_diff_map": 15.1,
        "midstation": null
      },
      "geometry": {
        "type": "LineString",
        "coordinates": [
          [
            140.2306178,
            37.6201626,
            918.3
          ],
          [
            140.23057897446498,
            37.62034013147938,
            916.3
          ],
          [
            140.23054014892992,
            37.620517662958754,
            914.4
          ],
          [
            140.2305013233949,
            37.620695194438134,
            912.1
          ],
          [
            140.23046249785986,
            37.620872725917515,
            909.7
          ],
          [
            140.2304236723248,
            37.62105025739689,
            907.9
          ],
          [
            140.23038484678978,
            37.62122778887627,
            906.9
          ],
          [
            140.23034602125475,
            37.62140532035564,
            904.2
          ],
          [
            140.2303071957197,
            37.62158285183502,
            903.3
          ],
          [
            140.23026837018466,
            37.6217603833144,
            903.0
          ],
          [
            140.23022954464963,
            37.621937914793776,
            903.7
          ],
          [
            140.23019071911457,
            37.622115446273156,
            903.3
          ],
          [
            140.2301855475369,
            37.62213909354123,
            903.2
          ]
        ]
      }
    }
  ]
}