{
  "type": "FeatureCollection",
  "features": [
    {
      "type": "Feature",
      "properties": {
        "name": "山頂ペアリフト",
        "horizontal_dist_map": 315,
        "slope_dist_map": 325,
        "elevation_diff_map": 72.7
      },
      "geometry": {
        "type": "LineString",
        "coordinates": [
          [
            139.2282101,
            37.1575845,
            1164.3
          ],
          [
            139.22834284684131,
            37.15743894128243,
            1167.7
          ],
          [
            139.22847615325526,
            37.15729371423978,
            1170.7
          ],
          [
            139.22861135214254,
            37.15714960892084,
            1172.8
          ],
          [
            139.22874655102981,
            37.1570055036019,
            1175.1
          ],
          [
            139.22887980266466,
            37.15686025190493,
            1178.5
          ],
          [
            139.22901156283456,
            37.156714120755915,
            1183.9
          ],
          [
            139.22914351034072,
            37.15656809795963,
            1189.3
          ],
          [
            139.2292792437788,
            37.15642431995922,
            1194.8
          ],
          [
            139.22941530080388,
            37.15628073382354,
            1199.5
          ],
          [
            139.22955135782894,
            37.156137147687865,
            1204.8
          ],
          [
            139.22968452774694,
            37.15599184077851,
            1209.3
          ],
          [
            139.22981744516716,
            37.15584638337543,
            1213.5
          ],
          [
            139.22995036258737,
            37.15570092597236,
            1218.1
          ],
          [
            139.23008411006805,
            37.155555957787065,
            1225.2
          ],
          [
            139.23021807346365,
            37.15541111685688,
            1232.3
          ],
          [
            139.2303251,
            37.1552954,
            1237.0
          ]
        ]
      }
    },
    {
      "type": "Feature",
      "properties": {
        "name": "第2ペアA線",
        "horizontal_dist_map": 733,
        "slope_dist_map": 787,
        "elevation_diff_map": 267.8
      },
      "geometry": {
        "type": "LineString",
        "coordinates": [
          [
            139.2376153,
            37.1608841,
            922.6
          ],
          [
            139.2374143683021,
            37.1608027726557,
            924.3
          ],
          [
            139.23721343660418,
            37.1607214453114,
            931.8
          ],
          [
            139.2370125049063,
            37.16064011796711,
            938.3
          ],
          [
            139.2368115732084,
            37.160558790622815,
            944.6
          ],
          [
            139.23661064151048,
            37.16047746327852,
            949.6
          ],
          [
            139.23640970602057,
            37.160396142523105,
            956.3
          ],
          [
            139.2362087662419,
            37.160314829219665,
            967.0
          ],
          [
            139.23600782736642,
            37.16023351509235,
            973.8
          ],
          [
            139.23580688901154,
            37.160152200490224,
            982.6
          ],
          [
            139.23560595065663,
            37.16007088588809,
            993.3
          ],
          [
            139.23540501230173,
            37.15998957128596,
            1001.6
          ],
          [
            139.23520407996742,
            37.159908248396036,
            1009.2
          ],
          [
            139.23500314874448,
            37.159826923976226,
            1017.6
          ],
          [
            139.23480221752155,
            37.15974559955641,
            1028.4
          ],
          [
            139.23460128629864,
            37.15966427513659,
            1046.4
          ],
          [
            139.2344003550757,
            37.159582950716775,
            1060.4
          ],
          [
            139.23419941826097,
            37.15950163630818,
            1070.6
          ],
          [
            139.23399848127252,
            37.15942032221064,
            1078.6
          ],
          [
            139.23379755355163,
            37.15933899431967,
            1083.5
          ],
          [
            139.2335966281761,
            37.159257662937975,
            1090.1
          ],
          [
            139.23339570280058,
            37.15917633155629,
            1095.4
          ],
          [
            139.23319477742504,
            37.1590950001746,
            1102.3
          ],
          [
            139.23299384848696,
            37.15901367505734,
            1109.7
          ],
          [
            139.2327929161516,
            37.15893235591393,
            1114.0
          ],
          [
            139.23259198381623,
            37.15885103677053,
            1117.9
          ],
          [
            139.23239104783966,
            37.15876972407773,
            1122.6
          ],
          [
            139.2321901093843,
            37.158688415776254,
            1125.6
          ],
          [
            139.23198917092895,
            37.15860710747477,
            1130.3
          ],
          [
            139.2317882324736,
            37.1585257991733,
            1137.6
          ],
          [
            139.2315873030036,
            37.15844447740622,
            1142.2
          ],
          [
            139.23138637712088,
            37.158363150263206,
            1148.8
          ],
          [
            139.23118545129228,
            37.15828182347648,
            1155.5
          ],
          [
            139.23098452556312,
            37.158200497343884,
            1160.8
          ],
          [
            139.23078359983396,
            37.15811917121129,
            1167.9
          ],
          [
            139.2305826741048,
            37.158037845078695,
            1178.6
          ],
          [
            139.23038174837563,
            37.1579565189461,
            1187.7
          ],
          [
            139.2302473,
            37.1579021,
            1190.4
          ]
        ]
      }
    },
    {
      "type": "Feature",
      "properties": {
        "name": "第2ペアB線",
        "horizontal_dist_map": 733,
        "slope_dist_map": 786,
        "elevation_diff_map": 267.4
      },
      "geometry": {
        "type": "LineString",
        "coordinates": [
          [
            139.2375684,
            37.1609279,
            922.7
          ],
          [
            139.23736746840046,
            37.16084657229899,
            925.8
          ],
          [
            139.2371665368009,
            37.16076524459799,
            932.5
          ],
          [
            139.2369656052014,
            37.160683916896986,
            938.8
          ],
          [
            139.23676467360184,
            37.16060258919598,
            945.9
          ],
          [
            139.23656374200232,
            37.16052126149498,
            950.5
          ],
          [
            139.2363628027529,
            37.160439946600285,
            957.9
          ],
          [
            139.23616185787841,
            37.16035864112229,
            967.6
          ],
          [
            139.23596091963265,
            37.16027732615881,
            974.9
          ],
          [
            139.23575998235287,
            37.160196009813085,
            983.6
          ],
          [
            139.23555904507307,
            37.16011469346735,
            993.5
          ],
          [
            139.2353581077933,
            37.16003337712162,
            1002.4
          ],
          [
            139.2351571705135,
            37.15995206077589,
            1009.6
          ],
          [
            139.23495623415727,
            37.159870744112744,
            1018.3
          ],
          [
            139.23475529807035,
            37.159789427357026,
            1031.0
          ],
          [
            139.23455436198344,
            37.1597081106013,
            1045.6
          ],
          [
            139.2343534283658,
            37.15962679010157,
            1060.9
          ],
          [
            139.23415250714552,
            37.159545450804224,
            1071.3
          ],
          [
            139.23395158592524,
            37.15946411150687,
            1078.7
          ],
          [
            139.23375064861386,
            37.15938279874456,
            1084.8
          ],
          [
            139.23354971066246,
            37.15930148703767,
            1090.7
          ],
          [
            139.23334877271105,
            37.15922017533079,
            1095.3
          ],
          [
            139.23314783475965,
            37.159138863623895,
            1101.5
          ],
          [
            139.2329469017623,
            37.159057544840636,
            1107.3
          ],
          [
            139.23274597171743,
            37.15897622184005,
            1113.6
          ],
          [
            139.23254504167258,
            37.15889489883946,
            1117.1
          ],
          [
            139.23234411431778,
            37.15881357246196,
            1121.7
          ],
          [
            139.232143187783,
            37.15873224505503,
            1125.5
          ],
          [
            139.23194226124826,
            37.1586509176481,
            1130.8
          ],
          [
            139.2317413347135,
            37.15856959024117,
            1138.0
          ],
          [
            139.23154040329274,
            37.15848827163322,
            1143.0
          ],
          [
            139.23133947105998,
            37.15840695448763,
            1149.8
          ],
          [
            139.2311385388272,
            37.15832563734205,
            1156.6
          ],
          [
            139.23093760866942,
            37.1582443174837,
            1162.4
          ],
          [
            139.23073668107477,
            37.15816299427446,
            1168.5
          ],
          [
            139.23053575348015,
            37.15808167106522,
            1180.3
          ],
          [
            139.2303348258855,
            37.158000347855975,
            1188.6
          ],
          [
            139.2302003,
            37.1579459,
            1190.1
          ]
        ]
      }
    },
    {
      "type": "Feature",
      "properties": {
        "name": "第1ペアA線",
        "horizontal_dist_map": 796,
        "slope_dist_map": 821,
        "elevation_diff_map": 177.7
      },
      "geometry": {
        "type": "LineString",
        "coordinates": [
          [
            139.2468917,
            37.1617936,
            742.5
          ],
          [
            139.2466686391043,
            37.16176900654735,
            744.4
          ],
          [
            139.24644557820864,
            37.1617444130947,
            749.7
          ],
          [
            139.24622251722226,
            37.16171982029093,
            754.9
          ],
          [
            139.24599945534874,
            37.16169523383625,
            762.7
          ],
          [
            139.24577639347518,
            37.16167064738158,
            769.0
          ],
          [
            139.24555333160166,
            37.161646060926905,
            775.4
          ],
          [
            139.24533027399815,
            37.16162145062181,
            781.9
          ],
          [
            139.24510721798134,
            37.161596831454155,
            780.0
          ],
          [
            139.2448841619645,
            37.16157221228651,
            786.8
          ],
          [
            139.24466110099604,
            37.161547622884,
            795.3
          ],
          [
            139.24443803946485,
            37.1615230368641,
            803.1
          ],
          [
            139.24421497772948,
            37.161498452428454,
            806.8
          ],
          [
            139.24399191566138,
            37.161473870574795,
            808.4
          ],
          [
            139.24376885359328,
            37.16144928872114,
            809.9
          ],
          [
            139.2435457952742,
            37.16142468636607,
            810.3
          ],
          [
            139.24332273730323,
            37.161400082107235,
            810.8
          ],
          [
            139.2430996793323,
            37.161375477848395,
            813.0
          ],
          [
            139.24287662136132,
            37.16135087358956,
            815.3
          ],
          [
            139.24265356320535,
            37.1613262716204,
            821.4
          ],
          [
            139.24243050497617,
            37.1613016705569,
            825.9
          ],
          [
            139.24220744674702,
            37.1612770694934,
            832.1
          ],
          [
            139.24198438851784,
            37.1612524684299,
            839.9
          ],
          [
            139.24176132929975,
            37.16122787429886,
            842.0
          ],
          [
            139.2415382698857,
            37.16120328154144,
            847.6
          ],
          [
            139.24131521047167,
            37.16117868878403,
            856.2
          ],
          [
            139.2410921520261,
            37.161154091867225,
            861.1
          ],
          [
            139.24086909364746,
            37.16112949466314,
            867.4
          ],
          [
            139.24064603526878,
            37.16110489745907,
            874.3
          ],
          [
            139.24042297689013,
            37.161080300254994,
            881.4
          ],
          [
            139.24019991831582,
            37.16105570482028,
            889.2
          ],
          [
            139.23997685939622,
            37.16103111250793,
            891.8
          ],
          [
            139.23975380047665,
            37.16100652019558,
            895.4
          ],
          [
            139.23953074155708,
            37.16098192788323,
            897.7
          ],
          [
            139.2393076853622,
            37.16095732062541,
            901.3
          ],
          [
            139.239084630981,
            37.16093270341919,
            904.7
          ],
          [
            139.23886157659985,
            37.16090808621298,
            906.8
          ],
          [
            139.23863852020122,
            37.16088348126027,
            909.7
          ],
          [
            139.23841546076824,
            37.16085889473734,
            911.6
          ],
          [
            139.23819240133528,
            37.160834308214405,
            914.8
          ],
          [
            139.2380136,
            37.1608146,
            920.2
          ]
        ]
      }
    },
    {
      "type": "Feature",
      "properties": {
        "name": "第1ペアB線",
        "horizontal_dist_map": 796,
        "slope_dist_map": 821,
        "elevation_diff_map": 176.8
      },
      "geometry": {
        "type": "LineString",
        "coordinates": [
          [
            139.2468837,
            37.1618428,
            742.5
          ],
          [
            139.2466606400807,
            37.16181820004536,
            744.1
          ],
          [
            139.2464375801614,
            37.16179360009072,
            750.1
          ],
          [
            139.24621452013082,
            37.16176900084764,
            756.6
          ],
          [
            139.24599145792996,
            37.1617444154818,
            763.2
          ],
          [
            139.24576839572907,
            37.161719830115956,
            769.9
          ],
          [
            139.2455453335282,
            37.16169524475011,
            776.9
          ],
          [
            139.24532227394826,
            37.161670645338525,
            781.7
          ],
          [
            139.24509921578968,
            37.16164603830979,
            780.0
          ],
          [
            139.24487615763107,
            37.16162143128106,
            788.0
          ],
          [
            139.2446530994725,
            37.16159682425233,
            796.8
          ],
          [
            139.2444300413139,
            37.1615722172236,
            803.8
          ],
          [
            139.24420698257387,
            37.16154761418302,
            807.2
          ],
          [
            139.24398392289157,
            37.1615230176057,
            809.6
          ],
          [
            139.24376086321584,
            37.161498421011665,
            810.0
          ],
          [
            139.2435378039606,
            37.16147382334949,
            810.4
          ],
          [
            139.24331474470534,
            37.16144922568732,
            811.0
          ],
          [
            139.24309168545008,
            37.16142462802515,
            812.8
          ],
          [
            139.24286862619485,
            37.161400030362984,
            815.4
          ],
          [
            139.24264556620824,
            37.16137543821139,
            821.6
          ],
          [
            139.2424225059517,
            37.16135084809333,
            826.7
          ],
          [
            139.2421994456952,
            37.16132625797526,
            832.8
          ],
          [
            139.2419763854387,
            37.1613016678572,
            840.5
          ],
          [
            139.2417533270487,
            37.161277068030735,
            845.9
          ],
          [
            139.2415302691676,
            37.16125246555744,
            853.8
          ],
          [
            139.2413072112865,
            37.16122786308415,
            856.8
          ],
          [
            139.24108415327797,
            37.16120326268315,
            861.4
          ],
          [
            139.24086109524717,
            37.16117866264468,
            867.5
          ],
          [
            139.24063803721634,
            37.1611540626062,
            874.5
          ],
          [
            139.24041497918554,
            37.16112946256773,
            882.5
          ],
          [
            139.24019192011144,
            37.16110486915829,
            888.0
          ],
          [
            139.23996885888752,
            37.16108028940909,
            892.4
          ],
          [
            139.23974579766357,
            37.1610557096599,
            896.3
          ],
          [
            139.23952273643962,
            37.1610311299107,
            898.7
          ],
          [
            139.23929967905423,
            37.16100652872988,
            903.0
          ],
          [
            139.23907662440527,
            37.16098191227058,
            905.1
          ],
          [
            139.23885356975632,
            37.16095729581128,
            907.2
          ],
          [
            139.23863051390188,
            37.1609326867079,
            909.9
          ],
          [
            139.23840745470207,
            37.16090809801833,
            912.4
          ],
          [
            139.23818439550226,
            37.160883509328755,
            915.5
          ],
          [
            139.2380056,
            37.1608638,
            919.3
          ]
        ]
      }
    }
  ]
}