{
  "type": "FeatureCollection",
  "features": [
    {
      "type": "Feature",
      "properties": {
        "name": "立山第3トリプル",
        "horizontal_dist_map": 377,
        "slope_dist_map": 389,
        "elevation_diff_map": 88.0
      },
      "geometry": {
        "type": "LineString",
        "coordinates": [
          [132.1428765, 34.5990161, 956.0],
          [132.14265930191823, 34.59903182098465, 960.0],
          [132.14244210383646, 34.5990475419693, 963.0],
          [132.1422249057547, 34.59906326295395, 970.0],
          [132.14200770767292, 34.5990789839386, 974.0],
          [132.14179050959115, 34.59909470492325, 977.0],
          [132.14157331150938, 34.5991104259079, 982.0],
          [132.1413561134276, 34.59912614689255, 985.0],
          [132.14113891534583, 34.5991418678772, 990.0],
          [132.14092171726406, 34.59915758886185, 993.0],
          [132.1407045191823, 34.5991733098465, 999.0],
          [132.1404873211005, 34.59918903083115, 1002.0],
          [132.14027012301872, 34.5992047518158, 1008.0],
          [132.14005292493695, 34.599220472800454, 1012.0],
          [132.13983572685518, 34.5992361937851, 1018.0],
          [132.1396185287734, 34.59925191476975, 1023.0],
          [132.13940133069164, 34.5992676357544, 1031.0],
          [132.13918413260987, 34.59928335673905, 1036.0],
          [132.1389669345281, 34.5992990777237, 1042.0],
          [132.13877270710677, 34.59931313607212, 1044.0]
        ]
      }
    },
    {
      "type": "Feature",
      "properties": {
        "name": "立山第2ペア",
        "horizontal_dist_map": 374,
        "slope_dist_map": 405,
        "elevation_diff_map": 143.0
      },
      "geometry": {
        "type": "LineString",
        "coordinates": [
          [132.14083971442489, 34.597879497676004, 983.0],
          [132.1406244157727, 34.59790792460489, 989.0],
          [132.1404091171205, 34.59793635153377, 992.0],
          [132.1401938184683, 34.597964778462654, 998.0],
          [132.1399785198161, 34.59799320539153, 1001.0],
          [132.1397632211639, 34.59802163232042, 1007.0],
          [132.1395479225117, 34.598050059249296, 1014.0],
          [132.1393326238595, 34.59807848617818, 1025.0],
          [132.1391173252073, 34.59810691310707, 1034.0],
          [132.13890202655512, 34.598135340035945, 1043.0],
          [132.13868672790292, 34.59816376696483, 1046.0],
          [132.13847142925073, 34.59819219389371, 1050.0],
          [132.13825613059853, 34.598220620822595, 1055.0],
          [132.13804083194634, 34.59824904775147, 1069.0],
          [132.13782553329412, 34.59827747468036, 1077.0],
          [132.13761023464193, 34.598305901609244, 1087.0],
          [132.13739493598973, 34.59833432853812, 1096.0],
          [132.13717963733754, 34.59836275546701, 1107.0],
          [132.13696433868535, 34.598391182395886, 1120.0],
          [132.1368037034704, 34.59841239184511, 1126.0]
        ]
      }
    },
    {
      "type": "Feature",
      "properties": {
        "name": "ブナ坂第3ペア",
        "horizontal_dist_map": 721,
        "slope_dist_map": 773,
        "elevation_diff_map": 263.0
      },
      "geometry": {
        "type": "LineString",
        "coordinates": [
          [132.1394259, 34.595101, 1016.0],
          [132.1392081510707, 34.595109960652564, 1020.0],
          [132.13899040214142, 34.59511892130513, 1029.0],
          [132.1387726532121, 34.595127881957694, 1034.0],
          [132.1385549042828, 34.595136842610266, 1042.0],
          [132.13833715535353, 34.59514580326283, 1047.0],
          [132.13811940642424, 34.595154763915396, 1061.0],
          [132.13790165749492, 34.59516372456796, 1070.0],
          [132.13768390856563, 34.595172685220525, 1081.0],
          [132.13746615963635, 34.59518164587309, 1088.0],
          [132.13724841070706, 34.595190606525655, 1096.0],
          [132.13703066177774, 34.59519956717822, 1106.0],
          [132.13681291284846, 34.59520852783079, 1116.0],
          [132.13659516391917, 34.59521748848336, 1126.0],
          [132.13637741498988, 34.59522644913592, 1133.0],
          [132.13615966606056, 34.595235409788486, 1144.0],
          [132.13594191713128, 34.59524437044105, 1150.0],
          [132.135724168202, 34.595253331093616, 1159.0],
          [132.1355064192727, 34.59526229174618, 1165.0],
          [132.13528867034339, 34.595271252398746, 1176.0],
          [132.1350709214141, 34.59528021305132, 1185.0],
          [132.1348531724848, 34.59528917370388, 1192.0],
          [132.13463542355552, 34.59529813435645, 1196.0],
          [132.1344176746262, 34.59530709500901, 1204.0],
          [132.13419992569692, 34.59531605566158, 1210.0],
          [132.13398217676763, 34.59532501631414, 1220.0],
          [132.13376442783834, 34.59533397696671, 1227.0],
          [132.13354667890903, 34.59534293761927, 1231.0],
          [132.13332892997974, 34.59535189827184, 1238.0],
          [132.13311118105045, 34.59536085892441, 1242.0],
          [132.13289343212116, 34.59536981957697, 1246.0],
          [132.13267568319188, 34.59537878022954, 1248.0],
          [132.13245793426256, 34.5953877408821, 1254.0],
          [132.13224018533327, 34.59539670153467, 1258.0],
          [132.132022436404, 34.59540566218723, 1263.0],
          [132.1318046874747, 34.5954146228398, 1269.0],
          [132.13158693854538, 34.59542358349237, 1279.0],
          [132.13156709694775, 34.5954244, 1279.0]
        ]
      }
    },
    {
      "type": "Feature",
      "properties": {
        "name": "ヒエ畑第1ペア",
        "horizontal_dist_map": 498,
        "slope_dist_map": 514,
        "elevation_diff_map": 122.0
      },
      "geometry": {
        "type": "LineString",
        "coordinates": [
          [132.14494107631398, 34.59492704899511, 889.0],
          [132.14472413668872, 34.594944959221465, 893.0],
          [132.14450719706346, 34.59496286944781, 896.0],
          [132.1442902574382, 34.59498077967417, 901.0],
          [132.14407331781294, 34.594998689900514, 905.0],
          [132.14385637818768, 34.59501660012687, 911.0],
          [132.14363943856242, 34.595034510353216, 916.0],
          [132.14342249893716, 34.59505242057957, 919.0],
          [132.1432055593119, 34.59507033080592, 924.0],
          [132.14298861968663, 34.59508824103227, 929.0],
          [132.14277168006134, 34.595106151258626, 933.0],
          [132.14255474043608, 34.595124061484974, 936.0],
          [132.14233780081082, 34.59514197171133, 941.0],
          [132.14212086118556, 34.595159881937676, 945.0],
          [132.1419039215603, 34.59517779216403, 952.0],
          [132.14168698193504, 34.59519570239038, 956.0],
          [132.14147004230978, 34.59521361261673, 964.0],
          [132.14125310268452, 34.59523152284308, 968.0],
          [132.14103616305925, 34.595249433069434, 973.0],
          [132.140819223434, 34.59526734329579, 976.0],
          [132.14060228380873, 34.595285253522135, 981.0],
          [132.14038534418347, 34.59530316374849, 987.0],
          [132.1401684045582, 34.59532107397484, 993.0],
          [132.13995146493295, 34.59533898420119, 998.0],
          [132.1397345253077, 34.59535689442754, 1006.0],
          [132.13953259672797, 34.59537356536336, 1011.0]
        ]
      }
    },
    {
      "type": "Feature",
      "properties": {
        "name": "立山第1A線ペア",
        "horizontal_dist_map": 629,
        "slope_dist_map": 643,
        "elevation_diff_map": 123.0
      },
      "geometry": {
        "type": "LineString",
        "coordinates": [
          [132.1463017, 34.5958368, 883.0],
          [132.14611041150445, 34.59592330316555, 887.0],
          [132.1459191230089, 34.59600980633109, 890.0],
          [132.1457278345133, 34.59609630949664, 892.0],
          [132.14553654601775, 34.596182812662185, 895.0],
          [132.1453452575222, 34.596269315827726, 899.0],
          [132.14515396902664, 34.596355818993274, 902.0],
          [132.14496268053108, 34.59644232215882, 904.0],
          [132.1447713920355, 34.59652882532437, 907.0],
          [132.14458010353994, 34.59661532848991, 910.0],
          [132.14438881504438, 34.59670183165546, 914.0],
          [132.14419752654882, 34.59678833482101, 917.0],
          [132.14400623805327, 34.59687483798655, 920.0],
          [132.14381494955768, 34.596961341152095, 922.0],
          [132.14362366106212, 34.59704784431764, 927.0],
          [132.14343237256656, 34.597134347483184, 931.0],
          [132.143241084071, 34.59722085064873, 935.0],
          [132.14304979557545, 34.59730735381428, 938.0],
          [132.14285850707986, 34.59739385697982, 943.0],
          [132.1426672185843, 34.59748036014537, 947.0],
          [132.14247593008875, 34.59756686331092, 951.0],
          [132.1422846415932, 34.597653366476464, 954.0],
          [132.14209335309764, 34.597739869642005, 959.0],
          [132.14190206460205, 34.59782637280755, 964.0],
          [132.1417107761065, 34.5979128759731, 968.0],
          [132.14151948761094, 34.59799937913864, 972.0],
          [132.14132819911538, 34.59808588230419, 975.0],
          [132.14113691061982, 34.59817238546974, 979.0],
          [132.14094562212424, 34.59825888863528, 982.0],
          [132.14075433362868, 34.59834539180083, 988.0],
          [132.14056304513312, 34.598431894966375, 993.0],
          [132.14037175663756, 34.598518398131915, 1001.0],
          [132.14028037130274, 34.598559723778415, 1006.0]
        ]
      }
    },
    {
      "type": "Feature",
      "properties": {
        "name": "ブナ坂第1ペア",
        "horizontal_dist_map": 506,
        "slope_dist_map": 522,
        "elevation_diff_map": 125.0
      },
      "geometry": {
        "type": "LineString",
        "coordinates": [
          [132.14490674978538, 34.59482421430761, 890.0],
          [132.1446898339907, 34.594842318772926, 893.0],
          [132.14447291819604, 34.59486042323825, 898.0],
          [132.14425600240136, 34.59487852770357, 901.0],
          [132.14403908660668, 34.59489663216889, 907.0],
          [132.14382217081203, 34.594914736634216, 911.0],
          [132.14360525501735, 34.594932841099535, 916.0],
          [132.1433883392227, 34.594950945564854, 919.0],
          [132.14317142342802, 34.59496905003018, 924.0],
          [132.14295450763333, 34.5949871544955, 927.0],
          [132.14273759183868, 34.595005258960825, 933.0],
          [132.142520676044, 34.595023363426144, 937.0],
          [132.14230376024932, 34.59504146789146, 941.0],
          [132.14208684445467, 34.59505957235679, 949.0],
          [132.14186992866, 34.59507767682211, 952.0],
          [132.14165301286533, 34.59509578128743, 958.0],
          [132.14143609707065, 34.59511388575275, 962.0],
          [132.14121918127597, 34.59513199021807, 969.0],
          [132.14100226548132, 34.59515009468339, 973.0],
          [132.14078534968664, 34.595168199148716, 978.0],
          [132.14056843389196, 34.595186303614035, 982.0],
          [132.1403515180973, 34.595204408079354, 989.0],
          [132.14013460230262, 34.59522251254468, 993.0],
          [132.13991768650797, 34.59524061701, 1000.0],
          [132.1397007707133, 34.59525872147532, 1005.0],
          [132.1394838549186, 34.595276825940644, 1013.0],
          [132.13941567631224, 34.59528251633869, 1015.0]
        ]
      }
    },
    {
      "type": "Feature",
      "properties": {
        "name": "立山第1B線ペア",
        "horizontal_dist_map": 628,
        "slope_dist_map": 641,
        "elevation_diff_map": 121.0
      },
      "geometry": {
        "type": "LineString",
        "coordinates": [
          [132.1463527, 34.5958909, 883.0],
          [132.1461614262155, 34.595977425584834, 886.0],
          [132.14597015243106, 34.596063951169675, 889.0],
          [132.14577887864658, 34.59615047675451, 893.0],
          [132.1455876048621, 34.59623700233935, 895.0],
          [132.14539633107762, 34.596323527924184, 898.0],
          [132.14520505729317, 34.596410053509025, 900.0],
          [132.1450137835087, 34.59649657909386, 904.0],
          [132.1448225097242, 34.5965831046787, 907.0],
          [132.14463123593973, 34.596669630263534, 909.0],
          [132.14443996215527, 34.596756155848375, 912.0],
          [132.1442486883708, 34.59684268143321, 916.0],
          [132.1440574145863, 34.59692920701805, 920.0],
          [132.14386614080186, 34.597015732602884, 923.0],
          [132.14367486701738, 34.597102258187725, 926.0],
          [132.1434835932329, 34.59718878377256, 930.0],
          [132.14329231944842, 34.59727530935739, 936.0],
          [132.14310104566397, 34.597361834942234, 939.0],
          [132.1429097718795, 34.59744836052707, 942.0],
          [132.142718498095, 34.59753488611191, 946.0],
          [132.14252722431053, 34.59762141169674, 951.0],
          [132.14233595052607, 34.597707937281584, 955.0],
          [132.1421446767416, 34.59779446286642, 958.0],
          [132.1419534029571, 34.59788098845126, 962.0],
          [132.14176212917266, 34.59796751403609, 966.0],
          [132.14157085538818, 34.59805403962093, 972.0],
          [132.1413795816037, 34.59814056520577, 975.0],
          [132.14118830781922, 34.59822709079061, 978.0],
          [132.14099703403477, 34.59831361637544, 981.0],
          [132.1408057602503, 34.598400141960276, 989.0],
          [132.1406144864658, 34.59848666754512, 995.0],
          [132.14042321268133, 34.59857319312995, 1000.0],
          [132.1403445, 34.5986088, 1004.0]
        ]
      }
    },
    {
      "type": "Feature",
      "properties": {
        "name": "かやばたAペア",
        "horizontal_dist_map": 743,
        "slope_dist_map": 795,
        "elevation_diff_map": 252.0,
        "midstation": [132.137114, 34.600248, 1085.0]
      },
      "geometry": {
        "type": "LineString",
        "coordinates": [
          [132.1419016, 34.6013691, 974.0],
          [132.1416923221098, 34.60131852656418, 976.0],
          [132.14148304421963, 34.60126795312836, 980.0],
          [132.14127376632942, 34.601217379692535, 983.0],
          [132.1410644884392, 34.601166806256714, 987.0],
          [132.14085521054903, 34.60111623282089, 991.0],
          [132.14064593265883, 34.60106565938507, 994.0],
          [132.14043665476862, 34.60101508594925, 998.0],
          [132.14022737687844, 34.60096451251343, 1000.0],
          [132.14001809898824, 34.60091393907761, 1006.0],
          [132.13980882109803, 34.600863365641786, 1010.0],
          [132.13959954320785, 34.600812792205964, 1015.0],
          [132.13939026531764, 34.60076221877014, 1020.0],
          [132.13918098742744, 34.60071164533432, 1025.0],
          [132.13897170953726, 34.6006610718985, 1031.0],
          [132.13876243164705, 34.60061049846268, 1037.0],
          [132.13855315375685, 34.60055992502686, 1043.0],
          [132.13834387586667, 34.600509351591036, 1047.0],
          [132.13813459797646, 34.600458778155215, 1054.0],
          [132.13792532008628, 34.60040820471939, 1059.0],
          [132.13771604219608, 34.60035763128357, 1068.0],
          [132.13750676430587, 34.60030705784775, 1073.0],
          [132.1372974864157, 34.60025648441193, 1079.0],
          [132.13708820852548, 34.60020591097611, 1086.0],
          [132.13687893063528, 34.60015533754028, 1089.0],
          [132.1366696527451, 34.60010476410446, 1097.0],
          [132.1364603748549, 34.60005419066864, 1105.0],
          [132.13625109696468, 34.600003617232815, 1117.0],
          [132.1360418190745, 34.599953043796994, 1123.0],
          [132.1358325411843, 34.59990247036117, 1132.0],
          [132.1356232632941, 34.59985189692535, 1141.0],
          [132.13541398540391, 34.59980132348953, 1146.0],
          [132.1352047075137, 34.59975075005371, 1162.0],
          [132.1349954296235, 34.59970017661789, 1175.0],
          [132.13478615173332, 34.599649603182066, 1193.0],
          [132.13457687384312, 34.599599029746244, 1206.0],
          [132.1343675959529, 34.59954845631042, 1219.0],
          [132.13415831806273, 34.5994978828746, 1226.0],
          [132.13411783555796, 34.5994881, 1226.0]
        ]
      }
    }
  ]
}
