{
  "type": "FeatureCollection",
  "features": [
    {
      "type": "Feature",
      "properties": {
        "name": "嬬恋ゴンドラ",
        "horizontal_dist_map": 3130,
        "slope_dist_map": 3190,
        "elevation_diff_map": 562.5,
        "midstation": null
      },
      "geometry": {
        "type": "LineString",
        "coordinates": [
          [
            138.46391008759625,
            36.55708123289476,
            1471.2
          ],
          [
            138.46369146621493,
            36.55711834433464,
            1471.2
          ],
          [
            138.4634728448336,
            36.55715545577452,
            1473.8
          ],
          [
            138.46325422345225,
            36.5571925672144,
            1479.8
          ],
          [
            138.46303560207093,
            36.55722967865428,
            1482.7
          ],
          [
            138.4628169806896,
            36.55726679009416,
            1480.3
          ],
          [
            138.4625983593083,
            36.55730390153404,
            1481.1
          ],
          [
            138.46237973792697,
            36.55734101297392,
            1487.6
          ],
          [
            138.46216111654562,
            36.5573781244138,
            1491.6
          ],
          [
            138.4619424951643,
            36.55741523585368,
            1492.8
          ],
          [
            138.46172387378297,
            36.55745234729356,
            1495.7
          ],
          [
            138.46150525240165,
            36.55748945873344,
            1498.9
          ],
          [
            138.46128663102033,
            36.55752657017332,
            1502.5
          ],
          [
            138.46106800963898,
            36.5575636816132,
            1504.0
          ],
          [
            138.46084938825766,
            36.55760079305308,
            1507.5
          ],
          [
            138.46063076687633,
            36.557637904492964,
            1510.7
          ],
          [
            138.460412145495,
            36.557675015932844,
            1514.3
          ],
          [
            138.4601935241137,
            36.557712127372724,
            1518.1
          ],
          [
            138.45997490273234,
            36.557749238812605,
            1521.2
          ],
          [
            138.45975628135102,
            36.557786350252485,
            1527.2
          ],
          [
            138.4595376599697,
            36.557823461692365,
            1528.0
          ],
          [
            138.45931903858838,
            36.557860573132245,
            1533.0
          ],
          [
            138.45910041720705,
            36.557897684572126,
            1539.8
          ],
          [
            138.4588817958257,
            36.557934796012006,
            1544.5
          ],
          [
            138.45866317444438,
            36.557971907451886,
            1548.5
          ],
          [
            138.45844455306306,
            36.55800901889177,
            1552.4
          ],
          [
            138.45822593168174,
            36.55804613033165,
            1556.8
          ],
          [
            138.45800731030042,
            36.55808324177153,
            1560.6
          ],
          [
            138.45778868891907,
            36.55812035321141,
            1562.5
          ],
          [
            138.45757006753774,
            36.55815746465129,
            1565.5
          ],
          [
            138.45735144615642,
            36.55819457609117,
            1569.0
          ],
          [
            138.4571328247751,
            36.55823168753104,
            1570.8
          ],
          [
            138.45691420339378,
            36.55826879897092,
            1574.9
          ],
          [
            138.45669558201243,
            36.5583059104108,
            1577.9
          ],
          [
            138.4564769606311,
            36.55834302185068,
            1581.0
          ],
          [
            138.45625833924979,
            36.55838013329056,
            1583.6
          ],
          [
            138.45603971786846,
            36.55841724473044,
            1586.4
          ],
          [
            138.45582109648714,
            36.55845435617032,
            1589.7
          ],
          [
            138.4556024751058,
            36.5584914676102,
            1593.1
          ],
          [
            138.45538385372447,
            36.55852857905008,
            1597.4
          ],
          [
            138.45516523234315,
            36.558565690489964,
            1601.3
          ],
          [
            138.45494661096183,
            36.558602801929844,
            1604.2
          ],
          [
            138.4547279895805,
            36.558639913369724,
            1608.1
          ],
          [
            138.45450936819915,
            36.558677024809604,
            1611.5
          ],
          [
            138.45429074681783,
            36.558714136249485,
            1615.9
          ],
          [
            138.4540721254365,
            36.558751247689365,
            1620.3
          ],
          [
            138.4538535040552,
            36.558788359129245,
            1626.7
          ],
          [
            138.45363488267387,
            36.558825470569126,
            1630.9
          ],
          [
            138.45341626129252,
            36.558862582009006,
            1634.6
          ],
          [
            138.4531976399112,
            36.558899693448886,
            1637.9
          ],
          [
            138.45297901852987,
            36.558936804888766,
            1641.3
          ],
          [
            138.45276039714855,
            36.55897391632865,
            1645.2
          ],
          [
            138.45254177576723,
            36.55901102776853,
            1648.8
          ],
          [
            138.45232315438588,
            36.55904813920841,
            1651.9
          ],
          [
            138.45210453300456,
            36.55908525064829,
            1654.5
          ],
          [
            138.45188591162324,
            36.55912236208817,
            1658.2
          ],
          [
            138.45166729024191,
            36.55915947352805,
            1661.2
          ],
          [
            138.4514486688606,
            36.55919658496793,
            1663.7
          ],
          [
            138.45123004747924,
            36.55923369640781,
            1666.6
          ],
          [
            138.45101142609792,
            36.55927080784769,
            1669.7
          ],
          [
            138.4507928047166,
            36.55930791928757,
            1674.3
          ],
          [
            138.45057418333528,
            36.55934503072745,
            1679.7
          ],
          [
            138.45035556195396,
            36.55938214216733,
            1683.9
          ],
          [
            138.4501369405726,
            36.55941925360721,
            1687.6
          ],
          [
            138.44991831919128,
            36.55945636504709,
            1691.6
          ],
          [
            138.44969969780996,
            36.55949347648697,
            1693.8
          ],
          [
            138.44948107642864,
            36.55953058792685,
            1697.5
          ],
          [
            138.44926245504732,
            36.55956769936673,
            1700.1
          ],
          [
            138.44904383366597,
            36.55960481080661,
            1704.6
          ],
          [
            138.44882521228465,
            36.55964192224649,
            1711.8
          ],
          [
            138.44860659090332,
            36.55967903368637,
            1715.7
          ],
          [
            138.448387969522,
            36.55971614512625,
            1718.5
          ],
          [
            138.44816934814068,
            36.55975325656613,
            1722.0
          ],
          [
            138.44795072675933,
            36.55979036800601,
            1726.8
          ],
          [
            138.447732105378,
            36.55982747944589,
            1733.0
          ],
          [
            138.4475134839967,
            36.55986459088577,
            1736.0
          ],
          [
            138.44729486261537,
            36.559901702325654,
            1740.8
          ],
          [
            138.44707624123404,
            36.559938813765534,
            1744.9
          ],
          [
            138.4468576198527,
            36.559975925205414,
            1747.1
          ],
          [
            138.44663899847137,
            36.560013036645294,
            1750.9
          ],
          [
            138.44642037709005,
            36.560050148085175,
            1757.2
          ],
          [
            138.44620175570873,
            36.560087259525055,
            1762.6
          ],
          [
            138.4459831343274,
            36.560124370964935,
            1767.0
          ],
          [
            138.44576451294606,
            36.560161482404816,
            1771.7
          ],
          [
            138.44554589156473,
            36.560198593844696,
            1778.7
          ],
          [
            138.4453272701834,
            36.560235705284576,
            1784.1
          ],
          [
            138.4451086488021,
            36.560272816724456,
            1788.1
          ],
          [
            138.44489002742077,
            36.56030992816434,
            1792.2
          ],
          [
            138.44467140603942,
            36.56034703960422,
            1797.6
          ],
          [
            138.4444527846581,
            36.5603841510441,
            1803.2
          ],
          [
            138.44423416327678,
            36.56042126248398,
            1805.3
          ],
          [
            138.44401554189545,
            36.56045837392385,
            1809.4
          ],
          [
            138.44379692051413,
            36.56049548536373,
            1815.6
          ],
          [
            138.4435782991328,
            36.56053259680361,
            1819.3
          ],
          [
            138.44335967775146,
            36.56056970824349,
            1823.5
          ],
          [
            138.44314105637014,
            36.56060681968337,
            1828.0
          ],
          [
            138.44292243498882,
            36.56064393112325,
            1832.5
          ],
          [
            138.4427038136075,
            36.56068104256313,
            1835.8
          ],
          [
            138.44248519222617,
            36.56071815400301,
            1840.7
          ],
          [
            138.44226657084482,
            36.56075526544289,
            1844.3
          ],
          [
            138.4420479494635,
            36.56079237688277,
            1848.0
          ],
          [
            138.44182932808218,
            36.56082948832265,
            1850.9
          ],
          [
            138.44161070670086,
            36.560866599762534,
            1853.3
          ],
          [
            138.44139208531953,
            36.560903711202414,
            1854.3
          ],
          [
            138.44117346393818,
            36.560940822642294,
            1854.0
          ],
          [
            138.44095484255686,
            36.560977934082175,
            1854.5
          ],
          [
            138.44073622117554,
            36.561015045522055,
            1854.4
          ],
          [
            138.44051759979422,
            36.561052156961935,
            1856.0
          ],
          [
            138.4402989784129,
            36.561089268401815,
            1858.0
          ],
          [
            138.44008035703155,
            36.561126379841696,
            1860.2
          ],
          [
            138.43986173565023,
            36.561163491281576,
            1863.0
          ],
          [
            138.4396431142689,
            36.561200602721456,
            1866.5
          ],
          [
            138.43942449288758,
            36.56123771416134,
            1869.4
          ],
          [
            138.43920587150626,
            36.56127482560122,
            1872.1
          ],
          [
            138.4389872501249,
            36.5613119370411,
            1874.2
          ],
          [
            138.4387686287436,
            36.56134904848098,
            1876.8
          ],
          [
            138.43855000736227,
            36.56138615992086,
            1880.5
          ],
          [
            138.43833138598094,
            36.56142327136074,
            1884.7
          ],
          [
            138.43811276459962,
            36.56146038280062,
            1889.0
          ],
          [
            138.43789414321827,
            36.5614974942405,
            1892.4
          ],
          [
            138.43767552183695,
            36.56153460568038,
            1894.0
          ],
          [
            138.43745690045563,
            36.56157171712026,
            1895.8
          ],
          [
            138.4372382790743,
            36.56160882856014,
            1897.7
          ],
          [
            138.43701965769299,
            36.56164594000002,
            1902.3
          ],
          [
            138.43680103631164,
            36.5616830514399,
            1906.1
          ],
          [
            138.4365824149303,
            36.56172016287978,
            1905.2
          ],
          [
            138.436363793549,
            36.56175727431966,
            1906.0
          ],
          [
            138.43614517216767,
            36.56179438575954,
            1908.1
          ],
          [
            138.43592655078635,
            36.56183149719942,
            1911.8
          ],
          [
            138.435707929405,
            36.5618686086393,
            1913.2
          ],
          [
            138.43548930802368,
            36.56190572007918,
            1915.0
          ],
          [
            138.43527068664235,
            36.56194283151906,
            1918.4
          ],
          [
            138.43505206526103,
            36.56197994295894,
            1920.2
          ],
          [
            138.4348334438797,
            36.56201705439882,
            1927.0
          ],
          [
            138.43461482249836,
            36.5620541658387,
            1932.1
          ],
          [
            138.43439620111704,
            36.56209127727858,
            1934.3
          ],
          [
            138.43417757973572,
            36.56212838871846,
            1937.2
          ],
          [
            138.4339589583544,
            36.56216550015834,
            1941.8
          ],
          [
            138.43374033697307,
            36.562202611598224,
            1946.5
          ],
          [
            138.43352171559172,
            36.562239723038104,
            1949.7
          ],
          [
            138.4333030942104,
            36.562276834477984,
            1954.4
          ],
          [
            138.43308447282908,
            36.562313945917865,
            1957.7
          ],
          [
            138.43286585144776,
            36.562351057357745,
            1962.8
          ],
          [
            138.43264723006644,
            36.562388168797625,
            1968.6
          ],
          [
            138.4324286086851,
            36.562425280237505,
            1972.7
          ],
          [
            138.43220998730376,
            36.562462391677386,
            1976.4
          ],
          [
            138.43199136592244,
            36.562499503117266,
            1980.5
          ],
          [
            138.43177274454112,
            36.562536614557146,
            1985.5
          ],
          [
            138.4315541231598,
            36.56257372599703,
            1989.7
          ],
          [
            138.43133550177845,
            36.56261083743691,
            1995.0
          ],
          [
            138.43111688039713,
            36.56264794887679,
            2000.6
          ],
          [
            138.4308982590158,
            36.56268506031667,
            2005.7
          ],
          [
            138.43067963763448,
            36.56272217175654,
            2010.5
          ],
          [
            138.43046101625316,
            36.56275928319642,
            2015.6
          ],
          [
            138.4302423948718,
            36.5627963946363,
            2020.0
          ],
          [
            138.4300237734905,
            36.56283350607618,
            2028.2
          ],
          [
            138.42980515210917,
            36.56287061751606,
            2033.6
          ],
          [
            138.42968979281022,
            36.5628902,
            2033.7
          ]
        ]
      }
    },
    {
      "type": "Feature",
      "properties": {
        "name": "第1高速",
        "horizontal_dist_map": 1240,
        "slope_dist_map": 1263,
        "elevation_diff_map": 216.3,
        "midstation": null
      },
      "geometry": {
        "type": "LineString",
        "coordinates": [
          [
            138.4640126,
            36.557619,
            1469.1
          ],
          [
            138.46379671053293,
            36.55766535807822,
            1469.1
          ],
          [
            138.46358082106585,
            36.55771171615644,
            1475.0
          ],
          [
            138.4633649315988,
            36.557758074234656,
            1477.9
          ],
          [
            138.4631490421317,
            36.55780443231287,
            1479.8
          ],
          [
            138.46293315266465,
            36.557850790391086,
            1481.7
          ],
          [
            138.4627172631976,
            36.55789714846931,
            1484.0
          ],
          [
            138.4625013737305,
            36.557943506547524,
            1486.1
          ],
          [
            138.46228548426345,
            36.55798986462574,
            1490.2
          ],
          [
            138.4620695947964,
            36.55803622270396,
            1492.5
          ],
          [
            138.4618537053293,
            36.55808258078218,
            1496.5
          ],
          [
            138.46163781586225,
            36.55812893886039,
            1499.0
          ],
          [
            138.46142192639516,
            36.55817529693861,
            1501.8
          ],
          [
            138.4612060369281,
            36.55822165501683,
            1504.1
          ],
          [
            138.46099014746105,
            36.558268013095045,
            1506.4
          ],
          [
            138.46077425799396,
            36.55831437117326,
            1508.1
          ],
          [
            138.4605583685269,
            36.55836072925148,
            1509.9
          ],
          [
            138.46034247905982,
            36.5584070873297,
            1511.8
          ],
          [
            138.46012658959276,
            36.55845344540791,
            1516.3
          ],
          [
            138.4599107001257,
            36.55849980348613,
            1519.2
          ],
          [
            138.45969481065862,
            36.55854616156435,
            1520.8
          ],
          [
            138.45947892119156,
            36.558592519642566,
            1522.7
          ],
          [
            138.4592630317245,
            36.55863887772078,
            1525.0
          ],
          [
            138.45904714225742,
            36.558685235799,
            1527.4
          ],
          [
            138.45883125279036,
            36.55873159387722,
            1530.5
          ],
          [
            138.45861536332328,
            36.558777951955435,
            1535.2
          ],
          [
            138.45839947385622,
            36.55882431003365,
            1540.7
          ],
          [
            138.45818358438916,
            36.55887066811187,
            1547.5
          ],
          [
            138.45796769492208,
            36.55891702619009,
            1549.3
          ],
          [
            138.45775180545502,
            36.5589633842683,
            1552.9
          ],
          [
            138.45753591598793,
            36.55900974234652,
            1557.9
          ],
          [
            138.45732002652088,
            36.55905610042474,
            1562.3
          ],
          [
            138.45710413705382,
            36.559102458502956,
            1563.1
          ],
          [
            138.45688824758673,
            36.55914881658117,
            1565.1
          ],
          [
            138.45667235811968,
            36.55919517465939,
            1567.1
          ],
          [
            138.45645646865262,
            36.55924153273761,
            1569.8
          ],
          [
            138.45624057918553,
            36.559287890815824,
            1572.5
          ],
          [
            138.45602468971848,
            36.55933424889404,
            1575.9
          ],
          [
            138.4558088002514,
            36.55938060697226,
            1579.3
          ],
          [
            138.45559291078433,
            36.55942696505048,
            1581.4
          ],
          [
            138.45537702131728,
            36.55947332312869,
            1583.5
          ],
          [
            138.4551611318502,
            36.559519681206915,
            1589.2
          ],
          [
            138.45494524238313,
            36.55956603928513,
            1591.9
          ],
          [
            138.45472935291605,
            36.559612397363345,
            1592.7
          ],
          [
            138.454513463449,
            36.55965875544156,
            1597.0
          ],
          [
            138.45429757398193,
            36.55970511351978,
            1600.6
          ],
          [
            138.45408168451485,
            36.559751471598,
            1607.5
          ],
          [
            138.4538657950478,
            36.559797829676214,
            1613.4
          ],
          [
            138.45364990558073,
            36.559844187754436,
            1616.4
          ],
          [
            138.45343401611365,
            36.55989054583265,
            1621.1
          ],
          [
            138.4532181266466,
            36.55993690391087,
            1625.3
          ],
          [
            138.4530022371795,
            36.55998326198908,
            1628.2
          ],
          [
            138.45278634771245,
            36.560029620067304,
            1634.7
          ],
          [
            138.4525704582454,
            36.56007597814552,
            1639.9
          ],
          [
            138.4523545687783,
            36.560122336223735,
            1644.6
          ],
          [
            138.45213867931125,
            36.56016869430195,
            1649.6
          ],
          [
            138.45192278984416,
            36.56021505238017,
            1655.5
          ],
          [
            138.4517069003771,
            36.56026141045839,
            1660.3
          ],
          [
            138.45149101091005,
            36.5603077685366,
            1666.3
          ],
          [
            138.45127512144296,
            36.560354126614826,
            1672.2
          ],
          [
            138.4510592319759,
            36.56040048469304,
            1675.9
          ],
          [
            138.45084334250885,
            36.560446842771256,
            1680.8
          ],
          [
            138.45062745304176,
            36.56049320084947,
            1685.4
          ],
          [
            138.4506228,
            36.5604942,
            1685.4
          ]
        ]
      }
    },
    {
      "type": "Feature",
      "properties": {
        "name": "第2高速",
        "horizontal_dist_map": 826,
        "slope_dist_map": 848,
        "elevation_diff_map": 181.1,
        "midstation": null
      },
      "geometry": {
        "type": "LineString",
        "coordinates": [
          [
            138.43670598713982,
            36.56151013270161,
            1907.7
          ],
          [
            138.43648516479243,
            36.56148277248094,
            1907.2
          ],
          [
            138.436264342445,
            36.56145541226027,
            1910.6
          ],
          [
            138.43604352009763,
            36.5614280520396,
            1915.7
          ],
          [
            138.43582269775024,
            36.56140069181893,
            1918.4
          ],
          [
            138.43560187540285,
            36.56137333159826,
            1922.4
          ],
          [
            138.43538105305544,
            36.56134597137759,
            1926.8
          ],
          [
            138.43516023070805,
            36.56131861115692,
            1930.4
          ],
          [
            138.43493940836066,
            36.56129125093625,
            1933.2
          ],
          [
            138.43471858601328,
            36.56126389071558,
            1937.1
          ],
          [
            138.43449776366586,
            36.56123653049491,
            1942.1
          ],
          [
            138.43427694131847,
            36.56120917027424,
            1949.4
          ],
          [
            138.43405611897109,
            36.56118181005357,
            1952.8
          ],
          [
            138.43383529662367,
            36.561154449832905,
            1957.3
          ],
          [
            138.43361447427628,
            36.561127089612235,
            1962.6
          ],
          [
            138.4333936519289,
            36.561099729391564,
            1971.3
          ],
          [
            138.4331728295815,
            36.561072369170894,
            1975.5
          ],
          [
            138.4329520072341,
            36.561045008950224,
            1979.9
          ],
          [
            138.4327311848867,
            36.56101764872955,
            1986.0
          ],
          [
            138.43251036253932,
            36.56099028850888,
            1991.9
          ],
          [
            138.4322895401919,
            36.56096292828821,
            1996.0
          ],
          [
            138.43206871784452,
            36.56093556806754,
            2002.1
          ],
          [
            138.43184789549713,
            36.56090820784687,
            2008.6
          ],
          [
            138.43162707314974,
            36.5608808476262,
            2011.4
          ],
          [
            138.43140625080233,
            36.56085348740553,
            2015.8
          ],
          [
            138.43118542845494,
            36.56082612718486,
            2019.1
          ],
          [
            138.43096460610755,
            36.56079876696419,
            2022.7
          ],
          [
            138.43074378376016,
            36.56077140674352,
            2026.1
          ],
          [
            138.43052296141275,
            36.56074404652285,
            2029.2
          ],
          [
            138.43030213906536,
            36.56071668630218,
            2032.3
          ],
          [
            138.43008131671797,
            36.56068932608151,
            2035.9
          ],
          [
            138.42986049437056,
            36.56066196586084,
            2039.1
          ],
          [
            138.42963967202317,
            36.56063460564017,
            2043.4
          ],
          [
            138.42941884967578,
            36.5606072454195,
            2047.8
          ],
          [
            138.4291980273284,
            36.56057988519883,
            2052.2
          ],
          [
            138.42897720498098,
            36.560552524978156,
            2057.7
          ],
          [
            138.4287563826336,
            36.560525164757486,
            2062.7
          ],
          [
            138.4285355602862,
            36.56049780453682,
            2067.1
          ],
          [
            138.42831473793882,
            36.56047044431615,
            2073.1
          ],
          [
            138.4280939155914,
            36.56044308409548,
            2077.9
          ],
          [
            138.42787309324402,
            36.56041572387481,
            2083.1
          ],
          [
            138.42765227089663,
            36.56038836365414,
            2089.2
          ],
          [
            138.42758390796905,
            36.560379893384685,
            2088.8
          ]
        ]
      }
    },
    {
      "type": "Feature",
      "properties": {
        "name": "第3ペア",
        "horizontal_dist_map": 1347,
        "slope_dist_map": 1377,
        "elevation_diff_map": 268.9,
        "midstation": null
      },
      "geometry": {
        "type": "LineString",
        "coordinates": [
          [
            138.4579394,
            36.556698,
            1550.2
          ],
          [
            138.45771907352125,
            36.55672780442279,
            1551.9
          ],
          [
            138.4574987470425,
            36.55675760884559,
            1555.1
          ],
          [
            138.4572784205638,
            36.55678741326838,
            1558.0
          ],
          [
            138.45705809408506,
            36.556817217691176,
            1560.4
          ],
          [
            138.45683776760632,
            36.55684702211398,
            1563.0
          ],
          [
            138.45661744112758,
            36.55687682653677,
            1564.9
          ],
          [
            138.45639711464887,
            36.55690663095957,
            1570.3
          ],
          [
            138.45617678817013,
            36.55693643538236,
            1573.5
          ],
          [
            138.4559564616914,
            36.556966239805156,
            1576.6
          ],
          [
            138.45573613521265,
            36.55699604422795,
            1577.9
          ],
          [
            138.45551580873394,
            36.557025848650746,
            1581.1
          ],
          [
            138.4552954822552,
            36.55705565307354,
            1584.3
          ],
          [
            138.45507515577646,
            36.557085457496335,
            1589.9
          ],
          [
            138.45485482929772,
            36.55711526191913,
            1593.0
          ],
          [
            138.454634502819,
            36.55714506634193,
            1595.2
          ],
          [
            138.45441417634026,
            36.557174870764726,
            1597.5
          ],
          [
            138.45419384986153,
            36.55720467518752,
            1600.1
          ],
          [
            138.45397352338279,
            36.557234479610315,
            1603.2
          ],
          [
            138.45375319690405,
            36.55726428403311,
            1606.8
          ],
          [
            138.45353287042533,
            36.557294088455905,
            1612.8
          ],
          [
            138.4533125439466,
            36.5573238928787,
            1616.9
          ],
          [
            138.45309221746786,
            36.557353697301494,
            1619.6
          ],
          [
            138.45287189098912,
            36.55738350172429,
            1623.4
          ],
          [
            138.4526515645104,
            36.55741330614708,
            1627.1
          ],
          [
            138.45243123803166,
            36.557443110569885,
            1631.3
          ],
          [
            138.45221091155292,
            36.55747291499268,
            1632.7
          ],
          [
            138.45199058507418,
            36.557502719415474,
            1634.3
          ],
          [
            138.45177025859547,
            36.55753252383827,
            1637.7
          ],
          [
            138.45154993211673,
            36.557562328261064,
            1643.0
          ],
          [
            138.451329605638,
            36.55759213268386,
            1648.6
          ],
          [
            138.45110927915925,
            36.55762193710665,
            1652.6
          ],
          [
            138.45088895268051,
            36.55765174152945,
            1656.5
          ],
          [
            138.4506686262018,
            36.55768154595224,
            1661.9
          ],
          [
            138.45044829972306,
            36.55771135037504,
            1667.0
          ],
          [
            138.45022797324432,
            36.55774115479784,
            1671.9
          ],
          [
            138.45000764676558,
            36.55777095922063,
            1678.2
          ],
          [
            138.44978732028687,
            36.55780076364343,
            1684.1
          ],
          [
            138.44956699380813,
            36.55783056806622,
            1688.6
          ],
          [
            138.4493466673294,
            36.55786037248902,
            1694.3
          ],
          [
            138.44912634085065,
            36.55789017691181,
            1699.8
          ],
          [
            138.44890601437194,
            36.55791998133461,
            1705.7
          ],
          [
            138.4486856878932,
            36.5579497857574,
            1708.2
          ],
          [
            138.44846536141446,
            36.557979590180196,
            1712.3
          ],
          [
            138.44824503493572,
            36.55800939460299,
            1719.3
          ],
          [
            138.448024708457,
            36.55803919902579,
            1722.3
          ],
          [
            138.44780438197827,
            36.55806900344859,
            1727.0
          ],
          [
            138.44758405549953,
            36.55809880787138,
            1732.2
          ],
          [
            138.4473637290208,
            36.558128612294176,
            1735.9
          ],
          [
            138.44714340254205,
            36.55815841671697,
            1739.0
          ],
          [
            138.44692307606334,
            36.558188221139766,
            1745.0
          ],
          [
            138.4467027495846,
            36.55821802556256,
            1754.3
          ],
          [
            138.44648242310586,
            36.558247829985355,
            1758.0
          ],
          [
            138.44626209662712,
            36.55827763440815,
            1761.9
          ],
          [
            138.4460417701484,
            36.558307438830944,
            1765.0
          ],
          [
            138.44582144366967,
            36.558337243253746,
            1768.4
          ],
          [
            138.44560111719093,
            36.55836704767654,
            1771.0
          ],
          [
            138.4453807907122,
            36.558396852099335,
            1775.4
          ],
          [
            138.44516046423348,
            36.55842665652213,
            1780.2
          ],
          [
            138.44494013775474,
            36.558456460944925,
            1787.0
          ],
          [
            138.444719811276,
            36.55848626536772,
            1790.3
          ],
          [
            138.44449948479726,
            36.558516069790514,
            1795.4
          ],
          [
            138.44427915831852,
            36.55854587421331,
            1801.1
          ],
          [
            138.4440588318398,
            36.5585756786361,
            1804.2
          ],
          [
            138.44383850536107,
            36.5586054830589,
            1806.9
          ],
          [
            138.44361817888233,
            36.5586352874817,
            1809.9
          ],
          [
            138.4433978524036,
            36.558665091904494,
            1814.3
          ],
          [
            138.44317752592488,
            36.55869489632729,
            1818.9
          ],
          [
            138.4430984,
            36.5587056,
            1819.1
          ]
        ]
      }
    }
  ]
}