{
  "type": "FeatureCollection",
  "features": [
    {
      "type": "Feature",
      "properties": {
        "name": "第1",
        "horizontal_dist_map": 809,
        "slope_dist_map": 861,
        "elevation_diff_map": 267.2,
        "midstation": null
      },
      "geometry": {
        "type": "LineString",
        "coordinates": [
          [
            138.56449303250034,
            36.99603216714887,
            396.5
          ],
          [
            138.5643609192655,
            36.99617793870727,
            397.0
          ],
          [
            138.56422880603068,
            36.99632371026567,
            403.1
          ],
          [
            138.56409669279586,
            36.99646948182408,
            409.0
          ],
          [
            138.56396457956103,
            36.99661525338248,
            412.6
          ],
          [
            138.5638324663262,
            36.99676102494088,
            416.1
          ],
          [
            138.56370035309135,
            36.99690679649928,
            419.3
          ],
          [
            138.56356823985652,
            36.99705256805769,
            424.9
          ],
          [
            138.5634361266217,
            36.99719833961609,
            430.7
          ],
          [
            138.56330401338687,
            36.99734411117449,
            433.9
          ],
          [
            138.56317190015204,
            36.99748988273289,
            436.4
          ],
          [
            138.56303978691722,
            36.9976356542913,
            441.0
          ],
          [
            138.5629076736824,
            36.9977814258497,
            446.7
          ],
          [
            138.56277556044756,
            36.9979271974081,
            454.2
          ],
          [
            138.56264344721274,
            36.998072968966504,
            461.0
          ],
          [
            138.5625113339779,
            36.99821874052491,
            469.7
          ],
          [
            138.56237922074308,
            36.99836451208331,
            474.7
          ],
          [
            138.56224710750826,
            36.998510283641714,
            480.5
          ],
          [
            138.5621149942734,
            36.998656055200115,
            483.0
          ],
          [
            138.56198288103857,
            36.998801826758516,
            486.9
          ],
          [
            138.56185076780375,
            36.998947598316924,
            490.4
          ],
          [
            138.56171865456892,
            36.999093369875325,
            498.8
          ],
          [
            138.5615865413341,
            36.999239141433726,
            510.6
          ],
          [
            138.56145442809927,
            36.99938491299213,
            518.1
          ],
          [
            138.56132231486444,
            36.999530684550535,
            529.2
          ],
          [
            138.5611902016296,
            36.999676456108936,
            541.4
          ],
          [
            138.5610580883948,
            36.99982222766734,
            552.9
          ],
          [
            138.56092597515996,
            36.99996799922574,
            560.3
          ],
          [
            138.56079386192513,
            37.00011377078415,
            571.6
          ],
          [
            138.5606617486903,
            37.00025954234255,
            587.5
          ],
          [
            138.56052963545545,
            37.00040531390095,
            594.3
          ],
          [
            138.56039752222063,
            37.00055108545935,
            600.4
          ],
          [
            138.5602654089858,
            37.00069685701776,
            607.8
          ],
          [
            138.56013329575097,
            37.00084262857616,
            615.2
          ],
          [
            138.56000118251615,
            37.00098840013456,
            618.9
          ],
          [
            138.55986906928132,
            37.00113417169296,
            625.9
          ],
          [
            138.5597369560465,
            37.00127994325137,
            633.8
          ],
          [
            138.55960484281167,
            37.00142571480977,
            644.7
          ],
          [
            138.55947272957684,
            37.00157148636817,
            652.2
          ],
          [
            138.559340616342,
            37.00171725792657,
            658.9
          ],
          [
            138.5592085031072,
            37.00186302948497,
            663.0
          ],
          [
            138.55914349156052,
            37.001934762150384,
            663.7
          ]
        ]
      }
    },
    {
      "type": "Feature",
      "properties": {
        "name": "第3",
        "horizontal_dist_map": 409,
        "slope_dist_map": 418,
        "elevation_diff_map": 81.2,
        "midstation": null
      },
      "geometry": {
        "type": "LineString",
        "coordinates": [
          [
            138.56397940601803,
            36.995349985561596,
            396.5
          ],
          [
            138.56379062660594,
            36.99544770758966,
            397.9
          ],
          [
            138.56360184719384,
            36.99554542961772,
            402.1
          ],
          [
            138.56341306778174,
            36.99564315164579,
            405.8
          ],
          [
            138.56322428836964,
            36.995740873673846,
            408.5
          ],
          [
            138.56303550895754,
            36.99583859570191,
            412.1
          ],
          [
            138.56284672954544,
            36.99593631772997,
            414.2
          ],
          [
            138.5626579501333,
            36.99603403975804,
            418.0
          ],
          [
            138.56246917072122,
            36.996131761786096,
            422.4
          ],
          [
            138.56228039130912,
            36.99622948381416,
            425.6
          ],
          [
            138.56209161189702,
            36.99632720584223,
            428.5
          ],
          [
            138.56190283248492,
            36.99642492787029,
            431.8
          ],
          [
            138.56171405307282,
            36.99652264989835,
            435.5
          ],
          [
            138.56152527366072,
            36.99662037192641,
            439.8
          ],
          [
            138.56133649424862,
            36.99671809395448,
            443.6
          ],
          [
            138.56114771483652,
            36.996815815982536,
            449.1
          ],
          [
            138.56095893542442,
            36.9969135380106,
            453.4
          ],
          [
            138.56077015601232,
            36.99701126003866,
            457.6
          ],
          [
            138.56058137660023,
            36.99710898206673,
            464.3
          ],
          [
            138.56039259718813,
            36.99720670409479,
            470.7
          ],
          [
            138.56020381777603,
            36.99730442612285,
            476.4
          ],
          [
            138.5601098754947,
            36.9973530555266,
            477.7
          ]
        ]
      }
    },
    {
      "type": "Feature",
      "properties": {
        "name": "第2",
        "horizontal_dist_map": 510,
        "slope_dist_map": 534,
        "elevation_diff_map": 142.1,
        "midstation": null
      },
      "geometry": {
        "type": "LineString",
        "coordinates": [
          [
            138.55812516968052,
            37.000938340741214,
            658.4
          ],
          [
            138.55799527596085,
            37.001085393532975,
            658.9
          ],
          [
            138.55786538224118,
            37.001232446324735,
            660.7
          ],
          [
            138.55773548852153,
            37.001379499116496,
            662.0
          ],
          [
            138.55760559480186,
            37.001526551908256,
            664.0
          ],
          [
            138.55747570108218,
            37.00167360470002,
            665.9
          ],
          [
            138.5573458073625,
            37.00182065749178,
            671.0
          ],
          [
            138.55721591364286,
            37.00196771028354,
            675.7
          ],
          [
            138.5570860199232,
            37.0021147630753,
            685.6
          ],
          [
            138.55695612620352,
            37.002261815867065,
            693.8
          ],
          [
            138.55682623248384,
            37.002408868658826,
            695.3
          ],
          [
            138.5566963387642,
            37.002555921450586,
            700.6
          ],
          [
            138.55656644504452,
            37.00270297424235,
            707.7
          ],
          [
            138.55643655132485,
            37.00285002703411,
            716.7
          ],
          [
            138.55630665760518,
            37.00299707982587,
            724.1
          ],
          [
            138.55617676388553,
            37.00314413261763,
            730.7
          ],
          [
            138.55604687016586,
            37.00329118540939,
            738.1
          ],
          [
            138.55591697644618,
            37.00343823820115,
            747.7
          ],
          [
            138.5557870827265,
            37.00358529099291,
            756.7
          ],
          [
            138.55565718900684,
            37.00373234378467,
            759.2
          ],
          [
            138.5555272952872,
            37.00387939657643,
            763.1
          ],
          [
            138.55539740156752,
            37.00402644936819,
            771.1
          ],
          [
            138.55526750784784,
            37.00417350215995,
            778.9
          ],
          [
            138.55513761412817,
            37.00432055495171,
            785.6
          ],
          [
            138.55500772040853,
            37.00446760774347,
            793.9
          ],
          [
            138.55487782668885,
            37.00461466053523,
            799.9
          ],
          [
            138.55481191953604,
            37.004689274079624,
            800.5
          ]
        ]
      }
    }
  ]
}