{
  "type": "FeatureCollection",
  "features": [
    {
      "type": "Feature",
      "properties": {
        "name": "メルヘンクワッド",
        "horizontal_dist_map": 1257,
        "slope_dist_map": 1303,
        "elevation_diff_map": -307.8
      },
      "geometry": {
        "type": "LineString",
        "coordinates": [
          [
            141.0815714,
            43.0726761,
            620.1
          ],
          [
            141.08135296356343,
            43.072758352189894,
            619.0
          ],
          [
            141.08113451549102,
            43.0728405881491,
            622.8
          ],
          [
            141.08091605742032,
            43.07292281028519,
            631.5
          ],
          [
            141.08069759202965,
            43.073005022384706,
            640.0
          ],
          [
            141.08047913788513,
            43.07308725077419,
            648.2
          ],
          [
            141.08026071194777,
            43.07316952002166,
            656.4
          ],
          [
            141.08004227365694,
            43.07325177202808,
            666.1
          ],
          [
            141.07982381979068,
            43.07333400229681,
            677.4
          ],
          [
            141.07960536607845,
            43.07341623280805,
            688.7
          ],
          [
            141.0793869187662,
            43.07349847339543,
            698.4
          ],
          [
            141.07916847145393,
            43.07358071398281,
            703.4
          ],
          [
            141.07895001086231,
            43.07366293652485,
            708.5
          ],
          [
            141.07873154728753,
            43.073745155013064,
            712.7
          ],
          [
            141.07851308371278,
            43.07382737350128,
            716.1
          ],
          [
            141.07829462553445,
            43.07390960070805,
            720.0
          ],
          [
            141.0780761704608,
            43.073991832930666,
            724.3
          ],
          [
            141.07785771538713,
            43.074074065153276,
            728.5
          ],
          [
            141.07763926031345,
            43.07415629737589,
            733.2
          ],
          [
            141.07742080549394,
            43.07423853031127,
            737.3
          ],
          [
            141.07720235221743,
            43.074320767573774,
            740.8
          ],
          [
            141.0769838989409,
            43.07440300483628,
            743.2
          ],
          [
            141.07676544566436,
            43.07448524209878,
            746.9
          ],
          [
            141.07654699238785,
            43.074567479361285,
            750.5
          ],
          [
            141.07632853911133,
            43.07464971662379,
            753.8
          ],
          [
            141.07611008583478,
            43.07473195388629,
            758.2
          ],
          [
            141.07589163255827,
            43.074814191148796,
            761.4
          ],
          [
            141.07567316999618,
            43.074896416768055,
            764.6
          ],
          [
            141.07545470408292,
            43.07497863818522,
            767.9
          ],
          [
            141.07523623816965,
            43.07506085960239,
            771.0
          ],
          [
            141.07501777710505,
            43.075143088487465,
            774.9
          ],
          [
            141.07479932210703,
            43.075225326529534,
            783.0
          ],
          [
            141.07458087800694,
            43.07530758058319,
            789.9
          ],
          [
            141.07436241370624,
            43.075389806405184,
            801.4
          ],
          [
            141.07414395050128,
            43.07547203400819,
            808.3
          ],
          [
            141.07392549271412,
            43.07555427041744,
            814.3
          ],
          [
            141.07370703492697,
            43.0756365068267,
            820.8
          ],
          [
            141.0734885771398,
            43.075718743235946,
            826.5
          ],
          [
            141.07327011935266,
            43.0758009796452,
            834.5
          ],
          [
            141.07305165727723,
            43.07588321145421,
            839.4
          ],
          [
            141.07283319438042,
            43.075965442382035,
            844.3
          ],
          [
            141.07261473148358,
            43.07604767330985,
            849.6
          ],
          [
            141.07239626858674,
            43.07612990423767,
            855.3
          ],
          [
            141.07217779799367,
            43.076212124688276,
            860.2
          ],
          [
            141.07195932463213,
            43.07629434200046,
            864.7
          ],
          [
            141.07174086562162,
            43.076376580186995,
            867.4
          ],
          [
            141.0715224300819,
            43.076458852366414,
            871.2
          ],
          [
            141.0713039985411,
            43.07654113047505,
            873.9
          ],
          [
            141.07108550712354,
            43.07662332376912,
            877.6
          ],
          [
            141.0708670244334,
            43.07670552983554,
            881.8
          ],
          [
            141.0706485594691,
            43.076787761843306,
            885.2
          ],
          [
            141.07043009450481,
            43.07686999385107,
            889.9
          ],
          [
            141.07021163007283,
            43.07695222723882,
            893.8
          ],
          [
            141.0699931660473,
            43.0770344616804,
            897.0
          ],
          [
            141.06977470271295,
            43.0771166971802,
            900.4
          ],
          [
            141.06955624849337,
            43.07719894663575,
            905.1
          ],
          [
            141.0693377942738,
            43.07728119609129,
            911.2
          ],
          [
            141.06911933274412,
            43.077363435761264,
            914.5
          ],
          [
            141.0689008677389,
            43.077445670778744,
            917.1
          ],
          [
            141.06868239606507,
            43.07752789668311,
            922.1
          ],
          [
            141.0684639167062,
            43.07761011208532,
            923.5
          ],
          [
            141.06824544704915,
            43.077692341747564,
            925.0
          ],
          [
            141.068026989174,
            43.07777458872731,
            926.5
          ],
          [
            141.067832,
            43.077848,
            927.9
          ]
        ]
      }
    },
    {
      "type": "Feature",
      "properties": {
        "name": "スカイキャビン８",
        "horizontal_dist_map": 1906,
        "slope_dist_map": 1994,
        "elevation_diff_map": -460.7
      },
      "geometry": {
        "type": "LineString",
        "coordinates": [
          [
            141.0822223,
            43.0715958,
            625.5
          ],
          [
            141.08197981252096,
            43.07156740747872,
            626.5
          ],
          [
            141.08173732504193,
            43.07153901495744,
            627.9
          ],
          [
            141.08149483746388,
            43.07151062401146,
            628.8
          ],
          [
            141.08125234973332,
            43.071482235491644,
            628.9
          ],
          [
            141.0810098620028,
            43.07145384697182,
            629.3
          ],
          [
            141.08076737427223,
            43.071425458452005,
            629.9
          ],
          [
            141.0805248865417,
            43.07139706993219,
            631.9
          ],
          [
            141.08028239881114,
            43.07136868141237,
            634.1
          ],
          [
            141.0800399110806,
            43.07134029289256,
            637.8
          ],
          [
            141.07979742335004,
            43.07131190437274,
            644.1
          ],
          [
            141.0795549356195,
            43.071283515852926,
            651.0
          ],
          [
            141.0793124530028,
            43.071255106665475,
            657.6
          ],
          [
            141.07906997086178,
            43.07122669555563,
            664.7
          ],
          [
            141.07882748872078,
            43.07119828444578,
            663.6
          ],
          [
            141.07858500384128,
            43.071169887215625,
            664.0
          ],
          [
            141.0783425159056,
            43.07114150547551,
            665.3
          ],
          [
            141.07810002796995,
            43.07111312373539,
            668.5
          ],
          [
            141.07785754003427,
            43.07108474199527,
            671.5
          ],
          [
            141.07761505209862,
            43.071056360255156,
            673.4
          ],
          [
            141.07737256416297,
            43.07102797851504,
            674.2
          ],
          [
            141.0771300762273,
            43.07099959677492,
            676.5
          ],
          [
            141.07688758853692,
            43.070971214277776,
            679.7
          ],
          [
            141.07664510278693,
            43.07094282579169,
            682.5
          ],
          [
            141.07640261703696,
            43.070914437305596,
            684.5
          ],
          [
            141.076160131287,
            43.07088604881951,
            682.9
          ],
          [
            141.07591764553703,
            43.07085766033342,
            684.8
          ],
          [
            141.07567515978707,
            43.07082927184733,
            684.2
          ],
          [
            141.0754326803066,
            43.07080085564061,
            684.4
          ],
          [
            141.07519019611271,
            43.070772463811984,
            684.3
          ],
          [
            141.07494771184716,
            43.070744072332495,
            683.4
          ],
          [
            141.07470522758157,
            43.070715680853006,
            689.0
          ],
          [
            141.074462743316,
            43.07068728937351,
            695.7
          ],
          [
            141.07422025905043,
            43.07065889789402,
            708.0
          ],
          [
            141.07397777478485,
            43.07063050641453,
            719.8
          ],
          [
            141.07373529051927,
            43.07060211493504,
            733.9
          ],
          [
            141.07349280625368,
            43.07057372345555,
            743.4
          ],
          [
            141.07325032271055,
            43.07054533271869,
            749.0
          ],
          [
            141.07300783924094,
            43.07051694205743,
            746.9
          ],
          [
            141.07276535577137,
            43.070488551396174,
            739.3
          ],
          [
            141.07252287230176,
            43.07046016073491,
            740.1
          ],
          [
            141.07228038883216,
            43.070431770073654,
            747.5
          ],
          [
            141.07203790536258,
            43.0704033794124,
            761.2
          ],
          [
            141.07179542189297,
            43.07037498875114,
            772.0
          ],
          [
            141.0715529384234,
            43.07034659808988,
            785.7
          ],
          [
            141.0713104549538,
            43.07031820742862,
            799.6
          ],
          [
            141.07106797134986,
            43.07028981953027,
            805.3
          ],
          [
            141.0708254876475,
            43.07026143365687,
            810.9
          ],
          [
            141.07058300394513,
            43.070233047783475,
            821.7
          ],
          [
            141.07034052024278,
            43.070204661910076,
            829.7
          ],
          [
            141.0700980365404,
            43.070176276036676,
            837.4
          ],
          [
            141.06985555446118,
            43.07014788402903,
            844.9
          ],
          [
            141.06961307456356,
            43.07011948377674,
            853.8
          ],
          [
            141.0693705946659,
            43.07009108352445,
            860.8
          ],
          [
            141.0691281147683,
            43.07006268327216,
            871.5
          ],
          [
            141.06888563487064,
            43.07003428301987,
            882.6
          ],
          [
            141.06864315497302,
            43.07000588276758,
            893.6
          ],
          [
            141.0684006750754,
            43.06997748251529,
            903.3
          ],
          [
            141.06815819335827,
            43.06994909229276,
            910.5
          ],
          [
            141.06791571021435,
            43.06992070993545,
            918.6
          ],
          [
            141.0676732270704,
            43.069892327578145,
            923.6
          ],
          [
            141.06743074392648,
            43.06986394522084,
            931.6
          ],
          [
            141.06718826078256,
            43.06983556286354,
            939.3
          ],
          [
            141.0669457815916,
            43.06980716457136,
            945.0
          ],
          [
            141.06670330354297,
            43.06977876167456,
            950.1
          ],
          [
            141.0664608254943,
            43.06975035877777,
            958.2
          ],
          [
            141.06621834744564,
            43.06972195588097,
            963.5
          ],
          [
            141.06597586939696,
            43.06969355298418,
            972.4
          ],
          [
            141.06573339134832,
            43.06966515008738,
            979.0
          ],
          [
            141.0654909109993,
            43.069636759051924,
            982.2
          ],
          [
            141.06524842798316,
            43.06960838176915,
            987.8
          ],
          [
            141.065005944967,
            43.069580004486376,
            994.6
          ],
          [
            141.06476346195086,
            43.0695516272036,
            1001.8
          ],
          [
            141.0645209789347,
            43.06952324992083,
            1007.2
          ],
          [
            141.06427849848592,
            43.06949486278289,
            1011.1
          ],
          [
            141.0640360185274,
            43.06946647376307,
            1015.5
          ],
          [
            141.06379353856883,
            43.069438084743254,
            1021.4
          ],
          [
            141.0635510586103,
            43.069409695723444,
            1026.3
          ],
          [
            141.06330857968356,
            43.069381304770026,
            1029.3
          ],
          [
            141.06306610181826,
            43.069352911827394,
            1031.5
          ],
          [
            141.062823623953,
            43.06932451888476,
            1033.0
          ],
          [
            141.0625811460877,
            43.06929612594214,
            1036.6
          ],
          [
            141.06233866822242,
            43.069267732999506,
            1040.0
          ],
          [
            141.06209619035712,
            43.06923934005688,
            1043.5
          ],
          [
            141.06185371249185,
            43.06921094711425,
            1048.1
          ],
          [
            141.06161123462658,
            43.06918255417162,
            1051.6
          ],
          [
            141.06136875676128,
            43.069154161228994,
            1054.9
          ],
          [
            141.061126278896,
            43.06912576828636,
            1058.5
          ],
          [
            141.0608838010307,
            43.06909737534374,
            1061.7
          ],
          [
            141.06064132316544,
            43.069068982401106,
            1064.5
          ],
          [
            141.06039884530014,
            43.069040589458474,
            1069.4
          ],
          [
            141.06015636743487,
            43.06901219651585,
            1072.8
          ],
          [
            141.05991388956957,
            43.06898380357322,
            1076.3
          ],
          [
            141.0596714117043,
            43.06895541063059,
            1080.2
          ],
          [
            141.05942893383903,
            43.06892701768796,
            1084.0
          ],
          [
            141.05918645597373,
            43.06889862474533,
            1084.3
          ],
          [
            141.0591128,
            43.06889,
            1086.2
          ]
        ]
      }
    },
    {
      "type": "Feature",
      "properties": {
        "name": "ウッディーペア",
        "horizontal_dist_map": 788,
        "slope_dist_map": 802,
        "elevation_diff_map": -141.2
      },
      "geometry": {
        "type": "LineString",
        "coordinates": [
          [
            141.0624275,
            43.0759174,
            943.8
          ],
          [
            141.06233868031055,
            43.07574955984273,
            945.2
          ],
          [
            141.06224985522638,
            43.07558172128636,
            948.6
          ],
          [
            141.06216101349614,
            43.075413887669846,
            950.7
          ],
          [
            141.06207217176586,
            43.07524605405332,
            954.1
          ],
          [
            141.0619833300356,
            43.07507822043681,
            957.2
          ],
          [
            141.06189448830534,
            43.07491038682029,
            961.1
          ],
          [
            141.06180564657507,
            43.07474255320378,
            965.0
          ],
          [
            141.06171680484482,
            43.074574719587254,
            969.2
          ],
          [
            141.0616279644211,
            43.07440688575769,
            972.3
          ],
          [
            141.0615391252343,
            43.07423905172643,
            976.1
          ],
          [
            141.06145028604752,
            43.07407121769517,
            979.0
          ],
          [
            141.0613614481538,
            43.073903383379154,
            981.7
          ],
          [
            141.06127261563228,
            43.07373554760461,
            983.0
          ],
          [
            141.0611838000001,
            43.07356770710835,
            985.2
          ],
          [
            141.06109496072196,
            43.07339987343458,
            987.7
          ],
          [
            141.06100612144385,
            43.0732320397608,
            990.5
          ],
          [
            141.06091729123673,
            43.07306420359985,
            993.2
          ],
          [
            141.0608284669883,
            43.07289636580507,
            996.5
          ],
          [
            141.0607396410546,
            43.07272852853105,
            998.8
          ],
          [
            141.06065081170706,
            43.07256069231191,
            1001.2
          ],
          [
            141.06056197963608,
            43.072392856941796,
            1005.4
          ],
          [
            141.0604731463496,
            43.072225021950615,
            1009.8
          ],
          [
            141.06038431649887,
            43.07205718610274,
            1013.7
          ],
          [
            141.06029548674547,
            43.07188935023059,
            1017.3
          ],
          [
            141.06020664656347,
            43.07172151741301,
            1020.0
          ],
          [
            141.0601178123591,
            43.071553682987535,
            1023.7
          ],
          [
            141.06002898357167,
            43.07138584706812,
            1029.2
          ],
          [
            141.05994015384107,
            43.07121801142939,
            1034.3
          ],
          [
            141.05985131185008,
            43.071050179439375,
            1038.8
          ],
          [
            141.05976246985912,
            43.07088234744937,
            1043.0
          ],
          [
            141.05967363266518,
            43.07071451413178,
            1048.0
          ],
          [
            141.05958481479,
            43.07054667546771,
            1052.6
          ],
          [
            141.05949599691488,
            43.07037883680365,
            1055.8
          ],
          [
            141.05940717690908,
            43.07021099879433,
            1059.5
          ],
          [
            141.05931835047915,
            43.07004316275914,
            1064.7
          ],
          [
            141.0592295240492,
            43.069875326723945,
            1068.7
          ],
          [
            141.05914069652243,
            43.06970749101737,
            1073.2
          ],
          [
            141.05905185806827,
            43.06953965858474,
            1078.3
          ],
          [
            141.05896301961408,
            43.06937182615211,
            1083.0
          ],
          [
            141.058925,
            43.0693,
            1085.0
          ]
        ]
      }
    },
    {
      "type": "Feature",
      "properties": {
        "name": "エコークワッド",
        "horizontal_dist_map": 1073,
        "slope_dist_map": 1110,
        "elevation_diff_map": -240.3
      },
      "geometry": {
        "type": "LineString",
        "coordinates": [
          [
            141.0708136,
            43.0741848,
            838.6
          ],
          [
            141.07060114733315,
            43.07409451051419,
            842.2
          ],
          [
            141.07038869466626,
            43.07400422102838,
            844.5
          ],
          [
            141.0701762419994,
            43.07391393154258,
            846.1
          ],
          [
            141.0699637857733,
            43.07382364730255,
            848.4
          ],
          [
            141.06975132662183,
            43.07373336737402,
            851.8
          ],
          [
            141.06953886747038,
            43.07364308744548,
            854.9
          ],
          [
            141.0693264094331,
            43.07355280622281,
            858.4
          ],
          [
            141.06911396172163,
            43.073462513006206,
            863.5
          ],
          [
            141.06890151401018,
            43.073372219789604,
            864.5
          ],
          [
            141.0686890598586,
            43.07328193574379,
            865.4
          ],
          [
            141.06847660034566,
            43.0731916593326,
            867.4
          ],
          [
            141.06826414083272,
            43.07310138292141,
            869.6
          ],
          [
            141.0680516813198,
            43.073011106510215,
            868.2
          ],
          [
            141.06783922180685,
            43.07292083009902,
            874.4
          ],
          [
            141.0676267622939,
            43.07283055368783,
            876.8
          ],
          [
            141.06741430278097,
            43.07274027727664,
            878.8
          ],
          [
            141.06720184321307,
            43.07265000181387,
            883.1
          ],
          [
            141.06698938369047,
            43.07255972716513,
            887.2
          ],
          [
            141.06677692524508,
            43.07246945214472,
            889.6
          ],
          [
            141.06656446679972,
            43.07237917712431,
            891.5
          ],
          [
            141.06635200835433,
            43.07228890210391,
            893.8
          ],
          [
            141.06613955023505,
            43.0721986267423,
            897.2
          ],
          [
            141.06592709919983,
            43.07210834396885,
            901.4
          ],
          [
            141.0657146481646,
            43.07201806119541,
            906.1
          ],
          [
            141.06550219712938,
            43.071927778421966,
            910.3
          ],
          [
            141.06528974609415,
            43.071837495648516,
            913.4
          ],
          [
            141.06507730534284,
            43.07174720138583,
            916.0
          ],
          [
            141.06486486657468,
            43.07165690490754,
            918.4
          ],
          [
            141.06465242780652,
            43.07156660842925,
            924.9
          ],
          [
            141.06443998903836,
            43.07147631195096,
            933.7
          ],
          [
            141.06422755027023,
            43.07138601547267,
            939.6
          ],
          [
            141.0640150979326,
            43.07129573775243,
            944.8
          ],
          [
            141.06380264299585,
            43.0712054636252,
            955.3
          ],
          [
            141.0635901880591,
            43.07111518949797,
            963.9
          ],
          [
            141.0633777331223,
            43.07102491537073,
            972.7
          ],
          [
            141.06316528077872,
            43.070934638193,
            978.9
          ],
          [
            141.06295284237558,
            43.070844344616255,
            984.2
          ],
          [
            141.06274040397244,
            43.070754051039515,
            993.0
          ],
          [
            141.06252795858876,
            43.07066376680152,
            1000.2
          ],
          [
            141.06231550274646,
            43.07057349655544,
            1008.3
          ],
          [
            141.06210304690416,
            43.07048322630936,
            1018.7
          ],
          [
            141.06189059106183,
            43.07039295606329,
            1030.9
          ],
          [
            141.06167816225852,
            43.070302652356716,
            1042.3
          ],
          [
            141.061465746486,
            43.070212332524704,
            1048.0
          ],
          [
            141.06125329235746,
            43.07012206206661,
            1050.9
          ],
          [
            141.06104083289182,
            43.0700317984787,
            1053.0
          ],
          [
            141.06082837342618,
            43.069941534890795,
            1054.4
          ],
          [
            141.0606159226233,
            43.06985126129967,
            1057.2
          ],
          [
            141.06040347663256,
            43.06976098215177,
            1060.2
          ],
          [
            141.06019103064182,
            43.06967070300387,
            1062.9
          ],
          [
            141.05997858465108,
            43.069580423855975,
            1066.8
          ],
          [
            141.0597661450316,
            43.06949013704241,
            1070.9
          ],
          [
            141.05955371925472,
            43.0693998335739,
            1075.5
          ],
          [
            141.0594085,
            43.0693381,
            1078.9
          ]
        ]
      }
    }
  ]
}