{
  "type": "FeatureCollection",
  "features": [
    {
      "type": "Feature",
      "properties": {
        "name": "イーストペア",
        "horizontal_dist_map": 423,
        "slope_dist_map": 450,
        "elevation_diff_map": 144.1
      },
      "geometry": {
        "type": "LineString",
        "coordinates": [
          [
            141.2818564,
            43.0301164,
            203.7
          ],
          [
            141.28182282157874,
            43.02993806457564,
            206.1
          ],
          [
            141.28178924315748,
            43.02975972915128,
            216.2
          ],
          [
            141.2817556647362,
            43.02958139372692,
            221.4
          ],
          [
            141.28172208631494,
            43.02940305830256,
            230.4
          ],
          [
            141.28168850789368,
            43.029224722878205,
            239.2
          ],
          [
            141.2816549294724,
            43.029046387453846,
            248.9
          ],
          [
            141.28162135105114,
            43.02886805202949,
            259.3
          ],
          [
            141.28158777262985,
            43.02868971660513,
            267.7
          ],
          [
            141.28155419420858,
            43.02851138118077,
            277.6
          ],
          [
            141.28152061578731,
            43.02833304575641,
            287.8
          ],
          [
            141.28148703736605,
            43.02815471033205,
            295.2
          ],
          [
            141.28145345894478,
            43.027976374907695,
            304.1
          ],
          [
            141.28141988052352,
            43.027798039483336,
            306.2
          ],
          [
            141.28138630210225,
            43.02761970405898,
            311.0
          ],
          [
            141.28135272368098,
            43.02744136863462,
            316.6
          ],
          [
            141.28131914525972,
            43.02726303321026,
            319.4
          ],
          [
            141.28128556683845,
            43.0270846977859,
            321.8
          ],
          [
            141.28125198841718,
            43.026906362361544,
            326.6
          ],
          [
            141.28121840999592,
            43.026728026937185,
            334.3
          ],
          [
            141.28118483157465,
            43.02654969151283,
            339.1
          ],
          [
            141.28115125315338,
            43.02637135608846,
            346.7
          ],
          [
            141.28114523658982,
            43.02633940204258,
            347.8
          ]
        ]
      }
    },
    {
      "type": "Feature",
      "properties": {
        "name": "ウエストペア",
        "horizontal_dist_map": 733,
        "slope_dist_map": 754,
        "elevation_diff_map": 136.6
      },
      "geometry": {
        "type": "LineString",
        "coordinates": [
          [
            141.27598892070063,
            43.03190938666238,
            193.2
          ],
          [
            141.27589414466127,
            43.031743327256336,
            195.2
          ],
          [
            141.27579936862193,
            43.031577267850295,
            198.0
          ],
          [
            141.27570459258257,
            43.031411208444254,
            200.6
          ],
          [
            141.2756098165432,
            43.031245149038206,
            205.7
          ],
          [
            141.27551504050388,
            43.031079089632165,
            213.3
          ],
          [
            141.27542026446451,
            43.030913030226124,
            222.3
          ],
          [
            141.27532548842515,
            43.03074697082008,
            230.2
          ],
          [
            141.2752307123858,
            43.03058091141404,
            232.2
          ],
          [
            141.27513593634646,
            43.030414852008,
            232.9
          ],
          [
            141.2750411603071,
            43.03024879260196,
            236.4
          ],
          [
            141.27494638426774,
            43.03008273319592,
            236.8
          ],
          [
            141.2748516082284,
            43.02991667378987,
            240.4
          ],
          [
            141.27475683218904,
            43.02975061438383,
            246.9
          ],
          [
            141.27466205614968,
            43.02958455497779,
            256.5
          ],
          [
            141.27456728011035,
            43.02941849557175,
            262.8
          ],
          [
            141.27447250407099,
            43.029252436165706,
            264.3
          ],
          [
            141.27437772803162,
            43.029086376759665,
            264.8
          ],
          [
            141.27428295199226,
            43.028920317353624,
            263.2
          ],
          [
            141.27418817595293,
            43.02875425794758,
            261.1
          ],
          [
            141.27409339991357,
            43.028588198541534,
            261.5
          ],
          [
            141.2739986238742,
            43.02842213913549,
            262.1
          ],
          [
            141.27390384783487,
            43.02825607972945,
            263.1
          ],
          [
            141.2738090717955,
            43.02809002032341,
            266.1
          ],
          [
            141.27371429575615,
            43.02792396091737,
            271.3
          ],
          [
            141.27361951971682,
            43.02775790151133,
            274.5
          ],
          [
            141.27352474367746,
            43.02759184210529,
            276.0
          ],
          [
            141.2734299676381,
            43.02742578269925,
            277.9
          ],
          [
            141.27333519159876,
            43.0272597232932,
            278.4
          ],
          [
            141.2732404155594,
            43.02709366388716,
            280.1
          ],
          [
            141.27314563952004,
            43.026927604481116,
            283.4
          ],
          [
            141.27305086348068,
            43.026761545075075,
            287.5
          ],
          [
            141.27295608744134,
            43.026595485669034,
            292.2
          ],
          [
            141.27286131140198,
            43.02642942626299,
            299.1
          ],
          [
            141.27276653536262,
            43.02626336685695,
            308.7
          ],
          [
            141.2726717593233,
            43.02609730745091,
            317.5
          ],
          [
            141.27257698328393,
            43.02593124804486,
            326.0
          ],
          [
            141.27251199011144,
            43.02581737192498,
            329.8
          ]
        ]
      }
    },
    {
      "type": "Feature",
      "properties": {
        "name": "オレンジペア",
        "horizontal_dist_map": 659,
        "slope_dist_map": 700,
        "elevation_diff_map": 218.0
      },
      "geometry": {
        "type": "LineString",
        "coordinates": [
          [
            141.2773490844527,
            43.03019455418103,
            217.2
          ],
          [
            141.2773280981591,
            43.03001518487989,
            220.2
          ],
          [
            141.2773071118655,
            43.02983581557875,
            222.5
          ],
          [
            141.2772861255719,
            43.02965644627761,
            225.4
          ],
          [
            141.27726513927826,
            43.02947707697647,
            230.1
          ],
          [
            141.27724415298465,
            43.02929770767533,
            234.7
          ],
          [
            141.27722316669104,
            43.02911833837419,
            239.9
          ],
          [
            141.27720218039744,
            43.02893896907305,
            243.3
          ],
          [
            141.27718119410383,
            43.02875959977192,
            245.3
          ],
          [
            141.27716020781023,
            43.02858023047077,
            248.3
          ],
          [
            141.2771392215166,
            43.02840086116964,
            251.3
          ],
          [
            141.27711823522299,
            43.02822149186849,
            257.0
          ],
          [
            141.27709724892938,
            43.028042122567356,
            265.0
          ],
          [
            141.27707626263577,
            43.02786275326622,
            274.8
          ],
          [
            141.27705527634217,
            43.027683383965076,
            280.9
          ],
          [
            141.27703429004856,
            43.02750401466394,
            288.4
          ],
          [
            141.27701330375493,
            43.027324645362796,
            293.1
          ],
          [
            141.27699231746132,
            43.02714527606166,
            300.3
          ],
          [
            141.27697133116772,
            43.026965906760516,
            307.7
          ],
          [
            141.2769503448741,
            43.02678653745938,
            317.6
          ],
          [
            141.2769293585805,
            43.02660716815824,
            328.0
          ],
          [
            141.2769083722869,
            43.0264277988571,
            337.9
          ],
          [
            141.2768873859933,
            43.02624842955596,
            348.6
          ],
          [
            141.27686639969966,
            43.02606906025482,
            353.7
          ],
          [
            141.27684541340605,
            43.02588969095368,
            357.3
          ],
          [
            141.27682442711244,
            43.02571032165255,
            360.5
          ],
          [
            141.27680344081884,
            43.0255309523514,
            369.2
          ],
          [
            141.27678245452523,
            43.025351583050266,
            378.8
          ],
          [
            141.27676146823163,
            43.02517221374912,
            387.3
          ],
          [
            141.276740481938,
            43.024992844447986,
            400.9
          ],
          [
            141.2767194956444,
            43.02481347514684,
            409.7
          ],
          [
            141.27669850935078,
            43.024634105845706,
            419.3
          ],
          [
            141.27667752305717,
            43.02445473654457,
            426.3
          ],
          [
            141.2766575,
            43.0242836,
            435.2
          ]
        ]
      }
    },
    {
      "type": "Feature",
      "properties": {
        "name": "センタートリプル",
        "horizontal_dist_map": 380,
        "slope_dist_map": 391,
        "elevation_diff_map": 83.3
      },
      "geometry": {
        "type": "LineString",
        "coordinates": [
          [
            141.2785264,
            43.030446,
            218.0
          ],
          [
            141.27850070525162,
            43.03026696078811,
            218.3
          ],
          [
            141.2784750105032,
            43.03008792157623,
            221.5
          ],
          [
            141.2784493157548,
            43.029908882364346,
            224.2
          ],
          [
            141.27842362100643,
            43.02972984315246,
            227.1
          ],
          [
            141.278397926258,
            43.02955080394058,
            230.2
          ],
          [
            141.27837223150962,
            43.029371764728694,
            233.2
          ],
          [
            141.2783465367612,
            43.02919272551681,
            235.7
          ],
          [
            141.27832084201282,
            43.02901368630493,
            238.6
          ],
          [
            141.27829514726443,
            43.02883464709304,
            241.8
          ],
          [
            141.278269452516,
            43.028655607881156,
            245.0
          ],
          [
            141.27824375776763,
            43.02847656866928,
            248.9
          ],
          [
            141.27821806301924,
            43.02829752945739,
            252.9
          ],
          [
            141.27819236827082,
            43.02811849024551,
            256.3
          ],
          [
            141.27816667352243,
            43.027939451033625,
            264.9
          ],
          [
            141.27814097877405,
            43.02776041182174,
            271.9
          ],
          [
            141.27811528402563,
            43.02758137260986,
            277.9
          ],
          [
            141.27808958927724,
            43.02740233339797,
            285.5
          ],
          [
            141.27806389452886,
            43.027223294186086,
            294.0
          ],
          [
            141.27803819978044,
            43.02704425497421,
            301.3
          ],
          [
            141.27803796169766,
            43.02704259603001,
            301.3
          ]
        ]
      }
    }
  ]
}