{
  "type": "FeatureCollection",
  "features": [
    {
      "type": "Feature",
      "properties": {
        "name": "白樺第2",
        "horizontal_dist_map": 246,
        "slope_dist_map": 254,
        "elevation_diff_map": 63.0
      },
      "geometry": {
        "type": "LineString",
        "coordinates": [
          [
            141.2089564,
            43.0964415,
            424.1
          ],
          [
            141.20873107262852,
            43.09636978624358,
            424.9
          ],
          [
            141.20850573734955,
            43.096298086305076,
            429.7
          ],
          [
            141.20828040184622,
            43.09622638695107,
            434.2
          ],
          [
            141.20805506576352,
            43.09615468910657,
            438.7
          ],
          [
            141.2078297315381,
            43.096082988644795,
            446.1
          ],
          [
            141.20760441103403,
            43.09601126562376,
            451.6
          ],
          [
            141.20737909837757,
            43.09593952966676,
            458.2
          ],
          [
            141.20715378265848,
            43.0958677990277,
            464.1
          ],
          [
            141.20692844782405,
            43.09579610158038,
            471.0
          ],
          [
            141.2067031129896,
            43.09572440413306,
            475.4
          ],
          [
            141.20647778011207,
            43.09565270408829,
            480.8
          ],
          [
            141.20625244800763,
            43.095581003017344,
            485.1
          ],
          [
            141.2061833,
            43.095559,
            487.1
          ]
        ]
      }
    },
    {
      "type": "Feature",
      "properties": {
        "name": "白樺第1 B線",
        "horizontal_dist_map": 474,
        "slope_dist_map": 484,
        "elevation_diff_map": 96.4
      },
      "geometry": {
        "type": "LineString",
        "coordinates": [
          [
            141.2098302,
            43.0958294,
            418.8
          ],
          [
            141.2097123822464,
            43.09567142911066,
            419.0
          ],
          [
            141.20959456449282,
            43.095513458221326,
            422.8
          ],
          [
            141.2094767383945,
            43.09535549090348,
            425.9
          ],
          [
            141.20935890918932,
            43.09519752491536,
            429.1
          ],
          [
            141.2092410799841,
            43.09503955892724,
            432.6
          ],
          [
            141.20912324496095,
            43.09488159550755,
            435.6
          ],
          [
            141.20900540651047,
            43.09472363360088,
            439.8
          ],
          [
            141.20888756806002,
            43.09456567169421,
            444.5
          ],
          [
            141.20876971016554,
            43.09440771764542,
            449.6
          ],
          [
            141.20865186320253,
            43.09424975946828,
            453.7
          ],
          [
            141.2085340613237,
            43.094091783290764,
            458.9
          ],
          [
            141.2084162346969,
            43.09393381731706,
            463.3
          ],
          [
            141.20829840807008,
            43.093775851343345,
            467.9
          ],
          [
            141.20818058144326,
            43.09361788536964,
            472.9
          ],
          [
            141.20806274858148,
            43.09345992206377,
            477.7
          ],
          [
            141.20794490672733,
            43.09330196260561,
            483.0
          ],
          [
            141.2078270648732,
            43.09314400314744,
            488.7
          ],
          [
            141.20770922301907,
            43.092986043689265,
            494.2
          ],
          [
            141.20759142190118,
            43.09282806824916,
            498.7
          ],
          [
            141.20747362317036,
            43.092670091872556,
            503.1
          ],
          [
            141.20735581480645,
            43.09251211945783,
            507.3
          ],
          [
            141.20723798513495,
            43.092354155806454,
            510.2
          ],
          [
            141.20712015546349,
            43.09219619215508,
            512.4
          ],
          [
            141.2070352,
            43.0920823,
            515.2
          ]
        ]
      }
    },
    {
      "type": "Feature",
      "properties": {
        "name": "パノラマ1号",
        "horizontal_dist_map": 989,
        "slope_dist_map": 1023,
        "elevation_diff_map": 242.2
      },
      "geometry": {
        "type": "LineString",
        "coordinates": [
          [
            141.2078404,
            43.0699071,
            743.1
          ],
          [
            141.20762105291703,
            43.06998802519268,
            744.1
          ],
          [
            141.20740170583406,
            43.07006895038535,
            749.7
          ],
          [
            141.20718235777977,
            43.07014987436076,
            757.3
          ],
          [
            141.20696300468535,
            43.070230792019714,
            762.6
          ],
          [
            141.20674365159093,
            43.07031170967868,
            768.9
          ],
          [
            141.20652429761293,
            43.07039262624671,
            774.9
          ],
          [
            141.20630493890093,
            43.07047353696977,
            780.9
          ],
          [
            141.20608558018895,
            43.070554447692835,
            788.2
          ],
          [
            141.20586622278222,
            43.0706353605866,
            794.5
          ],
          [
            141.2056468705658,
            43.07071628211227,
            799.3
          ],
          [
            141.20542751834938,
            43.070797203637945,
            806.7
          ],
          [
            141.20520816613296,
            43.07087812516362,
            813.2
          ],
          [
            141.20498881633551,
            43.07095905127049,
            815.8
          ],
          [
            141.20476946723872,
            43.071039978704334,
            819.5
          ],
          [
            141.20455011814195,
            43.07112090613818,
            825.8
          ],
          [
            141.20433075925803,
            43.07120182024011,
            829.5
          ],
          [
            141.20411139615106,
            43.07128272858943,
            833.7
          ],
          [
            141.20389203304407,
            43.07136363693874,
            839.5
          ],
          [
            141.20367266944933,
            43.071444545294014,
            844.0
          ],
          [
            141.20345330522585,
            43.07152545365696,
            851.3
          ],
          [
            141.20323394100237,
            43.07160636201991,
            859.1
          ],
          [
            141.20301457677888,
            43.071687270382846,
            865.7
          ],
          [
            141.2027952125554,
            43.07176817874579,
            871.4
          ],
          [
            141.20257586006232,
            43.0718491058641,
            875.3
          ],
          [
            141.20235650926543,
            43.07193003569441,
            880.1
          ],
          [
            141.20213715846853,
            43.07201096552471,
            885.9
          ],
          [
            141.20191780767163,
            43.072091895355015,
            891.2
          ],
          [
            141.20169845133705,
            43.07217281757642,
            896.8
          ],
          [
            141.2014790847737,
            43.072253725743316,
            900.4
          ],
          [
            141.2012597197154,
            43.07233463699021,
            902.6
          ],
          [
            141.2010403555242,
            43.072415550011556,
            904.7
          ],
          [
            141.20082099133302,
            43.0724964630329,
            907.2
          ],
          [
            141.20060162714182,
            43.07257737605425,
            909.4
          ],
          [
            141.20038226295063,
            43.07265828907559,
            912.4
          ],
          [
            141.20016290591533,
            43.07273921397667,
            914.6
          ],
          [
            141.19994355217514,
            43.072820144347986,
            917.5
          ],
          [
            141.19972419843492,
            43.072901074719304,
            921.5
          ],
          [
            141.19950484469473,
            43.07298200509063,
            928.1
          ],
          [
            141.19928549095454,
            43.07306293546195,
            936.9
          ],
          [
            141.19906612952713,
            43.07314385563372,
            941.9
          ],
          [
            141.19884676056327,
            43.073224765805925,
            947.9
          ],
          [
            141.1986273915994,
            43.07330567597814,
            949.6
          ],
          [
            141.19840802263553,
            43.07338658615035,
            951.7
          ],
          [
            141.19818865118435,
            43.07346749300078,
            954.8
          ],
          [
            141.19796927173672,
            43.07354838917209,
            961.5
          ],
          [
            141.19774989977407,
            43.07362929674769,
            966.2
          ],
          [
            141.1975305384091,
            43.07371022047027,
            968.8
          ],
          [
            141.19731117704413,
            43.073791144192846,
            976.3
          ],
          [
            141.19709181567916,
            43.073872067915424,
            983.1
          ],
          [
            141.1969833,
            43.0739121,
            985.3
          ]
        ]
      }
    },
    {
      "type": "Feature",
      "properties": {
        "name": "サミットエクスプレス",
        "horizontal_dist_map": 1139,
        "slope_dist_map": 1231,
        "elevation_diff_map": 423.3
      },
      "geometry": {
        "type": "LineString",
        "coordinates": [
          [
            141.2042436,
            43.0840509,
            562.7
          ],
          [
            141.20411354823298,
            43.08389818184722,
            563.0
          ],
          [
            141.20398349646595,
            43.083745463694434,
            569.1
          ],
          [
            141.20385345377758,
            43.08359274160162,
            572.9
          ],
          [
            141.20372342413947,
            43.083440013845156,
            576.1
          ],
          [
            141.20359339450133,
            43.083287286088684,
            579.3
          ],
          [
            141.2034633648632,
            43.08313455833222,
            581.4
          ],
          [
            141.2033333352251,
            43.08298183057575,
            585.5
          ],
          [
            141.20320329731223,
            43.08282910711797,
            588.3
          ],
          [
            141.20307325688154,
            43.08267638496821,
            592.7
          ],
          [
            141.20294321645082,
            43.082523662818446,
            596.8
          ],
          [
            141.2028131760201,
            43.08237094066869,
            599.7
          ],
          [
            141.20268313606368,
            43.0822182183577,
            603.7
          ],
          [
            141.20255310096644,
            43.082065494394996,
            607.2
          ],
          [
            141.2024230658692,
            43.08191277043228,
            610.7
          ],
          [
            141.20229303077195,
            43.081760046469576,
            614.1
          ],
          [
            141.20216299548704,
            43.08160732262472,
            618.4
          ],
          [
            141.20203295551383,
            43.08145460172434,
            622.7
          ],
          [
            141.20190291554064,
            43.08130188082396,
            626.4
          ],
          [
            141.20177287556743,
            43.08114915992358,
            631.1
          ],
          [
            141.20164283559424,
            43.080996439023195,
            635.8
          ],
          [
            141.20151279562103,
            43.080843718122814,
            639.0
          ],
          [
            141.2013827556478,
            43.08069099722243,
            645.8
          ],
          [
            141.20125271567463,
            43.08053827632205,
            652.2
          ],
          [
            141.20112267948068,
            43.08038555416653,
            658.3
          ],
          [
            141.200992646884,
            43.080232830816335,
            669.0
          ],
          [
            141.20086261428736,
            43.08008010746613,
            680.4
          ],
          [
            141.2007325816907,
            43.07992738411593,
            692.0
          ],
          [
            141.20060254909401,
            43.07977466076573,
            704.4
          ],
          [
            141.20047251685708,
            43.07962193739841,
            713.5
          ],
          [
            141.20034248647903,
            43.0794692139426,
            721.5
          ],
          [
            141.20021245610099,
            43.0793164904868,
            728.6
          ],
          [
            141.20008242572294,
            43.079163767031,
            737.1
          ],
          [
            141.1999523953449,
            43.07901104357519,
            745.9
          ],
          [
            141.19982236496685,
            43.07885832011939,
            754.3
          ],
          [
            141.1996923345888,
            43.07870559666358,
            765.1
          ],
          [
            141.19956230421076,
            43.07855287320778,
            777.4
          ],
          [
            141.19943226372368,
            43.0784001550138,
            788.5
          ],
          [
            141.19930222147417,
            43.07824743773719,
            796.3
          ],
          [
            141.1991721792247,
            43.07809472046057,
            803.8
          ],
          [
            141.19904214497168,
            43.07794199979894,
            812.9
          ],
          [
            141.1989121133048,
            43.07778927804255,
            825.0
          ],
          [
            141.19878208192637,
            43.07763655646944,
            834.6
          ],
          [
            141.19865205061666,
            43.07748383493999,
            847.8
          ],
          [
            141.19852201930692,
            43.07733111341054,
            862.4
          ],
          [
            141.1983919962101,
            43.077178388288296,
            873.2
          ],
          [
            141.19826199044175,
            43.07702565558562,
            886.5
          ],
          [
            141.19813198467338,
            43.076872922882956,
            900.9
          ],
          [
            141.19800197890504,
            43.07672019018028,
            912.4
          ],
          [
            141.19787194893362,
            43.07656746886392,
            924.6
          ],
          [
            141.19774190794027,
            43.07641475273281,
            934.1
          ],
          [
            141.19761186694694,
            43.076262036601705,
            942.6
          ],
          [
            141.19748185299105,
            43.07610930857656,
            950.8
          ],
          [
            141.1973518397319,
            43.07595658024492,
            958.8
          ],
          [
            141.19722182647277,
            43.07580385191327,
            968.6
          ],
          [
            141.19709181321366,
            43.07565112358163,
            980.6
          ],
          [
            141.19696176009364,
            43.07549841384703,
            985.7
          ],
          [
            141.1968381,
            43.0753532,
            986.0
          ]
        ]
      }
    },
    {
      "type": "Feature",
      "properties": {
        "name": "パノラマ2号",
        "horizontal_dist_map": 969,
        "slope_dist_map": 1001,
        "elevation_diff_map": 221.1
      },
      "geometry": {
        "type": "LineString",
        "coordinates": [
          [
            141.208683,
            43.0772672,
            760.1
          ],
          [
            141.20844854149186,
            43.077213630207176,
            759.2
          ],
          [
            141.20821408298372,
            43.07716006041436,
            761.5
          ],
          [
            141.20797962447557,
            43.07710649062153,
            764.7
          ],
          [
            141.2077451666569,
            43.077052919454346,
            766.8
          ],
          [
            141.2075107130872,
            43.0769993398176,
            769.7
          ],
          [
            141.20727625951747,
            43.07694576018085,
            772.5
          ],
          [
            141.20704180594774,
            43.0768921805441,
            776.3
          ],
          [
            141.2068073449251,
            43.07683861934994,
            779.4
          ],
          [
            141.20657287939923,
            43.07678506929925,
            782.9
          ],
          [
            141.20633841438766,
            43.07673151808931,
            786.1
          ],
          [
            141.20610396093704,
            43.07667794082063,
            790.5
          ],
          [
            141.20586950748643,
            43.07662436355195,
            794.7
          ],
          [
            141.20563505594734,
            43.07657078256352,
            799.8
          ],
          [
            141.20540060530922,
            43.07651719982179,
            805.7
          ],
          [
            141.20516615127784,
            43.07646362548917,
            812.4
          ],
          [
            141.2049316888964,
            43.076410071849395,
            819.1
          ],
          [
            141.20469722651498,
            43.07635651820962,
            826.4
          ],
          [
            141.20446276413352,
            43.07630296456985,
            833.0
          ],
          [
            141.2042283064937,
            43.076249400578874,
            843.0
          ],
          [
            141.20399385348614,
            43.07619582647534,
            855.2
          ],
          [
            141.20375940047862,
            43.07614225237181,
            866.6
          ],
          [
            141.2035249405849,
            43.07608869520077,
            869.8
          ],
          [
            141.2032904774204,
            43.07603514607245,
            871.8
          ],
          [
            141.20305602600874,
            43.07598157156572,
            872.6
          ],
          [
            141.20282157465132,
            43.07592799694183,
            874.4
          ],
          [
            141.20258712329388,
            43.07587442231794,
            876.6
          ],
          [
            141.20235267193647,
            43.07582084769405,
            878.8
          ],
          [
            141.20211822057905,
            43.075767273070156,
            884.4
          ],
          [
            141.20188376922164,
            43.075713698446265,
            887.6
          ],
          [
            141.2016493178642,
            43.07566012382238,
            890.9
          ],
          [
            141.20141486543994,
            43.07560655222475,
            893.4
          ],
          [
            141.20118040816007,
            43.075552994400574,
            899.1
          ],
          [
            141.20094595088023,
            43.07549943657641,
            905.4
          ],
          [
            141.20071149360038,
            43.07544587875224,
            909.0
          ],
          [
            141.20047703646426,
            43.07539232065301,
            911.1
          ],
          [
            141.20024258307376,
            43.07533875538522,
            912.9
          ],
          [
            141.20000812968325,
            43.07528519011742,
            916.6
          ],
          [
            141.19977367644387,
            43.07523162458806,
            919.8
          ],
          [
            141.19953922519767,
            43.075178055608966,
            925.8
          ],
          [
            141.1993047739515,
            43.07512448662986,
            931.9
          ],
          [
            141.19907032686947,
            43.07507090844954,
            937.0
          ],
          [
            141.1988358842419,
            43.07501732042658,
            942.5
          ],
          [
            141.19860144161433,
            43.07496373240362,
            948.0
          ],
          [
            141.19836698928205,
            43.074910168201704,
            953.8
          ],
          [
            141.19813253714707,
            43.0748566038177,
            961.4
          ],
          [
            141.19789808712292,
            43.074803035522905,
            965.7
          ],
          [
            141.19766363709874,
            43.07474946722811,
            969.9
          ],
          [
            141.1974291870746,
            43.074695898933314,
            979.1
          ],
          [
            141.1973189,
            43.0746707,
            981.2
          ]
        ]
      }
    },
    {
      "type": "Feature",
      "properties": {
        "name": "白樺第3",
        "horizontal_dist_map": 293,
        "slope_dist_map": 297,
        "elevation_diff_map": 46.2
      },
      "geometry": {
        "type": "LineString",
        "coordinates": [
          [
            141.2093344,
            43.0964128,
            421.1
          ],
          [
            141.20921059868817,
            43.0965682947449,
            422.3
          ],
          [
            141.20908679737633,
            43.096723789489786,
            426.3
          ],
          [
            141.2089629832764,
            43.096879278870006,
            430.1
          ],
          [
            141.20883914052425,
            43.09703475623045,
            433.4
          ],
          [
            141.20871529777207,
            43.097190233590894,
            435.6
          ],
          [
            141.2085914865256,
            43.09734572484594,
            438.6
          ],
          [
            141.2084676838551,
            43.097501219883156,
            441.4
          ],
          [
            141.20834388118462,
            43.09765671492037,
            444.6
          ],
          [
            141.20822007851413,
            43.09781220995759,
            447.2
          ],
          [
            141.20809627584364,
            43.09796770499481,
            450.5
          ],
          [
            141.20797247042734,
            43.098123198885666,
            452.7
          ],
          [
            141.20784861868123,
            43.098278673434166,
            455.2
          ],
          [
            141.2077246774838,
            43.09843410952177,
            458.7
          ],
          [
            141.20759978382716,
            43.0985891360857,
            464.7
          ],
          [
            141.20751686438743,
            43.0986920613757,
            467.3
          ]
        ]
      }
    },
    {
      "type": "Feature",
      "properties": {
        "name": "エイトゴンドラ",
        "horizontal_dist_map": 1433,
        "slope_dist_map": 1449,
        "elevation_diff_map": 149.1
      },
      "geometry": {
        "type": "LineString",
        "coordinates": [
          [
            141.2110749,
            43.0950865,
            426.9
          ],
          [
            141.21095926015673,
            43.094927667897096,
            426.4
          ],
          [
            141.21084362031343,
            43.094768835794184,
            429.1
          ],
          [
            141.21072798047015,
            43.09461000369128,
            434.6
          ],
          [
            141.21061234062688,
            43.094451171588375,
            438.4
          ],
          [
            141.2104967007836,
            43.09429233948546,
            442.5
          ],
          [
            141.21038106057009,
            43.09413350777294,
            446.0
          ],
          [
            141.21026541941103,
            43.09397467705739,
            448.5
          ],
          [
            141.21014977825197,
            43.09381584634184,
            452.2
          ],
          [
            141.21003413709292,
            43.09365701562629,
            456.1
          ],
          [
            141.20991849593386,
            43.09349818491074,
            461.5
          ],
          [
            141.2098028547748,
            43.0933393541952,
            467.8
          ],
          [
            141.20968721361575,
            43.09318052347965,
            472.9
          ],
          [
            141.20957157245672,
            43.093021692764104,
            479.5
          ],
          [
            141.20945593129767,
            43.092862862048555,
            484.8
          ],
          [
            141.2093402901386,
            43.09270403133301,
            490.3
          ],
          [
            141.20922465440816,
            43.09254519889183,
            495.4
          ],
          [
            141.209109024715,
            43.092386364531514,
            499.6
          ],
          [
            141.20899339502182,
            43.0922275301712,
            502.8
          ],
          [
            141.20887776532865,
            43.09206869581089,
            504.9
          ],
          [
            141.2087621356355,
            43.091909861450574,
            506.5
          ],
          [
            141.20864650615093,
            43.09175102729231,
            508.1
          ],
          [
            141.20853087703622,
            43.09159219349234,
            509.2
          ],
          [
            141.20841524792152,
            43.09143335969236,
            509.6
          ],
          [
            141.20829961880682,
            43.09127452589239,
            510.3
          ],
          [
            141.20818398969212,
            43.09111569209241,
            510.9
          ],
          [
            141.20806836057744,
            43.09095685829244,
            511.3
          ],
          [
            141.20795273146274,
            43.09079802449246,
            512.5
          ],
          [
            141.20783710234804,
            43.090639190692485,
            514.2
          ],
          [
            141.20772147323333,
            43.090480356892506,
            514.8
          ],
          [
            141.20760584144858,
            43.09032152470045,
            513.2
          ],
          [
            141.2074902067667,
            43.09016269425308,
            512.1
          ],
          [
            141.2073745720848,
            43.09000386380572,
            508.2
          ],
          [
            141.2072589374029,
            43.08984503335835,
            506.1
          ],
          [
            141.207143302721,
            43.08968620291099,
            503.7
          ],
          [
            141.2070276680391,
            43.08952737246362,
            505.8
          ],
          [
            141.2069120333572,
            43.08936854201626,
            505.1
          ],
          [
            141.20679639867532,
            43.08920971156889,
            503.6
          ],
          [
            141.2066807639934,
            43.08905088112153,
            504.8
          ],
          [
            141.2065651293115,
            43.08889205067416,
            506.4
          ],
          [
            141.20644949462962,
            43.0887332202268,
            508.4
          ],
          [
            141.20633385994773,
            43.08857438977943,
            511.6
          ],
          [
            141.20621822758423,
            43.08841555897102,
            513.1
          ],
          [
            141.20610259810041,
            43.08825672771417,
            515.2
          ],
          [
            141.20598696861657,
            43.08809789645731,
            517.8
          ],
          [
            141.20587133913273,
            43.08793906520046,
            519.3
          ],
          [
            141.2057557096489,
            43.087780233943604,
            520.8
          ],
          [
            141.20564008016507,
            43.08762140268675,
            523.6
          ],
          [
            141.20552445068125,
            43.087462571429896,
            526.3
          ],
          [
            141.2054088211974,
            43.08730374017304,
            529.1
          ],
          [
            141.20529319171357,
            43.08714490891619,
            532.4
          ],
          [
            141.20517756222975,
            43.08698607765933,
            534.5
          ],
          [
            141.2050619375879,
            43.08682724529918,
            536.9
          ],
          [
            141.20494631487676,
            43.086668412499115,
            539.1
          ],
          [
            141.20483069216561,
            43.08650957969905,
            539.9
          ],
          [
            141.20471506945447,
            43.08635074689897,
            541.2
          ],
          [
            141.20459944674332,
            43.086191914098904,
            542.9
          ],
          [
            141.20448382403217,
            43.08603308129884,
            542.9
          ],
          [
            141.20436820132102,
            43.08587424849877,
            543.6
          ],
          [
            141.20425257860987,
            43.0857154156987,
            544.8
          ],
          [
            141.20413695589872,
            43.08555658289863,
            545.2
          ],
          [
            141.20402133318757,
            43.085397750098565,
            551.2
          ],
          [
            141.20390571238352,
            43.08523891719411,
            551.2
          ],
          [
            141.20379009212542,
            43.08508008425978,
            550.8
          ],
          [
            141.20367447186732,
            43.08492125132545,
            552.8
          ],
          [
            141.2035588516092,
            43.084762418391115,
            557.9
          ],
          [
            141.2034432312151,
            43.08460358552967,
            560.8
          ],
          [
            141.203327606892,
            43.084444754773756,
            562.9
          ],
          [
            141.20321198256892,
            43.08428592401784,
            566.0
          ],
          [
            141.20309635824583,
            43.08412709326193,
            568.7
          ],
          [
            141.20298073392274,
            43.08396826250601,
            571.9
          ],
          [
            141.20286510959968,
            43.0838094317501,
            574.1
          ],
          [
            141.2027845,
            43.0836987,
            576.0
          ]
        ]
      }
    },
    {
      "type": "Feature",
      "properties": {
        "name": "聖火台第1",
        "horizontal_dist_map": 488,
        "slope_dist_map": 507,
        "elevation_diff_map": 126.1
      },
      "geometry": {
        "type": "LineString",
        "coordinates": [
          [
            141.2073242,
            43.1034701,
            340.0
          ],
          [
            141.2073177339815,
            43.103290135845654,
            341.6
          ],
          [
            141.20731126796304,
            43.103110171691306,
            346.2
          ],
          [
            141.2073048118673,
            43.10293020733692,
            348.6
          ],
          [
            141.2072983653029,
            43.10275024279038,
            352.7
          ],
          [
            141.20729191873852,
            43.10257027824384,
            356.5
          ],
          [
            141.20728547217414,
            43.1023903136973,
            360.4
          ],
          [
            141.20727901146478,
            43.10221034941634,
            364.0
          ],
          [
            141.20727253203324,
            43.1020303854869,
            366.6
          ],
          [
            141.20726606859603,
            43.10185042124694,
            368.6
          ],
          [
            141.20725965613758,
            43.10167045601724,
            373.4
          ],
          [
            141.20725324367916,
            43.10149049078755,
            377.5
          ],
          [
            141.20724679104768,
            43.101310526311515,
            382.4
          ],
          [
            141.20724033060665,
            43.101130561981996,
            387.3
          ],
          [
            141.20723387016562,
            43.100950597652485,
            392.5
          ],
          [
            141.2072274097246,
            43.100770633322966,
            397.9
          ],
          [
            141.20722094928357,
            43.10059066899345,
            404.4
          ],
          [
            141.20721449889888,
            43.100410704466114,
            411.2
          ],
          [
            141.20720808145026,
            43.100230739290915,
            415.7
          ],
          [
            141.20720163872863,
            43.10005077459754,
            420.5
          ],
          [
            141.20719516200066,
            43.09987081055249,
            427.8
          ],
          [
            141.20718868098513,
            43.0996908465873,
            435.2
          ],
          [
            141.20718222180963,
            43.099510882190984,
            442.5
          ],
          [
            141.20717578377293,
            43.099330917382666,
            450.9
          ],
          [
            141.20716934573622,
            43.099150952574355,
            462.6
          ],
          [
            141.2071666,
            43.0990742,
            466.1
          ]
        ]
      }
    },
    {
      "type": "Feature",
      "properties": {
        "name": "白樺第1 A線",
        "horizontal_dist_map": 475,
        "slope_dist_map": 485,
        "elevation_diff_map": 96.8
      },
      "geometry": {
        "type": "LineString",
        "coordinates": [
          [
            141.2097509,
            43.0958642,
            418.7
          ],
          [
            141.20963351561673,
            43.09570605591429,
            419.2
          ],
          [
            141.20951613123347,
            43.095547911828575,
            423.0
          ],
          [
            141.2093987625807,
            43.095389761707104,
            426.5
          ],
          [
            141.20928139909665,
            43.09523160960239,
            429.7
          ],
          [
            141.20916403561264,
            43.09507345749768,
            433.1
          ],
          [
            141.20904665549347,
            43.09491531226109,
            435.8
          ],
          [
            141.2089292657779,
            43.09475717098653,
            439.8
          ],
          [
            141.2088118760623,
            43.094599029711986,
            444.4
          ],
          [
            141.20869448853892,
            43.09444088763596,
            449.3
          ],
          [
            141.20857711562937,
            43.094282739972535,
            453.6
          ],
          [
            141.20845975126798,
            43.09412458896614,
            458.4
          ],
          [
            141.20834238260923,
            43.09396643995515,
            462.3
          ],
          [
            141.20822501371282,
            43.09380829105453,
            467.1
          ],
          [
            141.2081076448164,
            43.09365014215391,
            471.4
          ],
          [
            141.20799027040604,
            43.093491995607344,
            477.2
          ],
          [
            141.20787288726245,
            43.09333385278925,
            482.5
          ],
          [
            141.20775550411884,
            43.09317570997115,
            488.2
          ],
          [
            141.20763812097522,
            43.093017567153055,
            494.3
          ],
          [
            141.20752074666353,
            43.09285942116333,
            498.9
          ],
          [
            141.20740337238368,
            43.0927012751622,
            503.0
          ],
          [
            141.20728600279196,
            43.09254312740769,
            506.9
          ],
          [
            141.20716864209842,
            43.0923849763253,
            510.1
          ],
          [
            141.20705128140486,
            43.0922268252429,
            512.4
          ],
          [
            141.2069611,
            43.0921053,
            515.5
          ]
        ]
      }
    },
    {
      "type": "Feature",
      "properties": {
        "name": "パラダイス",
        "horizontal_dist_map": 466,
        "slope_dist_map": 480,
        "elevation_diff_map": 104.7
      },
      "geometry": {
        "type": "LineString",
        "coordinates": [
          [
            141.2068382,
            43.0846025,
            548.9
          ],
          [
            141.20672749239955,
            43.08444179802829,
            548.1
          ],
          [
            141.2066167847991,
            43.08428109605657,
            553.4
          ],
          [
            141.2065060485442,
            43.084120404827445,
            558.1
          ],
          [
            141.20639528664532,
            43.08395972321226,
            561.3
          ],
          [
            141.2062845264914,
            43.0837990409652,
            564.6
          ],
          [
            141.20617379589112,
            43.08363834801628,
            568.6
          ],
          [
            141.20606306529083,
            43.083477655067355,
            573.0
          ],
          [
            141.20595233706524,
            43.08331696141632,
            576.5
          ],
          [
            141.2058416107994,
            43.08315626718586,
            580.2
          ],
          [
            141.20573088453355,
            43.082995572955404,
            583.9
          ],
          [
            141.20562015826772,
            43.082834878724945,
            589.2
          ],
          [
            141.20550943308012,
            43.08267418449766,
            592.4
          ],
          [
            141.20539870823782,
            43.0825134902714,
            595.9
          ],
          [
            141.20528798339552,
            43.082352796045136,
            601.8
          ],
          [
            141.20517725855325,
            43.08219210181887,
            607.2
          ],
          [
            141.20506653371095,
            43.08203140759261,
            611.8
          ],
          [
            141.20495580886868,
            43.08187071336634,
            615.7
          ],
          [
            141.20484508589527,
            43.08171001853964,
            620.3
          ],
          [
            141.20473437071558,
            43.08154932120899,
            622.5
          ],
          [
            141.2046236555359,
            43.08138862387834,
            625.5
          ],
          [
            141.2045129331582,
            43.081227929366136,
            633.5
          ],
          [
            141.20440220470954,
            43.081067237231075,
            643.2
          ],
          [
            141.20429147626086,
            43.08090654509601,
            652.1
          ],
          [
            141.2042552,
            43.0808539,
            653.6
          ]
        ]
      }
    }
  ]
}