{
  "type": "FeatureCollection",
  "features": [
    {
      "type": "Feature",
      "properties": {
        "name": "第1ペア",
        "horizontal_dist_map": 525,
        "slope_dist_map": 543,
        "elevation_diff_map": 133.0
      },
      "geometry": {
        "type": "LineString",
        "coordinates": [
          [
            142.34334203025315,
            44.2656536398882,
            183.0
          ],
          [
            142.34309432181766,
            44.26562695686434,
            186.0
          ],
          [
            142.3428466133822,
            44.26560027384048,
            189.0
          ],
          [
            142.3425989049467,
            44.265573590816615,
            192.0
          ],
          [
            142.3423511965112,
            44.26554690779275,
            196.0
          ],
          [
            142.3421034880757,
            44.26552022476889,
            200.0
          ],
          [
            142.34185577964024,
            44.26549354174503,
            204.0
          ],
          [
            142.34160807120475,
            44.26546685872117,
            210.0
          ],
          [
            142.34136036276925,
            44.26544017569731,
            213.0
          ],
          [
            142.34111265433376,
            44.265413492673446,
            220.0
          ],
          [
            142.3408649458983,
            44.265386809649584,
            228.0
          ],
          [
            142.3406172374628,
            44.265360126625716,
            234.0
          ],
          [
            142.3403695290273,
            44.265333443601854,
            239.0
          ],
          [
            142.3401218205918,
            44.26530676057799,
            244.0
          ],
          [
            142.33987411215634,
            44.26528007755413,
            250.0
          ],
          [
            142.33962640372084,
            44.26525339453027,
            256.0
          ],
          [
            142.33937869528535,
            44.26522671150641,
            263.0
          ],
          [
            142.33913098684985,
            44.265200028482546,
            267.0
          ],
          [
            142.3388832784144,
            44.265173345458685,
            274.0
          ],
          [
            142.3386355699789,
            44.26514666243482,
            280.0
          ],
          [
            142.3383878615434,
            44.26511997941096,
            283.0
          ],
          [
            142.3381401531079,
            44.2650932963871,
            288.0
          ],
          [
            142.33789244467243,
            44.26506661336324,
            292.0
          ],
          [
            142.33764473623694,
            44.26503993033938,
            300.0
          ],
          [
            142.33739702780144,
            44.265013247315515,
            305.0
          ],
          [
            142.33714931936595,
            44.264986564291654,
            312.0
          ],
          [
            142.33690161093048,
            44.26495988126779,
            315.0
          ],
          [
            142.33683075179306,
            44.264952248358355,
            316.0
          ]
        ]
      }
    },
    {
      "type": "Feature",
      "properties": {
        "name": "第2",
        "horizontal_dist_map": 729,
        "slope_dist_map": 765,
        "elevation_diff_map": 205.0
      },
      "geometry": {
        "type": "LineString",
        "coordinates": [
          [
            142.3416679501409,
            44.26717079043115,
            200.0
          ],
          [
            142.34142470732868,
            44.26712783460763,
            201.0
          ],
          [
            142.34118146451647,
            44.26708487878411,
            202.0
          ],
          [
            142.34093822170425,
            44.26704192296059,
            204.0
          ],
          [
            142.34069497889203,
            44.26699896713707,
            207.0
          ],
          [
            142.3404517360798,
            44.266956011313546,
            209.0
          ],
          [
            142.3402084932676,
            44.26691305549003,
            212.0
          ],
          [
            142.33996525045538,
            44.266870099666505,
            217.0
          ],
          [
            142.33972200764316,
            44.26682714384299,
            222.0
          ],
          [
            142.33947876483094,
            44.266784188019464,
            225.0
          ],
          [
            142.33923552201873,
            44.26674123219595,
            229.0
          ],
          [
            142.3389922792065,
            44.26669827637242,
            234.0
          ],
          [
            142.3387490363943,
            44.26665532054891,
            237.0
          ],
          [
            142.33850579358207,
            44.26661236472538,
            238.0
          ],
          [
            142.33826255076985,
            44.266569408901866,
            242.0
          ],
          [
            142.33801930795764,
            44.26652645307834,
            245.0
          ],
          [
            142.33777606514542,
            44.266483497254825,
            249.0
          ],
          [
            142.3375328223332,
            44.2664405414313,
            257.0
          ],
          [
            142.33728957952098,
            44.266397585607784,
            264.0
          ],
          [
            142.33704633670877,
            44.26635462978426,
            272.0
          ],
          [
            142.33680309389658,
            44.26631167396074,
            279.0
          ],
          [
            142.33655985108436,
            44.26626871813722,
            283.0
          ],
          [
            142.33631660827214,
            44.2662257623137,
            293.0
          ],
          [
            142.33607336545992,
            44.26618280649018,
            300.0
          ],
          [
            142.3358301226477,
            44.26613985066666,
            305.0
          ],
          [
            142.3355868798355,
            44.26609689484314,
            309.0
          ],
          [
            142.33534363702327,
            44.26605393901962,
            319.0
          ],
          [
            142.33510039421105,
            44.2660109831961,
            324.0
          ],
          [
            142.33485715139884,
            44.26596802737258,
            331.0
          ],
          [
            142.33461390858662,
            44.265925071549056,
            337.0
          ],
          [
            142.3343706657744,
            44.26588211572553,
            341.0
          ],
          [
            142.33412742296218,
            44.265839159902015,
            349.0
          ],
          [
            142.33388418014997,
            44.26579620407849,
            362.0
          ],
          [
            142.33364093733775,
            44.265753248254974,
            371.0
          ],
          [
            142.33339769452553,
            44.26571029243145,
            381.0
          ],
          [
            142.3331544517133,
            44.26566733660793,
            394.0
          ],
          [
            142.3329112089011,
            44.26562438078441,
            403.0
          ],
          [
            142.33279350755583,
            44.265603595141584,
            405.0
          ]
        ]
      }
    }
  ]
}