{
  "type": "FeatureCollection",
  "features": [
    {
      "type": "Feature",
      "properties": {
        "name": "東館山ゴンドラ",
        "horizontal_dist_map": 1334,
        "slope_dist_map": 1423,
        "elevation_diff_map": 433.2,
        "midstation": null
      },
      "geometry": {
        "type": "LineString",
        "coordinates": [
          [
            138.50704628499676,
            36.72440967597536,
            1553.9
          ],
          [
            138.50724895894547,
            36.724486256546,
            1553.9
          ],
          [
            138.5074516328942,
            36.724562837116636,
            1550.8
          ],
          [
            138.5076543068429,
            36.72463941768728,
            1549.7
          ],
          [
            138.50785698079162,
            36.72471599825792,
            1552.9
          ],
          [
            138.50805965474035,
            36.72479257882856,
            1557.8
          ],
          [
            138.50826232868906,
            36.7248691593992,
            1566.9
          ],
          [
            138.50846500263776,
            36.72494573996984,
            1575.1
          ],
          [
            138.5086676765865,
            36.72502232054048,
            1577.6
          ],
          [
            138.5088703505352,
            36.725098901111124,
            1589.4
          ],
          [
            138.5090730244839,
            36.72517548168176,
            1600.8
          ],
          [
            138.50927569843265,
            36.7252520622524,
            1604.9
          ],
          [
            138.50947837238135,
            36.725328642823044,
            1607.4
          ],
          [
            138.50968104633006,
            36.725405223393686,
            1608.1
          ],
          [
            138.5098837202788,
            36.72548180396432,
            1616.3
          ],
          [
            138.5100863942275,
            36.72555838453496,
            1623.9
          ],
          [
            138.5102890681762,
            36.725634965105606,
            1624.9
          ],
          [
            138.51049174212494,
            36.72571154567625,
            1628.0
          ],
          [
            138.51069441607365,
            36.72578812624688,
            1641.0
          ],
          [
            138.51089709002235,
            36.725864706817525,
            1645.8
          ],
          [
            138.5110997639711,
            36.72594128738817,
            1658.3
          ],
          [
            138.5113024379198,
            36.72601786795881,
            1667.4
          ],
          [
            138.5115051118685,
            36.726094448529444,
            1676.1
          ],
          [
            138.51170778581724,
            36.72617102910009,
            1680.4
          ],
          [
            138.51191045976594,
            36.72624760967073,
            1681.8
          ],
          [
            138.51211313371465,
            36.72632419024137,
            1689.7
          ],
          [
            138.51231580766338,
            36.726400770812006,
            1696.9
          ],
          [
            138.5125184816121,
            36.72647735138265,
            1703.1
          ],
          [
            138.5127211555608,
            36.72655393195329,
            1709.2
          ],
          [
            138.51292382950953,
            36.72663051252393,
            1717.9
          ],
          [
            138.51312650345824,
            36.72670709309457,
            1725.8
          ],
          [
            138.51332917740694,
            36.72678367366521,
            1738.6
          ],
          [
            138.51353185135568,
            36.72686025423585,
            1746.1
          ],
          [
            138.5137345253044,
            36.726936834806494,
            1755.9
          ],
          [
            138.5139371992531,
            36.72701341537713,
            1769.0
          ],
          [
            138.51413987320183,
            36.72708999594777,
            1782.6
          ],
          [
            138.51434254715053,
            36.727166576518414,
            1792.1
          ],
          [
            138.51454522109924,
            36.727243157089056,
            1799.2
          ],
          [
            138.51474789504795,
            36.72731973765969,
            1807.6
          ],
          [
            138.51495056899668,
            36.72739631823033,
            1816.1
          ],
          [
            138.5151532429454,
            36.727472898800976,
            1825.6
          ],
          [
            138.5153559168941,
            36.72754947937162,
            1832.2
          ],
          [
            138.51555859084283,
            36.72762605994225,
            1839.1
          ],
          [
            138.51576126479154,
            36.727702640512895,
            1844.1
          ],
          [
            138.51596393874024,
            36.72777922108354,
            1849.0
          ],
          [
            138.51616661268898,
            36.72785580165418,
            1852.7
          ],
          [
            138.51636928663768,
            36.727932382224814,
            1853.2
          ],
          [
            138.5165719605864,
            36.72800896279546,
            1854.3
          ],
          [
            138.51677463453512,
            36.7280855433661,
            1861.2
          ],
          [
            138.51697730848383,
            36.72816212393674,
            1866.7
          ],
          [
            138.51717998243254,
            36.728238704507376,
            1871.6
          ],
          [
            138.51738265638127,
            36.72831528507802,
            1875.9
          ],
          [
            138.51758533032998,
            36.72839186564866,
            1881.8
          ],
          [
            138.51778800427869,
            36.728468446219296,
            1889.1
          ],
          [
            138.51799067822742,
            36.72854502678994,
            1893.8
          ],
          [
            138.51819335217613,
            36.72862160736058,
            1898.9
          ],
          [
            138.51839602612483,
            36.72869818793122,
            1906.4
          ],
          [
            138.51859870007357,
            36.72877476850186,
            1917.6
          ],
          [
            138.51880137402227,
            36.7288513490725,
            1925.9
          ],
          [
            138.51900404797098,
            36.72892792964314,
            1931.0
          ],
          [
            138.51920672191972,
            36.729004510213784,
            1941.4
          ],
          [
            138.51940939586842,
            36.72908109078442,
            1948.6
          ],
          [
            138.51961206981713,
            36.72915767135506,
            1955.9
          ],
          [
            138.51981474376586,
            36.7292342519257,
            1963.1
          ],
          [
            138.52001741771457,
            36.729310832496346,
            1973.5
          ],
          [
            138.52022009166328,
            36.72938741306698,
            1986.3
          ],
          [
            138.520422765612,
            36.72946399363762,
            1987.5
          ],
          [
            138.52056584530868,
            36.7295180564557,
            1987.1
          ]
        ]
      }
    },
    {
      "type": "Feature",
      "properties": {
        "name": "一の瀬クワッド",
        "horizontal_dist_map": 1019,
        "slope_dist_map": 1078,
        "elevation_diff_map": 316.6,
        "midstation": null
      },
      "geometry": {
        "type": "LineString",
        "coordinates": [
          [
            138.5134629669749,
            36.738804741176125,
            1624.8
          ],
          [
            138.51365028637508,
            36.73870599811677,
            1624.7
          ],
          [
            138.51383760577522,
            36.73860725505741,
            1628.7
          ],
          [
            138.5140249251754,
            36.738508511998056,
            1632.0
          ],
          [
            138.51421224457553,
            36.7384097689387,
            1639.2
          ],
          [
            138.5143995639757,
            36.73831102587935,
            1641.6
          ],
          [
            138.51458688337584,
            36.73821228281999,
            1643.2
          ],
          [
            138.514774202776,
            36.73811353976063,
            1645.0
          ],
          [
            138.51496152217615,
            36.73801479670128,
            1645.4
          ],
          [
            138.51514884157632,
            36.73791605364192,
            1649.1
          ],
          [
            138.5153361609765,
            36.737817310582564,
            1654.0
          ],
          [
            138.51552348037663,
            36.73771856752321,
            1657.0
          ],
          [
            138.5157107997768,
            36.73761982446385,
            1660.2
          ],
          [
            138.51589811917694,
            36.737521081404495,
            1664.3
          ],
          [
            138.5160854385771,
            36.73742233834514,
            1667.9
          ],
          [
            138.51627275797725,
            36.73732359528579,
            1671.5
          ],
          [
            138.51646007737742,
            36.737224852226426,
            1675.4
          ],
          [
            138.51664739677756,
            36.73712610916707,
            1678.7
          ],
          [
            138.51683471617773,
            36.73702736610772,
            1684.8
          ],
          [
            138.5170220355779,
            36.73692862304836,
            1689.3
          ],
          [
            138.51720935497804,
            36.736829879989,
            1694.6
          ],
          [
            138.5173966743782,
            36.73673113692965,
            1701.3
          ],
          [
            138.51758399377835,
            36.736632393870295,
            1705.8
          ],
          [
            138.5177713131785,
            36.736533650810934,
            1711.8
          ],
          [
            138.51795863257865,
            36.73643490775158,
            1718.8
          ],
          [
            138.51814595197882,
            36.736336164692226,
            1726.6
          ],
          [
            138.51833327137896,
            36.736237421632865,
            1733.7
          ],
          [
            138.51852059077913,
            36.73613867857351,
            1739.5
          ],
          [
            138.5187079101793,
            36.73603993551416,
            1745.0
          ],
          [
            138.51889522957944,
            36.735941192454796,
            1751.4
          ],
          [
            138.5190825489796,
            36.73584244939544,
            1757.5
          ],
          [
            138.51926986837975,
            36.73574370633609,
            1761.6
          ],
          [
            138.51945718777992,
            36.735644963276734,
            1774.9
          ],
          [
            138.51964450718006,
            36.73554622021737,
            1783.4
          ],
          [
            138.51983182658023,
            36.73544747715802,
            1792.2
          ],
          [
            138.52001914598037,
            36.735348734098665,
            1799.0
          ],
          [
            138.52020646538054,
            36.7352499910393,
            1806.5
          ],
          [
            138.52039378478068,
            36.73515124797995,
            1818.6
          ],
          [
            138.52058110418085,
            36.735052504920596,
            1829.3
          ],
          [
            138.52076842358102,
            36.73495376186124,
            1841.3
          ],
          [
            138.52095574298116,
            36.73485501880188,
            1851.9
          ],
          [
            138.52114306238133,
            36.73475627574253,
            1861.5
          ],
          [
            138.52133038178147,
            36.73465753268317,
            1869.5
          ],
          [
            138.52151770118164,
            36.73455878962381,
            1876.8
          ],
          [
            138.52170502058178,
            36.73446004656446,
            1882.6
          ],
          [
            138.52189233998195,
            36.7343613035051,
            1889.5
          ],
          [
            138.5220796593821,
            36.73426256044574,
            1895.9
          ],
          [
            138.52226697878226,
            36.73416381738639,
            1906.4
          ],
          [
            138.52245429818242,
            36.734065074327034,
            1921.3
          ],
          [
            138.52264161758256,
            36.73396633126768,
            1929.8
          ],
          [
            138.52282893698273,
            36.73386758820832,
            1936.2
          ],
          [
            138.52301155765863,
            36.73377132202219,
            1941.4
          ]
        ]
      }
    },
    {
      "type": "Feature",
      "properties": {
        "name": "一の瀬第3クワッド",
        "horizontal_dist_map": 947,
        "slope_dist_map": 1006,
        "elevation_diff_map": 319.1,
        "midstation": null
      },
      "geometry": {
        "type": "LineString",
        "coordinates": [
          [
            138.5132624490855,
            36.737125545284286,
            1632.8
          ],
          [
            138.5134528298581,
            36.737030675431775,
            1637.6
          ],
          [
            138.51364321063068,
            36.736935805579265,
            1641.3
          ],
          [
            138.51383359140328,
            36.736840935726754,
            1644.7
          ],
          [
            138.51402397217586,
            36.73674606587425,
            1648.9
          ],
          [
            138.51421435294847,
            36.73665119602174,
            1653.2
          ],
          [
            138.51440473372105,
            36.73655632616923,
            1656.2
          ],
          [
            138.51459511449366,
            36.73646145631672,
            1660.0
          ],
          [
            138.51478549526624,
            36.73636658646421,
            1663.0
          ],
          [
            138.51497587603885,
            36.7362717166117,
            1665.9
          ],
          [
            138.51516625681143,
            36.736176846759186,
            1669.6
          ],
          [
            138.51535663758403,
            36.73608197690668,
            1672.6
          ],
          [
            138.51554701835664,
            36.73598710705417,
            1677.8
          ],
          [
            138.51573739912922,
            36.73589223720166,
            1681.8
          ],
          [
            138.51592777990183,
            36.73579736734915,
            1687.0
          ],
          [
            138.5161181606744,
            36.73570249749664,
            1691.4
          ],
          [
            138.51630854144702,
            36.73560762764413,
            1696.4
          ],
          [
            138.5164989222196,
            36.73551275779162,
            1702.7
          ],
          [
            138.5166893029922,
            36.73541788793911,
            1708.4
          ],
          [
            138.51687968376478,
            36.7353230180866,
            1715.7
          ],
          [
            138.5170700645374,
            36.73522814823409,
            1719.8
          ],
          [
            138.51726044530997,
            36.73513327838158,
            1726.8
          ],
          [
            138.51745082608258,
            36.73503840852907,
            1732.7
          ],
          [
            138.5176412068552,
            36.73494353867656,
            1740.3
          ],
          [
            138.51783158762777,
            36.73484866882405,
            1747.0
          ],
          [
            138.51802196840038,
            36.73475379897154,
            1753.3
          ],
          [
            138.51821234917296,
            36.734658929119036,
            1760.9
          ],
          [
            138.51840272994556,
            36.734564059266525,
            1768.1
          ],
          [
            138.51859311071814,
            36.734469189414014,
            1774.8
          ],
          [
            138.51878349149075,
            36.7343743195615,
            1782.4
          ],
          [
            138.51897387226333,
            36.73427944970899,
            1792.1
          ],
          [
            138.51916425303594,
            36.73418457985648,
            1802.2
          ],
          [
            138.51935463380852,
            36.73408971000397,
            1811.9
          ],
          [
            138.51954501458113,
            36.73399484015147,
            1821.6
          ],
          [
            138.51973539535373,
            36.73389997029896,
            1829.9
          ],
          [
            138.5199257761263,
            36.733805100446446,
            1839.9
          ],
          [
            138.52011615689892,
            36.733710230593935,
            1850.9
          ],
          [
            138.5203065376715,
            36.733615360741425,
            1863.7
          ],
          [
            138.5204969184441,
            36.733520490888914,
            1872.4
          ],
          [
            138.5206872992167,
            36.7334256210364,
            1881.4
          ],
          [
            138.5208776799893,
            36.7333307511839,
            1892.1
          ],
          [
            138.52106806076188,
            36.73323588133139,
            1899.1
          ],
          [
            138.52125844153448,
            36.73314101147888,
            1905.5
          ],
          [
            138.52144882230706,
            36.73304614162637,
            1911.3
          ],
          [
            138.52163920307967,
            36.73295127177386,
            1923.9
          ],
          [
            138.52182958385225,
            36.732856401921346,
            1934.6
          ],
          [
            138.52201996462486,
            36.732761532068835,
            1945.3
          ],
          [
            138.52221034539747,
            36.73266666221633,
            1951.8
          ],
          [
            138.5222787,
            36.7326326,
            1951.9
          ]
        ]
      }
    },
    {
      "type": "Feature",
      "properties": {
        "name": "一の瀬第2ペアB線",
        "horizontal_dist_map": 598,
        "slope_dist_map": 614,
        "elevation_diff_map": 130.2,
        "midstation": null
      },
      "geometry": {
        "type": "LineString",
        "coordinates": [
          [
            138.51346828879673,
            36.73863782826096,
            1628.8
          ],
          [
            138.51365700703147,
            36.73854082325902,
            1628.5
          ],
          [
            138.5138457252662,
            36.73844381825708,
            1629.4
          ],
          [
            138.51403444350092,
            36.73834681325514,
            1634.0
          ],
          [
            138.51422316173566,
            36.7382498082532,
            1636.7
          ],
          [
            138.5144118799704,
            36.73815280325126,
            1639.7
          ],
          [
            138.51460059820513,
            36.73805579824932,
            1642.2
          ],
          [
            138.51478931643985,
            36.73795879324739,
            1643.6
          ],
          [
            138.51497803467458,
            36.737861788245446,
            1648.7
          ],
          [
            138.51516675290932,
            36.737764783243506,
            1653.0
          ],
          [
            138.51535547114406,
            36.737667778241565,
            1656.7
          ],
          [
            138.51554418937877,
            36.737570773239625,
            1660.9
          ],
          [
            138.5157329076135,
            36.737473768237685,
            1664.0
          ],
          [
            138.51592162584825,
            36.737376763235744,
            1666.6
          ],
          [
            138.516110344083,
            36.737279758233804,
            1669.9
          ],
          [
            138.51629906231773,
            36.73718275323186,
            1673.2
          ],
          [
            138.51648778055244,
            36.73708574822992,
            1678.0
          ],
          [
            138.51667649878718,
            36.73698874322798,
            1682.4
          ],
          [
            138.51686521702192,
            36.73689173822604,
            1687.4
          ],
          [
            138.51705393525665,
            36.73679473322411,
            1693.5
          ],
          [
            138.51724265349137,
            36.73669772822217,
            1698.4
          ],
          [
            138.5174313717261,
            36.73660072322023,
            1704.6
          ],
          [
            138.51762008996084,
            36.73650371821829,
            1709.3
          ],
          [
            138.51780880819558,
            36.73640671321635,
            1714.8
          ],
          [
            138.51799752643032,
            36.73630970821441,
            1723.5
          ],
          [
            138.51818624466503,
            36.736212703212466,
            1730.5
          ],
          [
            138.51837496289977,
            36.736115698210526,
            1736.8
          ],
          [
            138.5185636811345,
            36.736018693208585,
            1743.3
          ],
          [
            138.51875239936925,
            36.735921688206645,
            1748.0
          ],
          [
            138.51894111760396,
            36.735824683204704,
            1755.3
          ],
          [
            138.51911144389513,
            36.735737132034956,
            1759.0
          ]
        ]
      }
    },
    {
      "type": "Feature",
      "properties": {
        "name": "一の瀬第2ペアA線",
        "horizontal_dist_map": 385,
        "slope_dist_map": 392,
        "elevation_diff_map": 65.1,
        "midstation": null
      },
      "geometry": {
        "type": "LineString",
        "coordinates": [
          [
            138.5134268100943,
            36.738588554380094,
            1628.7
          ],
          [
            138.51361580035493,
            36.73849189160484,
            1628.4
          ],
          [
            138.51380479061555,
            36.738395228829575,
            1629.6
          ],
          [
            138.51399378087618,
            36.73829856605432,
            1634.1
          ],
          [
            138.5141827711368,
            36.738201903279055,
            1636.3
          ],
          [
            138.51437176139743,
            36.7381052405038,
            1638.4
          ],
          [
            138.51456075165808,
            36.73800857772854,
            1641.7
          ],
          [
            138.5147497419187,
            36.73791191495328,
            1643.6
          ],
          [
            138.51493873217933,
            36.737815252178024,
            1649.8
          ],
          [
            138.51512772243996,
            36.73771858940276,
            1653.1
          ],
          [
            138.51531671270058,
            36.737621926627504,
            1657.1
          ],
          [
            138.5155057029612,
            36.73752526385225,
            1661.1
          ],
          [
            138.51569469322183,
            36.737428601076985,
            1664.4
          ],
          [
            138.51588368348246,
            36.73733193830173,
            1667.6
          ],
          [
            138.51607267374308,
            36.737235275526466,
            1669.8
          ],
          [
            138.5162616640037,
            36.73713861275121,
            1672.8
          ],
          [
            138.51645065426433,
            36.73704194997595,
            1677.6
          ],
          [
            138.516639644525,
            36.73694528720069,
            1682.4
          ],
          [
            138.5168286347856,
            36.736848624425434,
            1688.8
          ],
          [
            138.51701762504624,
            36.73675196165017,
            1693.3
          ],
          [
            138.51707010974718,
            36.736725117320546,
            1693.8
          ]
        ]
      }
    },
    {
      "type": "Feature",
      "properties": {
        "name": "ブナ平ゴンドラ",
        "horizontal_dist_map": 1010,
        "slope_dist_map": 1045,
        "elevation_diff_map": 237.2,
        "midstation": null
      },
      "geometry": {
        "type": "LineString",
        "coordinates": [
          [
            138.4979765,
            36.7214952,
            1331.6
          ],
          [
            138.4981935770619,
            36.72153928749654,
            1330.7
          ],
          [
            138.4984106541238,
            36.72158337499308,
            1334.6
          ],
          [
            138.4986277311857,
            36.72162746248962,
            1341.5
          ],
          [
            138.49884480824764,
            36.72167154998617,
            1347.1
          ],
          [
            138.49906188530954,
            36.72171563748271,
            1350.7
          ],
          [
            138.49927896237145,
            36.72175972497925,
            1354.6
          ],
          [
            138.49949603943335,
            36.72180381247579,
            1357.3
          ],
          [
            138.49971311649526,
            36.72184789997233,
            1358.7
          ],
          [
            138.49993019355716,
            36.72189198746887,
            1361.4
          ],
          [
            138.50014727061907,
            36.72193607496541,
            1366.1
          ],
          [
            138.500364347681,
            36.72198016246195,
            1368.5
          ],
          [
            138.5005814247429,
            36.7220242499585,
            1372.9
          ],
          [
            138.5007985018048,
            36.72206833745504,
            1374.7
          ],
          [
            138.5010155788667,
            36.72211242495158,
            1379.0
          ],
          [
            138.50123265592862,
            36.72215651244812,
            1382.8
          ],
          [
            138.50144973299052,
            36.722200599944664,
            1385.3
          ],
          [
            138.50166681005243,
            36.722244687441204,
            1390.4
          ],
          [
            138.50188388711433,
            36.722288774937745,
            1389.9
          ],
          [
            138.50210096417626,
            36.722332862434286,
            1394.2
          ],
          [
            138.50231804123817,
            36.72237694993083,
            1399.5
          ],
          [
            138.50253511830007,
            36.722421037427374,
            1404.1
          ],
          [
            138.50275219536198,
            36.722465124923914,
            1413.0
          ],
          [
            138.50296927242388,
            36.722509212420455,
            1419.5
          ],
          [
            138.5031863494858,
            36.722553299916996,
            1422.1
          ],
          [
            138.5034034265477,
            36.722597387413536,
            1432.7
          ],
          [
            138.50362050360962,
            36.72264147491008,
            1443.4
          ],
          [
            138.50383758067153,
            36.72268556240662,
            1444.0
          ],
          [
            138.50405465773343,
            36.722729649903165,
            1448.8
          ],
          [
            138.50427173479534,
            36.722773737399706,
            1456.0
          ],
          [
            138.50448881185724,
            36.72281782489625,
            1461.2
          ],
          [
            138.50470588891915,
            36.72286191239279,
            1466.2
          ],
          [
            138.50492296598105,
            36.72290599988933,
            1470.7
          ],
          [
            138.50514004304299,
            36.72295008738587,
            1475.7
          ],
          [
            138.5053571201049,
            36.72299417488241,
            1482.0
          ],
          [
            138.5055741971668,
            36.72303826237895,
            1483.2
          ],
          [
            138.5057912742287,
            36.7230823498755,
            1485.6
          ],
          [
            138.5060083512906,
            36.72312643737204,
            1490.5
          ],
          [
            138.5062254283525,
            36.72317052486858,
            1493.0
          ],
          [
            138.5064425054144,
            36.72321461236512,
            1496.8
          ],
          [
            138.50665958247635,
            36.72325869986166,
            1500.8
          ],
          [
            138.50687665953825,
            36.7233027873582,
            1507.2
          ],
          [
            138.50709373660015,
            36.72334687485474,
            1510.7
          ],
          [
            138.50731081366206,
            36.72339096235128,
            1516.7
          ],
          [
            138.50752789072396,
            36.72343504984783,
            1519.6
          ],
          [
            138.50774496778587,
            36.72347913734437,
            1528.5
          ],
          [
            138.50796204484777,
            36.72352322484091,
            1537.7
          ],
          [
            138.5081791219097,
            36.72356731233745,
            1541.1
          ],
          [
            138.5083961989716,
            36.72361139983399,
            1547.9
          ],
          [
            138.50861327603351,
            36.72365548733053,
            1555.4
          ],
          [
            138.50883035309542,
            36.72369957482707,
            1562.8
          ],
          [
            138.50894406258968,
            36.72372266877763,
            1568.8
          ]
        ]
      }
    },
    {
      "type": "Feature",
      "properties": {
        "name": "高天ヶ原クワッド",
        "horizontal_dist_map": 824,
        "slope_dist_map": 860,
        "elevation_diff_map": 232.3,
        "midstation": null
      },
      "geometry": {
        "type": "LineString",
        "coordinates": [
          [
            138.50877442323196,
            36.731245557008975,
            1671.1
          ],
          [
            138.50898750026425,
            36.731190199466575,
            1672.0
          ],
          [
            138.50920057729653,
            36.73113484192418,
            1679.1
          ],
          [
            138.50941365432882,
            36.73107948438178,
            1682.7
          ],
          [
            138.50962673136112,
            36.73102412683938,
            1686.5
          ],
          [
            138.50983980839342,
            36.730968769296986,
            1690.0
          ],
          [
            138.5100528854257,
            36.730913411754585,
            1693.0
          ],
          [
            138.510265962458,
            36.730858054212185,
            1696.2
          ],
          [
            138.5104790394903,
            36.73080269666979,
            1698.7
          ],
          [
            138.51069211652256,
            36.73074733912739,
            1703.7
          ],
          [
            138.51090519355486,
            36.730691981585,
            1707.7
          ],
          [
            138.51111827058716,
            36.730636624042596,
            1710.3
          ],
          [
            138.51133134761943,
            36.730581266500195,
            1713.9
          ],
          [
            138.51154442465173,
            36.7305259089578,
            1718.0
          ],
          [
            138.51175750168403,
            36.7304705514154,
            1722.3
          ],
          [
            138.51197057871633,
            36.730415193873,
            1727.9
          ],
          [
            138.5121836557486,
            36.73035983633061,
            1731.3
          ],
          [
            138.5123967327809,
            36.730304478788206,
            1735.8
          ],
          [
            138.5126098098132,
            36.730249121245805,
            1740.3
          ],
          [
            138.51282288684547,
            36.73019376370341,
            1746.6
          ],
          [
            138.51303596387777,
            36.73013840616101,
            1754.3
          ],
          [
            138.51324904091007,
            36.73008304861861,
            1760.3
          ],
          [
            138.51346211794234,
            36.73002769107622,
            1768.2
          ],
          [
            138.51367519497464,
            36.729972333533816,
            1774.6
          ],
          [
            138.51388827200694,
            36.729916975991415,
            1780.2
          ],
          [
            138.51410134903924,
            36.72986161844902,
            1785.8
          ],
          [
            138.5143144260715,
            36.72980626090662,
            1791.9
          ],
          [
            138.5145275031038,
            36.72975090336422,
            1799.0
          ],
          [
            138.5147405801361,
            36.729695545821826,
            1806.3
          ],
          [
            138.51495365716838,
            36.729640188279426,
            1813.0
          ],
          [
            138.51516673420068,
            36.72958483073703,
            1820.0
          ],
          [
            138.51537981123298,
            36.72952947319463,
            1826.5
          ],
          [
            138.51559288826525,
            36.72947411565223,
            1834.3
          ],
          [
            138.51580596529755,
            36.72941875810984,
            1840.5
          ],
          [
            138.51601904232984,
            36.729363400567436,
            1847.0
          ],
          [
            138.51623211936214,
            36.729308043025036,
            1853.8
          ],
          [
            138.51644519639441,
            36.72925268548264,
            1861.0
          ],
          [
            138.5166582734267,
            36.72919732794024,
            1868.2
          ],
          [
            138.516871350459,
            36.72914197039784,
            1876.6
          ],
          [
            138.51708442749128,
            36.72908661285545,
            1888.7
          ],
          [
            138.51729750452358,
            36.729031255313046,
            1898.2
          ],
          [
            138.51751058155588,
            36.728975897770646,
            1903.4
          ],
          [
            138.51755529411957,
            36.728964281419444,
            1903.4
          ]
        ]
      }
    },
    {
      "type": "Feature",
      "properties": {
        "name": "高天ヶ原第3ペア",
        "horizontal_dist_map": 333,
        "slope_dist_map": 339,
        "elevation_diff_map": 62.2,
        "midstation": null
      },
      "geometry": {
        "type": "LineString",
        "coordinates": [
          [
            138.50882455880094,
            36.73131030394862,
            1671.0
          ],
          [
            138.50903792980446,
            36.7312556797217,
            1672.7
          ],
          [
            138.50925130080796,
            36.731201055494786,
            1679.4
          ],
          [
            138.5094646718115,
            36.73114643126787,
            1682.0
          ],
          [
            138.50967804281498,
            36.731091807040954,
            1685.7
          ],
          [
            138.5098914138185,
            36.731037182814035,
            1689.1
          ],
          [
            138.510104784822,
            36.73098255858712,
            1691.4
          ],
          [
            138.51031815582553,
            36.7309279343602,
            1693.8
          ],
          [
            138.51053152682903,
            36.73087331013328,
            1697.0
          ],
          [
            138.51074489783255,
            36.73081868590637,
            1702.1
          ],
          [
            138.51095826883605,
            36.73076406167945,
            1706.6
          ],
          [
            138.51117163983957,
            36.73070943745254,
            1710.0
          ],
          [
            138.51138501084307,
            36.73065481322562,
            1714.3
          ],
          [
            138.5115983818466,
            36.7306001889987,
            1717.9
          ],
          [
            138.5118117528501,
            36.73054556477179,
            1722.7
          ],
          [
            138.51202512385362,
            36.73049094054487,
            1727.5
          ],
          [
            138.51223849485712,
            36.730436316317956,
            1731.0
          ],
          [
            138.51237785554767,
            36.73040063916474,
            1733.2
          ]
        ]
      }
    },
    {
      "type": "Feature",
      "properties": {
        "name": "高天ヶ原第2トリプル",
        "horizontal_dist_map": 317,
        "slope_dist_map": 323,
        "elevation_diff_map": 58.7,
        "midstation": null
      },
      "geometry": {
        "type": "LineString",
        "coordinates": [
          [
            138.50806753844432,
            36.73012321608866,
            1674.0
          ],
          [
            138.5082862355198,
            36.730084589615494,
            1675.4
          ],
          [
            138.50850493259526,
            36.730045963142324,
            1680.0
          ],
          [
            138.50872362967073,
            36.73000733666916,
            1683.7
          ],
          [
            138.50894232674617,
            36.729968710196,
            1687.2
          ],
          [
            138.50916102382163,
            36.72993008372283,
            1690.1
          ],
          [
            138.5093797208971,
            36.729891457249664,
            1693.3
          ],
          [
            138.50959841797257,
            36.7298528307765,
            1696.3
          ],
          [
            138.50981711504804,
            36.72981420430333,
            1699.6
          ],
          [
            138.5100358121235,
            36.72977557783017,
            1704.0
          ],
          [
            138.51025450919894,
            36.729736951357005,
            1707.9
          ],
          [
            138.5104732062744,
            36.729698324883834,
            1711.9
          ],
          [
            138.51069190334988,
            36.72965969841067,
            1716.5
          ],
          [
            138.51091060042535,
            36.72962107193751,
            1720.5
          ],
          [
            138.51112929750082,
            36.72958244546434,
            1724.8
          ],
          [
            138.51134799457628,
            36.729543818991175,
            1730.0
          ],
          [
            138.5115430971994,
            36.729509359791294,
            1732.7
          ]
        ]
      }
    },
    {
      "type": "Feature",
      "properties": {
        "name": "一の瀬第8クワッド",
        "horizontal_dist_map": 449,
        "slope_dist_map": 464,
        "elevation_diff_map": 111.2,
        "midstation": null
      },
      "geometry": {
        "type": "LineString",
        "coordinates": [
          [
            138.5119934,
            36.7335343,
            1666.5
          ],
          [
            138.51216553462635,
            36.73341904340511,
            1665.2
          ],
          [
            138.5123376692527,
            36.73330378681022,
            1672.3
          ],
          [
            138.51250980387906,
            36.73318853021532,
            1680.2
          ],
          [
            138.51268193850538,
            36.73307327362043,
            1685.9
          ],
          [
            138.51285407313173,
            36.73295801702554,
            1691.0
          ],
          [
            138.5130262077581,
            36.73284276043064,
            1695.0
          ],
          [
            138.51319834238444,
            36.732727503835754,
            1699.4
          ],
          [
            138.5133704770108,
            36.73261224724086,
            1704.4
          ],
          [
            138.51354261163715,
            36.73249699064596,
            1708.7
          ],
          [
            138.5137147462635,
            36.732381734051074,
            1713.7
          ],
          [
            138.51388688088983,
            36.73226647745618,
            1718.0
          ],
          [
            138.51405901551618,
            36.73215122086128,
            1722.9
          ],
          [
            138.51423115014254,
            36.732035964266395,
            1728.8
          ],
          [
            138.5144032847689,
            36.7319207076715,
            1732.8
          ],
          [
            138.51457541939524,
            36.7318054510766,
            1736.3
          ],
          [
            138.5147475540216,
            36.731690194481715,
            1742.0
          ],
          [
            138.51491968864795,
            36.73157493788682,
            1747.6
          ],
          [
            138.51509182327428,
            36.73145968129193,
            1752.0
          ],
          [
            138.51526395790063,
            36.731344424697035,
            1758.5
          ],
          [
            138.51543609252698,
            36.73122916810214,
            1764.8
          ],
          [
            138.51560822715334,
            36.73111391150725,
            1769.9
          ],
          [
            138.5157803617797,
            36.730998654912355,
            1777.7
          ],
          [
            138.51585853070742,
            36.730946315155805,
            1777.7
          ]
        ]
      }
    },
    {
      "type": "Feature",
      "properties": {
        "name": "寺小屋クワッド",
        "horizontal_dist_map": 703,
        "slope_dist_map": 722,
        "elevation_diff_map": 154.9,
        "midstation": null
      },
      "geometry": {
        "type": "LineString",
        "coordinates": [
          [
            138.5267132975332,
            36.73096475470852,
            1907.8
          ],
          [
            138.5268432660067,
            36.73081800313957,
            1907.1
          ],
          [
            138.5269732344802,
            36.73067125157061,
            1909.8
          ],
          [
            138.5271032029537,
            36.73052450000165,
            1913.3
          ],
          [
            138.52723317142718,
            36.730377748432694,
            1917.2
          ],
          [
            138.5273631399007,
            36.73023099686374,
            1920.3
          ],
          [
            138.5274931083742,
            36.73008424529478,
            1923.7
          ],
          [
            138.52762307684768,
            36.72993749372583,
            1927.9
          ],
          [
            138.5277530453212,
            36.729790742156865,
            1930.9
          ],
          [
            138.52788301379468,
            36.72964399058791,
            1934.0
          ],
          [
            138.52801298226817,
            36.729497239018954,
            1936.4
          ],
          [
            138.52814295074168,
            36.72935048745,
            1938.0
          ],
          [
            138.52827291921517,
            36.72920373588104,
            1944.9
          ],
          [
            138.52840288768869,
            36.72905698431209,
            1952.8
          ],
          [
            138.52853285616217,
            36.728910232743125,
            1959.0
          ],
          [
            138.52866282463566,
            36.72876348117417,
            1964.6
          ],
          [
            138.52879279310918,
            36.728616729605214,
            1968.3
          ],
          [
            138.52892276158266,
            36.72846997803626,
            1971.7
          ],
          [
            138.52905273005615,
            36.7283232264673,
            1976.7
          ],
          [
            138.52918269852967,
            36.72817647489834,
            1981.0
          ],
          [
            138.52931266700315,
            36.728029723329385,
            1987.2
          ],
          [
            138.52944263547664,
            36.72788297176043,
            1994.7
          ],
          [
            138.52957260395016,
            36.727736220191474,
            2002.1
          ],
          [
            138.52970257242364,
            36.72758946862252,
            2005.4
          ],
          [
            138.52983254089713,
            36.727442717053556,
            2009.3
          ],
          [
            138.52996250937065,
            36.7272959654846,
            2013.5
          ],
          [
            138.53009247784414,
            36.727149213915645,
            2019.6
          ],
          [
            138.53022244631762,
            36.72700246234669,
            2024.9
          ],
          [
            138.53035241479114,
            36.726855710777734,
            2031.9
          ],
          [
            138.53048238326463,
            36.72670895920877,
            2038.4
          ],
          [
            138.5306123517381,
            36.726562207639816,
            2043.0
          ],
          [
            138.53074232021163,
            36.72641545607086,
            2045.6
          ],
          [
            138.53087228868512,
            36.726268704501905,
            2048.2
          ],
          [
            138.53100225715863,
            36.72612195293295,
            2052.3
          ],
          [
            138.53113222563212,
            36.725975201363994,
            2056.3
          ],
          [
            138.5312621941056,
            36.72582844979503,
            2061.8
          ],
          [
            138.5312835806825,
            36.72580430152563,
            2062.7
          ]
        ]
      }
    },
    {
      "type": "Feature",
      "properties": {
        "name": "寺小屋第1ペア",
        "horizontal_dist_map": 385,
        "slope_dist_map": 393,
        "elevation_diff_map": 62.6,
        "midstation": null
      },
      "geometry": {
        "type": "LineString",
        "coordinates": [
          [
            138.5258144,
            36.7304125,
            1915.0
          ],
          [
            138.52559130600764,
            36.73039720997103,
            1914.9
          ],
          [
            138.52536821201528,
            36.730381919942054,
            1915.8
          ],
          [
            138.5251451180229,
            36.730366629913085,
            1919.1
          ],
          [
            138.52492202403053,
            36.73035133988411,
            1922.2
          ],
          [
            138.52469893003817,
            36.73033604985514,
            1923.9
          ],
          [
            138.5244758360458,
            36.730320759826164,
            1929.3
          ],
          [
            138.52425274205345,
            36.730305469797194,
            1931.6
          ],
          [
            138.5240296480611,
            36.730290179768225,
            1934.7
          ],
          [
            138.5238065540687,
            36.73027488973925,
            1936.7
          ],
          [
            138.52358346007634,
            36.73025959971028,
            1938.0
          ],
          [
            138.52336036608398,
            36.730244309681304,
            1941.0
          ],
          [
            138.52313727209162,
            36.730229019652334,
            1945.1
          ],
          [
            138.52291417809926,
            36.73021372962336,
            1950.6
          ],
          [
            138.52269108410687,
            36.73019843959439,
            1954.1
          ],
          [
            138.5224679901145,
            36.73018314956542,
            1956.5
          ],
          [
            138.52224489612215,
            36.730167859536444,
            1957.9
          ],
          [
            138.52202180212979,
            36.730152569507474,
            1960.6
          ],
          [
            138.52179870813742,
            36.7301372794785,
            1965.1
          ],
          [
            138.52157561414506,
            36.73012198944953,
            1976.3
          ],
          [
            138.52150981477538,
            36.730117479806495,
            1977.6
          ]
        ]
      }
    },
    {
      "type": "Feature",
      "properties": {
        "name": "西館山クワッド",
        "horizontal_dist_map": 571,
        "slope_dist_map": 611,
        "elevation_diff_map": 189.4,
        "midstation": null
      },
      "geometry": {
        "type": "LineString",
        "coordinates": [
          [
            138.49743305630923,
            36.72183517504694,
            1329.6
          ],
          [
            138.49758509670613,
            36.721967466890895,
            1329.1
          ],
          [
            138.49773713710303,
            36.72209975873485,
            1332.3
          ],
          [
            138.49788917749993,
            36.722232050578796,
            1334.1
          ],
          [
            138.4980412178968,
            36.72236434242275,
            1335.5
          ],
          [
            138.4981932582937,
            36.722496634266705,
            1340.8
          ],
          [
            138.4983452986906,
            36.72262892611066,
            1355.3
          ],
          [
            138.4984973390875,
            36.72276121795461,
            1369.2
          ],
          [
            138.4986493794844,
            36.72289350979856,
            1380.7
          ],
          [
            138.4988014198813,
            36.723025801642514,
            1386.0
          ],
          [
            138.49895346027816,
            36.72315809348647,
            1391.4
          ],
          [
            138.49910550067506,
            36.72329038533042,
            1397.5
          ],
          [
            138.49925754107196,
            36.723422677174376,
            1406.1
          ],
          [
            138.49940958146885,
            36.72355496901832,
            1417.6
          ],
          [
            138.49956162186575,
            36.72368726086228,
            1424.0
          ],
          [
            138.49971366226265,
            36.72381955270623,
            1430.0
          ],
          [
            138.49986570265955,
            36.723951844550186,
            1437.3
          ],
          [
            138.50001774305642,
            36.72408413639414,
            1440.5
          ],
          [
            138.50016978345332,
            36.72421642823809,
            1442.2
          ],
          [
            138.50032182385021,
            36.72434872008204,
            1445.2
          ],
          [
            138.5004738642471,
            36.724481011925995,
            1448.8
          ],
          [
            138.500625904644,
            36.72461330376995,
            1462.6
          ],
          [
            138.5007779450409,
            36.7247455956139,
            1473.9
          ],
          [
            138.50092998543778,
            36.72487788745785,
            1482.0
          ],
          [
            138.50108202583468,
            36.725010179301805,
            1491.0
          ],
          [
            138.50123406623158,
            36.72514247114576,
            1497.2
          ],
          [
            138.50138610662847,
            36.72527476298971,
            1506.3
          ],
          [
            138.50153814702537,
            36.72540705483367,
            1512.0
          ],
          [
            138.50169018742227,
            36.72553934667762,
            1518.6
          ],
          [
            138.50178055251973,
            36.72561797423725,
            1519.0
          ]
        ]
      }
    },
    {
      "type": "Feature",
      "properties": {
        "name": "西館第1フーディークワッド",
        "horizontal_dist_map": 728,
        "slope_dist_map": 789,
        "elevation_diff_map": 268.9,
        "midstation": null
      },
      "geometry": {
        "type": "LineString",
        "coordinates": [
          [
            138.49961040182612,
            36.72556367114572,
            1462.0
          ],
          [
            138.499740131804,
            36.72571055924799,
            1461.4
          ],
          [
            138.49986986178192,
            36.72585744735026,
            1465.6
          ],
          [
            138.4999995917598,
            36.72600433545253,
            1472.7
          ],
          [
            138.50012932173772,
            36.7261512235548,
            1478.5
          ],
          [
            138.5002590517156,
            36.72629811165707,
            1483.5
          ],
          [
            138.5003887816935,
            36.72644499975934,
            1486.9
          ],
          [
            138.5005185116714,
            36.72659188786161,
            1489.0
          ],
          [
            138.5006482416493,
            36.72673877596388,
            1491.2
          ],
          [
            138.5007779716272,
            36.72688566406615,
            1491.9
          ],
          [
            138.5009077016051,
            36.72703255216842,
            1494.5
          ],
          [
            138.50103743158297,
            36.72717944027069,
            1499.4
          ],
          [
            138.5011671615609,
            36.72732632837296,
            1509.3
          ],
          [
            138.50129689153877,
            36.727473216475225,
            1524.3
          ],
          [
            138.50142662151669,
            36.7276201045775,
            1532.8
          ],
          [
            138.50155635149457,
            36.72776699267977,
            1543.8
          ],
          [
            138.50168608147246,
            36.72791388078204,
            1552.7
          ],
          [
            138.50181581145037,
            36.728060768884305,
            1561.3
          ],
          [
            138.50194554142826,
            36.72820765698658,
            1569.1
          ],
          [
            138.50207527140617,
            36.72835454508885,
            1575.4
          ],
          [
            138.50220500138406,
            36.72850143319112,
            1581.2
          ],
          [
            138.50233473136194,
            36.728648321293385,
            1589.1
          ],
          [
            138.50246446133986,
            36.728795209395656,
            1599.2
          ],
          [
            138.50259419131774,
            36.72894209749793,
            1610.8
          ],
          [
            138.50272392129563,
            36.72908898560019,
            1616.4
          ],
          [
            138.50285365127354,
            36.729235873702464,
            1621.2
          ],
          [
            138.50298338125143,
            36.729382761804736,
            1631.8
          ],
          [
            138.50311311122934,
            36.72952964990701,
            1644.4
          ],
          [
            138.50324284120722,
            36.72967653800927,
            1657.7
          ],
          [
            138.5033725711851,
            36.729823426111544,
            1673.6
          ],
          [
            138.50350230116302,
            36.729970314213816,
            1689.2
          ],
          [
            138.5036320311409,
            36.73011720231609,
            1702.9
          ],
          [
            138.50376176111882,
            36.73026409041835,
            1709.8
          ],
          [
            138.5038914910967,
            36.730410978520624,
            1715.8
          ],
          [
            138.5040212210746,
            36.730557866622895,
            1722.7
          ],
          [
            138.5041509510525,
            36.73070475472516,
            1726.8
          ],
          [
            138.5042806810304,
            36.73085164282743,
            1729.8
          ],
          [
            138.5043364663608,
            36.73091480634175,
            1730.9
          ]
        ]
      }
    },
    {
      "type": "Feature",
      "properties": {
        "name": "西館第2トリプル",
        "horizontal_dist_map": 228,
        "slope_dist_map": 237,
        "elevation_diff_map": 63.4,
        "midstation": null
      },
      "geometry": {
        "type": "LineString",
        "coordinates": [
          [
            138.50715239765628,
            36.73152528560849,
            1676.1
          ],
          [
            138.50693622952775,
            36.73157225480018,
            1677.1
          ],
          [
            138.50672006139922,
            36.73161922399186,
            1682.7
          ],
          [
            138.5065038932707,
            36.73166619318356,
            1687.7
          ],
          [
            138.50628772514216,
            36.73171316237524,
            1693.2
          ],
          [
            138.50607155701363,
            36.73176013156693,
            1698.4
          ],
          [
            138.5058553888851,
            36.731807100758616,
            1703.2
          ],
          [
            138.50563922075656,
            36.73185406995031,
            1708.5
          ],
          [
            138.50542305262803,
            36.731901039141995,
            1715.7
          ],
          [
            138.5052068844995,
            36.73194800833368,
            1723.5
          ],
          [
            138.50499071637097,
            36.73199497752537,
            1730.1
          ],
          [
            138.50477454824244,
            36.73204194671706,
            1736.8
          ],
          [
            138.50468451206106,
            36.73206150985382,
            1739.5
          ]
        ]
      }
    },
    {
      "type": "Feature",
      "properties": {
        "name": "一の瀬ダイヤモンドクワッド",
        "horizontal_dist_map": 474,
        "slope_dist_map": 487,
        "elevation_diff_map": 104.1,
        "midstation": null
      },
      "geometry": {
        "type": "LineString",
        "coordinates": [
          [
            138.51257735470173,
            36.74041171645948,
            1606.3
          ],
          [
            138.51235372721462,
            36.740421096906125,
            1605.7
          ],
          [
            138.5121300997275,
            36.74043047735278,
            1607.2
          ],
          [
            138.51190647224036,
            36.74043985779943,
            1611.8
          ],
          [
            138.51168284475324,
            36.740449238246086,
            1616.5
          ],
          [
            138.51145921726612,
            36.740458618692735,
            1623.6
          ],
          [
            138.511235589779,
            36.74046799913939,
            1631.5
          ],
          [
            138.51101196229186,
            36.74047737958604,
            1636.1
          ],
          [
            138.51078833480474,
            36.740486760032695,
            1640.2
          ],
          [
            138.51056470731763,
            36.740496140479344,
            1644.3
          ],
          [
            138.5103410798305,
            36.740505520926,
            1650.2
          ],
          [
            138.5101174523434,
            36.74051490137265,
            1654.0
          ],
          [
            138.50989382485625,
            36.740524281819305,
            1658.1
          ],
          [
            138.50967019736913,
            36.74053366226595,
            1663.0
          ],
          [
            138.50944656988202,
            36.74054304271261,
            1668.5
          ],
          [
            138.5092229423949,
            36.74055242315926,
            1673.8
          ],
          [
            138.50899931490775,
            36.740561803605914,
            1677.7
          ],
          [
            138.50877568742064,
            36.74057118405256,
            1683.3
          ],
          [
            138.50855205993352,
            36.74058056449922,
            1689.3
          ],
          [
            138.5083284324464,
            36.74058994494587,
            1695.5
          ],
          [
            138.5081048049593,
            36.74059932539252,
            1700.2
          ],
          [
            138.50788117747214,
            36.74060870583917,
            1704.4
          ],
          [
            138.50765754998503,
            36.74061808628583,
            1708.2
          ],
          [
            138.5074339224979,
            36.74062746673248,
            1709.9
          ],
          [
            138.50727070103176,
            36.740634313342774,
            1710.4
          ]
        ]
      }
    },
    {
      "type": "Feature",
      "properties": {
        "name": "一の瀬山の神第2",
        "horizontal_dist_map": 696,
        "slope_dist_map": 710,
        "elevation_diff_map": 109.4,
        "midstation": null
      },
      "geometry": {
        "type": "LineString",
        "coordinates": [
          [
            138.5142374722379,
            36.74327572292594,
            1596.9
          ],
          [
            138.51402611273855,
            36.74321617571418,
            1598.0
          ],
          [
            138.51381475323916,
            36.743156628502426,
            1599.0
          ],
          [
            138.5136033937398,
            36.74309708129067,
            1600.0
          ],
          [
            138.5133920342404,
            36.743037534078915,
            1602.0
          ],
          [
            138.51318067474105,
            36.74297798686716,
            1603.7
          ],
          [
            138.5129693152417,
            36.742918439655405,
            1606.5
          ],
          [
            138.5127579557423,
            36.74285889244365,
            1608.3
          ],
          [
            138.51254659624294,
            36.742799345231894,
            1611.1
          ],
          [
            138.51233523674355,
            36.74273979802014,
            1613.0
          ],
          [
            138.5121238772442,
            36.742680250808384,
            1616.3
          ],
          [
            138.5119125177448,
            36.74262070359663,
            1620.0
          ],
          [
            138.51170115824544,
            36.74256115638487,
            1624.1
          ],
          [
            138.51148979874608,
            36.74250160917312,
            1629.4
          ],
          [
            138.5112784392467,
            36.74244206196136,
            1635.3
          ],
          [
            138.51106707974733,
            36.74238251474961,
            1643.0
          ],
          [
            138.51085572024795,
            36.74232296753785,
            1652.1
          ],
          [
            138.51064436074859,
            36.7422634203261,
            1659.6
          ],
          [
            138.51043300124923,
            36.74220387311434,
            1668.3
          ],
          [
            138.51022164174984,
            36.742144325902586,
            1670.2
          ],
          [
            138.51001028225048,
            36.74208477869083,
            1676.1
          ],
          [
            138.5097989227511,
            36.742025231479076,
            1679.0
          ],
          [
            138.50958756325173,
            36.74196568426732,
            1680.0
          ],
          [
            138.50937620375237,
            36.741906137055565,
            1678.6
          ],
          [
            138.50916484425298,
            36.74184658984381,
            1679.6
          ],
          [
            138.50895348475362,
            36.741787042632055,
            1679.6
          ],
          [
            138.50874212525423,
            36.7417274954203,
            1679.7
          ],
          [
            138.50853076575487,
            36.741667948208544,
            1680.1
          ],
          [
            138.5083194062555,
            36.74160840099679,
            1680.9
          ],
          [
            138.50810804675612,
            36.741548853785034,
            1685.1
          ],
          [
            138.50789668725676,
            36.74148930657328,
            1689.5
          ],
          [
            138.50768532775737,
            36.74142975936152,
            1691.8
          ],
          [
            138.507473968258,
            36.74137021214977,
            1695.9
          ],
          [
            138.50726260875862,
            36.74131066493801,
            1699.6
          ],
          [
            138.50705124925926,
            36.74125111772626,
            1703.0
          ],
          [
            138.50687267543364,
            36.74120080736197,
            1706.3
          ]
        ]
      }
    },
    {
      "type": "Feature",
      "properties": {
        "name": "ジャイアントペア",
        "horizontal_dist_map": 886,
        "slope_dist_map": 930,
        "elevation_diff_map": 259.1,
        "midstation": null
      },
      "geometry": {
        "type": "LineString",
        "coordinates": [
          [
            138.49628315606125,
            36.7205043495332,
            1336.5
          ],
          [
            138.49629008152212,
            36.72032421070177,
            1336.4
          ],
          [
            138.496297006983,
            36.720144071870344,
            1341.4
          ],
          [
            138.49630393244388,
            36.71996393303891,
            1348.3
          ],
          [
            138.49631085790475,
            36.71978379420748,
            1352.8
          ],
          [
            138.49631778336564,
            36.719603655376055,
            1355.0
          ],
          [
            138.4963247088265,
            36.71942351654462,
            1356.0
          ],
          [
            138.49633163428737,
            36.7192433777132,
            1359.0
          ],
          [
            138.49633855974827,
            36.719063238881766,
            1361.8
          ],
          [
            138.49634548520913,
            36.718883100050334,
            1366.7
          ],
          [
            138.49635241067,
            36.71870296121891,
            1368.2
          ],
          [
            138.4963593361309,
            36.71852282238748,
            1373.4
          ],
          [
            138.49636626159176,
            36.718342683556045,
            1382.1
          ],
          [
            138.49637318705263,
            36.71816254472462,
            1388.1
          ],
          [
            138.49638011251352,
            36.71798240589319,
            1391.2
          ],
          [
            138.4963870379744,
            36.717802267061764,
            1398.6
          ],
          [
            138.49639396343528,
            36.71762212823033,
            1407.0
          ],
          [
            138.49640088889615,
            36.7174419893989,
            1412.7
          ],
          [
            138.496407814357,
            36.717261850567475,
            1420.4
          ],
          [
            138.4964147398179,
            36.71708171173604,
            1427.6
          ],
          [
            138.49642166527877,
            36.71690157290461,
            1436.7
          ],
          [
            138.49642859073964,
            36.716721434073186,
            1446.0
          ],
          [
            138.49643551620053,
            36.716541295241754,
            1454.1
          ],
          [
            138.4964424416614,
            36.71636115641033,
            1463.9
          ],
          [
            138.49644936712227,
            36.7161810175789,
            1475.6
          ],
          [
            138.49645629258316,
            36.716000878747465,
            1482.4
          ],
          [
            138.49646321804403,
            36.71582073991604,
            1487.2
          ],
          [
            138.4964701435049,
            36.71564060108461,
            1496.1
          ],
          [
            138.4964770689658,
            36.715460462253176,
            1503.4
          ],
          [
            138.49648399442665,
            36.71528032342175,
            1511.6
          ],
          [
            138.49649091988752,
            36.71510018459032,
            1514.4
          ],
          [
            138.49649784534842,
            36.714920045758895,
            1522.6
          ],
          [
            138.49650477080928,
            36.71473990692746,
            1532.5
          ],
          [
            138.49651169627015,
            36.71455976809603,
            1540.9
          ],
          [
            138.49651862173104,
            36.714379629264606,
            1544.8
          ],
          [
            138.4965255471919,
            36.714199490433174,
            1546.9
          ],
          [
            138.49653247265277,
            36.71401935160174,
            1549.8
          ],
          [
            138.49653939811367,
            36.71383921277032,
            1553.8
          ],
          [
            138.49654632357453,
            36.713659073938885,
            1558.6
          ],
          [
            138.4965532490354,
            36.71347893510746,
            1564.7
          ],
          [
            138.4965601744963,
            36.71329879627603,
            1571.3
          ],
          [
            138.49656709995716,
            36.713118657444596,
            1578.6
          ],
          [
            138.49657402541806,
            36.71293851861317,
            1583.2
          ],
          [
            138.49658095087892,
            36.71275837978174,
            1588.4
          ],
          [
            138.4965878763398,
            36.71257824095031,
            1592.7
          ],
          [
            138.4965902,
            36.7125178,
            1595.6
          ]
        ]
      }
    },
    {
      "type": "Feature",
      "properties": {
        "name": "蓮池トリプル",
        "horizontal_dist_map": 426,
        "slope_dist_map": 437,
        "elevation_diff_map": 67.4,
        "midstation": null
      },
      "geometry": {
        "type": "LineString",
        "coordinates": [
          [
            138.4934085278436,
            36.716213408586086,
            1504.2
          ],
          [
            138.49330815529558,
            36.71605231568102,
            1503.6
          ],
          [
            138.49320778274753,
            36.71589122277596,
            1503.6
          ],
          [
            138.4931074101995,
            36.71573012987089,
            1506.2
          ],
          [
            138.49300703765147,
            36.715569036965825,
            1512.9
          ],
          [
            138.49290666510345,
            36.715407944060765,
            1521.0
          ],
          [
            138.49280629255543,
            36.7152468511557,
            1530.2
          ],
          [
            138.49270592000738,
            36.71508575825063,
            1537.8
          ],
          [
            138.49260554745936,
            36.71492466534556,
            1548.1
          ],
          [
            138.49250517491134,
            36.7147635724405,
            1552.0
          ],
          [
            138.4924048023633,
            36.714602479535436,
            1554.5
          ],
          [
            138.49230442981528,
            36.71444138663037,
            1556.2
          ],
          [
            138.49220405726723,
            36.71428029372531,
            1557.3
          ],
          [
            138.4921036847192,
            36.71411920082024,
            1558.1
          ],
          [
            138.4920033121712,
            36.713958107915175,
            1560.4
          ],
          [
            138.49190293962315,
            36.713797015010115,
            1562.0
          ],
          [
            138.49180256707513,
            36.71363592210505,
            1561.2
          ],
          [
            138.49170219452708,
            36.71347482919998,
            1560.7
          ],
          [
            138.49160182197906,
            36.71331373629492,
            1563.5
          ],
          [
            138.49150144943104,
            36.713152643389854,
            1570.0
          ],
          [
            138.491401076883,
            36.71299155048479,
            1573.3
          ],
          [
            138.49130070433498,
            36.71283045757972,
            1572.1
          ],
          [
            138.4912683005663,
            36.71277845115633,
            1571.6
          ]
        ]
      }
    },
    {
      "type": "Feature",
      "properties": {
        "name": "丸池第1トリプル",
        "horizontal_dist_map": 231,
        "slope_dist_map": 260,
        "elevation_diff_map": 109.8,
        "midstation": null
      },
      "geometry": {
        "type": "LineString",
        "coordinates": [
          [
            138.48904920796636,
            36.71612073587581,
            1460.9
          ],
          [
            138.48906377792062,
            36.71594089287537,
            1461.0
          ],
          [
            138.48907834787488,
            36.715761049874935,
            1462.2
          ],
          [
            138.48909291782917,
            36.715581206874496,
            1471.6
          ],
          [
            138.48910748778343,
            36.71540136387406,
            1482.8
          ],
          [
            138.4891220577377,
            36.71522152087362,
            1493.9
          ],
          [
            138.48913662769195,
            36.71504167787318,
            1506.4
          ],
          [
            138.4891511976462,
            36.71486183487274,
            1516.3
          ],
          [
            138.48916576760047,
            36.714681991872304,
            1528.4
          ],
          [
            138.48918033755476,
            36.714502148871865,
            1537.9
          ],
          [
            138.48919490750902,
            36.71432230587143,
            1552.2
          ],
          [
            138.48920947746328,
            36.71414246287099,
            1564.3
          ],
          [
            138.4892179,
            36.7140385,
            1570.7
          ]
        ]
      }
    },
    {
      "type": "Feature",
      "properties": {
        "name": "丸池第2ペア",
        "horizontal_dist_map": 124,
        "slope_dist_map": 130,
        "elevation_diff_map": 29.9,
        "midstation": null
      },
      "geometry": {
        "type": "LineString",
        "coordinates": [
          [
            138.4888840222484,
            36.71621260619495,
            1461.0
          ],
          [
            138.48866027536752,
            36.71620686775034,
            1459.8
          ],
          [
            138.4884365284866,
            36.71620112930573,
            1461.1
          ],
          [
            138.4882127816057,
            36.71619539086112,
            1466.7
          ],
          [
            138.4879890347248,
            36.7161896524165,
            1473.9
          ],
          [
            138.4877652878439,
            36.716183913971896,
            1482.8
          ],
          [
            138.48754154096298,
            36.71617817552728,
            1490.1
          ],
          [
            138.4874871369265,
            36.71617678022493,
            1490.9
          ]
        ]
      }
    },
    {
      "type": "Feature",
      "properties": {
        "name": "法坂第1クワッド",
        "horizontal_dist_map": 486,
        "slope_dist_map": 518,
        "elevation_diff_map": 168.2,
        "midstation": null
      },
      "geometry": {
        "type": "LineString",
        "coordinates": [
          [
            138.48344245942204,
            36.71607066503093,
            1407.7
          ],
          [
            138.48359320368573,
            36.71593742854513,
            1407.2
          ],
          [
            138.4837439479494,
            36.71580419205933,
            1412.1
          ],
          [
            138.48389469221308,
            36.715670955573536,
            1415.4
          ],
          [
            138.48404543647675,
            36.71553771908774,
            1419.8
          ],
          [
            138.48419618074044,
            36.71540448260195,
            1425.6
          ],
          [
            138.4843469250041,
            36.715271246116146,
            1433.3
          ],
          [
            138.4844976692678,
            36.71513800963035,
            1439.1
          ],
          [
            138.48464841353146,
            36.71500477314456,
            1447.3
          ],
          [
            138.48479915779515,
            36.71487153665876,
            1454.7
          ],
          [
            138.48494990205882,
            36.71473830017296,
            1465.3
          ],
          [
            138.4851006463225,
            36.714605063687166,
            1475.1
          ],
          [
            138.48525139058617,
            36.71447182720137,
            1485.3
          ],
          [
            138.48540213484986,
            36.71433859071557,
            1494.0
          ],
          [
            138.48555287911353,
            36.714205354229776,
            1507.2
          ],
          [
            138.48570362337722,
            36.71407211774398,
            1515.0
          ],
          [
            138.48585436764088,
            36.71393888125819,
            1523.6
          ],
          [
            138.48600511190457,
            36.713805644772386,
            1531.0
          ],
          [
            138.48615585616824,
            36.71367240828659,
            1537.4
          ],
          [
            138.48630660043193,
            36.7135391718008,
            1544.1
          ],
          [
            138.4864573446956,
            36.713405935315,
            1552.0
          ],
          [
            138.4866080889593,
            36.7132726988292,
            1557.6
          ],
          [
            138.48675883322295,
            36.713139462343406,
            1565.1
          ],
          [
            138.48690957748664,
            36.71300622585761,
            1570.1
          ],
          [
            138.4870603217503,
            36.71287298937181,
            1574.6
          ],
          [
            138.48711280438155,
            36.71282660219142,
            1575.9
          ]
        ]
      }
    },
    {
      "type": "Feature",
      "properties": {
        "name": "志賀高原リゾートゴンドラ",
        "horizontal_dist_map": 372,
        "slope_dist_map": 404,
        "elevation_diff_map": 150.3,
        "midstation": null
      },
      "geometry": {
        "type": "LineString",
        "coordinates": [
          [
            138.49625115683438,
            36.720632961480376,
            1334.9
          ],
          [
            138.49602969532802,
            36.72060658238808,
            1336.6
          ],
          [
            138.49580823382166,
            36.72058020329578,
            1342.5
          ],
          [
            138.49558677231528,
            36.720553824203485,
            1347.1
          ],
          [
            138.49536531080892,
            36.72052744511119,
            1356.0
          ],
          [
            138.49514384930256,
            36.72050106601889,
            1361.1
          ],
          [
            138.4949223877962,
            36.72047468692659,
            1370.2
          ],
          [
            138.49470092628982,
            36.720448307834296,
            1375.0
          ],
          [
            138.49447946478347,
            36.720421928742,
            1383.9
          ],
          [
            138.4942580032771,
            36.7203955496497,
            1393.4
          ],
          [
            138.49403654177075,
            36.720369170557404,
            1404.7
          ],
          [
            138.49381508026437,
            36.72034279146511,
            1410.6
          ],
          [
            138.493593618758,
            36.72031641237281,
            1419.0
          ],
          [
            138.49337215725166,
            36.72029003328051,
            1429.3
          ],
          [
            138.4931506957453,
            36.720263654188216,
            1438.2
          ],
          [
            138.49292923423894,
            36.72023727509592,
            1446.3
          ],
          [
            138.49270777273256,
            36.72021089600362,
            1455.0
          ],
          [
            138.4924863112262,
            36.720184516911324,
            1466.3
          ],
          [
            138.49226484971985,
            36.72015813781903,
            1481.1
          ],
          [
            138.49213093756373,
            36.72014218705095,
            1485.2
          ]
        ]
      }
    },
    {
      "type": "Feature",
      "properties": {
        "name": "一の瀬ダイヤモンドペア",
        "horizontal_dist_map": 99,
        "slope_dist_map": 100,
        "elevation_diff_map": 8.8,
        "midstation": null
      },
      "geometry": {
        "type": "LineString",
        "coordinates": [
          [
            138.51215235491014,
            36.73949453910541,
            1612.4
          ],
          [
            138.51226902317524,
            36.73934070850919,
            1612.7
          ],
          [
            138.51238569144036,
            36.739186877912964,
            1612.5
          ],
          [
            138.51250235970545,
            36.739033047316745,
            1615.4
          ],
          [
            138.51261902797057,
            36.73887921672053,
            1617.2
          ],
          [
            138.51273508211378,
            36.73872619586238,
            1621.2
          ]
        ]
      }
    }
  ]
}