{
  "type": "FeatureCollection",
  "features": [
    {
      "type": "Feature",
      "properties": {
        "name": "プリンスロマンス",
        "horizontal_dist_map": 519,
        "slope_dist_map": 544,
        "elevation_diff_map": 141.2
      },
      "geometry": {
        "type": "LineString",
        "coordinates": [
          [
            140.92377353376506,
            39.77432260814024,
            586.9
          ],
          [
            140.9239981753735,
            39.77437160718895,
            580.9
          ],
          [
            140.92422281698197,
            39.77442060623765,
            574.8
          ],
          [
            140.9244474585904,
            39.774469605286356,
            567.5
          ],
          [
            140.92467210019885,
            39.77451860433506,
            563.5
          ],
          [
            140.92489674180732,
            39.774567603383765,
            557.1
          ],
          [
            140.92512138341576,
            39.77461660243247,
            552.2
          ],
          [
            140.9253460250242,
            39.774665601481175,
            545.4
          ],
          [
            140.92557066663267,
            39.774714600529876,
            536.3
          ],
          [
            140.9257953082411,
            39.774763599578584,
            530.8
          ],
          [
            140.92601994984955,
            39.774812598627285,
            527.8
          ],
          [
            140.92624459145802,
            39.774861597675994,
            521.3
          ],
          [
            140.92646923306646,
            39.774910596724695,
            513.0
          ],
          [
            140.9266938746749,
            39.7749595957734,
            503.7
          ],
          [
            140.92691851628334,
            39.775008594822104,
            491.8
          ],
          [
            140.9271431578918,
            39.77505759387081,
            478.9
          ],
          [
            140.92736779950025,
            39.775106592919514,
            470.1
          ],
          [
            140.9275924411087,
            39.77515559196822,
            465.6
          ],
          [
            140.92781708271716,
            39.77520459101692,
            460.6
          ],
          [
            140.9280417243256,
            39.77525359006563,
            457.4
          ],
          [
            140.92826636593404,
            39.77530258911433,
            456.1
          ],
          [
            140.9284910075425,
            39.77535158816304,
            454.1
          ],
          [
            140.92871564915094,
            39.77540058721174,
            451.9
          ],
          [
            140.92894029075939,
            39.77544958626045,
            450.1
          ],
          [
            140.92916493236785,
            39.77549858530915,
            448.4
          ],
          [
            140.9293895739763,
            39.77554758435786,
            446.6
          ],
          [
            140.92960875013506,
            39.7755953912773,
            445.7
          ]
        ]
      }
    },
    {
      "type": "Feature",
      "properties": {
        "name": "サンシャイン",
        "horizontal_dist_map": 920,
        "slope_dist_map": 983,
        "elevation_diff_map": 317.5
      },
      "geometry": {
        "type": "LineString",
        "coordinates": [
          [
            140.912227,
            39.7805454,
            815.2
          ],
          [
            140.91205504218266,
            39.78066724284397,
            816.0
          ],
          [
            140.91188308436534,
            39.78078908568793,
            822.4
          ],
          [
            140.911711126548,
            39.780910928531895,
            827.7
          ],
          [
            140.91153916873068,
            39.781032771375855,
            832.0
          ],
          [
            140.91136721091334,
            39.78115461421982,
            835.2
          ],
          [
            140.91119525309603,
            39.78127645706378,
            839.3
          ],
          [
            140.91102329527868,
            39.78139829990775,
            841.1
          ],
          [
            140.91085133746137,
            39.78152014275172,
            845.1
          ],
          [
            140.91067937964402,
            39.78164198559568,
            849.5
          ],
          [
            140.91050742182668,
            39.781763828439644,
            854.3
          ],
          [
            140.91033546400936,
            39.781885671283604,
            858.3
          ],
          [
            140.91016350619202,
            39.78200751412757,
            862.6
          ],
          [
            140.9099915483747,
            39.78212935697153,
            867.2
          ],
          [
            140.90981959055736,
            39.7822511998155,
            870.7
          ],
          [
            140.90964763274005,
            39.78237304265946,
            876.3
          ],
          [
            140.9094756749227,
            39.782494885503425,
            883.1
          ],
          [
            140.9093037171054,
            39.78261672834739,
            887.0
          ],
          [
            140.90913175928804,
            39.78273857119135,
            892.9
          ],
          [
            140.9089598014707,
            39.78286041403532,
            897.2
          ],
          [
            140.90878784365339,
            39.78298225687928,
            902.8
          ],
          [
            140.90861588583604,
            39.783104099723246,
            907.0
          ],
          [
            140.90844392801873,
            39.783225942567206,
            913.0
          ],
          [
            140.90827197020138,
            39.78334778541117,
            919.1
          ],
          [
            140.90810001238407,
            39.78346962825514,
            923.7
          ],
          [
            140.90792805456672,
            39.7835914710991,
            926.3
          ],
          [
            140.9077560967494,
            39.78371331394307,
            933.4
          ],
          [
            140.90758413893207,
            39.78383515678703,
            942.9
          ],
          [
            140.90741218111472,
            39.783956999630995,
            950.0
          ],
          [
            140.9072402232974,
            39.784078842474955,
            957.6
          ],
          [
            140.90706826548006,
            39.78420068531892,
            961.5
          ],
          [
            140.90689630766275,
            39.78432252816288,
            972.6
          ],
          [
            140.9067243498454,
            39.78444437100685,
            981.7
          ],
          [
            140.9065523920281,
            39.784566213850816,
            994.0
          ],
          [
            140.90638043421075,
            39.784688056694776,
            1004.2
          ],
          [
            140.90620847639343,
            39.78480989953874,
            1015.7
          ],
          [
            140.9060365185761,
            39.7849317423827,
            1025.6
          ],
          [
            140.90586456075874,
            39.78505358522667,
            1035.3
          ],
          [
            140.90569260294143,
            39.78517542807063,
            1047.7
          ],
          [
            140.90552064512408,
            39.7852972709146,
            1058.7
          ],
          [
            140.90534868730677,
            39.785419113758564,
            1069.0
          ],
          [
            140.90517672948943,
            39.785540956602524,
            1080.8
          ],
          [
            140.9050047716721,
            39.78566279944649,
            1092.0
          ],
          [
            140.90483281385477,
            39.78578464229045,
            1101.9
          ],
          [
            140.90466085603745,
            39.78590648513442,
            1113.5
          ],
          [
            140.9044888982201,
            39.78602832797838,
            1125.7
          ],
          [
            140.9043169404028,
            39.786150170822346,
            1132.7
          ],
          [
            140.9043145,
            39.7861519,
            1132.7
          ]
        ]
      }
    },
    {
      "type": "Feature",
      "properties": {
        "name": "初級ロマンス",
        "horizontal_dist_map": 635,
        "slope_dist_map": 644,
        "elevation_diff_map": 94.4
      },
      "geometry": {
        "type": "LineString",
        "coordinates": [
          [
            140.9190398,
            39.7774864,
            722.4
          ],
          [
            140.91885585659932,
            39.77759732399808,
            722.5
          ],
          [
            140.9186719131986,
            39.77770824799615,
            723.0
          ],
          [
            140.91848796979792,
            39.77781917199423,
            723.0
          ],
          [
            140.91830402639724,
            39.77793009599231,
            722.3
          ],
          [
            140.91812008299652,
            39.77804101999038,
            728.6
          ],
          [
            140.91793613959584,
            39.77815194398846,
            731.1
          ],
          [
            140.91775219619515,
            39.77826286798654,
            734.2
          ],
          [
            140.91756825279444,
            39.77837379198462,
            736.7
          ],
          [
            140.91738430939375,
            39.77848471598269,
            738.8
          ],
          [
            140.91720036599307,
            39.77859563998077,
            744.2
          ],
          [
            140.91701642259235,
            39.77870656397885,
            746.0
          ],
          [
            140.91683247919167,
            39.77881748797692,
            747.4
          ],
          [
            140.91664853579098,
            39.778928411975,
            749.6
          ],
          [
            140.91646459239027,
            39.77903933597308,
            752.3
          ],
          [
            140.91628064898958,
            39.77915025997115,
            755.7
          ],
          [
            140.9160967055889,
            39.77926118396923,
            758.8
          ],
          [
            140.91591276218819,
            39.77937210796731,
            762.9
          ],
          [
            140.9157288187875,
            39.779483031965384,
            765.6
          ],
          [
            140.91554487538681,
            39.77959395596346,
            768.5
          ],
          [
            140.9153609319861,
            39.77970487996154,
            772.0
          ],
          [
            140.91517698858542,
            39.779815803959615,
            775.4
          ],
          [
            140.91499304518473,
            39.779926727957694,
            778.9
          ],
          [
            140.91480910178402,
            39.78003765195577,
            781.1
          ],
          [
            140.91462515838333,
            39.78014857595385,
            784.8
          ],
          [
            140.91444121498265,
            39.780259499951924,
            788.2
          ],
          [
            140.91425727158193,
            39.780370423950004,
            792.8
          ],
          [
            140.91407332818125,
            39.78048134794808,
            797.0
          ],
          [
            140.91388938478056,
            39.780592271946155,
            801.1
          ],
          [
            140.91370544137985,
            39.780703195944234,
            804.8
          ],
          [
            140.91352149797916,
            39.78081411994231,
            808.2
          ],
          [
            140.91333755457848,
            39.780925043940385,
            813.9
          ],
          [
            140.913198,
            39.7810092,
            816.8
          ]
        ]
      }
    },
    {
      "type": "Feature",
      "properties": {
        "name": "パラダイス",
        "horizontal_dist_map": 639,
        "slope_dist_map": 665,
        "elevation_diff_map": 171.2
      },
      "geometry": {
        "type": "LineString",
        "coordinates": [
          [
            140.9203058,
            39.7831014,
            706.5
          ],
          [
            140.92007579606263,
            39.783132338853946,
            707.5
          ],
          [
            140.91984579212527,
            39.78316327770789,
            710.8
          ],
          [
            140.9196157881879,
            39.78319421656184,
            713.7
          ],
          [
            140.91938578425055,
            39.783225155415785,
            716.6
          ],
          [
            140.91915578031316,
            39.78325609426973,
            718.8
          ],
          [
            140.9189257763758,
            39.78328703312368,
            721.8
          ],
          [
            140.91869577243844,
            39.783317971977624,
            724.8
          ],
          [
            140.91846576850108,
            39.78334891083157,
            728.0
          ],
          [
            140.91823576456372,
            39.78337984968552,
            733.0
          ],
          [
            140.91800576062636,
            39.78341078853946,
            737.7
          ],
          [
            140.917775756689,
            39.78344172739341,
            741.7
          ],
          [
            140.91754575275164,
            39.783472666247356,
            745.9
          ],
          [
            140.91731574881425,
            39.7835036051013,
            750.2
          ],
          [
            140.91708574487689,
            39.78353454395525,
            756.0
          ],
          [
            140.91685574093952,
            39.783565482809195,
            765.3
          ],
          [
            140.91662573700216,
            39.78359642166314,
            776.0
          ],
          [
            140.9163957330648,
            39.78362736051709,
            784.5
          ],
          [
            140.91616572912744,
            39.783658299371034,
            792.5
          ],
          [
            140.91593572519008,
            39.78368923822498,
            798.3
          ],
          [
            140.91570572125272,
            39.783720177078926,
            804.4
          ],
          [
            140.91547571731536,
            39.78375111593288,
            809.6
          ],
          [
            140.91524571337797,
            39.783782054786826,
            814.5
          ],
          [
            140.9150157094406,
            39.78381299364077,
            821.3
          ],
          [
            140.91478570550325,
            39.78384393249472,
            826.7
          ],
          [
            140.9145557015659,
            39.783874871348665,
            832.4
          ],
          [
            140.91432569762853,
            39.78390581020261,
            839.3
          ],
          [
            140.91409569369117,
            39.78393674905656,
            844.1
          ],
          [
            140.9138656897538,
            39.783967687910504,
            849.6
          ],
          [
            140.91363568581644,
            39.78399862676445,
            856.0
          ],
          [
            140.91340568187906,
            39.7840295656184,
            862.4
          ],
          [
            140.9131756779417,
            39.78406050447234,
            870.1
          ],
          [
            140.9129512,
            39.7840907,
            877.7
          ]
        ]
      }
    },
    {
      "type": "Feature",
      "properties": {
        "name": "雫石ロープウェー",
        "horizontal_dist_map": 911,
        "slope_dist_map": 977,
        "elevation_diff_map": 277.4
      },
      "geometry": {
        "type": "LineString",
        "coordinates": [
          [
            140.9297875,
            39.7757198,
            445.6
          ],
          [
            140.92955727083867,
            39.77574961509558,
            446.3
          ],
          [
            140.92932704167734,
            39.775779430191164,
            447.1
          ],
          [
            140.929096812516,
            39.775809245286744,
            449.0
          ],
          [
            140.92886658335468,
            39.775839060382324,
            452.7
          ],
          [
            140.92863635419334,
            39.775868875477904,
            456.0
          ],
          [
            140.928406125032,
            39.77589869057349,
            462.6
          ],
          [
            140.92817589587068,
            39.77592850566907,
            470.7
          ],
          [
            140.92794566670935,
            39.77595832076465,
            477.8
          ],
          [
            140.92771543754802,
            39.77598813586023,
            483.6
          ],
          [
            140.92748520838668,
            39.77601795095582,
            486.6
          ],
          [
            140.92725497922532,
            39.7760477660514,
            489.2
          ],
          [
            140.927024750064,
            39.77607758114698,
            494.3
          ],
          [
            140.92679452090266,
            39.77610739624256,
            501.1
          ],
          [
            140.92656429174133,
            39.776137211338146,
            513.5
          ],
          [
            140.92633406258,
            39.776167026433725,
            525.4
          ],
          [
            140.92610383341867,
            39.776196841529305,
            538.7
          ],
          [
            140.92587360425733,
            39.776226656624885,
            550.8
          ],
          [
            140.925643375096,
            39.77625647172047,
            554.6
          ],
          [
            140.92541314593467,
            39.77628628681605,
            559.7
          ],
          [
            140.92518291677334,
            39.77631610191163,
            561.7
          ],
          [
            140.924952687612,
            39.77634591700721,
            562.8
          ],
          [
            140.92472245845067,
            39.7763757321028,
            563.9
          ],
          [
            140.92449222928934,
            39.77640554719838,
            564.5
          ],
          [
            140.924262000128,
            39.77643536229396,
            565.2
          ],
          [
            140.92403177096668,
            39.77646517738954,
            565.1
          ],
          [
            140.92380154180535,
            39.77649499248513,
            565.5
          ],
          [
            140.92357131264401,
            39.77652480758071,
            566.1
          ],
          [
            140.92334108348268,
            39.77655462267629,
            570.1
          ],
          [
            140.92311085432135,
            39.77658443777187,
            576.5
          ],
          [
            140.92288062516002,
            39.776614252867454,
            584.7
          ],
          [
            140.92265039599866,
            39.77664406796303,
            596.6
          ],
          [
            140.92242016683733,
            39.77667388305861,
            608.5
          ],
          [
            140.922189937676,
            39.77670369815419,
            622.2
          ],
          [
            140.92195970851466,
            39.77673351324978,
            642.9
          ],
          [
            140.92172947935333,
            39.77676332834536,
            656.5
          ],
          [
            140.921499250192,
            39.77679314344094,
            670.5
          ],
          [
            140.92126902103067,
            39.77682295853652,
            680.5
          ],
          [
            140.92103879186934,
            39.77685277363211,
            690.1
          ],
          [
            140.920808562708,
            39.77688258872769,
            706.6
          ],
          [
            140.92057833354667,
            39.77691240382327,
            712.9
          ],
          [
            140.92034810438534,
            39.77694221891885,
            715.4
          ],
          [
            140.920117875224,
            39.776972034014435,
            716.9
          ],
          [
            140.91988764606268,
            39.777001849110015,
            718.3
          ],
          [
            140.91965741690134,
            39.777031664205595,
            719.8
          ],
          [
            140.91942718774,
            39.777061479301175,
            722.6
          ],
          [
            140.9192973,
            39.7770783,
            723.0
          ]
        ]
      }
    },
    {
      "type": "Feature",
      "properties": {
        "name": "雫石高速",
        "horizontal_dist_map": 1306,
        "slope_dist_map": 1349,
        "elevation_diff_map": 303.7
      },
      "geometry": {
        "type": "LineString",
        "coordinates": [
          [
            140.9359941,
            39.7832106,
            422.7
          ],
          [
            140.93576187206696,
            39.783229187613884,
            422.4
          ],
          [
            140.93552964413394,
            39.783247775227764,
            428.2
          ],
          [
            140.9352974162009,
            39.78326636284165,
            432.5
          ],
          [
            140.93506518826788,
            39.78328495045554,
            436.1
          ],
          [
            140.93483296033486,
            39.783303538069426,
            438.3
          ],
          [
            140.93460073240183,
            39.783322125683306,
            440.3
          ],
          [
            140.9343685044688,
            39.78334071329719,
            443.5
          ],
          [
            140.93413627653578,
            39.78335930091108,
            444.7
          ],
          [
            140.93390404860276,
            39.78337788852497,
            448.4
          ],
          [
            140.93367182066973,
            39.78339647613885,
            452.1
          ],
          [
            140.9334395927367,
            39.783415063752734,
            459.9
          ],
          [
            140.93320736480365,
            39.78343365136662,
            469.3
          ],
          [
            140.93297513687062,
            39.7834522389805,
            477.2
          ],
          [
            140.9327429089376,
            39.78347082659439,
            484.8
          ],
          [
            140.93251068100457,
            39.783489414208276,
            490.8
          ],
          [
            140.93227845307155,
            39.78350800182216,
            496.2
          ],
          [
            140.93204622513852,
            39.78352658943604,
            504.8
          ],
          [
            140.9318139972055,
            39.78354517704993,
            511.3
          ],
          [
            140.93158176927247,
            39.78356376466382,
            520.1
          ],
          [
            140.93134954133944,
            39.783582352277705,
            523.1
          ],
          [
            140.93111731340642,
            39.783600939891585,
            529.3
          ],
          [
            140.9308850854734,
            39.78361952750547,
            536.7
          ],
          [
            140.93065285754037,
            39.78363811511936,
            543.6
          ],
          [
            140.93042062960734,
            39.783656702733246,
            551.2
          ],
          [
            140.93018840167431,
            39.78367529034713,
            558.2
          ],
          [
            140.9299561737413,
            39.783693877961014,
            566.1
          ],
          [
            140.92972394580826,
            39.7837124655749,
            574.7
          ],
          [
            140.92949171787524,
            39.78373105318878,
            579.9
          ],
          [
            140.9292594899422,
            39.78374964080267,
            587.9
          ],
          [
            140.92902726200919,
            39.783768228416555,
            596.3
          ],
          [
            140.92879503407616,
            39.78378681603044,
            603.1
          ],
          [
            140.92856280614313,
            39.78380540364432,
            606.0
          ],
          [
            140.9283305782101,
            39.78382399125821,
            609.7
          ],
          [
            140.92809835027705,
            39.7838425788721,
            611.2
          ],
          [
            140.92786612234403,
            39.783861166485984,
            609.9
          ],
          [
            140.927633894411,
            39.783879754099864,
            611.5
          ],
          [
            140.92740166647798,
            39.78389834171375,
            615.2
          ],
          [
            140.92716943854495,
            39.78391692932764,
            620.7
          ],
          [
            140.92693721061192,
            39.78393551694152,
            623.9
          ],
          [
            140.9267049826789,
            39.783954104555406,
            628.7
          ],
          [
            140.92647275474587,
            39.78397269216929,
            633.9
          ],
          [
            140.92624052681285,
            39.78399127978318,
            634.8
          ],
          [
            140.92600829887982,
            39.78400986739706,
            637.5
          ],
          [
            140.9257760709468,
            39.78402845501095,
            643.8
          ],
          [
            140.92554384301377,
            39.784047042624834,
            646.7
          ],
          [
            140.92531161508074,
            39.78406563023872,
            650.1
          ],
          [
            140.92507938714772,
            39.7840842178526,
            653.5
          ],
          [
            140.9248471592147,
            39.78410280546649,
            657.4
          ],
          [
            140.92461493128167,
            39.784121393080376,
            660.6
          ],
          [
            140.92438270334864,
            39.784139980694256,
            663.2
          ],
          [
            140.92415047541562,
            39.78415856830814,
            667.8
          ],
          [
            140.9239182474826,
            39.78417715592203,
            676.2
          ],
          [
            140.92368601954956,
            39.78419574353592,
            683.8
          ],
          [
            140.92345379161654,
            39.7842143311498,
            688.2
          ],
          [
            140.9232215636835,
            39.784232918763685,
            692.1
          ],
          [
            140.92298933575046,
            39.78425150637757,
            696.5
          ],
          [
            140.92275710781743,
            39.78427009399146,
            700.0
          ],
          [
            140.9225248798844,
            39.78428868160534,
            703.9
          ],
          [
            140.92229265195138,
            39.78430726921923,
            707.0
          ],
          [
            140.92206042401835,
            39.784325856833114,
            709.8
          ],
          [
            140.92182819608533,
            39.784344444447,
            713.5
          ],
          [
            140.9215959681523,
            39.78436303206088,
            716.6
          ],
          [
            140.92136374021928,
            39.78438161967477,
            720.6
          ],
          [
            140.92113151228625,
            39.784400207288655,
            723.1
          ],
          [
            140.92089928435323,
            39.784418794902535,
            726.2
          ],
          [
            140.9208278647564,
            39.784424511354786,
            726.4
          ]
        ]
      }
    }
  ]
}