{
  "type": "FeatureCollection",
  "features": [
    {
      "type": "Feature",
      "properties": {
        "name": "第3ペア",
        "horizontal_dist_map": 347,
        "slope_dist_map": 360,
        "elevation_diff_map": 89.1,
        "midstation": null
      },
      "geometry": {
        "type": "LineString",
        "coordinates": [
          [138.7751291, 35.300582, 1351.5],
          [138.7750101149621, 35.30073359829786, 1353.6],
          [138.7748911299242, 35.300885196595715, 1359.7],
          [138.77477214488633, 35.30103679489358, 1363.8],
          [138.77465315984844, 35.30118839319143, 1372],
          [138.77453417481055, 35.30133999148929, 1377],
          [138.7744151897727, 35.30149158978715, 1382.4],
          [138.7742962047348, 35.30164318808501, 1386.4],
          [138.77417721969692, 35.301794786382864, 1392.5],
          [138.77405823465904, 35.301946384680726, 1398.6],
          [138.77393924962115, 35.30209798297858, 1401.5],
          [138.77382026458326, 35.30224958127644, 1407.6],
          [138.77370127954538, 35.3024011795743, 1412.2],
          [138.7735822945075, 35.30255277787216, 1421.3],
          [138.7734633094696, 35.30270437617001, 1426.7],
          [138.77334432443172, 35.302855974467874, 1431],
          [138.77322533939383, 35.30300757276573, 1433.3],
          [138.77310635435597, 35.30315917106359, 1440.1],
          [138.77305878597662, 35.303219777720265, 1440.6]
        ]
      }
    },
    {
      "type": "Feature",
      "properties": {
        "name": "第2ペア",
        "horizontal_dist_map": 549,
        "slope_dist_map": 556,
        "elevation_diff_map": 77.3,
        "midstation": null
      },
      "geometry": {
        "type": "LineString",
        "coordinates": [
          [138.7752103, 35.2999973, 1346.3],
          [138.7749910232007, 35.30001078063797, 1347.2],
          [138.7747717464014, 35.300024261275944, 1350.1],
          [138.7745524696021, 35.30003774191391, 1353.1],
          [138.77433319280283, 35.300051222551886, 1356.3],
          [138.77411391600353, 35.300064703189854, 1359.7],
          [138.77389463920423, 35.30007818382783, 1362.9],
          [138.77367536240493, 35.300091664465796, 1364.7],
          [138.77345608560563, 35.30010514510377, 1366.9],
          [138.77323680880633, 35.30011862574174, 1369.3],
          [138.77301753200703, 35.30013210637971, 1372.4],
          [138.77279825520773, 35.30014558701768, 1375.7],
          [138.77257897840846, 35.300159067655656, 1378.6],
          [138.77235970160916, 35.300172548293624, 1382.1],
          [138.77214042480986, 35.3001860289316, 1383.1],
          [138.77192114801056, 35.300199509569566, 1386.7],
          [138.77170187121126, 35.30021299020754, 1393.2],
          [138.77148259441196, 35.30022647084551, 1397.5],
          [138.77126331761266, 35.30023995148348, 1400.8],
          [138.77104404081336, 35.30025343212145, 1402.8],
          [138.7708247640141, 35.300266912759426, 1404.7],
          [138.7706054872148, 35.300280393397394, 1408.9],
          [138.7703862104155, 35.30029387403537, 1409.1],
          [138.7701669336162, 35.300307354673336, 1410.2],
          [138.7699476568169, 35.30032083531131, 1412.9],
          [138.7697283800176, 35.30033431594928, 1416.3],
          [138.7695091032183, 35.30034779658725, 1420],
          [138.76928982641903, 35.30036127722522, 1423],
          [138.7691821, 35.3003679, 1423.6]
        ]
      }
    },
    {
      "type": "Feature",
      "properties": {
        "name": "第1クワッド",
        "horizontal_dist_map": 582,
        "slope_dist_map": 589,
        "elevation_diff_map": 79.9,
        "midstation": null
      },
      "geometry": {
        "type": "LineString",
        "coordinates": [
          [138.77533129744143, 35.30011938286792, 1346.4],
          [138.77511198227603, 35.30013244118064, 1346.7],
          [138.77489266711063, 35.300145499493354, 1350.4],
          [138.77467335194524, 35.30015855780608, 1351.8],
          [138.77445403677984, 35.300171616118796, 1354.2],
          [138.77423472161445, 35.30018467443151, 1360.5],
          [138.77401540644908, 35.30019773274423, 1363.5],
          [138.77379609128369, 35.30021079105695, 1366],
          [138.7735767761183, 35.300223849369665, 1366.7],
          [138.7733574609529, 35.30023690768239, 1368.4],
          [138.7731381457875, 35.30024996599511, 1371.3],
          [138.7729188306221, 35.300263024307824, 1374.9],
          [138.7726995154567, 35.30027608262054, 1377.9],
          [138.7724802002913, 35.30028914093326, 1380.2],
          [138.77226088512592, 35.30030219924598, 1383.3],
          [138.77204156996052, 35.3003152575587, 1385.6],
          [138.77182225479515, 35.30032831587142, 1391.3],
          [138.77160293962976, 35.300341374184136, 1397.1],
          [138.77138362446436, 35.30035443249685, 1400.1],
          [138.77116430929897, 35.30036749080957, 1401.6],
          [138.77094499413357, 35.30038054912229, 1403.9],
          [138.77072567896818, 35.30039360743501, 1407.7],
          [138.77050636380278, 35.30040666574773, 1410.7],
          [138.77028704863739, 35.30041972406045, 1412.5],
          [138.770067733472, 35.300432782373164, 1414.7],
          [138.7698484183066, 35.30044584068588, 1418.4],
          [138.76962910314123, 35.3004588989986, 1421.8],
          [138.76940978797583, 35.30047195731132, 1424.5],
          [138.76919047281044, 35.30048501562404, 1426],
          [138.76897115764504, 35.30049807393676, 1426.6],
          [138.76894589743927, 35.300499577962555, 1426.3]
        ]
      }
    }
  ]
}
