{
  "type": "FeatureCollection",
  "features": [
    {
      "type": "Feature",
      "properties": {
        "name": "パノラマクワッド",
        "horizontal_dist_map": 792,
        "slope_dist_map": 826,
        "elevation_diff_map": 201.8,
        "midstation": null
      },
      "geometry": {
        "type": "LineString",
        "coordinates": [
          [
            141.13203450469246,
            43.14581647943126,
            103.0
          ],
          [
            141.1318442262261,
            43.14570248256483,
            102.6
          ],
          [
            141.13165394775976,
            43.145588485698404,
            106.2
          ],
          [
            141.1314636692934,
            43.14547448883197,
            108.8
          ],
          [
            141.13127339082706,
            43.14536049196555,
            111.6
          ],
          [
            141.1310831123607,
            43.145246495099116,
            115.0
          ],
          [
            141.13089283389436,
            43.14513249823269,
            118.7
          ],
          [
            141.130702555428,
            43.14501850136626,
            125.1
          ],
          [
            141.13051227696167,
            43.144904504499834,
            128.9
          ],
          [
            141.1303219984953,
            43.1447905076334,
            133.5
          ],
          [
            141.13013172002894,
            43.14467651076697,
            138.4
          ],
          [
            141.1299414415626,
            43.144562513900546,
            142.2
          ],
          [
            141.12975116309624,
            43.144448517034114,
            144.9
          ],
          [
            141.1295608846299,
            43.14433452016769,
            147.2
          ],
          [
            141.12937060616355,
            43.14422052330126,
            152.4
          ],
          [
            141.1291803276972,
            43.14410652643483,
            154.8
          ],
          [
            141.12899004923085,
            43.1439925295684,
            158.2
          ],
          [
            141.12879977076452,
            43.143878532701976,
            161.0
          ],
          [
            141.12860949229815,
            43.143764535835544,
            164.8
          ],
          [
            141.1284192138318,
            43.14365053896911,
            167.1
          ],
          [
            141.12822893536546,
            43.14353654210269,
            167.9
          ],
          [
            141.1280386568991,
            43.143422545236255,
            170.0
          ],
          [
            141.12784837843276,
            43.14330854836983,
            174.8
          ],
          [
            141.1276580999664,
            43.1431945515034,
            181.7
          ],
          [
            141.12746782150006,
            43.143080554636974,
            184.6
          ],
          [
            141.1272775430337,
            43.14296655777054,
            189.8
          ],
          [
            141.12708726456736,
            43.14285256090412,
            192.5
          ],
          [
            141.126896986101,
            43.142738564037685,
            196.8
          ],
          [
            141.12670670763464,
            43.14262456717126,
            201.2
          ],
          [
            141.1265164291683,
            43.14251057030483,
            205.5
          ],
          [
            141.12632615070194,
            43.1423965734384,
            213.9
          ],
          [
            141.1261358722356,
            43.14228257657197,
            225.2
          ],
          [
            141.12594559376925,
            43.14216857970554,
            239.5
          ],
          [
            141.1257553153029,
            43.142054582839116,
            248.2
          ],
          [
            141.12556503683655,
            43.141940585972684,
            257.5
          ],
          [
            141.1253747583702,
            43.14182658910626,
            268.9
          ],
          [
            141.12518447990385,
            43.14171259223983,
            278.9
          ],
          [
            141.1249942014375,
            43.1415985953734,
            288.0
          ],
          [
            141.12480392297115,
            43.14148459850697,
            297.0
          ],
          [
            141.1246136445048,
            43.14137060164054,
            303.7
          ],
          [
            141.1244909378434,
            43.141297087410805,
            304.8
          ]
        ]
      }
    },
    {
      "type": "Feature",
      "properties": {
        "name": "サンシャインペア",
        "horizontal_dist_map": 398,
        "slope_dist_map": 411,
        "elevation_diff_map": 99.4,
        "midstation": null
      },
      "geometry": {
        "type": "LineString",
        "coordinates": [
          [
            141.13145418254828,
            43.146744768087785,
            102.7
          ],
          [
            141.13122703365514,
            43.1466758845185,
            106.0
          ],
          [
            141.13099988476202,
            43.14660700094922,
            113.4
          ],
          [
            141.13077273586887,
            43.14653811737993,
            120.0
          ],
          [
            141.13054558697573,
            43.14646923381065,
            127.1
          ],
          [
            141.13031843808258,
            43.146400350241365,
            136.0
          ],
          [
            141.13009128918947,
            43.14633146667208,
            143.2
          ],
          [
            141.12986414029632,
            43.146262583102796,
            149.9
          ],
          [
            141.12963699140317,
            43.14619369953351,
            156.5
          ],
          [
            141.12940984251003,
            43.14612481596423,
            160.6
          ],
          [
            141.1291826936169,
            43.146055932394944,
            164.4
          ],
          [
            141.12895554472377,
            43.14598704882566,
            167.4
          ],
          [
            141.12872839583062,
            43.145918165256376,
            171.5
          ],
          [
            141.12850124693747,
            43.14584928168709,
            174.7
          ],
          [
            141.12827409804436,
            43.14578039811781,
            177.5
          ],
          [
            141.1280469491512,
            43.14571151454852,
            180.9
          ],
          [
            141.12781980025807,
            43.145642630979246,
            184.8
          ],
          [
            141.12759265136492,
            43.14557374740996,
            188.7
          ],
          [
            141.1273655024718,
            43.14550486384068,
            193.6
          ],
          [
            141.12713835357866,
            43.145435980271394,
            198.0
          ],
          [
            141.12693124159415,
            43.145373172953526,
            202.1
          ]
        ]
      }
    }
  ]
}