{
  "type": "FeatureCollection",
  "features": [
    {
      "type": "Feature",
      "properties": {
        "name": "獅子越第3",
        "horizontal_dist_map": 931,
        "slope_dist_map": 976,
        "elevation_diff_map": 211.1,
        "midstation": null
      },
      "geometry": {
        "type": "LineString",
        "coordinates": [
          [
            132.83438740338246,
            33.54209417813306,
            994.5
          ],
          [
            132.83420376554182,
            33.54200001224977,
            994.4
          ],
          [
            132.8340201277012,
            33.54190584636648,
            997.9
          ],
          [
            132.83383648986054,
            33.54181168048319,
            1001.3
          ],
          [
            132.83365285201992,
            33.5417175145999,
            1003.4
          ],
          [
            132.83346921417927,
            33.54162334871661,
            1006.0
          ],
          [
            132.83328557633865,
            33.54152918283332,
            1010.0
          ],
          [
            132.833101938498,
            33.54143501695003,
            1014.0
          ],
          [
            132.83291830065735,
            33.54134085106674,
            1017.6
          ],
          [
            132.83273466281673,
            33.54124668518345,
            1024.9
          ],
          [
            132.83255102497608,
            33.54115251930016,
            1028.7
          ],
          [
            132.83236738713546,
            33.54105835341687,
            1031.3
          ],
          [
            132.8321837492948,
            33.540964187533575,
            1029.9
          ],
          [
            132.8320001114542,
            33.540870021650285,
            1028.0
          ],
          [
            132.83181647361354,
            33.540775855766995,
            1041.4
          ],
          [
            132.8316328357729,
            33.540681689883705,
            1048.6
          ],
          [
            132.83144919793227,
            33.540587524000415,
            1042.1
          ],
          [
            132.83126556009162,
            33.540493358117125,
            1051.5
          ],
          [
            132.831081922251,
            33.540399192233835,
            1058.6
          ],
          [
            132.83089828441035,
            33.540305026350545,
            1062.6
          ],
          [
            132.83071464656973,
            33.540210860467255,
            1060.2
          ],
          [
            132.83053100872908,
            33.540116694583965,
            1056.2
          ],
          [
            132.83034737088846,
            33.540022528700675,
            1056.4
          ],
          [
            132.8301637330478,
            33.539928362817385,
            1057.4
          ],
          [
            132.82998009520716,
            33.539834196934095,
            1064.6
          ],
          [
            132.82979645736654,
            33.539740031050805,
            1077.7
          ],
          [
            132.8296128195259,
            33.539645865167515,
            1090.4
          ],
          [
            132.82942918168527,
            33.539551699284225,
            1100.1
          ],
          [
            132.82924554384462,
            33.539457533400935,
            1113.2
          ],
          [
            132.829061906004,
            33.539363367517645,
            1120.5
          ],
          [
            132.82887826816335,
            33.539269201634355,
            1124.1
          ],
          [
            132.8286946303227,
            33.539175035751065,
            1127.5
          ],
          [
            132.82851099248208,
            33.539080869867774,
            1126.1
          ],
          [
            132.82832735464143,
            33.538986703984484,
            1128.5
          ],
          [
            132.8281437168008,
            33.538892538101194,
            1130.7
          ],
          [
            132.82796007896016,
            33.538798372217904,
            1139.3
          ],
          [
            132.82777644111954,
            33.53870420633461,
            1149.0
          ],
          [
            132.8275928032789,
            33.53861004045132,
            1154.0
          ],
          [
            132.82740916543824,
            33.53851587456803,
            1154.4
          ],
          [
            132.82722552759762,
            33.53842170868474,
            1158.3
          ],
          [
            132.82704188975697,
            33.53832754280145,
            1164.3
          ],
          [
            132.82685825191635,
            33.53823337691816,
            1172.2
          ],
          [
            132.8266746140757,
            33.53813921103487,
            1179.4
          ],
          [
            132.82649097623508,
            33.53804504515158,
            1183.9
          ],
          [
            132.82630733839443,
            33.53795087926829,
            1191.4
          ],
          [
            132.82612370055378,
            33.537856713385,
            1195.6
          ],
          [
            132.82594006271316,
            33.53776254750171,
            1200.9
          ],
          [
            132.82583202675613,
            33.53770714878168,
            1205.6
          ]
        ]
      }
    },
    {
      "type": "Feature",
      "properties": {
        "name": "獅子越第2",
        "horizontal_dist_map": 348,
        "slope_dist_map": 351,
        "elevation_diff_map": 37.6,
        "midstation": null
      },
      "geometry": {
        "type": "LineString",
        "coordinates": [
          [
            132.83355509955777,
            33.542420786631055,
            996.1
          ],
          [
            132.83335339273992,
            33.542357652747,
            997.2
          ],
          [
            132.83315168592208,
            33.542294518862946,
            1002.2
          ],
          [
            132.83294997910423,
            33.54223138497889,
            1002.0
          ],
          [
            132.83274827228638,
            33.542168251094836,
            1005.2
          ],
          [
            132.83254656546853,
            33.54210511721078,
            1006.6
          ],
          [
            132.83234485865069,
            33.542041983326726,
            1009.0
          ],
          [
            132.83214315183284,
            33.54197884944267,
            1010.3
          ],
          [
            132.83194144501496,
            33.541915715558616,
            1012.7
          ],
          [
            132.83173973819711,
            33.54185258167456,
            1014.5
          ],
          [
            132.83153803137927,
            33.54178944779051,
            1016.0
          ],
          [
            132.83133632456142,
            33.54172631390645,
            1018.3
          ],
          [
            132.83113461774357,
            33.5416631800224,
            1020.3
          ],
          [
            132.83093291092572,
            33.54160004613834,
            1020.9
          ],
          [
            132.83073120410788,
            33.54153691225429,
            1022.9
          ],
          [
            132.83052949729003,
            33.54147377837023,
            1025.2
          ],
          [
            132.83032779047218,
            33.54141064448618,
            1028.2
          ],
          [
            132.83012608365433,
            33.54134751060212,
            1031.0
          ],
          [
            132.83003829529738,
            33.5413200329987,
            1033.7
          ]
        ]
      }
    }
  ]
}