{
  "type": "FeatureCollection",
  "features": [
    {
      "type": "Feature",
      "properties": {
        "name": "ロマントピアペア",
        "horizontal_dist_map": 336,
        "slope_dist_map": 348,
        "elevation_diff_map": 80.5
      },
      "geometry": {
        "type": "LineString",
        "coordinates": [
          [
            140.3903157,
            40.57527447478722,
            83.6
          ],
          [
            140.39041003502646,
            40.575109356911234,
            84.8
          ],
          [
            140.39050437005295,
            40.574944239035254,
            88.2
          ],
          [
            140.3905987050794,
            40.57477912115927,
            91.7
          ],
          [
            140.3906930401059,
            40.57461400328329,
            96.1
          ],
          [
            140.39078737513236,
            40.5744488854073,
            101.0
          ],
          [
            140.39088171015882,
            40.57428376753132,
            104.5
          ],
          [
            140.3909760451853,
            40.57411864965533,
            108.6
          ],
          [
            140.39107038021177,
            40.57395353177935,
            116.4
          ],
          [
            140.39116471523823,
            40.573788413903365,
            126.2
          ],
          [
            140.39125905026472,
            40.573623296027385,
            132.8
          ],
          [
            140.39135338529118,
            40.5734581781514,
            139.3
          ],
          [
            140.39144772031767,
            40.57329306027542,
            145.5
          ],
          [
            140.39154205534413,
            40.57312794239943,
            151.2
          ],
          [
            140.3916363903706,
            40.57296282452345,
            154.9
          ],
          [
            140.39173072539708,
            40.572797706647464,
            157.7
          ],
          [
            140.39182506042354,
            40.57263258877148,
            162.6
          ],
          [
            140.39190510249557,
            40.5724924883505,
            164.1
          ]
        ]
      }
    }
  ]
}