{
  "type": "FeatureCollection",
  "features": [
    {
      "type": "Feature",
      "properties": {
        "name": "シュナイダートリプル",
        "horizontal_dist_map": 395,
        "slope_dist_map": 404,
        "elevation_diff_map": 79.5,
        "midstation": null
      },
      "geometry": {
        "type": "LineString",
        "coordinates": [
          [
            138.34423639589838,
            36.53216020211861,
            1326.4
          ],
          [
            138.34429585276254,
            36.53233392843103,
            1330.4
          ],
          [
            138.34435530962668,
            36.53250765474344,
            1337.6
          ],
          [
            138.34441476649084,
            36.53268138105586,
            1341.7
          ],
          [
            138.344474223355,
            36.53285510736827,
            1345.5
          ],
          [
            138.34453368021917,
            36.53302883368069,
            1350.0
          ],
          [
            138.3445931370833,
            36.5332025599931,
            1354.0
          ],
          [
            138.34465259394747,
            36.53337628630552,
            1359.8
          ],
          [
            138.34471205081164,
            36.53355001261793,
            1363.8
          ],
          [
            138.3447715076758,
            36.53372373893035,
            1367.4
          ],
          [
            138.34483096453994,
            36.53389746524276,
            1371.2
          ],
          [
            138.3448904214041,
            36.53407119155518,
            1374.3
          ],
          [
            138.34494987826827,
            36.534244917867596,
            1378.0
          ],
          [
            138.34500933513243,
            36.53441864418001,
            1381.6
          ],
          [
            138.34506879199657,
            36.534592370492426,
            1385.4
          ],
          [
            138.34512824886073,
            36.53476609680484,
            1389.7
          ],
          [
            138.3451877057249,
            36.534939823117256,
            1394.6
          ],
          [
            138.34524716258906,
            36.53511354942967,
            1398.8
          ],
          [
            138.3453066194532,
            36.535287275742085,
            1402.4
          ],
          [
            138.34536607631736,
            36.5354610020545,
            1404.1
          ],
          [
            138.3454131,
            36.5355984,
            1405.9
          ]
        ]
      }
    },
    {
      "type": "Feature",
      "properties": {
        "name": "ビート",
        "horizontal_dist_map": 706,
        "slope_dist_map": 719,
        "elevation_diff_map": 127.0,
        "midstation": null
      },
      "geometry": {
        "type": "LineString",
        "coordinates": [
          [
            138.34836800919572,
            36.53529176423378,
            1351.1
          ],
          [
            138.34846544707005,
            36.53545393900682,
            1351.3
          ],
          [
            138.34856288494439,
            36.53561611377986,
            1353.1
          ],
          [
            138.34866032281872,
            36.5357782885529,
            1354.0
          ],
          [
            138.34875776069305,
            36.53594046332594,
            1355.4
          ],
          [
            138.3488551985674,
            36.53610263809898,
            1357.9
          ],
          [
            138.34895263644174,
            36.53626481287202,
            1361.5
          ],
          [
            138.34905007431607,
            36.53642698764506,
            1362.9
          ],
          [
            138.3491475121904,
            36.536589162418096,
            1365.3
          ],
          [
            138.34924495006473,
            36.536751337191134,
            1368.9
          ],
          [
            138.34934238793906,
            36.53691351196417,
            1372.2
          ],
          [
            138.3494398258134,
            36.53707568673722,
            1376.2
          ],
          [
            138.34953726368772,
            36.537237861510256,
            1380.8
          ],
          [
            138.34963470156205,
            36.537400036283294,
            1386.8
          ],
          [
            138.3497321394364,
            36.53756221105633,
            1390.5
          ],
          [
            138.34982957731074,
            36.53772438582937,
            1396.1
          ],
          [
            138.34992701518507,
            36.53788656060241,
            1400.9
          ],
          [
            138.3500244530594,
            36.538048735375455,
            1404.8
          ],
          [
            138.35012189093374,
            36.53821091014849,
            1409.1
          ],
          [
            138.35021932880807,
            36.53837308492153,
            1413.7
          ],
          [
            138.3503167666824,
            36.53853525969457,
            1417.7
          ],
          [
            138.35041420455673,
            36.53869743446761,
            1421.0
          ],
          [
            138.3505116424311,
            36.538859609240646,
            1424.3
          ],
          [
            138.35060908030542,
            36.539021784013684,
            1427.6
          ],
          [
            138.35070651817975,
            36.53918395878673,
            1430.7
          ],
          [
            138.35080395605408,
            36.53934613355977,
            1434.1
          ],
          [
            138.3509013939284,
            36.539508308332806,
            1438.0
          ],
          [
            138.35099883180274,
            36.539670483105844,
            1442.7
          ],
          [
            138.35109626967707,
            36.53983265787888,
            1450.2
          ],
          [
            138.3511937075514,
            36.53999483265192,
            1456.4
          ],
          [
            138.35129114542573,
            36.54015700742496,
            1461.5
          ],
          [
            138.3513885833001,
            36.540319182198004,
            1465.1
          ],
          [
            138.35148602117442,
            36.54048135697104,
            1469.9
          ],
          [
            138.35158345904875,
            36.54064353174408,
            1472.4
          ],
          [
            138.35168089692309,
            36.54080570651712,
            1474.9
          ],
          [
            138.35177833479742,
            36.54096788129016,
            1477.9
          ],
          [
            138.35180821191486,
            36.54101760851146,
            1478.1
          ]
        ]
      }
    },
    {
      "type": "Feature",
      "properties": {
        "name": "奥ダボス第2トリプル",
        "horizontal_dist_map": 309,
        "slope_dist_map": 313,
        "elevation_diff_map": 44.1,
        "midstation": null
      },
      "geometry": {
        "type": "LineString",
        "coordinates": [
          [
            138.35626855826547,
            36.542528100444635,
            1437.2
          ],
          [
            138.3560476796341,
            36.5425013204661,
            1437.4
          ],
          [
            138.3558268010027,
            36.542474540487575,
            1441.3
          ],
          [
            138.3556059223713,
            36.54244776050904,
            1445.0
          ],
          [
            138.35538504373991,
            36.54242098053051,
            1448.7
          ],
          [
            138.35516416510853,
            36.54239420055198,
            1452.7
          ],
          [
            138.35494328647715,
            36.54236742057345,
            1456.3
          ],
          [
            138.35472240784577,
            36.542340640594915,
            1459.8
          ],
          [
            138.3545015292144,
            36.54231386061639,
            1463.4
          ],
          [
            138.35428065058298,
            36.542287080637855,
            1466.5
          ],
          [
            138.3540597719516,
            36.54226030065932,
            1469.4
          ],
          [
            138.35383889332022,
            36.542233520680796,
            1472.1
          ],
          [
            138.35361801468883,
            36.54220674070226,
            1475.2
          ],
          [
            138.35339713605745,
            36.54217996072373,
            1477.1
          ],
          [
            138.35317625742604,
            36.5421531807452,
            1478.5
          ],
          [
            138.35295537879466,
            36.54212640076667,
            1480.9
          ],
          [
            138.35285062411924,
            36.5421137,
            1481.3
          ]
        ]
      }
    },
    {
      "type": "Feature",
      "properties": {
        "name": "奥ダボス第1トリプル",
        "horizontal_dist_map": 946,
        "slope_dist_map": 963,
        "elevation_diff_map": 159.1,
        "midstation": null
      },
      "geometry": {
        "type": "LineString",
        "coordinates": [
          [
            138.35689429415325,
            36.54260701217377,
            1438.3
          ],
          [
            138.35703657470526,
            36.54274594855527,
            1437.0
          ],
          [
            138.35717885525727,
            36.542884884936775,
            1439.8
          ],
          [
            138.3573211358093,
            36.54302382131828,
            1444.3
          ],
          [
            138.3574634163613,
            36.54316275769978,
            1446.8
          ],
          [
            138.3576056969133,
            36.543301694081286,
            1448.7
          ],
          [
            138.35774797746532,
            36.54344063046279,
            1450.4
          ],
          [
            138.35789025801733,
            36.54357956684429,
            1452.8
          ],
          [
            138.35803253856935,
            36.5437185032258,
            1455.4
          ],
          [
            138.35817481912136,
            36.5438574396073,
            1459.3
          ],
          [
            138.35831709967337,
            36.543996375988804,
            1464.2
          ],
          [
            138.35845938022538,
            36.54413531237031,
            1468.2
          ],
          [
            138.3586016607774,
            36.54427424875181,
            1472.6
          ],
          [
            138.3587439413294,
            36.544413185133315,
            1477.3
          ],
          [
            138.35888622188142,
            36.54455212151482,
            1481.0
          ],
          [
            138.35902850243343,
            36.54469105789632,
            1486.4
          ],
          [
            138.35917078298544,
            36.544829994277826,
            1492.1
          ],
          [
            138.35931306353746,
            36.54496893065933,
            1498.0
          ],
          [
            138.35945534408947,
            36.545107867040834,
            1503.9
          ],
          [
            138.35959762464148,
            36.545246803422344,
            1512.0
          ],
          [
            138.3597399051935,
            36.54538573980385,
            1519.1
          ],
          [
            138.3598821857455,
            36.54552467618535,
            1526.5
          ],
          [
            138.36002446629752,
            36.545663612566855,
            1533.2
          ],
          [
            138.36016674684953,
            36.54580254894836,
            1538.1
          ],
          [
            138.36030902740154,
            36.54594148532986,
            1543.0
          ],
          [
            138.36045130795355,
            36.546080421711366,
            1545.6
          ],
          [
            138.36059358850557,
            36.54621935809287,
            1548.8
          ],
          [
            138.36073586905758,
            36.54635829447437,
            1550.9
          ],
          [
            138.3608781496096,
            36.54649723085588,
            1554.3
          ],
          [
            138.3610204301616,
            36.54663616723738,
            1556.9
          ],
          [
            138.36116271071361,
            36.546775103618884,
            1559.5
          ],
          [
            138.36130499126563,
            36.54691404000039,
            1561.7
          ],
          [
            138.36144727181764,
            36.54705297638189,
            1563.8
          ],
          [
            138.36158955236965,
            36.547191912763395,
            1565.2
          ],
          [
            138.36173183292166,
            36.5473308491449,
            1567.3
          ],
          [
            138.36187411347368,
            36.5474697855264,
            1569.0
          ],
          [
            138.3620163940257,
            36.547608721907906,
            1571.1
          ],
          [
            138.3621586745777,
            36.54774765828941,
            1573.2
          ],
          [
            138.3623009551297,
            36.54788659467091,
            1575.1
          ],
          [
            138.36244323568172,
            36.54802553105242,
            1577.1
          ],
          [
            138.36258551623376,
            36.54816446743392,
            1578.9
          ],
          [
            138.36272779678578,
            36.548303403815424,
            1580.9
          ],
          [
            138.3628700773378,
            36.54844234019693,
            1583.3
          ],
          [
            138.3630123578898,
            36.54858127657843,
            1585.4
          ],
          [
            138.3631546384418,
            36.548720212959935,
            1588.8
          ],
          [
            138.36329691899383,
            36.54885914934144,
            1591.2
          ],
          [
            138.36343919954584,
            36.54899808572294,
            1594.2
          ],
          [
            138.36358148009785,
            36.549137022104446,
            1597.3
          ],
          [
            138.36362709998969,
            36.54918156974366,
            1597.4
          ]
        ]
      }
    },
    {
      "type": "Feature",
      "properties": {
        "name": "ウェーブ",
        "horizontal_dist_map": 567,
        "slope_dist_map": 579,
        "elevation_diff_map": 108.6,
        "midstation": null
      },
      "geometry": {
        "type": "LineString",
        "coordinates": [
          [
            138.3403798,
            36.5398607,
            1324.9
          ],
          [
            138.3406030146683,
            36.539854409834085,
            1324.0
          ],
          [
            138.34082622933659,
            36.53984811966817,
            1324.9
          ],
          [
            138.34104944400488,
            36.53984182950226,
            1331.9
          ],
          [
            138.34127265867318,
            36.539835539336345,
            1334.9
          ],
          [
            138.34149587334147,
            36.53982924917043,
            1338.2
          ],
          [
            138.34171908800977,
            36.53982295900451,
            1341.8
          ],
          [
            138.34194230267806,
            36.5398166688386,
            1345.5
          ],
          [
            138.34216551734636,
            36.539810378672684,
            1350.1
          ],
          [
            138.34238873201468,
            36.53980408850677,
            1353.9
          ],
          [
            138.34261194668298,
            36.53979779834086,
            1356.9
          ],
          [
            138.34283516135127,
            36.53979150817494,
            1360.2
          ],
          [
            138.34305837601957,
            36.53978521800903,
            1363.8
          ],
          [
            138.34328159068787,
            36.539778927843116,
            1369.0
          ],
          [
            138.34350480535616,
            36.5397726376772,
            1374.2
          ],
          [
            138.34372802002446,
            36.53976634751129,
            1380.7
          ],
          [
            138.34395123469275,
            36.539760057345376,
            1387.8
          ],
          [
            138.34417444936105,
            36.539753767179455,
            1394.2
          ],
          [
            138.34439766402934,
            36.53974747701354,
            1401.4
          ],
          [
            138.34462087869764,
            36.53974118684763,
            1405.5
          ],
          [
            138.34484409336594,
            36.539734896681715,
            1409.4
          ],
          [
            138.34506730803423,
            36.5397286065158,
            1413.6
          ],
          [
            138.34529052270253,
            36.53972231634989,
            1416.8
          ],
          [
            138.34551373737082,
            36.539716026183974,
            1420.5
          ],
          [
            138.34573695203912,
            36.53970973601806,
            1423.8
          ],
          [
            138.3459601667074,
            36.53970344585215,
            1425.6
          ],
          [
            138.3461833813757,
            36.539697155686234,
            1427.1
          ],
          [
            138.34640659604403,
            36.53969086552032,
            1428.3
          ],
          [
            138.34662981071233,
            36.5396845753544,
            1432.1
          ],
          [
            138.3467111439887,
            36.539682283391215,
            1433.5
          ]
        ]
      }
    },
    {
      "type": "Feature",
      "properties": {
        "name": "奥ダボス第3ペア",
        "horizontal_dist_map": 305,
        "slope_dist_map": 310,
        "elevation_diff_map": 50.9,
        "midstation": null
      },
      "geometry": {
        "type": "LineString",
        "coordinates": [
          [
            138.3564217751033,
            36.54311740026028,
            1440.3
          ],
          [
            138.35620504781303,
            36.54316099947964,
            1441.8
          ],
          [
            138.35598832052278,
            36.543204598699006,
            1444.9
          ],
          [
            138.3557715932325,
            36.543248197918366,
            1447.6
          ],
          [
            138.35555486594225,
            36.54329179713773,
            1450.9
          ],
          [
            138.35533813865197,
            36.543335396357094,
            1454.9
          ],
          [
            138.35512141136172,
            36.543378995576454,
            1458.5
          ],
          [
            138.35490468407144,
            36.543422594795814,
            1462.4
          ],
          [
            138.3546879567812,
            36.54346619401518,
            1466.1
          ],
          [
            138.3544712294909,
            36.54350979323454,
            1471.1
          ],
          [
            138.35425450220066,
            36.54355339245391,
            1475.5
          ],
          [
            138.35403777491038,
            36.54359699167327,
            1479.5
          ],
          [
            138.35382104762013,
            36.54364059089263,
            1483.8
          ],
          [
            138.35360432032985,
            36.543684190111996,
            1486.8
          ],
          [
            138.3533875930396,
            36.543727789331356,
            1489.3
          ],
          [
            138.35317086574932,
            36.54377138855072,
            1490.8
          ],
          [
            138.35310746307275,
            36.54378414332286,
            1491.2
          ]
        ]
      }
    },
    {
      "type": "Feature",
      "properties": {
        "name": "天狗クワッド",
        "horizontal_dist_map": 571,
        "slope_dist_map": 597,
        "elevation_diff_map": 159.0,
        "midstation": null
      },
      "geometry": {
        "type": "LineString",
        "coordinates": [
          [
            138.33714820537546,
            36.53082004314737,
            1284.5
          ],
          [
            138.33705888472025,
            36.53098523151682,
            1284.3
          ],
          [
            138.33696956406504,
            36.53115041988627,
            1285.0
          ],
          [
            138.33688024340984,
            36.531315608255724,
            1287.1
          ],
          [
            138.33679092275463,
            36.53148079662518,
            1289.9
          ],
          [
            138.33670160209942,
            36.53164598499463,
            1292.9
          ],
          [
            138.33661228144425,
            36.53181117336408,
            1294.5
          ],
          [
            138.33652296078904,
            36.531976361733534,
            1299.5
          ],
          [
            138.33643364013383,
            36.532141550102985,
            1305.2
          ],
          [
            138.33634431947863,
            36.532306738472435,
            1310.5
          ],
          [
            138.33625499882342,
            36.532471926841886,
            1316.4
          ],
          [
            138.33616567816821,
            36.53263711521134,
            1322.0
          ],
          [
            138.336076357513,
            36.532802303580795,
            1330.0
          ],
          [
            138.3359870368578,
            36.532967491950245,
            1337.4
          ],
          [
            138.3358977162026,
            36.533132680319696,
            1343.9
          ],
          [
            138.3358083955474,
            36.53329786868915,
            1353.5
          ],
          [
            138.3357190748922,
            36.5334630570586,
            1359.9
          ],
          [
            138.335629754237,
            36.53362824542805,
            1365.4
          ],
          [
            138.3355404335818,
            36.5337934337975,
            1372.9
          ],
          [
            138.3354511129266,
            36.53395862216695,
            1378.0
          ],
          [
            138.33536179227139,
            36.53412381053641,
            1386.9
          ],
          [
            138.33527247161618,
            36.53428899890586,
            1390.9
          ],
          [
            138.33518315096097,
            36.53445418727531,
            1395.9
          ],
          [
            138.33509383030577,
            36.53461937564476,
            1401.8
          ],
          [
            138.33500450965056,
            36.53478456401421,
            1408.4
          ],
          [
            138.33491518899535,
            36.53494975238366,
            1415.5
          ],
          [
            138.33482586834015,
            36.53511494075311,
            1422.2
          ],
          [
            138.33473654768497,
            36.53528012912256,
            1430.3
          ],
          [
            138.33464722702976,
            36.53544531749202,
            1439.0
          ],
          [
            138.3345943,
            36.5355432,
            1443.5
          ]
        ]
      }
    },
    {
      "type": "Feature",
      "properties": {
        "name": "日の出ペア",
        "horizontal_dist_map": 407,
        "slope_dist_map": 421,
        "elevation_diff_map": 96.7,
        "midstation": null
      },
      "geometry": {
        "type": "LineString",
        "coordinates": [
          [
            138.33473075478622,
            36.52978789831758,
            1271.3
          ],
          [
            138.33473683498775,
            36.52996806220981,
            1271.3
          ],
          [
            138.33474291518928,
            36.530148226102035,
            1278.8
          ],
          [
            138.33474899539078,
            36.53032838999427,
            1280.1
          ],
          [
            138.3347550755923,
            36.53050855388649,
            1283.3
          ],
          [
            138.33476115579384,
            36.53068871777872,
            1285.8
          ],
          [
            138.33476723599537,
            36.530868881670955,
            1288.9
          ],
          [
            138.3347733161969,
            36.53104904556318,
            1291.6
          ],
          [
            138.33477939639843,
            36.53122920945541,
            1295.3
          ],
          [
            138.33478547659993,
            36.531409373347635,
            1298.3
          ],
          [
            138.33479155680146,
            36.53158953723987,
            1301.9
          ],
          [
            138.334797637003,
            36.5317697011321,
            1305.5
          ],
          [
            138.33480371720452,
            36.53194986502432,
            1309.7
          ],
          [
            138.33480979740605,
            36.532130028916555,
            1313.8
          ],
          [
            138.33481587760758,
            36.53231019280878,
            1318.2
          ],
          [
            138.33482195780908,
            36.53249035670101,
            1323.2
          ],
          [
            138.3348280380106,
            36.53267052059324,
            1329.0
          ],
          [
            138.33483411821214,
            36.53285068448547,
            1337.2
          ],
          [
            138.33484019841367,
            36.5330308483777,
            1344.7
          ],
          [
            138.3348462786152,
            36.53321101226993,
            1354.1
          ],
          [
            138.33485235881673,
            36.533391176162155,
            1364.2
          ],
          [
            138.33485456825383,
            36.5334566445168,
            1368.0
          ]
        ]
      }
    },
    {
      "type": "Feature",
      "properties": {
        "name": "グラン",
        "horizontal_dist_map": 547,
        "slope_dist_map": 576,
        "elevation_diff_map": 171.9,
        "midstation": null
      },
      "geometry": {
        "type": "LineString",
        "coordinates": [
          [
            138.3301606,
            36.5318864,
            1267.2
          ],
          [
            138.3303085394148,
            36.53202141742543,
            1267.0
          ],
          [
            138.3304564788296,
            36.532156434850876,
            1272.0
          ],
          [
            138.33060441824438,
            36.53229145227631,
            1279.9
          ],
          [
            138.33075235765918,
            36.532426469701754,
            1288.1
          ],
          [
            138.33090029707398,
            36.53256148712719,
            1294.1
          ],
          [
            138.33104823648878,
            36.53269650455263,
            1299.0
          ],
          [
            138.33119617590359,
            36.53283152197807,
            1305.6
          ],
          [
            138.3313441153184,
            36.53296653940351,
            1313.6
          ],
          [
            138.33149205473316,
            36.533101556828946,
            1318.3
          ],
          [
            138.33163999414796,
            36.53323657425438,
            1324.6
          ],
          [
            138.33178793356277,
            36.533371591679824,
            1330.2
          ],
          [
            138.33193587297757,
            36.53350660910526,
            1337.5
          ],
          [
            138.33208381239237,
            36.5336416265307,
            1343.1
          ],
          [
            138.33223175180714,
            36.53377664395614,
            1349.7
          ],
          [
            138.33237969122194,
            36.53391166138158,
            1360.4
          ],
          [
            138.33252763063675,
            36.534046678807016,
            1362.6
          ],
          [
            138.33267557005155,
            36.53418169623246,
            1368.8
          ],
          [
            138.33282350946635,
            36.534316713657894,
            1381.1
          ],
          [
            138.33297144888112,
            36.53445173108333,
            1385.6
          ],
          [
            138.33311938829593,
            36.53458674850877,
            1391.8
          ],
          [
            138.33326732771073,
            36.53472176593421,
            1399.2
          ],
          [
            138.33341526712553,
            36.53485678335965,
            1406.8
          ],
          [
            138.33356320654033,
            36.534991800785086,
            1411.9
          ],
          [
            138.33371114595514,
            36.53512681821053,
            1419.8
          ],
          [
            138.3338590853699,
            36.535261835635964,
            1424.4
          ],
          [
            138.3340070247847,
            36.53539685306141,
            1429.9
          ],
          [
            138.3341549641995,
            36.53553187048684,
            1436.9
          ],
          [
            138.3342077,
            36.53558,
            1439.1
          ]
        ]
      }
    },
    {
      "type": "Feature",
      "properties": {
        "name": "ステージ1",
        "horizontal_dist_map": 407,
        "slope_dist_map": 428,
        "elevation_diff_map": 126.2,
        "midstation": null
      },
      "geometry": {
        "type": "LineString",
        "coordinates": [
          [
            138.33857867706266,
            36.53805068573053,
            1318.8
          ],
          [
            138.33839469558455,
            36.537948506793285,
            1319.6
          ],
          [
            138.33821071410645,
            36.53784632785604,
            1322.8
          ],
          [
            138.33802673262835,
            36.53774414891879,
            1326.6
          ],
          [
            138.33784275115025,
            36.53764196998154,
            1331.4
          ],
          [
            138.33765876967217,
            36.537539791044296,
            1338.3
          ],
          [
            138.33747478819407,
            36.53743761210705,
            1345.9
          ],
          [
            138.33729080671597,
            36.5373354331698,
            1352.6
          ],
          [
            138.33710682523787,
            36.537233254232554,
            1359.6
          ],
          [
            138.33692284375977,
            36.53713107529531,
            1367.1
          ],
          [
            138.33673886228166,
            36.53702889635806,
            1373.8
          ],
          [
            138.33655488080356,
            36.53692671742081,
            1379.7
          ],
          [
            138.33637089932546,
            36.536824538483565,
            1386.5
          ],
          [
            138.33618691784736,
            36.53672235954632,
            1394.2
          ],
          [
            138.33600293636928,
            36.53662018060907,
            1400.9
          ],
          [
            138.33581895489118,
            36.53651800167182,
            1407.8
          ],
          [
            138.33563497341308,
            36.53641582273458,
            1415.5
          ],
          [
            138.33545099193498,
            36.536313643797335,
            1422.9
          ],
          [
            138.33526701045687,
            36.53621146486009,
            1430.2
          ],
          [
            138.33508302897877,
            36.53610928592284,
            1436.9
          ],
          [
            138.33489904750067,
            36.53600710698559,
            1444.2
          ],
          [
            138.3348296536859,
            36.53596856731127,
            1445.0
          ]
        ]
      }
    },
    {
      "type": "Feature",
      "properties": {
        "name": "ステージ3",
        "horizontal_dist_map": 429,
        "slope_dist_map": 446,
        "elevation_diff_map": 115.1,
        "midstation": null
      },
      "geometry": {
        "type": "LineString",
        "coordinates": [
          [
            138.33721704961812,
            36.54040121539686,
            1315.7
          ],
          [
            138.3370555010141,
            36.54027676055017,
            1316.1
          ],
          [
            138.3368939524101,
            36.54015230570347,
            1323.1
          ],
          [
            138.33673240380608,
            36.54002785085678,
            1331.1
          ],
          [
            138.33657085520207,
            36.53990339601008,
            1337.4
          ],
          [
            138.33640930659806,
            36.53977894116339,
            1342.2
          ],
          [
            138.33624775799404,
            36.53965448631669,
            1346.7
          ],
          [
            138.33608620939003,
            36.53953003147,
            1352.1
          ],
          [
            138.33592466078602,
            36.5394055766233,
            1356.6
          ],
          [
            138.335763112182,
            36.53928112177661,
            1361.8
          ],
          [
            138.335601563578,
            36.53915666692991,
            1366.2
          ],
          [
            138.33544001497398,
            36.53903221208322,
            1370.8
          ],
          [
            138.33527846636997,
            36.53890775723652,
            1376.1
          ],
          [
            138.33511691776596,
            36.53878330238983,
            1380.5
          ],
          [
            138.33495536916195,
            36.53865884754313,
            1385.5
          ],
          [
            138.33479382055793,
            36.53853439269644,
            1390.8
          ],
          [
            138.3346322719539,
            36.53840993784974,
            1395.9
          ],
          [
            138.33447072334988,
            36.53828548300305,
            1403.2
          ],
          [
            138.33430917474587,
            36.53816102815635,
            1408.7
          ],
          [
            138.33414762614186,
            36.53803657330966,
            1415.8
          ],
          [
            138.33398607753784,
            36.53791211846296,
            1423.9
          ],
          [
            138.33382452893383,
            36.53778766361627,
            1430.5
          ],
          [
            138.3337461992362,
            36.53772731948287,
            1430.8
          ]
        ]
      }
    },
    {
      "type": "Feature",
      "properties": {
        "name": "マック",
        "horizontal_dist_map": 578,
        "slope_dist_map": 601,
        "elevation_diff_map": 159.7,
        "midstation": null
      },
      "geometry": {
        "type": "LineString",
        "coordinates": [
          [
            138.32729174971732,
            36.5351428521901,
            1271.6
          ],
          [
            138.32750036604068,
            36.53520720852756,
            1273.9
          ],
          [
            138.32770898236402,
            36.53527156486501,
            1279.4
          ],
          [
            138.32791759868738,
            36.535335921202474,
            1283.7
          ],
          [
            138.32812621501074,
            36.535400277539935,
            1287.5
          ],
          [
            138.32833483133408,
            36.53546463387739,
            1292.8
          ],
          [
            138.32854344765744,
            36.53552899021485,
            1299.5
          ],
          [
            138.3287520639808,
            36.53559334655231,
            1305.7
          ],
          [
            138.32896068030414,
            36.535657702889765,
            1312.2
          ],
          [
            138.3291692966275,
            36.535722059227226,
            1320.0
          ],
          [
            138.32937791295086,
            36.53578641556469,
            1326.4
          ],
          [
            138.3295865292742,
            36.53585077190214,
            1329.4
          ],
          [
            138.32979514559756,
            36.5359151282396,
            1335.5
          ],
          [
            138.3300037619209,
            36.53597948457706,
            1343.1
          ],
          [
            138.33021237824425,
            36.536043840914516,
            1351.5
          ],
          [
            138.33042099456762,
            36.53610819725198,
            1361.0
          ],
          [
            138.33062961089095,
            36.53617255358944,
            1369.1
          ],
          [
            138.33083822721431,
            36.53623690992689,
            1373.4
          ],
          [
            138.33104684353768,
            36.53630126626435,
            1380.1
          ],
          [
            138.331255459861,
            36.53636562260181,
            1387.3
          ],
          [
            138.33146407618437,
            36.53642997893927,
            1391.8
          ],
          [
            138.33167269250774,
            36.53649433527673,
            1397.1
          ],
          [
            138.33188130883107,
            36.53655869161418,
            1401.9
          ],
          [
            138.33208992515443,
            36.53662304795164,
            1405.6
          ],
          [
            138.3322985414778,
            36.536687404289104,
            1408.1
          ],
          [
            138.33250715780113,
            36.53675176062656,
            1414.3
          ],
          [
            138.3327157741245,
            36.53681611696402,
            1419.1
          ],
          [
            138.33292439044786,
            36.53688047330148,
            1421.9
          ],
          [
            138.3331330067712,
            36.536944829638934,
            1425.3
          ],
          [
            138.33332189541414,
            36.537003100157044,
            1431.3
          ]
        ]
      }
    },
    {
      "type": "Feature",
      "properties": {
        "name": "オオマツ第5ペア",
        "horizontal_dist_map": 718,
        "slope_dist_map": 763,
        "elevation_diff_map": 230.7,
        "midstation": [138.30808455408652, 36.515046690013676, 1505.8]
      },
      "geometry": {
        "type": "LineString",
        "coordinates": [
          [
            138.3124412,
            36.5172866,
            1392.7
          ],
          [
            138.31225285695683,
            36.5171897994515,
            1395.8
          ],
          [
            138.3120645139137,
            36.517092998903,
            1400.8
          ],
          [
            138.31187617087053,
            36.516996198354505,
            1404.9
          ],
          [
            138.3116878278274,
            36.51689939780601,
            1408.7
          ],
          [
            138.31149948478424,
            36.51680259725751,
            1411.1
          ],
          [
            138.3113111417411,
            36.51670579670901,
            1415.5
          ],
          [
            138.31112279869794,
            36.516608996160514,
            1420.3
          ],
          [
            138.31093445565477,
            36.51651219561201,
            1424.4
          ],
          [
            138.31074611261164,
            36.51641539506351,
            1429.5
          ],
          [
            138.31055776956848,
            36.51631859451501,
            1435.1
          ],
          [
            138.31036942652534,
            36.516221793966515,
            1440.2
          ],
          [
            138.31018108348218,
            36.51612499341802,
            1444.5
          ],
          [
            138.30999274043904,
            36.51602819286952,
            1447.3
          ],
          [
            138.30980439739588,
            36.51593139232102,
            1450.8
          ],
          [
            138.30961605435274,
            36.515834591772524,
            1457.4
          ],
          [
            138.30942771130958,
            36.515737791224026,
            1462.4
          ],
          [
            138.30923936826642,
            36.51564099067553,
            1469.1
          ],
          [
            138.30905102522328,
            36.51554419012703,
            1474.0
          ],
          [
            138.30886268218012,
            36.51544738957853,
            1479.3
          ],
          [
            138.30867433913699,
            36.515350589030035,
            1486.0
          ],
          [
            138.30848599609382,
            36.51525378848154,
            1490.4
          ],
          [
            138.3082976530507,
            36.51515698793303,
            1498.0
          ],
          [
            138.30810931000752,
            36.515060187384535,
            1504.1
          ],
          [
            138.30792096696436,
            36.51496338683604,
            1514.4
          ],
          [
            138.30773262392123,
            36.51486658628754,
            1523.6
          ],
          [
            138.30754428087806,
            36.51476978573904,
            1529.8
          ],
          [
            138.30735593783493,
            36.51467298519054,
            1545.0
          ],
          [
            138.30716759479176,
            36.514576184642046,
            1554.6
          ],
          [
            138.30697925174863,
            36.51447938409355,
            1564.2
          ],
          [
            138.30679090870547,
            36.51438258354505,
            1577.9
          ],
          [
            138.3066025656623,
            36.51428578299655,
            1589.8
          ],
          [
            138.30641422261917,
            36.514188982448054,
            1598.0
          ],
          [
            138.306225879576,
            36.51409218189956,
            1607.8
          ],
          [
            138.30603753653287,
            36.51399538135106,
            1616.9
          ],
          [
            138.3058491934897,
            36.51389858080256,
            1626.6
          ],
          [
            138.3056784,
            36.5138108,
            1623.4
          ]
        ]
      }
    },
    {
      "type": "Feature",
      "properties": {
        "name": "オオマツ第1クワッド",
        "horizontal_dist_map": 741,
        "slope_dist_map": 780,
        "elevation_diff_map": 208.9,
        "midstation": null
      },
      "geometry": {
        "type": "LineString",
        "coordinates": [
          [
            138.317128,
            36.5173472,
            1319.4
          ],
          [
            138.31696217704135,
            36.517226506552596,
            1319.8
          ],
          [
            138.31679635408273,
            36.51710581310519,
            1325.1
          ],
          [
            138.31663053112408,
            36.516985119657775,
            1329.4
          ],
          [
            138.31646470816543,
            36.51686442621037,
            1334.8
          ],
          [
            138.3162988852068,
            36.51674373276296,
            1337.5
          ],
          [
            138.31613306224816,
            36.516623039315554,
            1343.1
          ],
          [
            138.3159672392895,
            36.51650234586815,
            1346.9
          ],
          [
            138.31580141633088,
            36.51638165242074,
            1347.3
          ],
          [
            138.31563559337224,
            36.51626095897333,
            1355.7
          ],
          [
            138.31546977041359,
            36.51614026552592,
            1356.9
          ],
          [
            138.31530394745496,
            36.51601957207851,
            1358.3
          ],
          [
            138.31513812449631,
            36.515898878631106,
            1361.3
          ],
          [
            138.31497230153767,
            36.5157781851837,
            1364.5
          ],
          [
            138.31480647857904,
            36.51565749173629,
            1368.0
          ],
          [
            138.3146406556204,
            36.51553679828888,
            1371.6
          ],
          [
            138.31447483266174,
            36.51541610484147,
            1375.3
          ],
          [
            138.31430900970312,
            36.515295411394064,
            1378.3
          ],
          [
            138.31414318674447,
            36.51517471794666,
            1381.9
          ],
          [
            138.31397736378582,
            36.51505402449925,
            1385.9
          ],
          [
            138.3138115408272,
            36.51493333105184,
            1385.9
          ],
          [
            138.31364571786855,
            36.51481263760443,
            1391.1
          ],
          [
            138.3134798949099,
            36.51469194415702,
            1395.3
          ],
          [
            138.31331407195125,
            36.514571250709615,
            1399.0
          ],
          [
            138.31314824899263,
            36.51445055726221,
            1406.9
          ],
          [
            138.31298242603398,
            36.5143298638148,
            1412.5
          ],
          [
            138.31281660307533,
            36.514209170367394,
            1417.7
          ],
          [
            138.3126507801167,
            36.51408847691998,
            1423.2
          ],
          [
            138.31248495715806,
            36.51396778347257,
            1433.9
          ],
          [
            138.3123191341994,
            36.513847090025166,
            1445.4
          ],
          [
            138.3121533112408,
            36.51372639657776,
            1458.6
          ],
          [
            138.31198748828214,
            36.51360570313035,
            1470.5
          ],
          [
            138.3118216653235,
            36.51348500968294,
            1482.1
          ],
          [
            138.31165584236487,
            36.51336431623553,
            1493.6
          ],
          [
            138.31149001940622,
            36.513243622788124,
            1505.1
          ],
          [
            138.31132419644757,
            36.51312292934072,
            1513.1
          ],
          [
            138.31115837348895,
            36.51300223589331,
            1521.5
          ],
          [
            138.3109925505303,
            36.5128815424459,
            1527.2
          ],
          [
            138.3109826,
            36.5128743,
            1528.3
          ]
        ]
      }
    },
    {
      "type": "Feature",
      "properties": {
        "name": "つばくろ第1ペア",
        "horizontal_dist_map": 972,
        "slope_dist_map": 1010,
        "elevation_diff_map": 223.9,
        "midstation": [138.30276134882956, 36.526708923456454, 1486.2]
      },
      "geometry": {
        "type": "LineString",
        "coordinates": [
          [
            138.3093225,
            36.5296299,
            1299.1
          ],
          [
            138.30912692631364,
            36.5295428984175,
            1299.6
          ],
          [
            138.30893135262727,
            36.529455896835,
            1303.2
          ],
          [
            138.3087357789409,
            36.529368895252496,
            1305.4
          ],
          [
            138.30854020525453,
            36.529281893669996,
            1309.1
          ],
          [
            138.30834463156816,
            36.529194892087496,
            1311.2
          ],
          [
            138.3081490578818,
            36.529107890504996,
            1314.3
          ],
          [
            138.30795348419542,
            36.529020888922496,
            1318.5
          ],
          [
            138.30775791050905,
            36.52893388733999,
            1320.8
          ],
          [
            138.3075623368227,
            36.52884688575749,
            1323.7
          ],
          [
            138.30736676313634,
            36.52875988417499,
            1327.8
          ],
          [
            138.30717118944997,
            36.52867288259249,
            1331.4
          ],
          [
            138.3069756157636,
            36.52858588100999,
            1334.1
          ],
          [
            138.30678004207724,
            36.52849887942748,
            1337.7
          ],
          [
            138.30658446839087,
            36.52841187784498,
            1341.1
          ],
          [
            138.3063888947045,
            36.52832487626248,
            1346.4
          ],
          [
            138.30619332101813,
            36.52823787467998,
            1353.6
          ],
          [
            138.30599774733176,
            36.52815087309748,
            1358.8
          ],
          [
            138.3058021736454,
            36.52806387151498,
            1365.8
          ],
          [
            138.30560659995902,
            36.52797686993247,
            1373.6
          ],
          [
            138.30541102627265,
            36.52788986834997,
            1380.7
          ],
          [
            138.30521545258628,
            36.52780286676747,
            1387.2
          ],
          [
            138.3050198788999,
            36.52771586518497,
            1395.5
          ],
          [
            138.30482430521354,
            36.52762886360247,
            1403.9
          ],
          [
            138.30462873152717,
            36.527541862019966,
            1412.1
          ],
          [
            138.30443315784083,
            36.527454860437466,
            1421.1
          ],
          [
            138.30423758415446,
            36.527367858854966,
            1428.3
          ],
          [
            138.3040420104681,
            36.527280857272466,
            1438.2
          ],
          [
            138.30384643678173,
            36.527193855689966,
            1448.6
          ],
          [
            138.30365086309536,
            36.52710685410746,
            1462.1
          ],
          [
            138.303455289409,
            36.52701985252496,
            1472.2
          ],
          [
            138.30325971572262,
            36.52693285094246,
            1473.5
          ],
          [
            138.30306414203625,
            36.52684584935996,
            1480.9
          ],
          [
            138.30286856834988,
            36.52675884777746,
            1484.0
          ],
          [
            138.3026729946635,
            36.52667184619495,
            1487.9
          ],
          [
            138.30247742097714,
            36.52658484461245,
            1491.3
          ],
          [
            138.30228184729077,
            36.52649784302995,
            1496.8
          ],
          [
            138.3020862736044,
            36.52641084144745,
            1499.7
          ],
          [
            138.30189069991803,
            36.52632383986495,
            1500.3
          ],
          [
            138.30169512623166,
            36.52623683828244,
            1498.8
          ],
          [
            138.3014995525453,
            36.52614983669994,
            1497.5
          ],
          [
            138.30130397885895,
            36.52606283511744,
            1497.7
          ],
          [
            138.30110840517258,
            36.52597583353494,
            1495.6
          ],
          [
            138.30091283148622,
            36.52588883195244,
            1496.6
          ],
          [
            138.30071725779985,
            36.52580183036994,
            1499.1
          ],
          [
            138.30052168411348,
            36.525714828787436,
            1504.9
          ],
          [
            138.3003261104271,
            36.525627827204936,
            1507.5
          ],
          [
            138.30013053674074,
            36.525540825622436,
            1510.8
          ],
          [
            138.29993496305437,
            36.525453824039936,
            1516.3
          ],
          [
            138.2998088,
            36.5253977,
            1523.0
          ]
        ]
      }
    },
    {
      "type": "Feature",
      "properties": {
        "name": "つばくろ第2ペア",
        "horizontal_dist_map": 347,
        "slope_dist_map": 354,
        "elevation_diff_map": 62.4,
        "midstation": null
      },
      "geometry": {
        "type": "LineString",
        "coordinates": [
          [
            138.3099375,
            36.5294969,
            1293.0
          ],
          [
            138.3097696077962,
            36.52937805883628,
            1293.4
          ],
          [
            138.3096017155924,
            36.52925921767256,
            1296.5
          ],
          [
            138.30943382338862,
            36.52914037650884,
            1298.7
          ],
          [
            138.30926593118483,
            36.52902153534512,
            1299.8
          ],
          [
            138.30909803898103,
            36.528902694181404,
            1301.0
          ],
          [
            138.30893014677727,
            36.528783853017686,
            1303.4
          ],
          [
            138.30876225457348,
            36.52866501185397,
            1306.6
          ],
          [
            138.3085943623697,
            36.52854617069025,
            1310.8
          ],
          [
            138.3084264701659,
            36.52842732952653,
            1317.5
          ],
          [
            138.3082585779621,
            36.52830848836281,
            1321.1
          ],
          [
            138.30809068575832,
            36.52818964719909,
            1325.6
          ],
          [
            138.30792279355452,
            36.52807080603537,
            1329.7
          ],
          [
            138.30775490135073,
            36.527951964871654,
            1334.3
          ],
          [
            138.30758700914694,
            36.527833123707936,
            1339.7
          ],
          [
            138.30741911694315,
            36.527714282544224,
            1344.0
          ],
          [
            138.30725122473936,
            36.527595441380505,
            1348.5
          ],
          [
            138.30708333253557,
            36.52747660021679,
            1353.2
          ],
          [
            138.3070199,
            36.5274317,
            1355.4
          ]
        ]
      }
    },
    {
      "type": "Feature",
      "properties": {
        "name": "オオマツ第6ペア",
        "horizontal_dist_map": 785,
        "slope_dist_map": 790,
        "elevation_diff_map": 84.0,
        "midstation": null
      },
      "geometry": {
        "type": "LineString",
        "coordinates": [
          [
            138.3221105,
            36.5240329,
            1252.2
          ],
          [
            138.3219514876742,
            36.523906365053534,
            1253.0
          ],
          [
            138.32179247534842,
            36.523779830107074,
            1254.2
          ],
          [
            138.3216334630226,
            36.52365329516061,
            1256.1
          ],
          [
            138.32147445069683,
            36.523526760214146,
            1260.1
          ],
          [
            138.32131543837102,
            36.52340022526768,
            1261.4
          ],
          [
            138.32115642604523,
            36.52327369032122,
            1261.0
          ],
          [
            138.32099741371943,
            36.52314715537475,
            1260.5
          ],
          [
            138.32083840139364,
            36.52302062042829,
            1260.7
          ],
          [
            138.32067938906783,
            36.52289408548182,
            1261.7
          ],
          [
            138.32052037674205,
            36.522767550535356,
            1263.8
          ],
          [
            138.32036136441624,
            36.522641015588896,
            1264.8
          ],
          [
            138.32020235209046,
            36.52251448064243,
            1266.5
          ],
          [
            138.32004333976465,
            36.52238794569597,
            1268.3
          ],
          [
            138.31988432743887,
            36.5222614107495,
            1269.9
          ],
          [
            138.31972531511306,
            36.52213487580304,
            1271.7
          ],
          [
            138.31956630278728,
            36.52200834085657,
            1273.6
          ],
          [
            138.31940729046147,
            36.52188180591011,
            1275.3
          ],
          [
            138.3192482781357,
            36.521755270963645,
            1277.1
          ],
          [
            138.31908926580988,
            36.52162873601718,
            1279.4
          ],
          [
            138.3189302534841,
            36.52150220107072,
            1282.3
          ],
          [
            138.3187712411583,
            36.52137566612425,
            1285.1
          ],
          [
            138.3186122288325,
            36.52124913117779,
            1287.4
          ],
          [
            138.3184532165067,
            36.52112259623132,
            1289.2
          ],
          [
            138.31829420418092,
            36.52099606128486,
            1294.2
          ],
          [
            138.3181351918551,
            36.520869526338394,
            1297.5
          ],
          [
            138.31797617952932,
            36.520742991391934,
            1300.4
          ],
          [
            138.31781716720351,
            36.52061645644547,
            1302.7
          ],
          [
            138.31765815487773,
            36.520489921499,
            1304.6
          ],
          [
            138.31749914255192,
            36.52036338655254,
            1307.2
          ],
          [
            138.31734013022614,
            36.52023685160607,
            1310.6
          ],
          [
            138.31718111790033,
            36.52011031665961,
            1314.2
          ],
          [
            138.31702210557455,
            36.519983781713144,
            1315.6
          ],
          [
            138.31686309324874,
            36.51985724676668,
            1318.1
          ],
          [
            138.31670408092296,
            36.519730711820216,
            1320.9
          ],
          [
            138.31654506859715,
            36.51960417687375,
            1323.6
          ],
          [
            138.31638605627137,
            36.51947764192729,
            1326.5
          ],
          [
            138.31622704394556,
            36.51935110698082,
            1329.6
          ],
          [
            138.31606803161978,
            36.51922457203436,
            1333.0
          ],
          [
            138.31590901929397,
            36.51909803708789,
            1335.5
          ],
          [
            138.315867,
            36.5190646,
            1336.2
          ]
        ]
      }
    },
    {
      "type": "Feature",
      "properties": {
        "name": "オオマツ第3ペア",
        "horizontal_dist_map": 480,
        "slope_dist_map": 487,
        "elevation_diff_map": 78.7,
        "midstation": null
      },
      "geometry": {
        "type": "LineString",
        "coordinates": [
          [
            138.3176509,
            36.5189729,
            1315.6
          ],
          [
            138.31746207725436,
            36.518876703275915,
            1317.5
          ],
          [
            138.31727325450873,
            36.51878050655183,
            1321.0
          ],
          [
            138.3170844317631,
            36.51868430982774,
            1324.1
          ],
          [
            138.31689560901748,
            36.51858811310366,
            1326.6
          ],
          [
            138.31670678627185,
            36.518491916379574,
            1329.7
          ],
          [
            138.31651796352622,
            36.51839571965549,
            1332.4
          ],
          [
            138.3163291407806,
            36.5182995229314,
            1334.8
          ],
          [
            138.31614031803497,
            36.51820332620731,
            1337.4
          ],
          [
            138.31595149528934,
            36.51810712948323,
            1340.1
          ],
          [
            138.3157626725437,
            36.51801093275915,
            1344.1
          ],
          [
            138.31557384979808,
            36.51791473603506,
            1346.8
          ],
          [
            138.31538502705246,
            36.51781853931097,
            1349.8
          ],
          [
            138.31519620430683,
            36.517722342586886,
            1353.6
          ],
          [
            138.3150073815612,
            36.5176261458628,
            1356.4
          ],
          [
            138.31481855881557,
            36.51752994913871,
            1360.2
          ],
          [
            138.31462973606995,
            36.517433752414625,
            1363.0
          ],
          [
            138.31444091332432,
            36.517337555690546,
            1366.4
          ],
          [
            138.3142520905787,
            36.51724135896646,
            1371.6
          ],
          [
            138.31406326783306,
            36.51714516224237,
            1375.4
          ],
          [
            138.31387444508744,
            36.517048965518285,
            1379.5
          ],
          [
            138.3136856223418,
            36.5169527687942,
            1382.6
          ],
          [
            138.31349679959615,
            36.51685657207011,
            1386.1
          ],
          [
            138.31330797685052,
            36.51676037534603,
            1390.2
          ],
          [
            138.3131191541049,
            36.516664178621944,
            1394.3
          ],
          [
            138.3131137,
            36.5166614,
            1394.3
          ]
        ]
      }
    }
  ]
}