{
  "type": "FeatureCollection",
  "features": [
    {
      "type": "Feature",
      "properties": {
        "name": "SPゴンドラ",
        "horizontal_dist_map": 2455,
        "slope_dist_map": 2551,
        "elevation_diff_map": 547.9
      },
      "geometry": {
        "type": "LineString",
        "coordinates": [
          [
            136.8759619,
            35.9978285,
            971.9
          ],
          [
            136.8757401181018,
            35.997825496580774,
            971.5
          ],
          [
            136.87551833620358,
            35.99782249316154,
            972.6
          ],
          [
            136.8752965543054,
            35.99781948974232,
            975.1
          ],
          [
            136.8750747727297,
            35.99781647140436,
            977.5
          ],
          [
            136.8748529913656,
            35.997813443279966,
            980.0
          ],
          [
            136.87463121000147,
            35.99781041515557,
            983.3
          ],
          [
            136.8744094280753,
            35.997807416003624,
            983.3
          ],
          [
            136.8741876461463,
            35.99780441699741,
            980.1
          ],
          [
            136.8739658642173,
            35.997801417991205,
            976.5
          ],
          [
            136.87374408228828,
            35.997798418985,
            974.4
          ],
          [
            136.8735223003593,
            35.997795419978786,
            975.0
          ],
          [
            136.87330051858356,
            35.9977924148161,
            969.2
          ],
          [
            136.87307873698785,
            35.99778940242122,
            961.2
          ],
          [
            136.87285695539214,
            35.99778639002634,
            956.9
          ],
          [
            136.87263517379643,
            35.99778337763147,
            955.7
          ],
          [
            136.87241339220074,
            35.99778036523659,
            960.4
          ],
          [
            136.87219161060503,
            35.99777735284172,
            964.3
          ],
          [
            136.87196982900932,
            35.997774340446846,
            967.7
          ],
          [
            136.87174804741363,
            35.997771328051975,
            972.3
          ],
          [
            136.87152626584472,
            35.99776831458414,
            976.2
          ],
          [
            136.8713044845331,
            35.99776529082216,
            979.1
          ],
          [
            136.8710827032215,
            35.997762267060175,
            984.3
          ],
          [
            136.8708609219099,
            35.9977592432982,
            988.8
          ],
          [
            136.87063914020507,
            35.99775623967888,
            992.7
          ],
          [
            136.87041735829305,
            35.99775324667062,
            1000.0
          ],
          [
            136.87019557638106,
            35.99775025366236,
            1002.4
          ],
          [
            136.86997379446908,
            35.99774726065411,
            1008.4
          ],
          [
            136.86975201288743,
            35.99774425297439,
            1013.5
          ],
          [
            136.8695302314871,
            35.997741237241634,
            1015.9
          ],
          [
            136.86930845008678,
            35.997738221508875,
            1016.3
          ],
          [
            136.86908666868646,
            35.99773520577612,
            1021.7
          ],
          [
            136.86886488728615,
            35.99773219004336,
            1026.7
          ],
          [
            136.86864310588584,
            35.9977291743106,
            1031.5
          ],
          [
            136.8684213244855,
            35.99772615857784,
            1035.6
          ],
          [
            136.8681995431965,
            35.99772313904978,
            1039.9
          ],
          [
            136.8679777619275,
            35.997720118841116,
            1045.4
          ],
          [
            136.86775598009817,
            35.997717126417115,
            1053.3
          ],
          [
            136.86753419766563,
            35.99771416430391,
            1059.9
          ],
          [
            136.8673124161469,
            35.997711158363046,
            1065.7
          ],
          [
            136.8670906346281,
            35.99770815242218,
            1073.2
          ],
          [
            136.86686885310937,
            35.99770514648131,
            1081.5
          ],
          [
            136.86664707159062,
            35.99770214054044,
            1088.1
          ],
          [
            136.86642529007185,
            35.99769913459958,
            1098.2
          ],
          [
            136.86620350869302,
            35.997696123312544,
            1103.9
          ],
          [
            136.8659817274117,
            35.99769310829931,
            1108.3
          ],
          [
            136.8657599461304,
            35.997690093286074,
            1120.8
          ],
          [
            136.8655381648491,
            35.99768707827283,
            1131.1
          ],
          [
            136.8653163835678,
            35.9976840632596,
            1138.9
          ],
          [
            136.8650946022865,
            35.99768104824636,
            1149.0
          ],
          [
            136.86487282101413,
            35.99767803308579,
            1157.8
          ],
          [
            136.8646510398065,
            35.997675016861365,
            1162.9
          ],
          [
            136.86442925859885,
            35.99767200063694,
            1171.6
          ],
          [
            136.86420747739118,
            35.99766898441252,
            1185.1
          ],
          [
            136.86398569618353,
            35.997665968188095,
            1199.6
          ],
          [
            136.86376391495747,
            35.99766295295329,
            1211.1
          ],
          [
            136.86354213337455,
            35.99765995689237,
            1218.3
          ],
          [
            136.86332035179166,
            35.99765696083145,
            1225.4
          ],
          [
            136.86309857020873,
            35.99765396477053,
            1234.8
          ],
          [
            136.86287678862584,
            35.99765096870961,
            1241.4
          ],
          [
            136.8626550076009,
            35.99764794723936,
            1246.1
          ],
          [
            136.86243322660923,
            35.99764492425292,
            1252.6
          ],
          [
            136.8622114456176,
            35.997641901266476,
            1259.2
          ],
          [
            136.86198966462592,
            35.997638878280036,
            1265.6
          ],
          [
            136.86176788361723,
            35.997635856218146,
            1271.0
          ],
          [
            136.86154610226947,
            35.99763285254594,
            1276.3
          ],
          [
            136.86132432092168,
            35.99762984887373,
            1281.0
          ],
          [
            136.86110253957392,
            35.99762684520152,
            1287.8
          ],
          [
            136.86088075822616,
            35.99762384152932,
            1293.3
          ],
          [
            136.8606589769152,
            35.99762083637113,
            1297.3
          ],
          [
            136.86043719580672,
            35.99761782304085,
            1300.7
          ],
          [
            136.86021541469825,
            35.997614809710576,
            1303.6
          ],
          [
            136.85999363358977,
            35.9976117963803,
            1307.2
          ],
          [
            136.85977185248126,
            35.99760878305002,
            1310.4
          ],
          [
            136.8595500713682,
            35.99760577070324,
            1313.3
          ],
          [
            136.85932829024634,
            35.997602760249464,
            1314.5
          ],
          [
            136.85910650912447,
            35.99759974979569,
            1316.3
          ],
          [
            136.8588847280026,
            35.99759673934192,
            1319.3
          ],
          [
            136.8586629468807,
            35.99759372888815,
            1323.8
          ],
          [
            136.85844116575885,
            35.997590718434374,
            1328.0
          ],
          [
            136.85821938466967,
            35.99758770694795,
            1332.0
          ],
          [
            136.85799760365813,
            35.99758469300909,
            1333.1
          ],
          [
            136.85777582264657,
            35.99758167907023,
            1334.3
          ],
          [
            136.8575540415383,
            35.997578670099756,
            1336.4
          ],
          [
            136.85733225998166,
            35.99757568415736,
            1337.4
          ],
          [
            136.85711047842506,
            35.99757269821496,
            1337.1
          ],
          [
            136.85688869686842,
            35.99756971227256,
            1338.5
          ],
          [
            136.85666691565288,
            35.99756671033755,
            1336.5
          ],
          [
            136.85644513474344,
            35.99756369405016,
            1336.4
          ],
          [
            136.85622335384517,
            35.99756067743424,
            1339.8
          ],
          [
            136.85600157301556,
            35.99755765880005,
            1342.8
          ],
          [
            136.85577979218598,
            35.99755464016586,
            1346.8
          ],
          [
            136.85555801135638,
            35.99755162153167,
            1344.2
          ],
          [
            136.85533623052677,
            35.99754860289748,
            1349.4
          ],
          [
            136.85511444967386,
            35.99754558550128,
            1353.6
          ],
          [
            136.85489266851764,
            35.99754258418934,
            1358.1
          ],
          [
            136.8546708873825,
            35.99753958213999,
            1362.6
          ],
          [
            136.85444910634862,
            35.997536576548235,
            1367.6
          ],
          [
            136.85422732531475,
            35.99753357095648,
            1373.6
          ],
          [
            136.85400554428088,
            35.99753056536472,
            1377.4
          ],
          [
            136.85378376324698,
            35.99752755977296,
            1379.7
          ],
          [
            136.8535619822131,
            35.997524554181204,
            1384.9
          ],
          [
            136.85334020117924,
            35.99752154858945,
            1390.1
          ],
          [
            136.85311842028923,
            35.9975185388517,
            1396.7
          ],
          [
            136.85289663942447,
            35.9975155283866,
            1402.6
          ],
          [
            136.8526748585597,
            35.99751251792149,
            1408.3
          ],
          [
            136.85245307769495,
            35.99750950745639,
            1413.7
          ],
          [
            136.85223129683015,
            35.99750649699129,
            1419.3
          ],
          [
            136.8520095159654,
            35.997503486526185,
            1426.3
          ],
          [
            136.85178773510063,
            35.997500476061084,
            1432.1
          ],
          [
            136.85156595423587,
            35.997497465595984,
            1437.8
          ],
          [
            136.8513441733711,
            35.99749445513088,
            1442.9
          ],
          [
            136.85112239250634,
            35.997491444665776,
            1449.0
          ],
          [
            136.85090061161597,
            35.99748843841957,
            1454.9
          ],
          [
            136.85067883071864,
            35.997485433323,
            1462.5
          ],
          [
            136.8504570498213,
            35.99748242822642,
            1468.2
          ],
          [
            136.85023526892397,
            35.997479423129846,
            1474.4
          ],
          [
            136.85001348802663,
            35.997476418033266,
            1480.6
          ],
          [
            136.8497917071293,
            35.99747341293669,
            1487.2
          ],
          [
            136.84956992623196,
            35.99747040784011,
            1493.3
          ],
          [
            136.84934814533463,
            35.99746740274354,
            1501.3
          ],
          [
            136.84912636466487,
            35.99746438746747,
            1506.3
          ],
          [
            136.84890458433634,
            35.99746135692882,
            1513.9
          ],
          [
            136.8487321,
            35.997459,
            1519.8
          ]
        ]
      }
    },
    {
      "type": "Feature",
      "properties": {
        "name": "ダイヤモンドクワッド",
        "horizontal_dist_map": 1611,
        "slope_dist_map": 1690,
        "elevation_diff_map": 397.3
      },
      "geometry": {
        "type": "LineString",
        "coordinates": [
          [
            136.8652451,
            36.00317,
            1122.7
          ],
          [
            136.86504047508856,
            36.003100404188864,
            1123.3
          ],
          [
            136.86483585017712,
            36.00303080837773,
            1134.5
          ],
          [
            136.86463122702912,
            36.00296120955719,
            1141.5
          ],
          [
            136.864426606224,
            36.00289160673835,
            1150.7
          ],
          [
            136.86422198541885,
            36.002822003919505,
            1158.0
          ],
          [
            136.8640173590945,
            36.00275241236727,
            1164.1
          ],
          [
            136.8638127265051,
            36.00268283360407,
            1169.1
          ],
          [
            136.8636080939157,
            36.00261325484087,
            1174.1
          ],
          [
            136.8634034613263,
            36.002543676077664,
            1181.9
          ],
          [
            136.86319883681384,
            36.00247408282206,
            1183.9
          ],
          [
            136.86299421633544,
            36.00240448232816,
            1184.4
          ],
          [
            136.86278959585704,
            36.00233488183425,
            1193.2
          ],
          [
            136.86258497537864,
            36.00226528134035,
            1195.1
          ],
          [
            136.86238035490027,
            36.00219568084644,
            1205.9
          ],
          [
            136.86217573442187,
            36.00212608035254,
            1220.4
          ],
          [
            136.86197111027616,
            36.002056487272256,
            1231.4
          ],
          [
            136.8617664892161,
            36.001986889346774,
            1233.4
          ],
          [
            136.86156188681625,
            36.00191725541938,
            1225.7
          ],
          [
            136.86135726319802,
            36.00184766356702,
            1220.6
          ],
          [
            136.8611526395798,
            36.00177807171467,
            1219.3
          ],
          [
            136.86094801596158,
            36.001708479862316,
            1214.2
          ],
          [
            136.86074339438989,
            36.00163888430858,
            1218.3
          ],
          [
            136.86053877830236,
            36.00156927883599,
            1218.3
          ],
          [
            136.8603341603389,
            36.001499677307145,
            1217.0
          ],
          [
            136.86012953735255,
            36.0014300863383,
            1216.0
          ],
          [
            136.8599249143662,
            36.00136049536946,
            1218.4
          ],
          [
            136.8597202913798,
            36.00129090440062,
            1221.0
          ],
          [
            136.85951566839344,
            36.00122131343178,
            1222.9
          ],
          [
            136.8593110246355,
            36.001151763906726,
            1225.5
          ],
          [
            136.8591064125372,
            36.00108215330522,
            1234.3
          ],
          [
            136.8589018004389,
            36.00101254270371,
            1245.5
          ],
          [
            136.85869718755137,
            36.000942933689224,
            1264.5
          ],
          [
            136.85849255811144,
            36.00087335796031,
            1272.1
          ],
          [
            136.85828792867153,
            36.0008037822314,
            1278.4
          ],
          [
            136.8580832992316,
            36.000734206502486,
            1287.1
          ],
          [
            136.8578786807356,
            36.000664610167284,
            1292.5
          ],
          [
            136.8576740709866,
            36.000594997362434,
            1300.1
          ],
          [
            136.8574694612376,
            36.00052538455759,
            1303.1
          ],
          [
            136.857264845006,
            36.0004557849013,
            1308.4
          ],
          [
            136.85706022032815,
            36.00038620237633,
            1310.7
          ],
          [
            136.8568555956503,
            36.000316619851375,
            1316.5
          ],
          [
            136.85665097097248,
            36.00024703732642,
            1324.2
          ],
          [
            136.8564463474315,
            36.000177452716954,
            1334.3
          ],
          [
            136.85624173502725,
            36.00010784768769,
            1341.4
          ],
          [
            136.85603712262304,
            36.00003824265843,
            1347.1
          ],
          [
            136.85583251021882,
            35.99996863762916,
            1353.1
          ],
          [
            136.8556278966986,
            35.99989903573706,
            1360.3
          ],
          [
            136.85542328295432,
            35.99982943447479,
            1367.5
          ],
          [
            136.85521866921005,
            35.999759833212515,
            1377.4
          ],
          [
            136.85501405347756,
            35.99969023637586,
            1383.0
          ],
          [
            136.8548094347137,
            35.999620646286985,
            1382.9
          ],
          [
            136.8546048159498,
            35.999551056198115,
            1387.9
          ],
          [
            136.85440019718592,
            35.99948146610924,
            1394.4
          ],
          [
            136.85419557842204,
            35.99941187602036,
            1401.8
          ],
          [
            136.85399096265436,
            35.99934228124088,
            1405.0
          ],
          [
            136.85378634867118,
            35.999272683667726,
            1411.6
          ],
          [
            136.853581734688,
            35.99920308609457,
            1418.2
          ],
          [
            136.8533771207048,
            35.999133488521416,
            1425.3
          ],
          [
            136.85317250672162,
            35.999063890948264,
            1432.0
          ],
          [
            136.85296789283566,
            35.9989942933141,
            1440.1
          ],
          [
            136.85276328015215,
            35.99892469492543,
            1442.6
          ],
          [
            136.85255866746863,
            35.99885509653675,
            1446.0
          ],
          [
            136.8523540547851,
            35.99878549814808,
            1452.8
          ],
          [
            136.8521494421016,
            35.99871589975941,
            1456.8
          ],
          [
            136.85194483061323,
            35.99864630016464,
            1461.5
          ],
          [
            136.8517402193891,
            35.99857670030325,
            1465.5
          ],
          [
            136.85153560816494,
            35.99850710044187,
            1467.6
          ],
          [
            136.85133099536412,
            35.998437503985755,
            1467.6
          ],
          [
            136.85112637811048,
            35.998367917147114,
            1469.0
          ],
          [
            136.85092176085683,
            35.99829833030847,
            1471.2
          ],
          [
            136.8507171436032,
            35.99822874346983,
            1474.9
          ],
          [
            136.8505125233406,
            35.99815916273348,
            1477.4
          ],
          [
            136.8503078942864,
            35.99808959982712,
            1481.4
          ],
          [
            136.85010327423117,
            35.99802002011257,
            1486.3
          ],
          [
            136.84989866599966,
            35.99795041831377,
            1491.1
          ],
          [
            136.84969405776815,
            35.99788081651497,
            1495.3
          ],
          [
            136.84948944953666,
            35.99781121471617,
            1498.4
          ],
          [
            136.84928484130515,
            35.99774161291737,
            1502.5
          ],
          [
            136.84908023307364,
            35.997672011118574,
            1508.3
          ],
          [
            136.84887562484212,
            35.997602409319775,
            1518.4
          ],
          [
            136.8487536,
            35.9975609,
            1520.0
          ]
        ]
      }
    },
    {
      "type": "Feature",
      "properties": {
        "name": "チャンピオンクワッド",
        "horizontal_dist_map": 1597,
        "slope_dist_map": 1672,
        "elevation_diff_map": 393.5
      },
      "geometry": {
        "type": "LineString",
        "coordinates": [
          [
            136.8750726,
            35.9970483,
            965.4
          ],
          [
            136.87485084082007,
            35.99704442244565,
            965.4
          ],
          [
            136.8746290816401,
            35.99704054489129,
            965.6
          ],
          [
            136.8744073221577,
            35.997036679456926,
            968.6
          ],
          [
            136.87418556258385,
            35.99703281766903,
            966.4
          ],
          [
            136.87396380238647,
            35.99702898050895,
            960.1
          ],
          [
            136.8737420421891,
            35.99702514334887,
            952.8
          ],
          [
            136.8735202821027,
            35.99702130231472,
            947.6
          ],
          [
            136.87329852262252,
            35.997017440120715,
            945.1
          ],
          [
            136.8730767631423,
            35.99701357792671,
            941.5
          ],
          [
            136.87285500366212,
            35.9970097157327,
            948.6
          ],
          [
            136.8726332441819,
            35.9970058535387,
            956.1
          ],
          [
            136.87241148470173,
            35.997001991344696,
            964.1
          ],
          [
            136.87218972522152,
            35.99699812915069,
            968.9
          ],
          [
            136.87196796574133,
            35.99699426695668,
            973.8
          ],
          [
            136.8717462062544,
            35.99699040528925,
            979.2
          ],
          [
            136.87152444670812,
            35.996986548240855,
            984.0
          ],
          [
            136.87130268716186,
            35.99698269119246,
            989.6
          ],
          [
            136.87108092761562,
            35.99697883414405,
            997.4
          ],
          [
            136.87085916806936,
            35.996974977095654,
            1001.9
          ],
          [
            136.87063740860103,
            35.99697111768678,
            1005.6
          ],
          [
            136.87041564933307,
            35.99696725220797,
            1010.9
          ],
          [
            136.87019389006508,
            35.99696338672916,
            1018.4
          ],
          [
            136.86997213079712,
            35.99695952125035,
            1020.5
          ],
          [
            136.86975037152914,
            35.99695565577154,
            1021.6
          ],
          [
            136.86952861226118,
            35.996951790292734,
            1025.0
          ],
          [
            136.86930685281317,
            35.99694793361919,
            1028.9
          ],
          [
            136.86908509330317,
            35.99694407997841,
            1032.9
          ],
          [
            136.86886333379317,
            35.996940226337635,
            1036.4
          ],
          [
            136.86864157428317,
            35.996936372696865,
            1041.7
          ],
          [
            136.86841981477318,
            35.99693251905609,
            1046.4
          ],
          [
            136.86819805526318,
            35.99692866541532,
            1047.3
          ],
          [
            136.8679762957532,
            35.99692481177454,
            1050.2
          ],
          [
            136.86775453641295,
            35.996920952549985,
            1055.7
          ],
          [
            136.86753277742963,
            35.99691708158214,
            1061.0
          ],
          [
            136.86731101844634,
            35.996913210614295,
            1067.3
          ],
          [
            136.86708925946306,
            35.99690933964645,
            1074.9
          ],
          [
            136.86686750047977,
            35.99690546867861,
            1087.5
          ],
          [
            136.86664574149648,
            35.99690159771077,
            1097.9
          ],
          [
            136.86642398228,
            35.996897737471315,
            1100.3
          ],
          [
            136.86620222302096,
            35.99689387919092,
            1106.7
          ],
          [
            136.8659804637619,
            35.99689002091052,
            1114.2
          ],
          [
            136.86575870450284,
            35.99688616263012,
            1121.8
          ],
          [
            136.86553694524378,
            35.996882304349725,
            1129.7
          ],
          [
            136.86531518613168,
            35.996878441324654,
            1144.4
          ],
          [
            136.86509342723753,
            35.99687457126364,
            1152.7
          ],
          [
            136.86487166834337,
            35.99687070120262,
            1164.2
          ],
          [
            136.86464990944918,
            35.9968668311416,
            1178.2
          ],
          [
            136.86442815055503,
            35.99686296108058,
            1189.1
          ],
          [
            136.86420639118748,
            35.9968591108386,
            1195.4
          ],
          [
            136.86398463173967,
            35.9968552639572,
            1202.5
          ],
          [
            136.86376287229186,
            35.996851417075796,
            1209.5
          ],
          [
            136.86354111284405,
            35.99684757019439,
            1217.3
          ],
          [
            136.86331935339624,
            35.996843723312985,
            1227.8
          ],
          [
            136.86309759394842,
            35.99683987643158,
            1236.0
          ],
          [
            136.86287583511654,
            35.99683600780231,
            1243.5
          ],
          [
            136.8626540764161,
            35.99683213453302,
            1250.9
          ],
          [
            136.86243231771564,
            35.99682826126373,
            1259.3
          ],
          [
            136.86221055889666,
            35.99682439299025,
            1263.7
          ],
          [
            136.86198879974253,
            35.9968205388415,
            1268.8
          ],
          [
            136.8617670405884,
            35.99681668469275,
            1270.8
          ],
          [
            136.8615452814343,
            35.99681283054401,
            1273.7
          ],
          [
            136.86132352228017,
            35.99680897639526,
            1277.9
          ],
          [
            136.86110176312604,
            35.99680512224651,
            1281.6
          ],
          [
            136.8608800040929,
            35.99680126438756,
            1286.1
          ],
          [
            136.86065824522453,
            35.996797401476215,
            1291.1
          ],
          [
            136.86043648635615,
            35.99679353856488,
            1296.4
          ],
          [
            136.86021472748777,
            35.99678967565354,
            1302.5
          ],
          [
            136.85999296859467,
            35.996785813858246,
            1309.3
          ],
          [
            136.85977120947936,
            35.9967819620795,
            1314.0
          ],
          [
            136.85954945036409,
            35.99677811030075,
            1318.1
          ],
          [
            136.85932769124878,
            35.99677425852201,
            1321.7
          ],
          [
            136.8591059321335,
            35.996770406743266,
            1325.3
          ],
          [
            136.85888417337785,
            35.996766542860854,
            1328.8
          ],
          [
            136.85866241468946,
            35.996762676715356,
            1335.2
          ],
          [
            136.85844065600105,
            35.99675881056985,
            1340.2
          ],
          [
            136.85821889731264,
            35.996754944424346,
            1344.3
          ],
          [
            136.857997138631,
            35.99675107827743,
            1348.2
          ],
          [
            136.85777537998453,
            35.99674721212311,
            1351.7
          ],
          [
            136.85755362133804,
            35.99674334596879,
            1355.1
          ],
          [
            136.8573617,
            35.99674,
            1358.9
          ]
        ]
      }
    },
    {
      "type": "Feature",
      "properties": {
        "name": "パノラマクワッド",
        "horizontal_dist_map": 1195,
        "slope_dist_map": 1231,
        "elevation_diff_map": 184.3
      },
      "geometry": {
        "type": "LineString",
        "coordinates": [
          [
            136.8771054,
            35.9991595,
            970.2
          ],
          [
            136.8769077999069,
            35.999241394325146,
            970.0
          ],
          [
            136.87671019981374,
            35.99932328865029,
            973.3
          ],
          [
            136.87651259972063,
            35.99940518297544,
            979.6
          ],
          [
            136.87631499936944,
            35.999487077420106,
            983.7
          ],
          [
            136.87611739880325,
            35.999568971964344,
            989.0
          ],
          [
            136.87591979825046,
            35.999650866532235,
            993.9
          ],
          [
            136.87572220426432,
            35.999732772709905,
            997.9
          ],
          [
            136.8755246102782,
            35.99981467888757,
            1002.5
          ],
          [
            136.87532701629206,
            35.99989658506524,
            1006.7
          ],
          [
            136.87512942230595,
            35.9999784912429,
            1010.7
          ],
          [
            136.87493182591504,
            36.00006039428531,
            1013.7
          ],
          [
            136.8747342265762,
            36.00014229348433,
            1016.4
          ],
          [
            136.87453662723735,
            36.00022419268334,
            1019.2
          ],
          [
            136.87433902789851,
            36.00030609188236,
            1022.0
          ],
          [
            136.87414142855968,
            36.00038799108137,
            1025.0
          ],
          [
            136.87394382534347,
            36.00046988475364,
            1027.4
          ],
          [
            136.87374621748896,
            36.00055177181448,
            1030.5
          ],
          [
            136.87354860963444,
            36.000633658875316,
            1033.7
          ],
          [
            136.87335100177992,
            36.00071554593616,
            1034.2
          ],
          [
            136.8731534033686,
            36.00079744880718,
            1030.3
          ],
          [
            136.87295581034687,
            36.0008793607016,
            1021.7
          ],
          [
            136.8727582173251,
            36.00096127259602,
            1022.1
          ],
          [
            136.87256062388983,
            36.001043183871055,
            1025.3
          ],
          [
            136.87236301824984,
            36.001125076865854,
            1026.2
          ],
          [
            136.87216541260983,
            36.00120696986066,
            1034.8
          ],
          [
            136.87196780696985,
            36.00128886285546,
            1039.7
          ],
          [
            136.87177020438875,
            36.001370760925674,
            1043.1
          ],
          [
            136.87157261203393,
            36.00145267596352,
            1046.8
          ],
          [
            136.87137501159182,
            36.00153457867808,
            1047.1
          ],
          [
            136.8711774058513,
            36.001616473319054,
            1041.6
          ],
          [
            136.87097980011083,
            36.00169836796002,
            1037.9
          ],
          [
            136.87078219437035,
            36.00178026260098,
            1037.6
          ],
          [
            136.8705845764706,
            36.001862138344926,
            1039.0
          ],
          [
            136.87038694749535,
            36.00194399687612,
            1040.3
          ],
          [
            136.8701893455625,
            36.00202589975649,
            1042.2
          ],
          [
            136.8699917450933,
            36.00210780503727,
            1044.0
          ],
          [
            136.86979414462414,
            36.00218971031805,
            1046.4
          ],
          [
            136.86959654415494,
            36.002271615598836,
            1052.4
          ],
          [
            136.86939894368578,
            36.002353520879616,
            1059.5
          ],
          [
            136.8692013432166,
            36.002435426160396,
            1070.6
          ],
          [
            136.8690037370889,
            36.00251732293849,
            1077.5
          ],
          [
            136.86880612054478,
            36.00259920406455,
            1079.7
          ],
          [
            136.86860850400066,
            36.002681085190616,
            1083.8
          ],
          [
            136.86841090314857,
            36.00276299280406,
            1085.3
          ],
          [
            136.8682133027125,
            36.00284490111975,
            1081.5
          ],
          [
            136.86801570227644,
            36.002926809435436,
            1084.1
          ],
          [
            136.86781810184036,
            36.00300871775113,
            1088.1
          ],
          [
            136.8676205014043,
            36.003090626066815,
            1083.8
          ],
          [
            136.86742290096822,
            36.00317253438251,
            1085.0
          ],
          [
            136.86722530053217,
            36.0032544426982,
            1089.8
          ],
          [
            136.8670276921916,
            36.003336340481994,
            1091.4
          ],
          [
            136.8668300833309,
            36.003418237572724,
            1096.6
          ],
          [
            136.86663247447018,
            36.003500134663454,
            1100.1
          ],
          [
            136.86643486560948,
            36.003582031754185,
            1102.9
          ],
          [
            136.86623725674875,
            36.003663928844915,
            1109.9
          ],
          [
            136.86603964788804,
            36.003745825935646,
            1124.9
          ],
          [
            136.86584203730837,
            36.003827720983885,
            1137.0
          ],
          [
            136.86564442455045,
            36.00390961344393,
            1140.6
          ],
          [
            136.86544681179257,
            36.003991505903976,
            1149.2
          ],
          [
            136.8652907,
            36.0040562,
            1154.5
          ]
        ]
      }
    }
  ]
}