{
  "type": "FeatureCollection",
  "features": [
    {
      "type": "Feature",
      "properties": {
        "name": "第1・B",
        "horizontal_dist_map": 668,
        "slope_dist_map": 672,
        "elevation_diff_map": 61.1
      },
      "geometry": {
        "type": "LineString",
        "coordinates": [
          [
            139.073272,
            36.7792768,
            1243.1
          ],
          [
            139.07345374999758,
            36.779382182681246,
            1246.3
          ],
          [
            139.07363551545572,
            36.77948754842002,
            1249.2
          ],
          [
            139.07381729226586,
            36.779592901718694,
            1251.8
          ],
          [
            139.07399906770442,
            36.779698256574356,
            1253.7
          ],
          [
            139.0741808097381,
            36.77980364935175,
            1254.7
          ],
          [
            139.07436255177174,
            36.779909042129134,
            1256.0
          ],
          [
            139.07454433222082,
            36.7800143925018,
            1258.2
          ],
          [
            139.07472612434066,
            36.78011972999178,
            1261.9
          ],
          [
            139.0749078947343,
            36.780225092101695,
            1263.8
          ],
          [
            139.07508964588968,
            36.78033047601228,
            1266.2
          ],
          [
            139.07527139704504,
            36.78043585992286,
            1268.9
          ],
          [
            139.07545316382695,
            36.78054122694623,
            1271.0
          ],
          [
            139.07563493555585,
            36.780646588623476,
            1274.1
          ],
          [
            139.0758167023433,
            36.78075195598057,
            1276.5
          ],
          [
            139.0759984536151,
            36.78085734117178,
            1278.2
          ],
          [
            139.0761802048869,
            36.78096272636299,
            1280.0
          ],
          [
            139.07636198843514,
            36.78106807592441,
            1280.8
          ],
          [
            139.07654375522057,
            36.78117344462015,
            1281.2
          ],
          [
            139.07672551198513,
            36.78127882464204,
            1281.8
          ],
          [
            139.07690727580135,
            36.78138419703385,
            1283.2
          ],
          [
            139.07708905060028,
            36.781489557541995,
            1286.0
          ],
          [
            139.07727082565003,
            36.781594917920216,
            1289.0
          ],
          [
            139.0774526014845,
            36.781700277891915,
            1290.7
          ],
          [
            139.077634377319,
            36.78180563786361,
            1292.6
          ],
          [
            139.07781614429246,
            36.781911008285476,
            1294.0
          ],
          [
            139.07799791027864,
            36.78201637987167,
            1295.6
          ],
          [
            139.07817967938635,
            36.78212174844012,
            1297.3
          ],
          [
            139.07836144961388,
            36.782227115926005,
            1299.2
          ],
          [
            139.07854321912657,
            36.78233248440622,
            1300.4
          ],
          [
            139.07872498701386,
            36.78243785514748,
            1302.1
          ],
          [
            139.07890675511737,
            36.782543225694695,
            1303.1
          ],
          [
            139.07908852599257,
            36.78264859375471,
            1303.8
          ],
          [
            139.0792702968678,
            36.78275396181472,
            1304.1
          ],
          [
            139.0793492,
            36.7827997,
            1304.2
          ]
        ]
      }
    },
    {
      "type": "Feature",
      "properties": {
        "name": "第2高速",
        "horizontal_dist_map": 1317,
        "slope_dist_map": 1351,
        "elevation_diff_map": 250.0
      },
      "geometry": {
        "type": "LineString",
        "coordinates": [
          [
            139.08031557840636,
            36.78361546326721,
            1305.4
          ],
          [
            139.08046049010804,
            36.78375292324333,
            1304.8
          ],
          [
            139.08060540180972,
            36.78389038321944,
            1305.4
          ],
          [
            139.0807503135114,
            36.78402784319556,
            1306.6
          ],
          [
            139.08089522521308,
            36.784165303171676,
            1310.4
          ],
          [
            139.08104013691477,
            36.78430276314779,
            1313.4
          ],
          [
            139.08118504861648,
            36.78444022312391,
            1316.2
          ],
          [
            139.08132996031816,
            36.784577683100025,
            1318.4
          ],
          [
            139.08147487201984,
            36.78471514307614,
            1319.7
          ],
          [
            139.08161978372152,
            36.78485260305226,
            1322.2
          ],
          [
            139.0817646954232,
            36.784990063028374,
            1324.1
          ],
          [
            139.08190960712489,
            36.78512752300449,
            1325.8
          ],
          [
            139.08205451882657,
            36.78526498298061,
            1328.2
          ],
          [
            139.08219943052825,
            36.78540244295672,
            1332.2
          ],
          [
            139.08234434222993,
            36.78553990293284,
            1336.2
          ],
          [
            139.0824892539316,
            36.785677362908956,
            1338.6
          ],
          [
            139.0826341656333,
            36.78581482288507,
            1341.5
          ],
          [
            139.08277907733498,
            36.78595228286119,
            1343.8
          ],
          [
            139.0829239890367,
            36.786089742837305,
            1346.3
          ],
          [
            139.08306890073837,
            36.78622720281342,
            1349.0
          ],
          [
            139.08321381244005,
            36.78636466278954,
            1350.8
          ],
          [
            139.08335872414173,
            36.786502122765654,
            1353.1
          ],
          [
            139.0835036358434,
            36.78663958274177,
            1355.8
          ],
          [
            139.0836485475451,
            36.78677704271789,
            1357.9
          ],
          [
            139.08379345924678,
            36.786914502694,
            1360.0
          ],
          [
            139.08393837094846,
            36.78705196267012,
            1362.7
          ],
          [
            139.08408328265014,
            36.787189422646236,
            1366.7
          ],
          [
            139.08422819435182,
            36.78732688262235,
            1370.9
          ],
          [
            139.0843731060535,
            36.78746434259847,
            1374.9
          ],
          [
            139.08451801775522,
            36.787601802574585,
            1379.3
          ],
          [
            139.0846629294569,
            36.78773926255071,
            1382.0
          ],
          [
            139.08480784115858,
            36.787876722526825,
            1385.2
          ],
          [
            139.08495275286026,
            36.78801418250294,
            1388.9
          ],
          [
            139.08509766456194,
            36.78815164247906,
            1393.9
          ],
          [
            139.08524257626362,
            36.788289102455174,
            1397.4
          ],
          [
            139.0853874879653,
            36.78842656243129,
            1401.2
          ],
          [
            139.085532399667,
            36.78856402240741,
            1409.8
          ],
          [
            139.08567731136867,
            36.78870148238352,
            1419.8
          ],
          [
            139.08582222307035,
            36.78883894235964,
            1419.6
          ],
          [
            139.08596713477203,
            36.788976402335756,
            1420.1
          ],
          [
            139.08611204647374,
            36.78911386231187,
            1423.8
          ],
          [
            139.08625695817543,
            36.78925132228799,
            1428.1
          ],
          [
            139.0864018698771,
            36.789388782264105,
            1433.8
          ],
          [
            139.0865467815788,
            36.78952624224022,
            1436.6
          ],
          [
            139.08669169328047,
            36.78966370221634,
            1439.2
          ],
          [
            139.08683660498215,
            36.789801162192454,
            1442.1
          ],
          [
            139.08698151668384,
            36.78993862216857,
            1445.3
          ],
          [
            139.08712642838552,
            36.79007608214469,
            1448.9
          ],
          [
            139.0872713400872,
            36.7902135421208,
            1454.0
          ],
          [
            139.08741625178888,
            36.79035100209692,
            1459.3
          ],
          [
            139.08756116349056,
            36.790488462073036,
            1463.2
          ],
          [
            139.08770607519224,
            36.79062592204915,
            1467.1
          ],
          [
            139.08785098689395,
            36.79076338202527,
            1469.5
          ],
          [
            139.08799589859564,
            36.790900842001385,
            1468.8
          ],
          [
            139.08814081029732,
            36.7910383019775,
            1472.1
          ],
          [
            139.088285721999,
            36.79117576195362,
            1473.4
          ],
          [
            139.08843063370068,
            36.791313221929734,
            1473.4
          ],
          [
            139.08857554540236,
            36.79145068190585,
            1481.5
          ],
          [
            139.08872045710405,
            36.79158814188197,
            1491.4
          ],
          [
            139.08886536880573,
            36.79172560185808,
            1499.4
          ],
          [
            139.0890102805074,
            36.7918630618342,
            1506.8
          ],
          [
            139.0891551922091,
            36.792000521810316,
            1516.7
          ],
          [
            139.08930010391077,
            36.79213798178643,
            1524.5
          ],
          [
            139.08944501561248,
            36.79227544176255,
            1531.2
          ],
          [
            139.08958992731417,
            36.792412901738665,
            1541.8
          ],
          [
            139.08973483901585,
            36.79255036171478,
            1550.0
          ],
          [
            139.0898600529899,
            36.79266913687017,
            1555.4
          ]
        ]
      }
    },
    {
      "type": "Feature",
      "properties": {
        "name": "第3",
        "horizontal_dist_map": 603,
        "slope_dist_map": 614,
        "elevation_diff_map": 104.4
      },
      "geometry": {
        "type": "LineString",
        "coordinates": [
          [
            139.0803688,
            36.7829433,
            1304.9
          ],
          [
            139.08057475932776,
            36.78301425491327,
            1305.7
          ],
          [
            139.08078071865552,
            36.78308520982653,
            1307.3
          ],
          [
            139.08098667798328,
            36.7831561647398,
            1309.8
          ],
          [
            139.08119263731103,
            36.78322711965306,
            1313.0
          ],
          [
            139.08139860109728,
            36.78329806749964,
            1314.6
          ],
          [
            139.08160456570857,
            36.78336901403846,
            1316.2
          ],
          [
            139.08181053031987,
            36.78343996057728,
            1318.8
          ],
          [
            139.0820164949312,
            36.78351090711611,
            1321.5
          ],
          [
            139.08222245747842,
            36.78358185782776,
            1324.0
          ],
          [
            139.0824284148293,
            36.78365281907901,
            1326.7
          ],
          [
            139.0826343709492,
            36.783723783067934,
            1329.1
          ],
          [
            139.08284033265397,
            36.78379473718747,
            1331.9
          ],
          [
            139.08304629867033,
            36.78386568368769,
            1334.2
          ],
          [
            139.0832522646867,
            36.7839366301879,
            1337.6
          ],
          [
            139.08345823070306,
            36.78400757668812,
            1341.4
          ],
          [
            139.08366419671944,
            36.784078523188334,
            1345.5
          ],
          [
            139.08387015682308,
            36.78414948226499,
            1348.9
          ],
          [
            139.08407611663125,
            36.78422044197016,
            1351.7
          ],
          [
            139.0842820764394,
            36.78429140167533,
            1355.5
          ],
          [
            139.08448803624754,
            36.7843623613805,
            1358.3
          ],
          [
            139.08469400059363,
            36.784433314267446,
            1361.6
          ],
          [
            139.08489996557702,
            36.7845042661968,
            1366.0
          ],
          [
            139.08510593056045,
            36.78457521812616,
            1368.5
          ],
          [
            139.08531189554384,
            36.78464617005551,
            1374.2
          ],
          [
            139.08551786052726,
            36.78471712198487,
            1380.2
          ],
          [
            139.08572382551066,
            36.78478807391423,
            1385.1
          ],
          [
            139.08592979064008,
            36.7848590256179,
            1390.5
          ],
          [
            139.08613576100277,
            36.7849299692326,
            1394.0
          ],
          [
            139.08634173136545,
            36.7850009128473,
            1401.6
          ],
          [
            139.08654770172814,
            36.785071856462,
            1408.7
          ],
          [
            139.0865847,
            36.7850846,
            1409.3
          ]
        ]
      }
    },
    {
      "type": "Feature",
      "properties": {
        "name": "第4",
        "horizontal_dist_map": 727,
        "slope_dist_map": 757,
        "elevation_diff_map": 194.7
      },
      "geometry": {
        "type": "LineString",
        "coordinates": [
          [
            139.0825611,
            36.7882818,
            1357.1
          ],
          [
            139.08270936601707,
            36.788416926407585,
            1359.9
          ],
          [
            139.08285763181857,
            36.788552053049834,
            1365.0
          ],
          [
            139.0830058967785,
            36.78868718060825,
            1368.9
          ],
          [
            139.0831541617384,
            36.788822308166665,
            1372.5
          ],
          [
            139.08330246109787,
            36.78895741155108,
            1375.1
          ],
          [
            139.08345078406344,
            36.789092498346484,
            1377.3
          ],
          [
            139.0835990641516,
            36.78922761577296,
            1379.7
          ],
          [
            139.08374730742867,
            36.789362759496825,
            1384.3
          ],
          [
            139.0838955864508,
            36.78949787821998,
            1387.5
          ],
          [
            139.0840438803627,
            36.78963298652902,
            1392.5
          ],
          [
            139.0841921742746,
            36.78976809483806,
            1396.6
          ],
          [
            139.08434046818647,
            36.7899032031471,
            1401.7
          ],
          [
            139.08448874570024,
            36.79003832355189,
            1406.7
          ],
          [
            139.08463701743727,
            36.79017344821777,
            1411.5
          ],
          [
            139.08478528917428,
            36.79030857288366,
            1416.2
          ],
          [
            139.08493356528328,
            36.79044369504289,
            1419.6
          ],
          [
            139.0850818416321,
            36.79057881706461,
            1424.1
          ],
          [
            139.08523011798093,
            36.79071393908633,
            1429.1
          ],
          [
            139.08537839432972,
            36.790849061108055,
            1433.7
          ],
          [
            139.08552667437007,
            36.790984181004255,
            1438.2
          ],
          [
            139.08567495526248,
            36.79111930040986,
            1443.6
          ],
          [
            139.08582323373523,
            36.791254421640076,
            1448.2
          ],
          [
            139.08597150472625,
            36.79138954851211,
            1453.8
          ],
          [
            139.08611977571726,
            36.79152467538414,
            1459.4
          ],
          [
            139.08626806029403,
            36.7916597929908,
            1466.6
          ],
          [
            139.08641634451646,
            36.79179491087227,
            1477.7
          ],
          [
            139.08656461968852,
            36.79193003558061,
            1485.5
          ],
          [
            139.08671289486054,
            36.79206516028895,
            1496.6
          ],
          [
            139.08686117221333,
            36.79220028362413,
            1502.0
          ],
          [
            139.08700945377947,
            36.79233540430628,
            1506.6
          ],
          [
            139.0871577353456,
            36.792470524988424,
            1511.2
          ],
          [
            139.08730602063915,
            36.79260564331015,
            1518.1
          ],
          [
            139.08745431133832,
            36.79274075820865,
            1520.7
          ],
          [
            139.0876026020375,
            36.79287587310716,
            1525.8
          ],
          [
            139.08775089273666,
            36.79301098800567,
            1538.3
          ],
          [
            139.08789918343584,
            36.793146102904174,
            1550.6
          ],
          [
            139.0879523,
            36.7931945,
            1551.8
          ]
        ]
      }
    },
    {
      "type": "Feature",
      "properties": {
        "name": "第5",
        "horizontal_dist_map": 602,
        "slope_dist_map": 608,
        "elevation_diff_map": 81.5
      },
      "geometry": {
        "type": "LineString",
        "coordinates": [
          [
            139.080005,
            36.7841199,
            1302.4
          ],
          [
            139.0801486727374,
            36.784258193954905,
            1303.1
          ],
          [
            139.08029230727715,
            36.78439651374411,
            1307.8
          ],
          [
            139.08043593766044,
            36.784534836381496,
            1313.4
          ],
          [
            139.08057954101153,
            36.784673177542565,
            1317.1
          ],
          [
            139.08072314436262,
            36.784811518703634,
            1320.9
          ],
          [
            139.08086676800494,
            36.784949846421895,
            1324.0
          ],
          [
            139.0810104250706,
            36.785088151997456,
            1326.4
          ],
          [
            139.0811540821362,
            36.78522645757302,
            1328.8
          ],
          [
            139.08129773217314,
            36.78536476801822,
            1331.2
          ],
          [
            139.0814413619041,
            36.785503092531904,
            1332.7
          ],
          [
            139.08158499163508,
            36.78564141704559,
            1334.0
          ],
          [
            139.08172862136604,
            36.78577974155927,
            1335.9
          ],
          [
            139.0818722420188,
            36.78591807249926,
            1337.2
          ],
          [
            139.08201585793006,
            36.78605640679563,
            1338.3
          ],
          [
            139.08215948572575,
            36.786194733309195,
            1340.3
          ],
          [
            139.08230313251593,
            36.786333047383785,
            1341.5
          ],
          [
            139.0824467793061,
            36.786471361458375,
            1343.6
          ],
          [
            139.0825904260963,
            36.786609675532965,
            1346.8
          ],
          [
            139.08273406092977,
            36.78674799794677,
            1350.1
          ],
          [
            139.0828776848111,
            36.786886327999156,
            1352.7
          ],
          [
            139.08302130869245,
            36.78702465805154,
            1355.7
          ],
          [
            139.0831649398627,
            36.78716298344959,
            1357.5
          ],
          [
            139.0833085789088,
            36.78730130381852,
            1359.8
          ],
          [
            139.08345221795489,
            36.78743962418745,
            1364.6
          ],
          [
            139.08359585503698,
            36.787577946132046,
            1368.5
          ],
          [
            139.08373949083136,
            36.78771626910972,
            1372.8
          ],
          [
            139.08388312568175,
            36.78785459292895,
            1374.8
          ],
          [
            139.0840267595725,
            36.7879929176037,
            1376.5
          ],
          [
            139.08417039346327,
            36.78813124227845,
            1379.9
          ],
          [
            139.08431405932646,
            36.78826954568124,
            1383.9
          ],
          [
            139.0843297,
            36.7882846,
            1383.9
          ]
        ]
      }
    },
    {
      "type": "Feature",
      "properties": {
        "name": "第1・A",
        "horizontal_dist_map": 669,
        "slope_dist_map": 673,
        "elevation_diff_map": 60.6
      },
      "geometry": {
        "type": "LineString",
        "coordinates": [
          [
            139.0733199,
            36.7792222,
            1243.3
          ],
          [
            139.07350172189447,
            36.779327502255484,
            1246.0
          ],
          [
            139.07368353448376,
            36.779432815327446,
            1248.5
          ],
          [
            139.0738653402102,
            36.7795381363769,
            1250.0
          ],
          [
            139.07404714593662,
            36.77964345742635,
            1250.0
          ],
          [
            139.07422895166306,
            36.779748778475806,
            1253.0
          ],
          [
            139.07441076085746,
            36.77985409637372,
            1255.5
          ],
          [
            139.07459257157367,
            36.779959412888665,
            1257.3
          ],
          [
            139.0747743822899,
            36.780064729403605,
            1260.0
          ],
          [
            139.07495619256946,
            36.78017004645942,
            1261.9
          ],
          [
            139.07513799359558,
            36.78027537497657,
            1263.7
          ],
          [
            139.0753197946217,
            36.78038070349373,
            1265.8
          ],
          [
            139.0755015956478,
            36.780486032010884,
            1269.7
          ],
          [
            139.07568339667392,
            36.78059136052804,
            1274.1
          ],
          [
            139.07586519839117,
            36.780696688449595,
            1275.7
          ],
          [
            139.07604700397,
            36.78080201304321,
            1278.2
          ],
          [
            139.07622880954884,
            36.78090733763681,
            1279.5
          ],
          [
            139.07641061512766,
            36.78101266223042,
            1279.9
          ],
          [
            139.07659242664317,
            36.78111798087256,
            1279.7
          ],
          [
            139.07677424165496,
            36.78122329600974,
            1280.2
          ],
          [
            139.07695605666672,
            36.781328611146925,
            1281.8
          ],
          [
            139.07713787167847,
            36.78143392628411,
            1284.5
          ],
          [
            139.077319685812,
            36.781539242958594,
            1287.6
          ],
          [
            139.0775014981304,
            36.781644562810236,
            1289.2
          ],
          [
            139.0776833104488,
            36.78174988266188,
            1291.0
          ],
          [
            139.07786512276724,
            36.78185520251351,
            1291.2
          ],
          [
            139.07804693508564,
            36.781960522365154,
            1294.1
          ],
          [
            139.07822874740407,
            36.782065842216795,
            1296.0
          ],
          [
            139.07841055972247,
            36.78217116206844,
            1298.9
          ],
          [
            139.07859237204087,
            36.78227648192008,
            1300.1
          ],
          [
            139.07877418409205,
            36.782381802505995,
            1301.7
          ],
          [
            139.0789559954125,
            36.78248712509981,
            1302.6
          ],
          [
            139.07913780673297,
            36.78259244769364,
            1303.2
          ],
          [
            139.0793196180534,
            36.782697770287456,
            1303.9
          ],
          [
            139.0794046,
            36.782747,
            1303.9
          ]
        ]
      }
    }
  ]
}