{
  "type": "FeatureCollection",
  "features": [
    {
      "type": "Feature",
      "properties": {
        "name": "ぎんれいクワッド",
        "horizontal_dist_map": 1511,
        "slope_dist_map": 1566,
        "elevation_diff_map": 373.4
      },
      "geometry": {
        "type": "LineString",
        "coordinates": [
          [
            140.7597565497,
            39.76140607956653,
            581.9
          ],
          [
            140.75998981956076,
            39.76140011550593,
            582.4
          ],
          [
            140.76022308942152,
            39.76139415144534,
            588.2
          ],
          [
            140.76045635928227,
            39.76138818738474,
            594.8
          ],
          [
            140.76068962914303,
            39.76138222332415,
            597.9
          ],
          [
            140.7609228990038,
            39.76137625926355,
            601.1
          ],
          [
            140.76115616886455,
            39.76137029520295,
            602.8
          ],
          [
            140.76138943872527,
            39.76136433114236,
            605.9
          ],
          [
            140.76162270858603,
            39.76135836708176,
            608.9
          ],
          [
            140.7618559784468,
            39.76135240302117,
            611.2
          ],
          [
            140.76208924830755,
            39.76134643896057,
            614.5
          ],
          [
            140.7623225181683,
            39.76134047489998,
            618.0
          ],
          [
            140.76255578802906,
            39.76133451083938,
            621.7
          ],
          [
            140.76278905788982,
            39.761328546778785,
            624.9
          ],
          [
            140.76302232775058,
            39.76132258271819,
            629.3
          ],
          [
            140.76325559761133,
            39.761316618657595,
            633.7
          ],
          [
            140.7634888674721,
            39.761310654597004,
            638.7
          ],
          [
            140.76372213733285,
            39.761304690536406,
            642.3
          ],
          [
            140.7639554071936,
            39.76129872647581,
            646.2
          ],
          [
            140.76418867705436,
            39.761292762415216,
            652.5
          ],
          [
            140.7644219469151,
            39.76128679835462,
            658.0
          ],
          [
            140.76465521677585,
            39.76128083429403,
            663.5
          ],
          [
            140.7648884866366,
            39.76127487023343,
            667.3
          ],
          [
            140.76512175649736,
            39.76126890617284,
            672.5
          ],
          [
            140.76535502635812,
            39.76126294211224,
            675.7
          ],
          [
            140.76558829621888,
            39.76125697805164,
            677.8
          ],
          [
            140.76582156607964,
            39.76125101399105,
            679.8
          ],
          [
            140.7660548359404,
            39.76124504993045,
            681.7
          ],
          [
            140.76628810580115,
            39.76123908586986,
            686.7
          ],
          [
            140.7665213756619,
            39.76123312180926,
            690.9
          ],
          [
            140.76675464552267,
            39.761227157748664,
            694.8
          ],
          [
            140.76698791538342,
            39.76122119368807,
            697.8
          ],
          [
            140.76722118524418,
            39.761215229627474,
            700.5
          ],
          [
            140.7674544551049,
            39.76120926556688,
            703.3
          ],
          [
            140.76768772496567,
            39.761203301506285,
            708.0
          ],
          [
            140.76792099482643,
            39.76119733744569,
            711.6
          ],
          [
            140.76815426468718,
            39.761191373385095,
            713.1
          ],
          [
            140.76838753454794,
            39.7611854093245,
            714.3
          ],
          [
            140.7686208044087,
            39.761179445263906,
            715.2
          ],
          [
            140.76885407426946,
            39.76117348120331,
            716.9
          ],
          [
            140.7690873441302,
            39.76116751714272,
            720.3
          ],
          [
            140.76932061399097,
            39.76116155308212,
            724.4
          ],
          [
            140.76955388385173,
            39.76115558902152,
            730.3
          ],
          [
            140.76978715371249,
            39.76114962496093,
            736.4
          ],
          [
            140.77002042357324,
            39.76114366090033,
            745.8
          ],
          [
            140.770253693434,
            39.76113769683974,
            755.2
          ],
          [
            140.77048696329473,
            39.76113173277914,
            765.9
          ],
          [
            140.7707202331555,
            39.76112576871854,
            774.8
          ],
          [
            140.77095350301624,
            39.76111980465795,
            783.7
          ],
          [
            140.771186772877,
            39.76111384059735,
            794.5
          ],
          [
            140.77142004273776,
            39.76110787653676,
            802.3
          ],
          [
            140.77165331259852,
            39.761101912476164,
            811.3
          ],
          [
            140.77188658245927,
            39.76109594841557,
            818.9
          ],
          [
            140.77211985232003,
            39.761089984354975,
            828.1
          ],
          [
            140.7723531221808,
            39.761084020294376,
            835.5
          ],
          [
            140.77258639204155,
            39.761078056233785,
            843.8
          ],
          [
            140.7728196619023,
            39.76107209217319,
            851.2
          ],
          [
            140.77305293176306,
            39.761066128112596,
            858.5
          ],
          [
            140.77328620162382,
            39.761060164052,
            866.7
          ],
          [
            140.77351947148455,
            39.7610541999914,
            872.8
          ],
          [
            140.7737527413453,
            39.76104823593081,
            878.7
          ],
          [
            140.77398601120606,
            39.76104227187021,
            882.2
          ],
          [
            140.77421928106682,
            39.76103630780962,
            887.4
          ],
          [
            140.77445255092758,
            39.76103034374902,
            890.8
          ],
          [
            140.77468582078833,
            39.76102437968842,
            893.4
          ],
          [
            140.7749190906491,
            39.76101841562783,
            897.2
          ],
          [
            140.77515236050985,
            39.76101245156723,
            903.0
          ],
          [
            140.7753856303706,
            39.76100648750664,
            909.6
          ],
          [
            140.77561890023136,
            39.76100052344604,
            915.8
          ],
          [
            140.77585217009212,
            39.76099455938545,
            922.9
          ],
          [
            140.77608543995288,
            39.760988595324854,
            928.5
          ],
          [
            140.77631870981364,
            39.760982631264255,
            934.4
          ],
          [
            140.77655197967437,
            39.760976667203664,
            942.4
          ],
          [
            140.77678524953512,
            39.760970703143066,
            946.1
          ],
          [
            140.77701851939588,
            39.760964739082475,
            950.7
          ],
          [
            140.77725178925664,
            39.76095877502188,
            953.5
          ],
          [
            140.77738553964488,
            39.760955355396995,
            955.3
          ]
        ]
      }
    },
    {
      "type": "Feature",
      "properties": {
        "name": "ぎんれい第3",
        "horizontal_dist_map": 785,
        "slope_dist_map": 837,
        "elevation_diff_map": 282.5
      },
      "geometry": {
        "type": "LineString",
        "coordinates": [
          [
            140.7743669,
            39.7606603,
            889.9
          ],
          [
            140.774597757017,
            39.76063381125715,
            890.4
          ],
          [
            140.77482861403402,
            39.76060732251431,
            898.3
          ],
          [
            140.775059471051,
            39.76058083377146,
            904.1
          ],
          [
            140.77529032806802,
            39.760554345028616,
            910.6
          ],
          [
            140.77552118508504,
            39.760527856285776,
            916.6
          ],
          [
            140.77575204210206,
            39.76050136754293,
            923.5
          ],
          [
            140.77598289911907,
            39.76047487880008,
            932.1
          ],
          [
            140.77621375613606,
            39.76044839005724,
            937.9
          ],
          [
            140.77644461315307,
            39.760421901314395,
            943.4
          ],
          [
            140.7766754701701,
            39.76039541257155,
            951.4
          ],
          [
            140.7769063271871,
            39.76036892382871,
            958.4
          ],
          [
            140.77713718420412,
            39.76034243508586,
            965.8
          ],
          [
            140.7773680412211,
            39.76031594634301,
            973.4
          ],
          [
            140.77759889823813,
            39.76028945760017,
            978.2
          ],
          [
            140.77782975525514,
            39.760262968857326,
            984.0
          ],
          [
            140.77806061227216,
            39.76023648011448,
            990.4
          ],
          [
            140.77829146928917,
            39.76020999137164,
            997.9
          ],
          [
            140.77852232630616,
            39.76018350262879,
            1005.9
          ],
          [
            140.77875318332318,
            39.76015701388595,
            1011.3
          ],
          [
            140.7789840403402,
            39.760130525143104,
            1018.3
          ],
          [
            140.7792148973572,
            39.76010403640026,
            1024.4
          ],
          [
            140.77944575437422,
            39.76007754765742,
            1030.4
          ],
          [
            140.77967661139124,
            39.76005105891457,
            1038.1
          ],
          [
            140.77990746840823,
            39.76002457017172,
            1045.3
          ],
          [
            140.78013832542524,
            39.75999808142888,
            1052.7
          ],
          [
            140.78036918244226,
            39.759971592686036,
            1062.4
          ],
          [
            140.78060003945927,
            39.75994510394319,
            1071.0
          ],
          [
            140.7808308964763,
            39.75991861520035,
            1080.6
          ],
          [
            140.78106175349328,
            39.7598921264575,
            1089.5
          ],
          [
            140.7812926105103,
            39.759865637714654,
            1097.8
          ],
          [
            140.7815234675273,
            39.759839148971814,
            1109.6
          ],
          [
            140.78175432454432,
            39.75981266022897,
            1116.3
          ],
          [
            140.78198518156134,
            39.75978617148612,
            1125.0
          ],
          [
            140.78221603857833,
            39.75975968274328,
            1132.7
          ],
          [
            140.78244689559534,
            39.75973319400043,
            1139.2
          ],
          [
            140.78267775261236,
            39.759706705257585,
            1147.9
          ],
          [
            140.78290860962937,
            39.759680216514745,
            1156.7
          ],
          [
            140.7831394666464,
            39.7596537277719,
            1164.6
          ],
          [
            140.78337032366338,
            39.75962723902905,
            1171.5
          ],
          [
            140.7834369,
            39.7596196,
            1172.4
          ]
        ]
      }
    },
    {
      "type": "Feature",
      "properties": {
        "name": "ぎんれい第1",
        "horizontal_dist_map": 791,
        "slope_dist_map": 814,
        "elevation_diff_map": 177.7
      },
      "geometry": {
        "type": "LineString",
        "coordinates": [
          [
            140.7606957,
            39.762262,
            582.7
          ],
          [
            140.76092186944646,
            39.76230650175789,
            583.8
          ],
          [
            140.7611480388929,
            39.762351003515775,
            587.9
          ],
          [
            140.76137420833936,
            39.762395505273666,
            591.2
          ],
          [
            140.7616003777858,
            39.76244000703155,
            589.6
          ],
          [
            140.7618265472323,
            39.76248450878944,
            588.5
          ],
          [
            140.76205271667874,
            39.762529010547325,
            593.4
          ],
          [
            140.7622788861252,
            39.76257351230522,
            600.4
          ],
          [
            140.76250505557164,
            39.7626180140631,
            608.8
          ],
          [
            140.7627312250181,
            39.76266251582099,
            614.9
          ],
          [
            140.76295739446454,
            39.762707017578876,
            621.6
          ],
          [
            140.76318356391099,
            39.76275151933677,
            626.1
          ],
          [
            140.76340973335743,
            39.76279602109465,
            632.2
          ],
          [
            140.76363590280388,
            39.76284052285254,
            635.7
          ],
          [
            140.76386207225036,
            39.762885024610426,
            639.8
          ],
          [
            140.7640882416968,
            39.76292952636832,
            644.8
          ],
          [
            140.76431441114326,
            39.7629740281262,
            650.0
          ],
          [
            140.7645405805897,
            39.76301852988409,
            657.0
          ],
          [
            140.76476675003616,
            39.76306303164198,
            662.9
          ],
          [
            140.7649929194826,
            39.76310753339987,
            669.4
          ],
          [
            140.76521908892906,
            39.76315203515775,
            674.4
          ],
          [
            140.7654452583755,
            39.76319653691564,
            679.0
          ],
          [
            140.76567142782196,
            39.76324103867353,
            684.0
          ],
          [
            140.76589759726843,
            39.76328554043142,
            688.1
          ],
          [
            140.76612376671488,
            39.7633300421893,
            692.6
          ],
          [
            140.76634993616133,
            39.763374543947194,
            696.6
          ],
          [
            140.76657610560778,
            39.76341904570508,
            699.2
          ],
          [
            140.76680227505423,
            39.76346354746297,
            702.4
          ],
          [
            140.76702844450068,
            39.76350804922085,
            704.7
          ],
          [
            140.76725461394713,
            39.763552550978744,
            707.1
          ],
          [
            140.76748078339358,
            39.76359705273663,
            710.5
          ],
          [
            140.76770695284003,
            39.76364155449452,
            713.9
          ],
          [
            140.7679331222865,
            39.76368605625241,
            717.6
          ],
          [
            140.76815929173296,
            39.763730558010295,
            721.8
          ],
          [
            140.7683854611794,
            39.763775059768186,
            727.8
          ],
          [
            140.76861163062586,
            39.76381956152607,
            733.9
          ],
          [
            140.7688378000723,
            39.76386406328396,
            739.7
          ],
          [
            140.76906396951875,
            39.763908565041845,
            745.4
          ],
          [
            140.7692901389652,
            39.763953066799736,
            752.2
          ],
          [
            140.76951630841165,
            39.76399756855762,
            757.8
          ],
          [
            140.769642,
            39.7640223,
            760.4
          ]
        ]
      }
    },
    {
      "type": "Feature",
      "properties": {
        "name": "かもしかクワッド",
        "horizontal_dist_map": 1055,
        "slope_dist_map": 1092,
        "elevation_diff_map": 270.3
      },
      "geometry": {
        "type": "LineString",
        "coordinates": [
          [
            140.7679982423828,
            39.7656764364723,
            713.9
          ],
          [
            140.76822065979792,
            39.765621812196585,
            714.2
          ],
          [
            140.76844307721305,
            39.76556718792087,
            719.7
          ],
          [
            140.76866549462818,
            39.76551256364516,
            726.7
          ],
          [
            140.7688879120433,
            39.76545793936945,
            731.6
          ],
          [
            140.76911032945844,
            39.765403315093735,
            737.0
          ],
          [
            140.76933274687357,
            39.765348690818016,
            741.7
          ],
          [
            140.7695551642887,
            39.7652940665423,
            746.2
          ],
          [
            140.76977758170383,
            39.76523944226659,
            750.7
          ],
          [
            140.76999999911897,
            39.76518481799088,
            755.2
          ],
          [
            140.7702224165341,
            39.765130193715166,
            760.2
          ],
          [
            140.77044483394923,
            39.76507556943945,
            767.3
          ],
          [
            140.77066725136436,
            39.76502094516374,
            773.4
          ],
          [
            140.7708896687795,
            39.76496632088803,
            779.0
          ],
          [
            140.77111208619462,
            39.764911696612316,
            784.1
          ],
          [
            140.77133450360975,
            39.7648570723366,
            788.6
          ],
          [
            140.77155692102488,
            39.764802448060884,
            793.8
          ],
          [
            140.77177933844,
            39.76474782378517,
            798.7
          ],
          [
            140.77200175585514,
            39.76469319950946,
            802.4
          ],
          [
            140.77222417327027,
            39.76463857523375,
            806.8
          ],
          [
            140.7724465906854,
            39.764583950958034,
            811.2
          ],
          [
            140.77266900810054,
            39.76452932668232,
            815.2
          ],
          [
            140.77289142551567,
            39.76447470240661,
            820.1
          ],
          [
            140.77311384293077,
            39.7644200781309,
            824.5
          ],
          [
            140.7733362603459,
            39.764365453855184,
            829.5
          ],
          [
            140.77355867776103,
            39.76431082957947,
            834.4
          ],
          [
            140.77378109517616,
            39.76425620530376,
            839.3
          ],
          [
            140.7740035125913,
            39.76420158102804,
            845.4
          ],
          [
            140.77422593000642,
            39.76414695675233,
            849.5
          ],
          [
            140.77444834742155,
            39.764092332476615,
            853.1
          ],
          [
            140.77467076483669,
            39.7640377082009,
            856.8
          ],
          [
            140.77489318225182,
            39.76398308392519,
            860.6
          ],
          [
            140.77511559966695,
            39.76392845964948,
            864.4
          ],
          [
            140.77533801708208,
            39.763873835373765,
            869.9
          ],
          [
            140.7755604344972,
            39.76381921109805,
            874.4
          ],
          [
            140.77578285191234,
            39.76376458682234,
            880.3
          ],
          [
            140.77600526932747,
            39.76370996254663,
            885.6
          ],
          [
            140.7762276867426,
            39.76365533827091,
            890.3
          ],
          [
            140.77645010415773,
            39.763600713995196,
            896.8
          ],
          [
            140.77667252157286,
            39.76354608971948,
            902.9
          ],
          [
            140.776894938988,
            39.76349146544377,
            908.5
          ],
          [
            140.77711735640312,
            39.76343684116806,
            914.1
          ],
          [
            140.77733977381826,
            39.763382216892346,
            918.7
          ],
          [
            140.7775621912334,
            39.76332759261663,
            921.6
          ],
          [
            140.77778460864852,
            39.76327296834092,
            925.2
          ],
          [
            140.77800702606365,
            39.76321834406521,
            930.4
          ],
          [
            140.77822944347878,
            39.763163719789496,
            936.7
          ],
          [
            140.7784518608939,
            39.763109095513784,
            943.1
          ],
          [
            140.77867427830904,
            39.763054471238064,
            947.4
          ],
          [
            140.77889669572417,
            39.76299984696235,
            956.2
          ],
          [
            140.7791191131393,
            39.76294522268664,
            964.6
          ],
          [
            140.77934153055443,
            39.76289059841093,
            972.4
          ],
          [
            140.77956394796956,
            39.762835974135214,
            981.0
          ],
          [
            140.7797373,
            39.7627934,
            984.2
          ]
        ]
      }
    },
    {
      "type": "Feature",
      "properties": {
        "name": "水沢",
        "horizontal_dist_map": 931,
        "slope_dist_map": 948,
        "elevation_diff_map": 161.3
      },
      "geometry": {
        "type": "LineString",
        "coordinates": [
          [
            140.7588965,
            39.76056,
            590.9
          ],
          [
            140.75912418415612,
            39.76052040424857,
            591.2
          ],
          [
            140.75935186831222,
            39.76048080849713,
            594.4
          ],
          [
            140.75957955246835,
            39.7604412127457,
            596.4
          ],
          [
            140.75980723662448,
            39.760401616994265,
            599.7
          ],
          [
            140.76003492078058,
            39.76036202124283,
            602.3
          ],
          [
            140.7602626049367,
            39.760322425491395,
            604.3
          ],
          [
            140.76049028909284,
            39.760282829739964,
            606.7
          ],
          [
            140.76071797324894,
            39.760243233988525,
            609.1
          ],
          [
            140.76094565740507,
            39.760203638237094,
            611.9
          ],
          [
            140.7611733415612,
            39.76016404248566,
            615.9
          ],
          [
            140.7614010257173,
            39.760124446734224,
            618.9
          ],
          [
            140.76162870987343,
            39.76008485098279,
            622.9
          ],
          [
            140.76185639402956,
            39.76004525523136,
            625.2
          ],
          [
            140.76208407818567,
            39.76000565947992,
            629.8
          ],
          [
            140.7623117623418,
            39.75996606372849,
            633.0
          ],
          [
            140.76253944649793,
            39.75992646797706,
            636.5
          ],
          [
            140.76276713065403,
            39.75988687222562,
            640.3
          ],
          [
            140.76299481481016,
            39.75984727647419,
            642.7
          ],
          [
            140.7632224989663,
            39.75980768072276,
            644.7
          ],
          [
            140.7634501831224,
            39.75976808497132,
            646.9
          ],
          [
            140.76367786727852,
            39.75972848921989,
            649.5
          ],
          [
            140.76390555143465,
            39.75968889346846,
            654.1
          ],
          [
            140.76413323559075,
            39.75964929771702,
            659.9
          ],
          [
            140.76436091974688,
            39.75960970196559,
            663.7
          ],
          [
            140.764588603903,
            39.759570106214156,
            666.1
          ],
          [
            140.7648162880591,
            39.75953051046272,
            672.1
          ],
          [
            140.76504397221524,
            39.759490914711286,
            679.5
          ],
          [
            140.76527165637137,
            39.759451318959854,
            686.1
          ],
          [
            140.76549934052747,
            39.759411723208416,
            692.3
          ],
          [
            140.7657270246836,
            39.759372127456984,
            699.0
          ],
          [
            140.76595470883973,
            39.75933253170555,
            702.9
          ],
          [
            140.76618239299583,
            39.759292935954115,
            705.5
          ],
          [
            140.76641007715196,
            39.75925334020268,
            705.9
          ],
          [
            140.7666377613081,
            39.75921374445125,
            707.7
          ],
          [
            140.7668654454642,
            39.75917414869981,
            710.4
          ],
          [
            140.76709312962032,
            39.75913455294838,
            714.1
          ],
          [
            140.76732081377645,
            39.75909495719695,
            717.6
          ],
          [
            140.76754849793255,
            39.75905536144551,
            721.1
          ],
          [
            140.76777618208868,
            39.75901576569408,
            724.8
          ],
          [
            140.7680038662448,
            39.75897616994265,
            729.1
          ],
          [
            140.7682315504009,
            39.75893657419121,
            732.5
          ],
          [
            140.76845923455704,
            39.75889697843978,
            736.7
          ],
          [
            140.76868691871317,
            39.75885738268835,
            740.8
          ],
          [
            140.76891460286927,
            39.75881778693691,
            744.5
          ],
          [
            140.7691422870254,
            39.75877819118548,
            748.5
          ],
          [
            140.76936997118153,
            39.75873859543404,
            752.3
          ],
          [
            140.7695045,
            39.7587152,
            752.2
          ]
        ]
      }
    },
    {
      "type": "Feature",
      "properties": {
        "name": "黒森山",
        "horizontal_dist_map": 500,
        "slope_dist_map": 536,
        "elevation_diff_map": 171.1
      },
      "geometry": {
        "type": "LineString",
        "coordinates": [
          [
            140.7606637,
            39.76287021776272,
            576.1
          ],
          [
            140.76083276635077,
            39.76299440880921,
            574.6
          ],
          [
            140.76100183270154,
            39.7631185998557,
            577.1
          ],
          [
            140.7611708990523,
            39.7632427909022,
            577.5
          ],
          [
            140.76133996540307,
            39.76336698194869,
            577.5
          ],
          [
            140.76150903175383,
            39.76349117299518,
            580.8
          ],
          [
            140.7616780981046,
            39.76361536404168,
            584.9
          ],
          [
            140.76184716445536,
            39.76373955508817,
            592.6
          ],
          [
            140.76201623080615,
            39.76386374613466,
            601.0
          ],
          [
            140.76218529715692,
            39.763987937181156,
            608.0
          ],
          [
            140.76235436350768,
            39.76411212822765,
            614.3
          ],
          [
            140.76252342985845,
            39.76423631927414,
            622.0
          ],
          [
            140.7626924962092,
            39.764360510320635,
            629.0
          ],
          [
            140.76286156255998,
            39.76448470136713,
            637.3
          ],
          [
            140.76303062891074,
            39.76460889241362,
            643.0
          ],
          [
            140.7631996952615,
            39.764733083460115,
            651.5
          ],
          [
            140.76336876161227,
            39.76485727450661,
            660.8
          ],
          [
            140.76353782796303,
            39.7649814655531,
            669.8
          ],
          [
            140.7637068943138,
            39.765105656599594,
            679.5
          ],
          [
            140.76387596066456,
            39.76522984764609,
            688.2
          ],
          [
            140.76404502701533,
            39.76535403869258,
            699.5
          ],
          [
            140.7642140933661,
            39.765478229739074,
            710.8
          ],
          [
            140.76438315971689,
            39.76560242078557,
            722.4
          ],
          [
            140.76455222606765,
            39.76572661183206,
            732.4
          ],
          [
            140.76472129241841,
            39.76585080287855,
            742.5
          ],
          [
            140.76489035876918,
            39.76597499392505,
            747.2
          ],
          [
            140.76489560282414,
            39.7659788460498,
            747.2
          ]
        ]
      }
    }
  ]
}