{
  "type": "FeatureCollection",
  "features": [
    {
      "type": "Feature",
      "properties": {
        "name": "オーロラ第3クワッド",
        "horizontal_dist_map": 848,
        "slope_dist_map": 879,
        "elevation_diff_map": 205.3,
        "midstation": null
      },
      "geometry": {
        "type": "LineString",
        "coordinates": [
          [
            136.93366569014853,
            35.94672040253819,
            1141.5
          ],
          [
            136.9338866806234,
            35.946734511597995,
            1140.6
          ],
          [
            136.93410767109827,
            35.94674862065779,
            1143.0
          ],
          [
            136.93432866157315,
            35.9467627297176,
            1147.4
          ],
          [
            136.934549652048,
            35.9467768387774,
            1151.6
          ],
          [
            136.93477064252286,
            35.9467909478372,
            1153.5
          ],
          [
            136.93499163299774,
            35.946805056897006,
            1155.5
          ],
          [
            136.9352126234726,
            35.94681916595681,
            1156.1
          ],
          [
            136.93543361394748,
            35.94683327501661,
            1159.0
          ],
          [
            136.93565460442235,
            35.94684738407641,
            1162.3
          ],
          [
            136.9358755948972,
            35.94686149313622,
            1164.0
          ],
          [
            136.93609658537207,
            35.946875602196016,
            1167.5
          ],
          [
            136.93631757584694,
            35.94688971125582,
            1173.8
          ],
          [
            136.93653856632181,
            35.946903820315626,
            1177.9
          ],
          [
            136.9367595567967,
            35.946917929375424,
            1181.5
          ],
          [
            136.93698054727156,
            35.94693203843523,
            1185.2
          ],
          [
            136.9372015377464,
            35.946946147495034,
            1190.7
          ],
          [
            136.93742252822128,
            35.94696025655483,
            1196.4
          ],
          [
            136.93764351869615,
            35.946974365614636,
            1200.2
          ],
          [
            136.93786450917102,
            35.94698847467444,
            1205.7
          ],
          [
            136.9380854996459,
            35.94700258373424,
            1212.0
          ],
          [
            136.93830649012077,
            35.947016692794044,
            1216.9
          ],
          [
            136.9385274805956,
            35.94703080185385,
            1221.8
          ],
          [
            136.93874847107048,
            35.94704491091365,
            1228.3
          ],
          [
            136.93896946154535,
            35.94705901997345,
            1234.9
          ],
          [
            136.93919045202023,
            35.94707312903326,
            1242.0
          ],
          [
            136.9394114424951,
            35.947087238093054,
            1250.3
          ],
          [
            136.93963243296997,
            35.94710134715286,
            1256.1
          ],
          [
            136.93985342344482,
            35.947115456212664,
            1258.7
          ],
          [
            136.9400744139197,
            35.94712956527246,
            1262.5
          ],
          [
            136.94029540439456,
            35.94714367433227,
            1267.6
          ],
          [
            136.94051639486943,
            35.94715778339207,
            1269.8
          ],
          [
            136.9407373853443,
            35.94717189245187,
            1277.5
          ],
          [
            136.94095837581918,
            35.947186001511675,
            1286.9
          ],
          [
            136.94117936629402,
            35.94720011057148,
            1296.0
          ],
          [
            136.9414003567689,
            35.94721421963128,
            1301.9
          ],
          [
            136.94162134724377,
            35.94722832869108,
            1304.8
          ],
          [
            136.94184233771864,
            35.94724243775089,
            1307.5
          ],
          [
            136.9420633281935,
            35.947256546810685,
            1311.4
          ],
          [
            136.94228431866838,
            35.94727065587049,
            1319.6
          ],
          [
            136.94250530914323,
            35.947284764930295,
            1331.2
          ],
          [
            136.9427262996181,
            35.94729887399009,
            1341.5
          ],
          [
            136.94294729009297,
            35.9473129830499,
            1346.4
          ],
          [
            136.9430431,
            35.9473191,
            1346.8
          ]
        ]
      }
    },
    {
      "type": "Feature",
      "properties": {
        "name": "レインボー第2ペア",
        "horizontal_dist_map": 804,
        "slope_dist_map": 820,
        "elevation_diff_map": 156.0,
        "midstation": null
      },
      "geometry": {
        "type": "LineString",
        "coordinates": [
          [
            136.92032245321326,
            35.9425824549383,
            911.7
          ],
          [
            136.92053808652506,
            35.94254072308946,
            913.3
          ],
          [
            136.92075371983682,
            35.94249899124062,
            918.9
          ],
          [
            136.92096935314862,
            35.94245725939178,
            922.4
          ],
          [
            136.9211849864604,
            35.942415527542934,
            926.2
          ],
          [
            136.9214006197722,
            35.942373795694095,
            929.4
          ],
          [
            136.92161625308395,
            35.94233206384526,
            932.1
          ],
          [
            136.92183188639575,
            35.94229033199642,
            935.1
          ],
          [
            136.92204751970752,
            35.94224860014758,
            938.0
          ],
          [
            136.92226315301932,
            35.94220686829874,
            941.0
          ],
          [
            136.92247878633108,
            35.9421651364499,
            945.2
          ],
          [
            136.92269441964288,
            35.942123404601055,
            948.5
          ],
          [
            136.92291005295465,
            35.94208167275222,
            952.9
          ],
          [
            136.92312568626645,
            35.94203994090338,
            956.3
          ],
          [
            136.92334131957824,
            35.94199820905454,
            959.0
          ],
          [
            136.92355695289,
            35.9419564772057,
            962.7
          ],
          [
            136.9237725862018,
            35.94191474535686,
            965.6
          ],
          [
            136.92398821951357,
            35.94187301350802,
            969.8
          ],
          [
            136.92420385282537,
            35.941831281659184,
            975.6
          ],
          [
            136.92441948613714,
            35.94178954981034,
            980.5
          ],
          [
            136.92463511944894,
            35.9417478179615,
            987.4
          ],
          [
            136.9248507527607,
            35.94170608611266,
            994.4
          ],
          [
            136.9250663860725,
            35.94166435426382,
            1001.2
          ],
          [
            136.92528201938427,
            35.94162262241498,
            1004.7
          ],
          [
            136.92549765269607,
            35.941580890566144,
            1007.9
          ],
          [
            136.92571328600786,
            35.941539158717305,
            1011.2
          ],
          [
            136.92592891931963,
            35.94149742686846,
            1014.7
          ],
          [
            136.92614455263143,
            35.94145569501962,
            1018.7
          ],
          [
            136.9263601859432,
            35.94141396317078,
            1023.3
          ],
          [
            136.926575819255,
            35.94137223132194,
            1027.3
          ],
          [
            136.92679145256676,
            35.9413304994731,
            1031.1
          ],
          [
            136.92700708587856,
            35.941288767624265,
            1034.4
          ],
          [
            136.92722271919033,
            35.941247035775426,
            1037.2
          ],
          [
            136.92743835250212,
            35.94120530392658,
            1040.3
          ],
          [
            136.9276539858139,
            35.94116357207774,
            1043.4
          ],
          [
            136.9278696191257,
            35.9411218402289,
            1046.1
          ],
          [
            136.92808525243746,
            35.94108010838006,
            1048.6
          ],
          [
            136.92830088574925,
            35.941038376531225,
            1052.4
          ],
          [
            136.92851651906105,
            35.940996644682386,
            1056.7
          ],
          [
            136.92873215237282,
            35.94095491283355,
            1061.5
          ],
          [
            136.9289477856846,
            35.94091318098471,
            1066.9
          ],
          [
            136.92899593974403,
            35.940903861654995,
            1067.7
          ]
        ]
      }
    },
    {
      "type": "Feature",
      "properties": {
        "name": "レインボー第1クワッド",
        "horizontal_dist_map": 971,
        "slope_dist_map": 997,
        "elevation_diff_map": 216.1,
        "midstation": null
      },
      "geometry": {
        "type": "LineString",
        "coordinates": [
          [
            136.92044891537904,
            35.943591337011384,
            909.1
          ],
          [
            136.92066781622952,
            35.9435629900368,
            908.1
          ],
          [
            136.92088671708,
            35.94353464306222,
            911.0
          ],
          [
            136.92110561793046,
            35.94350629608764,
            919.0
          ],
          [
            136.92132451878095,
            35.94347794911306,
            924.0
          ],
          [
            136.92154341963143,
            35.94344960213848,
            927.6
          ],
          [
            136.92176232048192,
            35.9434212551639,
            931.0
          ],
          [
            136.9219812213324,
            35.94339290818932,
            934.8
          ],
          [
            136.92220012218286,
            35.943364561214736,
            938.0
          ],
          [
            136.92241902303334,
            35.943336214240155,
            941.4
          ],
          [
            136.92263792388383,
            35.943307867265574,
            944.5
          ],
          [
            136.9228568247343,
            35.94327952029099,
            947.4
          ],
          [
            136.9230757255848,
            35.94325117331641,
            950.9
          ],
          [
            136.92329462643525,
            35.94322282634183,
            956.5
          ],
          [
            136.92351352728573,
            35.94319447936725,
            961.1
          ],
          [
            136.92373242813622,
            35.94316613239266,
            964.7
          ],
          [
            136.9239513289867,
            35.94313778541808,
            968.0
          ],
          [
            136.9241702298372,
            35.9431094384435,
            971.1
          ],
          [
            136.92438913068764,
            35.94308109146892,
            974.5
          ],
          [
            136.92460803153813,
            35.94305274449434,
            977.4
          ],
          [
            136.9248269323886,
            35.94302439751976,
            981.1
          ],
          [
            136.9250458332391,
            35.942996050545176,
            983.9
          ],
          [
            136.92526473408958,
            35.942967703570595,
            987.3
          ],
          [
            136.92548363494004,
            35.942939356596014,
            989.9
          ],
          [
            136.92570253579052,
            35.94291100962143,
            993.6
          ],
          [
            136.925921436641,
            35.94288266264685,
            997.9
          ],
          [
            136.9261403374915,
            35.94285431567227,
            1003.2
          ],
          [
            136.92635923834197,
            35.94282596869769,
            1009.2
          ],
          [
            136.92657813919243,
            35.94279762172311,
            1014.9
          ],
          [
            136.9267970400429,
            35.94276927474853,
            1022.0
          ],
          [
            136.9270159408934,
            35.94274092777395,
            1028.8
          ],
          [
            136.92723484174388,
            35.942712580799366,
            1035.3
          ],
          [
            136.92745374259437,
            35.942684233824785,
            1040.5
          ],
          [
            136.92767264344482,
            35.942655886850204,
            1047.4
          ],
          [
            136.9278915442953,
            35.94262753987562,
            1052.5
          ],
          [
            136.9281104451458,
            35.94259919290104,
            1057.5
          ],
          [
            136.92832934599627,
            35.94257084592646,
            1061.9
          ],
          [
            136.92854824684676,
            35.94254249895188,
            1065.7
          ],
          [
            136.92876714769722,
            35.9425141519773,
            1069.6
          ],
          [
            136.9289860485477,
            35.94248580500272,
            1073.9
          ],
          [
            136.92920494939818,
            35.94245745802814,
            1078.8
          ],
          [
            136.92942385024867,
            35.942429111053556,
            1083.8
          ],
          [
            136.92964275109915,
            35.942400764078975,
            1089.4
          ],
          [
            136.92986165194964,
            35.94237241710439,
            1097.2
          ],
          [
            136.9300805528001,
            35.942344070129806,
            1104.1
          ],
          [
            136.93029945365058,
            35.942315723155225,
            1109.3
          ],
          [
            136.93051835450106,
            35.942287376180644,
            1114.5
          ],
          [
            136.93073725535154,
            35.94225902920606,
            1118.9
          ],
          [
            136.93095615620203,
            35.94223068223148,
            1122.6
          ],
          [
            136.9310780551921,
            35.94221489669403,
            1125.2
          ]
        ]
      }
    },
    {
      "type": "Feature",
      "properties": {
        "name": "レインボー第2クワッド",
        "horizontal_dist_map": 1359,
        "slope_dist_map": 1418,
        "elevation_diff_map": 312.9,
        "midstation": null
      },
      "geometry": {
        "type": "LineString",
        "coordinates": [
          [
            136.9195983,
            35.9444017,
            900.9
          ],
          [
            136.91981969696977,
            35.944410547172794,
            900.7
          ],
          [
            136.92004109393955,
            35.944419394345594,
            899.9
          ],
          [
            136.9202624909093,
            35.94442824151839,
            903.3
          ],
          [
            136.92048388787907,
            35.94443708869119,
            912.1
          ],
          [
            136.92070528484885,
            35.94444593586398,
            915.0
          ],
          [
            136.92092668181863,
            35.944454783036775,
            918.4
          ],
          [
            136.92114807878838,
            35.944463630209576,
            921.3
          ],
          [
            136.92136947575815,
            35.94447247738237,
            927.5
          ],
          [
            136.92159087272793,
            35.94448132455517,
            929.8
          ],
          [
            136.9218122696977,
            35.94449017172796,
            934.2
          ],
          [
            136.92203366666746,
            35.94449901890076,
            938.0
          ],
          [
            136.92225506363724,
            35.94450786607356,
            942.2
          ],
          [
            136.92247646060702,
            35.94451671324635,
            945.1
          ],
          [
            136.9226978575768,
            35.94452556041915,
            949.1
          ],
          [
            136.92291925454654,
            35.944534407591945,
            951.6
          ],
          [
            136.92314065151632,
            35.944543254764746,
            954.3
          ],
          [
            136.9233620484861,
            35.94455210193754,
            956.8
          ],
          [
            136.92358344545588,
            35.94456094911033,
            959.3
          ],
          [
            136.92380484242562,
            35.94456979628313,
            962.1
          ],
          [
            136.9240262393954,
            35.94457864345593,
            968.6
          ],
          [
            136.92424763636518,
            35.94458749062873,
            973.8
          ],
          [
            136.92446903333496,
            35.94459633780152,
            978.1
          ],
          [
            136.92469043030474,
            35.944605184974314,
            983.3
          ],
          [
            136.92491182727449,
            35.944614032147115,
            990.7
          ],
          [
            136.92513322424426,
            35.94462287931991,
            999.0
          ],
          [
            136.92535462121404,
            35.94463172649271,
            1010.9
          ],
          [
            136.92557601818382,
            35.9446405736655,
            1023.8
          ],
          [
            136.92579741515357,
            35.944649420838296,
            1031.4
          ],
          [
            136.92601881212335,
            35.944658268011096,
            1039.0
          ],
          [
            136.92624020909312,
            35.94466711518389,
            1040.0
          ],
          [
            136.9264616060629,
            35.94467596235669,
            1036.7
          ],
          [
            136.92668300303265,
            35.944684809529484,
            1035.8
          ],
          [
            136.92690440000243,
            35.94469365670228,
            1043.8
          ],
          [
            136.9271257969722,
            35.94470250387508,
            1050.4
          ],
          [
            136.92734719394198,
            35.94471135104787,
            1051.9
          ],
          [
            136.92756859091173,
            35.94472019822067,
            1059.5
          ],
          [
            136.9277899878815,
            35.944729045393466,
            1068.7
          ],
          [
            136.9280113848513,
            35.94473789256626,
            1069.7
          ],
          [
            136.92823278182107,
            35.94474673973906,
            1069.2
          ],
          [
            136.92845417879082,
            35.94475558691185,
            1064.8
          ],
          [
            136.9286755757606,
            35.944764434084654,
            1066.4
          ],
          [
            136.92889697273037,
            35.94477328125745,
            1072.0
          ],
          [
            136.92911836970015,
            35.94478212843025,
            1082.7
          ],
          [
            136.92933976666993,
            35.94479097560304,
            1092.7
          ],
          [
            136.92956116363968,
            35.944799822775835,
            1101.9
          ],
          [
            136.92978256060945,
            35.944808669948635,
            1107.1
          ],
          [
            136.93000395757923,
            35.94481751712143,
            1111.7
          ],
          [
            136.930225354549,
            35.94482636429423,
            1113.1
          ],
          [
            136.93044675151876,
            35.94483521146702,
            1115.8
          ],
          [
            136.93066814848854,
            35.944844058639816,
            1118.1
          ],
          [
            136.9308895454583,
            35.94485290581262,
            1117.7
          ],
          [
            136.9311109424281,
            35.94486175298541,
            1114.0
          ],
          [
            136.93133233939784,
            35.94487060015821,
            1117.0
          ],
          [
            136.93155373636762,
            35.944879447331004,
            1123.9
          ],
          [
            136.9317751333374,
            35.9448882945038,
            1136.0
          ],
          [
            136.93199653030717,
            35.9448971416766,
            1138.6
          ],
          [
            136.93221792727692,
            35.94490598884939,
            1143.5
          ],
          [
            136.9324393242467,
            35.94491483602219,
            1146.0
          ],
          [
            136.93266072121648,
            35.944923683194986,
            1148.3
          ],
          [
            136.93288211818626,
            35.94493253036778,
            1152.7
          ],
          [
            136.933103515156,
            35.94494137754058,
            1159.9
          ],
          [
            136.93332491212578,
            35.944950224713374,
            1166.1
          ],
          [
            136.93354630909556,
            35.944959071886174,
            1172.6
          ],
          [
            136.93376770606534,
            35.94496791905897,
            1182.6
          ],
          [
            136.93398910303512,
            35.94497676623176,
            1196.3
          ],
          [
            136.93421050000487,
            35.94498561340456,
            1208.2
          ],
          [
            136.93443189697464,
            35.944994460577355,
            1210.9
          ],
          [
            136.9346531,
            35.9450033,
            1213.8
          ]
        ]
      }
    }
  ]
}