{
  "type": "FeatureCollection",
  "features": [
    {
      "type": "Feature",
      "properties": {
        "name": "デルタペア",
        "horizontal_dist_map": 740,
        "slope_dist_map": 774,
        "elevation_diff_map": 208.6,
        "midstation": null
      },
      "geometry": {
        "type": "LineString",
        "coordinates": [
          [
            136.9404501580674,
            35.951462287878726,
            1186.4
          ],
          [
            136.9406494109924,
            35.951383287603925,
            1192.2
          ],
          [
            136.9408486639174,
            35.95130428732912,
            1202.4
          ],
          [
            136.9410479168424,
            35.951225287054314,
            1202.3
          ],
          [
            136.94124716976742,
            35.95114628677951,
            1206.5
          ],
          [
            136.94144642269242,
            35.95106728650471,
            1208.9
          ],
          [
            136.94164567561742,
            35.95098828622991,
            1210.6
          ],
          [
            136.94184492854242,
            35.950909285955106,
            1218.2
          ],
          [
            136.94204418146742,
            35.9508302856803,
            1221.8
          ],
          [
            136.94224343439242,
            35.950751285405495,
            1227.8
          ],
          [
            136.94244268731745,
            35.95067228513069,
            1230.9
          ],
          [
            136.94264194024245,
            35.95059328485589,
            1233.0
          ],
          [
            136.94284119316745,
            35.95051428458109,
            1240.1
          ],
          [
            136.94304044609245,
            35.95043528430629,
            1246.1
          ],
          [
            136.94323969901745,
            35.95035628403148,
            1248.1
          ],
          [
            136.94343895194245,
            35.95027728375668,
            1253.8
          ],
          [
            136.94363820486748,
            35.950198283481875,
            1259.4
          ],
          [
            136.94383745779248,
            35.95011928320707,
            1264.9
          ],
          [
            136.94403671071748,
            35.95004028293227,
            1271.4
          ],
          [
            136.94423596364248,
            35.94996128265746,
            1274.2
          ],
          [
            136.94443521656748,
            35.94988228238266,
            1278.1
          ],
          [
            136.94463446949248,
            35.94980328210786,
            1284.2
          ],
          [
            136.9448337224175,
            35.949724281833056,
            1294.5
          ],
          [
            136.9450329753425,
            35.949645281558254,
            1303.4
          ],
          [
            136.9452322282675,
            35.949566281283445,
            1311.6
          ],
          [
            136.94543148119251,
            35.94948728100864,
            1321.5
          ],
          [
            136.94563073411751,
            35.94940828073384,
            1328.4
          ],
          [
            136.94582998704252,
            35.94932928045904,
            1333.9
          ],
          [
            136.94602923996754,
            35.94925028018424,
            1343.5
          ],
          [
            136.94622849289254,
            35.949171279909436,
            1351.2
          ],
          [
            136.94642774581754,
            35.94909227963463,
            1357.0
          ],
          [
            136.94662699874254,
            35.949013279359825,
            1362.7
          ],
          [
            136.94682625166755,
            35.94893427908502,
            1369.1
          ],
          [
            136.94702550459255,
            35.94885527881022,
            1373.4
          ],
          [
            136.94722475751757,
            35.94877627853542,
            1378.8
          ],
          [
            136.94742401044257,
            35.94869727826061,
            1384.1
          ],
          [
            136.94762326336757,
            35.94861827798581,
            1391.2
          ],
          [
            136.94782251629258,
            35.948539277711006,
            1395.0
          ],
          [
            136.947827,
            35.9485375,
            1395.0
          ]
        ]
      }
    },
    {
      "type": "Feature",
      "properties": {
        "name": "エコーペア",
        "horizontal_dist_map": 510,
        "slope_dist_map": 536,
        "elevation_diff_map": 142.1,
        "midstation": null
      },
      "geometry": {
        "type": "LineString",
        "coordinates": [
          [
            136.9354936174035,
            35.95535708997849,
            1065.7
          ],
          [
            136.9356651566891,
            35.9552429111181,
            1067.1
          ],
          [
            136.93583669597476,
            35.955128732257705,
            1070.1
          ],
          [
            136.93600823526037,
            35.95501455339732,
            1072.6
          ],
          [
            136.93617977454602,
            35.954900374536926,
            1076.3
          ],
          [
            136.93635131383164,
            35.95478619567653,
            1078.5
          ],
          [
            136.93652285311728,
            35.95467201681614,
            1083.8
          ],
          [
            136.9366943924029,
            35.95455783795575,
            1090.4
          ],
          [
            136.93686593168854,
            35.954443659095354,
            1094.6
          ],
          [
            136.93703747097416,
            35.95432948023497,
            1099.7
          ],
          [
            136.9372090102598,
            35.954215301374575,
            1102.1
          ],
          [
            136.93738054954542,
            35.95410112251418,
            1107.2
          ],
          [
            136.93755208883107,
            35.95398694365379,
            1110.3
          ],
          [
            136.9377236281167,
            35.953872764793395,
            1116.6
          ],
          [
            136.93789516740233,
            35.953758585933,
            1124.3
          ],
          [
            136.93806670668795,
            35.953644407072616,
            1128.5
          ],
          [
            136.9382382459736,
            35.95353022821222,
            1133.8
          ],
          [
            136.9384097852592,
            35.95341604935183,
            1139.7
          ],
          [
            136.93858132454486,
            35.95330187049144,
            1142.5
          ],
          [
            136.93875286383047,
            35.953187691631044,
            1146.2
          ],
          [
            136.93892440311612,
            35.95307351277066,
            1153.3
          ],
          [
            136.93909594240174,
            35.952959333910265,
            1169.6
          ],
          [
            136.93926748168738,
            35.95284515504987,
            1181.3
          ],
          [
            136.939439020973,
            35.95273097618948,
            1191.2
          ],
          [
            136.93961056025864,
            35.952616797329085,
            1198.3
          ],
          [
            136.93978209954426,
            35.95250261846869,
            1207.9
          ],
          [
            136.93987327426805,
            35.952441931343756,
            1207.8
          ]
        ]
      }
    },
    {
      "type": "Feature",
      "properties": {
        "name": "ブラボークワッド",
        "horizontal_dist_map": 1080,
        "slope_dist_map": 1124,
        "elevation_diff_map": 273.9,
        "midstation": null
      },
      "geometry": {
        "type": "LineString",
        "coordinates": [
          [
            136.9345757,
            35.9547762,
            1067.4
          ],
          [
            136.93472926591434,
            35.95464620537367,
            1067.6
          ],
          [
            136.9348828318287,
            35.95451621074734,
            1073.4
          ],
          [
            136.93503639774303,
            35.954386216121016,
            1079.8
          ],
          [
            136.9351899636574,
            35.95425622149469,
            1082.7
          ],
          [
            136.93534352957172,
            35.95412622686836,
            1086.9
          ],
          [
            136.93549709548608,
            35.953996232242034,
            1090.8
          ],
          [
            136.93565066140042,
            35.953866237615706,
            1094.7
          ],
          [
            136.93580422731478,
            35.95373624298938,
            1096.5
          ],
          [
            136.9359577932291,
            35.95360624836305,
            1098.0
          ],
          [
            136.93611135914347,
            35.953476253736724,
            1100.4
          ],
          [
            136.9362649250578,
            35.9533462591104,
            1103.0
          ],
          [
            136.93641849097216,
            35.95321626448406,
            1106.7
          ],
          [
            136.9365720568865,
            35.953086269857735,
            1109.6
          ],
          [
            136.93672562280085,
            35.95295627523141,
            1113.0
          ],
          [
            136.93687918871518,
            35.95282628060508,
            1116.5
          ],
          [
            136.93703275462954,
            35.95269628597875,
            1120.7
          ],
          [
            136.93718632054387,
            35.952566291352426,
            1124.2
          ],
          [
            136.93733988645823,
            35.9524362967261,
            1128.2
          ],
          [
            136.93749345237256,
            35.95230630209977,
            1131.4
          ],
          [
            136.93764701828692,
            35.952176307473444,
            1135.8
          ],
          [
            136.93780058420126,
            35.952046312847116,
            1140.1
          ],
          [
            136.93795415011562,
            35.95191631822079,
            1143.6
          ],
          [
            136.93810771602995,
            35.95178632359446,
            1148.8
          ],
          [
            136.9382612819443,
            35.951656328968134,
            1155.1
          ],
          [
            136.93841484785864,
            35.95152633434181,
            1161.1
          ],
          [
            136.938568413773,
            35.95139633971548,
            1168.2
          ],
          [
            136.93872197968733,
            35.95126634508915,
            1172.2
          ],
          [
            136.9388755456017,
            35.951136350462825,
            1178.0
          ],
          [
            136.93902911151602,
            35.9510063558365,
            1181.9
          ],
          [
            136.93918267743038,
            35.95087636121017,
            1184.3
          ],
          [
            136.9393362433447,
            35.95074636658384,
            1188.2
          ],
          [
            136.93948980925907,
            35.950616371957516,
            1201.2
          ],
          [
            136.9396433751734,
            35.95048637733119,
            1208.4
          ],
          [
            136.93979694108776,
            35.950356382704854,
            1216.4
          ],
          [
            136.9399505070021,
            35.950226388078526,
            1222.3
          ],
          [
            136.94010407291645,
            35.9500963934522,
            1226.7
          ],
          [
            136.9402576388308,
            35.94996639882587,
            1228.6
          ],
          [
            136.94041120474515,
            35.949836404199544,
            1231.5
          ],
          [
            136.94056477065948,
            35.94970640957322,
            1239.0
          ],
          [
            136.94071833657384,
            35.94957641494689,
            1245.9
          ],
          [
            136.94087190248817,
            35.94944642032056,
            1252.1
          ],
          [
            136.94102546840253,
            35.949316425694235,
            1258.7
          ],
          [
            136.94117903431686,
            35.94918643106791,
            1265.6
          ],
          [
            136.94133260023122,
            35.94905643644158,
            1273.9
          ],
          [
            136.94148616614555,
            35.94892644181525,
            1276.9
          ],
          [
            136.9416397320599,
            35.948796447188926,
            1277.6
          ],
          [
            136.94179329797424,
            35.9486664525626,
            1288.9
          ],
          [
            136.9419468638886,
            35.94853645793627,
            1298.0
          ],
          [
            136.94210042980293,
            35.948406463309944,
            1303.0
          ],
          [
            136.9422539957173,
            35.948276468683616,
            1304.9
          ],
          [
            136.94240756163163,
            35.94814647405729,
            1315.3
          ],
          [
            136.94256112754599,
            35.94801647943096,
            1328.1
          ],
          [
            136.94271469346032,
            35.947886484804634,
            1338.3
          ],
          [
            136.94286825937468,
            35.94775649017831,
            1341.3
          ],
          [
            136.9428738,
            35.9477518,
            1341.3
          ]
        ]
      }
    },
    {
      "type": "Feature",
      "properties": {
        "name": "アルファクワッド",
        "horizontal_dist_map": 1349,
        "slope_dist_map": 1406,
        "elevation_diff_map": 330.4,
        "midstation": null
      },
      "geometry": {
        "type": "LineString",
        "coordinates": [
          [
            136.93556160289486,
            35.95554444667765,
            1064.4
          ],
          [
            136.93574455764337,
            35.95544265943354,
            1063.7
          ],
          [
            136.9359275123919,
            35.95534087218943,
            1066.6
          ],
          [
            136.93611046714042,
            35.95523908494532,
            1072.6
          ],
          [
            136.93629342188893,
            35.955137297701214,
            1076.9
          ],
          [
            136.93647637663747,
            35.9550355104571,
            1079.1
          ],
          [
            136.93665933138598,
            35.954933723212996,
            1080.5
          ],
          [
            136.9368422861345,
            35.95483193596888,
            1086.4
          ],
          [
            136.93702524088303,
            35.95473014872478,
            1094.1
          ],
          [
            136.93720819563154,
            35.954628361480665,
            1102.3
          ],
          [
            136.93739115038005,
            35.95452657423656,
            1108.5
          ],
          [
            136.9375741051286,
            35.95442478699245,
            1115.3
          ],
          [
            136.9377570598771,
            35.95432299974834,
            1122.2
          ],
          [
            136.9379400146256,
            35.95422121250423,
            1128.2
          ],
          [
            136.93812296937415,
            35.954119425260124,
            1132.8
          ],
          [
            136.93830592412266,
            35.95401763801601,
            1139.7
          ],
          [
            136.93848887887117,
            35.95391585077191,
            1144.9
          ],
          [
            136.9386718336197,
            35.953814063527794,
            1154.7
          ],
          [
            136.93885478836822,
            35.95371227628369,
            1164.8
          ],
          [
            136.93903774311673,
            35.953610489039576,
            1171.9
          ],
          [
            136.93922069786527,
            35.95350870179547,
            1177.3
          ],
          [
            136.93940365261378,
            35.95340691455136,
            1181.3
          ],
          [
            136.9395866073623,
            35.953305127307246,
            1184.4
          ],
          [
            136.93976956211083,
            35.95320334006314,
            1186.1
          ],
          [
            136.93995251685934,
            35.95310155281903,
            1192.2
          ],
          [
            136.94013547160785,
            35.95299976557492,
            1200.8
          ],
          [
            136.94031842635638,
            35.95289797833081,
            1206.2
          ],
          [
            136.9405013811049,
            35.952796191086705,
            1212.0
          ],
          [
            136.9406843358534,
            35.95269440384259,
            1215.2
          ],
          [
            136.94086729060194,
            35.95259261659849,
            1215.0
          ],
          [
            136.94105024535045,
            35.952490829354375,
            1214.3
          ],
          [
            136.94123320009896,
            35.95238904211027,
            1214.3
          ],
          [
            136.9414161548475,
            35.95228725486616,
            1211.4
          ],
          [
            136.941599109596,
            35.95218546762205,
            1208.6
          ],
          [
            136.94178206434452,
            35.95208368037794,
            1211.9
          ],
          [
            136.94196501909306,
            35.95198189313383,
            1217.1
          ],
          [
            136.94214797384157,
            35.95188010588972,
            1221.0
          ],
          [
            136.94233092859008,
            35.951778318645616,
            1231.4
          ],
          [
            136.94251388333862,
            35.9516765314015,
            1243.6
          ],
          [
            136.94269683808713,
            35.9515747441574,
            1254.6
          ],
          [
            136.94287979283564,
            35.951472956913285,
            1262.8
          ],
          [
            136.94306274758418,
            35.95137116966917,
            1269.8
          ],
          [
            136.9432457023327,
            35.95126938242507,
            1273.2
          ],
          [
            136.9434286570812,
            35.951167595180955,
            1277.4
          ],
          [
            136.94361161182974,
            35.95106580793685,
            1280.8
          ],
          [
            136.94379456657825,
            35.95096402069274,
            1283.1
          ],
          [
            136.94397752132676,
            35.95086223344863,
            1284.0
          ],
          [
            136.9441604760753,
            35.95076044620452,
            1284.5
          ],
          [
            136.9443434308238,
            35.950658658960414,
            1282.5
          ],
          [
            136.94452638557232,
            35.9505568717163,
            1282.3
          ],
          [
            136.94470934032083,
            35.950455084472196,
            1288.6
          ],
          [
            136.94489229506937,
            35.950353297228084,
            1293.8
          ],
          [
            136.94507524981788,
            35.95025150998398,
            1298.1
          ],
          [
            136.9452582045664,
            35.950149722739866,
            1302.2
          ],
          [
            136.94544115931492,
            35.95004793549576,
            1307.2
          ],
          [
            136.94562411406343,
            35.94994614825165,
            1310.5
          ],
          [
            136.94580706881194,
            35.94984436100754,
            1315.9
          ],
          [
            136.94599002356048,
            35.94974257376343,
            1320.3
          ],
          [
            136.946172978309,
            35.949640786519325,
            1325.2
          ],
          [
            136.9463559330575,
            35.94953899927521,
            1333.0
          ],
          [
            136.94653888780604,
            35.94943721203111,
            1343.3
          ],
          [
            136.94672184255455,
            35.949335424786995,
            1350.2
          ],
          [
            136.94690479730306,
            35.94923363754288,
            1360.1
          ],
          [
            136.9470877520516,
            35.94913185029878,
            1367.7
          ],
          [
            136.9472707068001,
            35.949030063054664,
            1374.6
          ],
          [
            136.94745366154862,
            35.94892827581056,
            1380.4
          ],
          [
            136.94763661629716,
            35.948826488566446,
            1388.4
          ],
          [
            136.94781957104567,
            35.94872470132234,
            1391.4
          ],
          [
            136.94791011778887,
            35.94867432545876,
            1394.8
          ]
        ]
      }
    }
  ]
}