{
  "type": "FeatureCollection",
  "features": [
    {
      "type": "Feature",
      "properties": {
        "name": "丸山ファミリーペア",
        "horizontal_dist_map": 363,
        "slope_dist_map": 366,
        "elevation_diff_map": 43.0
      },
      "geometry": {
        "type": "LineString",
        "coordinates": [
          [
            137.74138079748346,
            35.96482117335712,
            1118.3
          ],
          [
            137.74116213871255,
            35.96485102744477,
            1122.2
          ],
          [
            137.74094347994165,
            35.96488088153242,
            1124.0
          ],
          [
            137.74072482117074,
            35.96491073562007,
            1125.7
          ],
          [
            137.74050616239984,
            35.964940589707716,
            1127.6
          ],
          [
            137.74028750362893,
            35.964970443795366,
            1129.1
          ],
          [
            137.74006884485803,
            35.965000297883016,
            1131.1
          ],
          [
            137.73985018608712,
            35.965030151970666,
            1133.5
          ],
          [
            137.73963152731622,
            35.965060006058316,
            1136.0
          ],
          [
            137.73941286854532,
            35.965089860145966,
            1139.0
          ],
          [
            137.7391942097744,
            35.96511971423361,
            1142.0
          ],
          [
            137.7389755510035,
            35.96514956832126,
            1144.8
          ],
          [
            137.7387568922326,
            35.96517942240891,
            1147.4
          ],
          [
            137.73853823346172,
            35.96520927649656,
            1149.8
          ],
          [
            137.73831957469082,
            35.96523913058421,
            1152.8
          ],
          [
            137.73810091591992,
            35.96526898467186,
            1155.2
          ],
          [
            137.737882257149,
            35.9652988387595,
            1157.7
          ],
          [
            137.7376635983781,
            35.96532869284715,
            1159.7
          ],
          [
            137.7374449396072,
            35.9653585469348,
            1162.1
          ],
          [
            137.737405,
            35.965364,
            1161.3
          ]
        ]
      }
    },
    {
      "type": "Feature",
      "properties": {
        "name": "さつきクワッド",
        "horizontal_dist_map": 718,
        "slope_dist_map": 741,
        "elevation_diff_map": 116.7
      },
      "geometry": {
        "type": "LineString",
        "coordinates": [
          [
            137.7378451,
            35.9660731,
            1148.5
          ],
          [
            137.7376487148634,
            35.965989430966,
            1148.0
          ],
          [
            137.73745232972686,
            35.965905761931985,
            1150.6
          ],
          [
            137.7372559445903,
            35.96582209289798,
            1154.2
          ],
          [
            137.73705955945374,
            35.96573842386397,
            1156.5
          ],
          [
            137.73686317431716,
            35.96565475482996,
            1158.7
          ],
          [
            137.73666678918062,
            35.96557108579596,
            1163.2
          ],
          [
            137.73647040404404,
            35.965487416761945,
            1171.3
          ],
          [
            137.7362740189075,
            35.96540374772794,
            1180.6
          ],
          [
            137.73607763377092,
            35.965320078693935,
            1187.3
          ],
          [
            137.73588124863437,
            35.96523640965992,
            1191.5
          ],
          [
            137.7356848634978,
            35.96515274062592,
            1196.3
          ],
          [
            137.73548847836125,
            35.965069071591905,
            1198.3
          ],
          [
            137.73529209322467,
            35.9649854025579,
            1199.6
          ],
          [
            137.73509570808812,
            35.964901733523895,
            1204.5
          ],
          [
            137.73489932295155,
            35.96481806448988,
            1214.0
          ],
          [
            137.734702937815,
            35.96473439545588,
            1222.7
          ],
          [
            137.73450655267843,
            35.964650726421866,
            1230.3
          ],
          [
            137.73431016754188,
            35.96456705738786,
            1237.1
          ],
          [
            137.7341137824053,
            35.964483388353855,
            1250.8
          ],
          [
            137.73391739726873,
            35.96439971931984,
            1258.5
          ],
          [
            137.73372101213218,
            35.96431605028584,
            1263.0
          ],
          [
            137.7335246269956,
            35.96423238125183,
            1264.9
          ],
          [
            137.73332824185906,
            35.96414871221782,
            1266.6
          ],
          [
            137.73313185672248,
            35.964065043183815,
            1267.8
          ],
          [
            137.73293547158593,
            35.9639813741498,
            1266.9
          ],
          [
            137.73273908644936,
            35.9638977051158,
            1265.4
          ],
          [
            137.7325427013128,
            35.96381403608179,
            1259.6
          ],
          [
            137.73234631617623,
            35.96373036704778,
            1256.3
          ],
          [
            137.7321499310397,
            35.963646698013775,
            1255.2
          ],
          [
            137.7319535459031,
            35.96356302897976,
            1257.1
          ],
          [
            137.73175716076656,
            35.96347935994576,
            1259.7
          ],
          [
            137.73156077563,
            35.96339569091175,
            1257.1
          ],
          [
            137.73136439049344,
            35.96331202187774,
            1258.4
          ],
          [
            137.73116800535686,
            35.963228352843736,
            1260.6
          ],
          [
            137.73097162022032,
            35.96314468380973,
            1261.4
          ],
          [
            137.7307921,
            35.9630682,
            1265.2
          ]
        ]
      }
    },
    {
      "type": "Feature",
      "properties": {
        "name": "国設第3ペア",
        "horizontal_dist_map": 362,
        "slope_dist_map": 387,
        "elevation_diff_map": 129.7
      },
      "geometry": {
        "type": "LineString",
        "coordinates": [
          [
            137.72425159152178,
            35.95258118115649,
            1551.6
          ],
          [
            137.72423783663228,
            35.952401280231,
            1553.7
          ],
          [
            137.7242240817428,
            35.95222137930551,
            1558.5
          ],
          [
            137.7242103268533,
            35.95204147838002,
            1563.1
          ],
          [
            137.7241965719638,
            35.95186157745453,
            1565.4
          ],
          [
            137.7241828170743,
            35.95168167652904,
            1571.7
          ],
          [
            137.7241690621848,
            35.95150177560355,
            1583.4
          ],
          [
            137.72415530729532,
            35.951321874678065,
            1593.1
          ],
          [
            137.72414155240583,
            35.95114197375257,
            1602.0
          ],
          [
            137.72412779751633,
            35.95096207282708,
            1613.5
          ],
          [
            137.7241140426268,
            35.950782171901594,
            1623.2
          ],
          [
            137.72410028773731,
            35.950602270976106,
            1630.3
          ],
          [
            137.72408653284782,
            35.95042237005062,
            1637.2
          ],
          [
            137.72407277795833,
            35.95024246912512,
            1643.2
          ],
          [
            137.72405902306883,
            35.950062568199634,
            1650.1
          ],
          [
            137.72404526817934,
            35.949882667274146,
            1656.2
          ],
          [
            137.72403151328984,
            35.94970276634866,
            1663.5
          ],
          [
            137.72401775840035,
            35.94952286542317,
            1671.8
          ],
          [
            137.72400400351086,
            35.94934296449768,
            1681.3
          ],
          [
            137.7240025,
            35.9493233,
            1681.3
          ]
        ]
      }
    },
    {
      "type": "Feature",
      "properties": {
        "name": "国設第2ペア",
        "horizontal_dist_map": 579,
        "slope_dist_map": 612,
        "elevation_diff_map": 184.3
      },
      "geometry": {
        "type": "LineString",
        "coordinates": [
          [
            137.7247435752238,
            35.95794115293105,
            1372.9
          ],
          [
            137.72469380283349,
            35.95776550621857,
            1375.1
          ],
          [
            137.72464403044316,
            35.95758985950609,
            1380.5
          ],
          [
            137.72459425805283,
            35.957414212793616,
            1383.8
          ],
          [
            137.7245444856625,
            35.95723856608114,
            1386.6
          ],
          [
            137.72449471327218,
            35.95706291936866,
            1390.8
          ],
          [
            137.72444494088188,
            35.95688727265618,
            1396.0
          ],
          [
            137.72439516849155,
            35.956711625943704,
            1399.8
          ],
          [
            137.72434539610123,
            35.95653597923123,
            1402.6
          ],
          [
            137.7242956237109,
            35.95636033251875,
            1407.2
          ],
          [
            137.72424585132057,
            35.95618468580627,
            1412.1
          ],
          [
            137.72419607893025,
            35.9560090390938,
            1416.3
          ],
          [
            137.72414630653992,
            35.95583339238132,
            1422.8
          ],
          [
            137.7240965341496,
            35.955657745668844,
            1432.0
          ],
          [
            137.72404676175927,
            35.95548209895637,
            1444.9
          ],
          [
            137.72399698936894,
            35.95530645224389,
            1454.8
          ],
          [
            137.72394721697862,
            35.95513080553141,
            1459.8
          ],
          [
            137.72389744458832,
            35.95495515881893,
            1467.0
          ],
          [
            137.723847672198,
            35.954779512106455,
            1474.4
          ],
          [
            137.72379789980766,
            35.95460386539398,
            1482.5
          ],
          [
            137.72374812741734,
            35.9544282186815,
            1494.0
          ],
          [
            137.723698355027,
            35.95425257196902,
            1504.2
          ],
          [
            137.72364858263668,
            35.954076925256544,
            1513.4
          ],
          [
            137.72359881024636,
            35.953901278544066,
            1522.5
          ],
          [
            137.72354903785603,
            35.95372563183159,
            1533.3
          ],
          [
            137.7234992654657,
            35.95354998511911,
            1540.0
          ],
          [
            137.72344949307538,
            35.95337433840663,
            1544.8
          ],
          [
            137.72339972068505,
            35.953198691694155,
            1548.6
          ],
          [
            137.72334994829475,
            35.95302304498168,
            1552.9
          ],
          [
            137.7233025,
            35.9528556,
            1557.2
          ]
        ]
      }
    },
    {
      "type": "Feature",
      "properties": {
        "name": "やぶはら中央ペア",
        "horizontal_dist_map": 731,
        "slope_dist_map": 789,
        "elevation_diff_map": 260.2
      },
      "geometry": {
        "type": "LineString",
        "coordinates": [
          [
            137.73002182157362,
            35.963257733869646,
            1251.3
          ],
          [
            137.73001663897557,
            35.96307753516098,
            1256.5
          ],
          [
            137.73001145637753,
            35.9628973364523,
            1260.4
          ],
          [
            137.73000627377948,
            35.96271713774363,
            1264.0
          ],
          [
            137.73000109118144,
            35.962536939034955,
            1269.7
          ],
          [
            137.7299959085834,
            35.962356740326285,
            1281.8
          ],
          [
            137.72999072598535,
            35.96217654161761,
            1294.2
          ],
          [
            137.7299855433873,
            35.96199634290894,
            1307.4
          ],
          [
            137.72998036078926,
            35.96181614420026,
            1318.5
          ],
          [
            137.7299751781912,
            35.961635945491594,
            1325.0
          ],
          [
            137.72996999559317,
            35.96145574678292,
            1327.7
          ],
          [
            137.72996481299512,
            35.96127554807425,
            1330.8
          ],
          [
            137.72995963039708,
            35.96109534936557,
            1336.9
          ],
          [
            137.72995444779903,
            35.9609151506569,
            1355.9
          ],
          [
            137.729949265201,
            35.96073495194823,
            1364.6
          ],
          [
            137.72994408260294,
            35.960554753239556,
            1372.6
          ],
          [
            137.7299389000049,
            35.96037455453089,
            1379.4
          ],
          [
            137.72993371740685,
            35.96019435582221,
            1389.1
          ],
          [
            137.7299285348088,
            35.96001415711354,
            1406.1
          ],
          [
            137.72992335221076,
            35.959833958404865,
            1418.3
          ],
          [
            137.72991816961272,
            35.959653759696195,
            1430.0
          ],
          [
            137.72991298701467,
            35.95947356098752,
            1433.3
          ],
          [
            137.72990780441663,
            35.95929336227885,
            1432.9
          ],
          [
            137.72990262181858,
            35.95911316357017,
            1436.6
          ],
          [
            137.72989743922054,
            35.9589329648615,
            1444.8
          ],
          [
            137.7298922566225,
            35.95875276615283,
            1449.9
          ],
          [
            137.72988707402445,
            35.95857256744416,
            1454.9
          ],
          [
            137.7298818914264,
            35.95839236873549,
            1460.2
          ],
          [
            137.72987670882836,
            35.95821217002681,
            1464.0
          ],
          [
            137.7298715262303,
            35.95803197131814,
            1472.7
          ],
          [
            137.72986634363227,
            35.957851772609466,
            1478.9
          ],
          [
            137.72986116103422,
            35.9576715739008,
            1480.3
          ],
          [
            137.72985597843618,
            35.95749137519212,
            1483.0
          ],
          [
            137.72985079583813,
            35.95731117648345,
            1485.6
          ],
          [
            137.7298456132401,
            35.957130977774774,
            1491.6
          ],
          [
            137.72984043064204,
            35.956950779066105,
            1498.6
          ],
          [
            137.729835248044,
            35.95677058035743,
            1506.8
          ],
          [
            137.7298322,
            35.9566646,
            1511.5
          ]
        ]
      }
    },
    {
      "type": "Feature",
      "properties": {
        "name": "国設第1ペア",
        "horizontal_dist_map": 579,
        "slope_dist_map": 594,
        "elevation_diff_map": 121.9
      },
      "geometry": {
        "type": "LineString",
        "coordinates": [
          [
            137.7289002,
            35.9630777,
            1253.7
          ],
          [
            137.72878039150797,
            35.9629260362113,
            1256.6
          ],
          [
            137.72866058301594,
            35.962774372422594,
            1263.0
          ],
          [
            137.7285407745239,
            35.962622708633894,
            1266.5
          ],
          [
            137.72842096603188,
            35.962471044845195,
            1270.4
          ],
          [
            137.72830115753985,
            35.962319381056496,
            1272.9
          ],
          [
            137.72818134904784,
            35.96216771726779,
            1276.9
          ],
          [
            137.7280615405558,
            35.96201605347909,
            1280.3
          ],
          [
            137.72794173206378,
            35.96186438969039,
            1284.2
          ],
          [
            137.72782192357175,
            35.961712725901684,
            1289.6
          ],
          [
            137.72770211507972,
            35.961561062112985,
            1294.3
          ],
          [
            137.7275823065877,
            35.961409398324285,
            1299.1
          ],
          [
            137.72746249809566,
            35.96125773453558,
            1305.0
          ],
          [
            137.72734268960363,
            35.96110607074688,
            1308.6
          ],
          [
            137.7272228811116,
            35.96095440695818,
            1311.5
          ],
          [
            137.72710307261957,
            35.96080274316948,
            1315.8
          ],
          [
            137.72698326412754,
            35.960651079380774,
            1320.6
          ],
          [
            137.7268634556355,
            35.960499415592075,
            1325.5
          ],
          [
            137.7267436471435,
            35.960347751803376,
            1327.5
          ],
          [
            137.72662383865148,
            35.96019608801467,
            1328.1
          ],
          [
            137.72650403015945,
            35.96004442422597,
            1334.3
          ],
          [
            137.72638422166742,
            35.95989276043727,
            1337.2
          ],
          [
            137.7262644131754,
            35.959741096648564,
            1341.5
          ],
          [
            137.72614460468336,
            35.959589432859865,
            1347.9
          ],
          [
            137.72602479619133,
            35.959437769071165,
            1352.2
          ],
          [
            137.7259049876993,
            35.959286105282466,
            1354.7
          ],
          [
            137.72578517920726,
            35.95913444149376,
            1356.0
          ],
          [
            137.72566537071523,
            35.95898277770506,
            1360.1
          ],
          [
            137.7255455622232,
            35.95883111391636,
            1370.3
          ],
          [
            137.7254284,
            35.9586828,
            1375.6
          ]
        ]
      }
    }
  ]
}