{
  "type": "FeatureCollection",
  "features": [
    {
      "type": "Feature",
      "geometry": {
        "type": "LineString",
        "coordinates": [
          [
            136.8034428,
            35.9656785,
            874.7
          ],
          [
            136.80358453820403,
            35.965817118045955,
            871.8
          ],
          [
            136.80372627640804,
            35.9659557360919,
            874.8
          ],
          [
            136.80386801461208,
            35.96609435413785,
            878.7
          ],
          [
            136.80400975281609,
            35.9662329721838,
            882.3
          ],
          [
            136.80415149102012,
            35.96637159022975,
            887.3
          ],
          [
            136.80429322922413,
            35.9665102082757,
            894.3
          ],
          [
            136.80443496742816,
            35.96664882632165,
            900.1
          ],
          [
            136.8045767056322,
            35.9667874443676,
            905.6
          ],
          [
            136.8047184438362,
            35.96692606241355,
            910.8
          ],
          [
            136.80486018204024,
            35.9670646804595,
            917.4
          ],
          [
            136.80500192024425,
            35.967203298505446,
            923.5
          ],
          [
            136.8051436584483,
            35.9673419165514,
            929.9
          ],
          [
            136.8052853966523,
            35.96748053459735,
            933.7
          ],
          [
            136.80542713485633,
            35.967619152643294,
            933.7
          ],
          [
            136.80556887306037,
            35.967757770689246,
            936.7
          ],
          [
            136.80571061126437,
            35.9678963887352,
            940.5
          ],
          [
            136.8058523494684,
            35.96803500678114,
            938.7
          ],
          [
            136.80599408767242,
            35.968173624827095,
            940.4
          ],
          [
            136.80613582587645,
            35.96831224287305,
            945.4
          ],
          [
            136.80627756408046,
            35.96845086091899,
            943.6
          ],
          [
            136.8064193022845,
            35.968589478964944,
            948.6
          ],
          [
            136.80656104048853,
            35.968728097010896,
            953.2
          ],
          [
            136.80670277869254,
            35.96886671505684,
            959.9
          ],
          [
            136.80684451689658,
            35.96900533310279,
            960.3
          ],
          [
            136.80698625510058,
            35.969143951148745,
            965.9
          ],
          [
            136.80712799330462,
            35.96928256919469,
            972.4
          ],
          [
            136.80726973150863,
            35.96942118724064,
            978.9
          ],
          [
            136.80741146971266,
            35.96955980528659,
            980.9
          ],
          [
            136.8075532079167,
            35.96969842333254,
            986.0
          ],
          [
            136.8076949461207,
            35.96983704137849,
            990.2
          ],
          [
            136.80783668432474,
            35.96997565942444,
            994.7
          ],
          [
            136.80797842252875,
            35.97011427747039,
            999.9
          ],
          [
            136.80812016073278,
            35.97025289551634,
            1006.1
          ],
          [
            136.8082618989368,
            35.97039151356229,
            1012.5
          ],
          [
            136.80840363714083,
            35.970530131608236,
            1017.2
          ],
          [
            136.80854537534486,
            35.97066874965419,
            1018.9
          ],
          [
            136.80868711354887,
            35.97080736770014,
            1022.3
          ],
          [
            136.8088288517529,
            35.97094598574609,
            1026.0
          ],
          [
            136.8089705899569,
            35.971084603792036,
            1027.4
          ],
          [
            136.80911232816095,
            35.97122322183799,
            1030.7
          ],
          [
            136.80925406636496,
            35.97136183988394,
            1033.4
          ],
          [
            136.809395804569,
            35.971500457929885,
            1032.1
          ],
          [
            136.809537542773,
            35.97163907597584,
            1035.8
          ],
          [
            136.80967928097704,
            35.97177769402179,
            1036.6
          ],
          [
            136.80982101918107,
            35.971916312067734,
            1040.3
          ],
          [
            136.80996275738508,
            35.972054930113686,
            1041.4
          ],
          [
            136.81010449558912,
            35.97219354815964,
            1043.6
          ],
          [
            136.81024623379312,
            35.97233216620558,
            1046.0
          ],
          [
            136.81038797199716,
            35.972470784251534,
            1051.3
          ],
          [
            136.81052971020117,
            35.972609402297486,
            1056.8
          ],
          [
            136.8106714484052,
            35.97274802034343,
            1061.1
          ],
          [
            136.81081318660924,
            35.97288663838938,
            1066.2
          ],
          [
            136.81095492481325,
            35.973025256435335,
            1070.2
          ],
          [
            136.81109666301728,
            35.97316387448128,
            1075.0
          ],
          [
            136.8112384012213,
            35.97330249252723,
            1075.5
          ],
          [
            136.81138013942532,
            35.973441110573184,
            1078.1
          ],
          [
            136.81152187762933,
            35.97357972861913,
            1082.1
          ],
          [
            136.81166361583337,
            35.97371834666508,
            1085.2
          ],
          [
            136.8118053540374,
            35.97385696471103,
            1091.5
          ],
          [
            136.8119470922414,
            35.97399558275698,
            1093.2
          ],
          [
            136.81208883044545,
            35.97413420080293,
            1094.3
          ],
          [
            136.81223056864945,
            35.97427281884888,
            1093.5
          ],
          [
            136.8123723068535,
            35.974411436894826,
            1098.2
          ],
          [
            136.8125140450575,
            35.97455005494078,
            1105.6
          ],
          [
            136.81265578326153,
            35.97468867298673,
            1110.3
          ],
          [
            136.81279752146557,
            35.974827291032675,
            1111.6
          ],
          [
            136.81293925966958,
            35.97496590907863,
            1111.0
          ],
          [
            136.8130809978736,
            35.97510452712458,
            1110.8
          ],
          [
            136.81322273607762,
            35.97524314517052,
            1114.3
          ],
          [
            136.81336447428166,
            35.975381763216475,
            1118.0
          ],
          [
            136.81350621248566,
            35.97552038126243,
            1122.4
          ],
          [
            136.8136479506897,
            35.97565899930837,
            1126.0
          ],
          [
            136.81378968889373,
            35.975797617354324,
            1129.5
          ],
          [
            136.81393142709774,
            35.975936235400276,
            1132.2
          ],
          [
            136.81407316530178,
            35.97607485344622,
            1135.5
          ],
          [
            136.81421490350579,
            35.97621347149217,
            1137.7
          ],
          [
            136.81435664170982,
            35.976352089538125,
            1140.8
          ],
          [
            136.81449837991383,
            35.97649070758407,
            1143.7
          ],
          [
            136.81464011811786,
            35.97662932563002,
            1148.4
          ],
          [
            136.8147818563219,
            35.97676794367597,
            1151.3
          ],
          [
            136.8149235945259,
            35.97690656172192,
            1156.9
          ],
          [
            136.81506533272994,
            35.97704517976787,
            1160.9
          ],
          [
            136.81520707093395,
            35.97718379781382,
            1164.3
          ],
          [
            136.815348809138,
            35.97732241585977,
            1167.2
          ],
          [
            136.815490547342,
            35.97746103390572,
            1170.8
          ],
          [
            136.81563228554603,
            35.97759965195167,
            1175.7
          ],
          [
            136.81577402375007,
            35.977738269997616,
            1178.6
          ],
          [
            136.81591576195407,
            35.97787688804357,
            1185.9
          ],
          [
            136.8160575001581,
            35.97801550608952,
            1192.9
          ],
          [
            136.81619923836212,
            35.978154124135465,
            1200.9
          ],
          [
            136.81634097656615,
            35.97829274218142,
            1208.3
          ],
          [
            136.81648271477016,
            35.97843136022737,
            1215.8
          ],
          [
            136.8166244529742,
            35.97856997827331,
            1219.1
          ],
          [
            136.81676619117823,
            35.978708596319265,
            1222.0
          ],
          [
            136.81690792938224,
            35.97884721436522,
            1228.7
          ],
          [
            136.81704966758628,
            35.97898583241116,
            1236.8
          ],
          [
            136.81719140579028,
            35.979124450457114,
            1243.8
          ],
          [
            136.81733314399432,
            35.979263068503066,
            1245.6
          ],
          [
            136.81747488219833,
            35.97940168654901,
            1246.3
          ],
          [
            136.81761662040236,
            35.97954030459496,
            1253.0
          ],
          [
            136.8177583586064,
            35.979678922640915,
            1262.3
          ],
          [
            136.8179000968104,
            35.97981754068686,
            1269.1
          ],
          [
            136.81804183501444,
            35.97995615873281,
            1277.5
          ],
          [
            136.81818357321845,
            35.98009477677876,
            1286.5
          ],
          [
            136.81832531142248,
            35.98023339482471,
            1297.8
          ],
          [
            136.8184670496265,
            35.98037201287066,
            1307.4
          ],
          [
            136.81860878783053,
            35.98051063091661,
            1317.6
          ],
          [
            136.81875052603456,
            35.98064924896256,
            1328.4
          ],
          [
            136.81889226423857,
            35.98078786700851,
            1334.4
          ],
          [
            136.81895185957538,
            35.980846150441636,
            1335.7
          ]
        ]
      },
      "properties": {
        "name": "ゴンドラ",
        "horizontal_dist_map": 2188,
        "slope_dist_map": 2254,
        "elevation_diff_map": 461.0,
        "midstation": null,
        "resort": "winghills-shirotori-resort",
        "speed": "高速",
        "type": "ゴンドラ",
        "hood": "○",
        "capacity": 6,
        "distance": 2257,
        "vertical": 464,
        "top": "",
        "bottom": "",
        "footrest": "×",
        "towers": 21,
        "oilShield": "×",
        "night": "×",
        "signal": "",
        "maker": "日本ケーブル",
        "year": 1990,
        "note": "",
        "searchWord": "ウイングヒルズ白鳥　ゴンドラ",
        "status": "×",
        "update": null,
        "latest_note": "※今シーズンの営業は終了いたしました。"
      }
    },
    {
      "type": "Feature",
      "geometry": {
        "type": "LineString",
        "coordinates": [
          [
            136.802806781461,
            35.9666039392045,
            874.5
          ],
          [
            136.80292244235036,
            35.96675772272323,
            873.8
          ],
          [
            136.80303810323971,
            35.96691150624196,
            875.5
          ],
          [
            136.8031537641291,
            35.9670652897607,
            879.1
          ],
          [
            136.80326942501844,
            35.96721907327943,
            883.9
          ],
          [
            136.80338508590782,
            35.96737285679816,
            888.2
          ],
          [
            136.8035007467972,
            35.96752664031689,
            892.8
          ],
          [
            136.80361640768655,
            35.967680423835624,
            896.7
          ],
          [
            136.80373206857593,
            35.96783420735436,
            901.3
          ],
          [
            136.80384772946528,
            35.96798799087309,
            905.0
          ],
          [
            136.80396339035465,
            35.968141774391825,
            909.5
          ],
          [
            136.804079051244,
            35.96829555791056,
            912.9
          ],
          [
            136.80419471213338,
            35.96844934142929,
            916.5
          ],
          [
            136.80431037302276,
            35.96860312494802,
            922.5
          ],
          [
            136.8044260339121,
            35.96875690846675,
            925.3
          ],
          [
            136.8045416948015,
            35.968910691985485,
            930.4
          ],
          [
            136.80465735569084,
            35.96906447550422,
            938.2
          ],
          [
            136.8047730165802,
            35.96921825902295,
            944.3
          ],
          [
            136.8048886774696,
            35.969372042541686,
            949.2
          ],
          [
            136.80500433835894,
            35.96952582606042,
            953.0
          ],
          [
            136.80511999924832,
            35.96967960957915,
            957.4
          ],
          [
            136.80523566013767,
            35.969833393097886,
            959.5
          ],
          [
            136.80535132102705,
            35.96998717661661,
            962.7
          ],
          [
            136.80546698191642,
            35.970140960135346,
            966.3
          ],
          [
            136.80558264280577,
            35.97029474365408,
            969.5
          ],
          [
            136.80569830369515,
            35.97044852717281,
            972.7
          ],
          [
            136.8058139645845,
            35.97060231069155,
            976.1
          ],
          [
            136.80592962547388,
            35.97075609421028,
            980.6
          ],
          [
            136.80604528636326,
            35.970909877729014,
            985.5
          ],
          [
            136.8061609472526,
            35.97106366124775,
            990.6
          ],
          [
            136.80627660814199,
            35.971217444766474,
            994.8
          ],
          [
            136.80639226903133,
            35.97137122828521,
            998.8
          ],
          [
            136.8065079299207,
            35.97152501180394,
            1002.8
          ],
          [
            136.80662359081006,
            35.971678795322674,
            1004.5
          ],
          [
            136.80673925169944,
            35.97183257884141,
            1008.5
          ],
          [
            136.80685491258882,
            35.97198636236014,
            1011.5
          ],
          [
            136.80697057347817,
            35.972140145878875,
            1016.6
          ],
          [
            136.80708623436755,
            35.97229392939761,
            1020.7
          ],
          [
            136.8072018952569,
            35.97244771291634,
            1025.1
          ],
          [
            136.80731755614627,
            35.97260149643507,
            1031.3
          ],
          [
            136.80743321703565,
            35.9727552799538,
            1036.1
          ],
          [
            136.807548877925,
            35.972909063472535,
            1042.0
          ],
          [
            136.80766453881438,
            35.97306284699127,
            1046.7
          ],
          [
            136.80778019970373,
            35.97321663051,
            1051.8
          ],
          [
            136.80786497185935,
            35.973329344154614,
            1056.3
          ]
        ]
      },
      "properties": {
        "name": "第1クワッド",
        "horizontal_dist_map": 874,
        "slope_dist_map": 895,
        "elevation_diff_map": 181.8,
        "midstation": null,
        "resort": "winghills-shirotori-resort",
        "speed": "高速",
        "type": "リフト",
        "hood": "×",
        "capacity": 4,
        "distance": 898,
        "vertical": 182,
        "top": "",
        "bottom": "",
        "footrest": "×",
        "towers": 16,
        "oilShield": "×",
        "night": "○",
        "signal": "",
        "maker": "日本ケーブル",
        "year": 1990,
        "note": "",
        "searchWord": "ウイングヒルズ白鳥　第1クワッド",
        "status": "×",
        "update": null,
        "latest_note": "※今シーズンの営業は終了いたしました。"
      }
    },
    {
      "type": "Feature",
      "geometry": {
        "type": "LineString",
        "coordinates": [
          [
            136.80592551199342,
            35.968556420382285,
            937.9
          ],
          [
            136.80603719207974,
            35.96871213822541,
            937.1
          ],
          [
            136.80614887216603,
            35.968867856068535,
            942.2
          ],
          [
            136.80626055225235,
            35.96902357391166,
            947.3
          ],
          [
            136.80637223233865,
            35.969179291754784,
            950.8
          ],
          [
            136.80648391242497,
            35.96933500959791,
            954.6
          ],
          [
            136.80659559251126,
            35.969490727441034,
            957.7
          ],
          [
            136.80670727259758,
            35.96964644528416,
            961.3
          ],
          [
            136.8068189526839,
            35.969802163127284,
            964.2
          ],
          [
            136.8069306327702,
            35.96995788097041,
            968.7
          ],
          [
            136.8070423128565,
            35.97011359881353,
            975.4
          ],
          [
            136.8071539929428,
            35.97026931665666,
            980.6
          ],
          [
            136.80726567302912,
            35.97042503449978,
            988.2
          ],
          [
            136.8073773531154,
            35.97058075234291,
            994.1
          ],
          [
            136.80748903320173,
            35.97073647018603,
            1001.2
          ],
          [
            136.80760071328805,
            35.97089218802916,
            1002.6
          ],
          [
            136.80771239337435,
            35.97104790587229,
            1005.7
          ],
          [
            136.80782407346067,
            35.97120362371541,
            1014.0
          ],
          [
            136.80793575354696,
            35.97135934155854,
            1018.8
          ],
          [
            136.80804743363328,
            35.97151505940166,
            1019.3
          ],
          [
            136.80815911371957,
            35.97167077724479,
            1024.1
          ],
          [
            136.8082707938059,
            35.97182649508791,
            1025.7
          ],
          [
            136.8083824738922,
            35.97198221293104,
            1030.3
          ],
          [
            136.8084941539785,
            35.97213793077416,
            1033.1
          ],
          [
            136.80860583406482,
            35.97229364861729,
            1042.1
          ],
          [
            136.8087175141511,
            35.97244936646041,
            1048.5
          ],
          [
            136.80882919423743,
            35.97260508430354,
            1054.3
          ],
          [
            136.80894087432372,
            35.97276080214666,
            1060.8
          ],
          [
            136.80905255441004,
            35.97291651998979,
            1067.5
          ],
          [
            136.80916423449634,
            35.97307223783291,
            1072.7
          ],
          [
            136.80927591458266,
            35.97322795567604,
            1079.6
          ],
          [
            136.80938759466898,
            35.973383673519166,
            1085.0
          ],
          [
            136.80949927475527,
            35.97353939136229,
            1088.6
          ],
          [
            136.8096109548416,
            35.973695109205416,
            1089.9
          ],
          [
            136.80972263492788,
            35.97385082704854,
            1095.4
          ],
          [
            136.8098343150142,
            35.974006544891665,
            1100.0
          ],
          [
            136.8099459951005,
            35.97416226273479,
            1107.9
          ],
          [
            136.8100576751868,
            35.974317980577915,
            1115.8
          ],
          [
            136.81016935527313,
            35.974473698421036,
            1126.3
          ],
          [
            136.81028103535942,
            35.974629416264165,
            1133.3
          ],
          [
            136.81039271544574,
            35.974785134107286,
            1141.5
          ],
          [
            136.81050439553204,
            35.974940851950414,
            1147.6
          ],
          [
            136.81061607561836,
            35.975096569793536,
            1154.9
          ],
          [
            136.81072775570465,
            35.975252287636664,
            1159.4
          ],
          [
            136.81083943579097,
            35.975408005479785,
            1162.7
          ],
          [
            136.8109511158773,
            35.975563723322914,
            1164.2
          ],
          [
            136.81106279596358,
            35.97571944116604,
            1167.0
          ],
          [
            136.8111744760499,
            35.97587515900916,
            1167.5
          ],
          [
            136.8112861561362,
            35.97603087685229,
            1173.7
          ],
          [
            136.8113978362225,
            35.97618659469541,
            1175.5
          ],
          [
            136.8115095163088,
            35.97634231253854,
            1174.0
          ],
          [
            136.81162119639512,
            35.97649803038166,
            1178.9
          ],
          [
            136.81173287648144,
            35.97665374822479,
            1188.1
          ],
          [
            136.81184455656773,
            35.97680946606791,
            1194.1
          ],
          [
            136.81195623665405,
            35.97696518391104,
            1196.6
          ],
          [
            136.81206791674035,
            35.97712090175416,
            1194.5
          ],
          [
            136.81217959682667,
            35.97727661959729,
            1199.7
          ],
          [
            136.81229127691296,
            35.97743233744041,
            1203.8
          ],
          [
            136.81240295699928,
            35.97758805528354,
            1211.5
          ],
          [
            136.8125146370856,
            35.97774377312666,
            1218.1
          ],
          [
            136.81261414177584,
            35.977882514564456,
            1224.7
          ]
        ]
      },
      "properties": {
        "name": "第2クワッド",
        "horizontal_dist_map": 1197,
        "slope_dist_map": 1241,
        "elevation_diff_map": 286.8,
        "midstation": null,
        "resort": "winghills-shirotori-resort",
        "speed": "高速",
        "type": "リフト",
        "hood": "×",
        "capacity": 4,
        "distance": 1241,
        "vertical": "",
        "top": "",
        "bottom": "",
        "footrest": "×",
        "towers": 20,
        "oilShield": "×",
        "night": "×",
        "signal": "",
        "maker": "日本ケーブル",
        "year": 1997,
        "note": "",
        "searchWord": "ウイングヒルズ白鳥　第2クワッド",
        "status": "×",
        "update": null,
        "latest_note": "※今シーズンの営業は終了いたしました。"
      }
    },
    {
      "type": "Feature",
      "geometry": {
        "type": "LineString",
        "coordinates": [
          [
            136.8079995,
            35.9718907,
            1020.9
          ],
          [
            136.80808545472152,
            35.972056855167764,
            1021.3
          ],
          [
            136.80817140944308,
            35.972223010335526,
            1026.9
          ],
          [
            136.8082573641646,
            35.97238916550329,
            1032.5
          ],
          [
            136.80834331888616,
            35.97255532067105,
            1037.1
          ],
          [
            136.8084292736077,
            35.97272147583882,
            1044.1
          ],
          [
            136.80851522832924,
            35.97288763100658,
            1051.1
          ],
          [
            136.80860118305077,
            35.97305378617434,
            1052.9
          ],
          [
            136.80868713777232,
            35.9732199413421,
            1057.3
          ],
          [
            136.80877309249385,
            35.97338609650986,
            1062.8
          ],
          [
            136.8088590472154,
            35.973552251677624,
            1071.2
          ],
          [
            136.80894500193693,
            35.973718406845386,
            1082.1
          ],
          [
            136.80903095665846,
            35.97388456201315,
            1090.6
          ],
          [
            136.80911691138002,
            35.974050717180916,
            1098.7
          ],
          [
            136.80920286610154,
            35.97421687234868,
            1108.6
          ],
          [
            136.8092888208231,
            35.97438302751644,
            1119.8
          ],
          [
            136.80937477554463,
            35.9745491826842,
            1129.9
          ],
          [
            136.80946073026618,
            35.97471533785196,
            1139.1
          ],
          [
            136.8095466849877,
            35.97488149301972,
            1144.0
          ],
          [
            136.80963263970926,
            35.975047648187484,
            1148.0
          ],
          [
            136.8097185944308,
            35.975213803355246,
            1151.2
          ],
          [
            136.80980454915235,
            35.97537995852301,
            1157.6
          ],
          [
            136.80989050387387,
            35.975546113690775,
            1163.2
          ],
          [
            136.80997645859543,
            35.97571226885854,
            1166.2
          ],
          [
            136.81006241331696,
            35.9758784240263,
            1175.5
          ],
          [
            136.81014836803848,
            35.97604457919406,
            1182.3
          ],
          [
            136.81023432276004,
            35.97621073436182,
            1187.5
          ],
          [
            136.8102954,
            35.9763288,
            1190.7
          ]
        ]
      },
      "properties": {
        "name": "ペア",
        "horizontal_dist_map": 534,
        "slope_dist_map": 564,
        "elevation_diff_map": 169.8,
        "midstation": null,
        "resort": "winghills-shirotori-resort",
        "speed": "低速",
        "type": "リフト",
        "hood": "×",
        "capacity": 2,
        "distance": 562,
        "vertical": "",
        "top": "",
        "bottom": "",
        "footrest": "×",
        "towers": "",
        "oilShield": "×",
        "night": "×",
        "signal": "",
        "maker": "日本ケーブル",
        "year": 1993,
        "note": "",
        "searchWord": "ウイングヒルズ白鳥　ペア",
        "status": "×",
        "update": null,
        "latest_note": "今シーズンの営業予定はありません。"
      }
    }
  ]
}